HIERARCHY
ROOT Hips
{
  OFFSET 0.000000 0.000000 0.000000
  CHANNELS 6 Xposition Yposition Zposition Xrotation Yrotation Zrotation
  JOINT Spine
  {
    OFFSET 1.153752 24.040563 -4.909010
    CHANNELS 3 Xrotation Yrotation Zrotation
    JOINT Chest
    {
      OFFSET 1.153752 24.040563 -4.909010
      CHANNELS 3 Xrotation Yrotation Zrotation
      JOINT Neck
      {
        OFFSET 0.000000 4.932851 0.000000
        CHANNELS 3 Xrotation Yrotation Zrotation
        JOINT Head
        {
          OFFSET 0.000000 5.437762 0.000000
          CHANNELS 3 Xrotation Yrotation Zrotation
          End Site
          {
            OFFSET 0.000000 1.631329 0.000000
          }
        }
      }
      JOINT LeftCollar
      {
        OFFSET 3.000000 4.000000 0.000000
        CHANNELS 3 Xrotation Yrotation Zrotation
        JOINT LeftShoulder
        {
          OFFSET 16.168012 -6.279607 -4.266810
          CHANNELS 3 Xrotation Yrotation Zrotation
          JOINT LeftArm
          {
            OFFSET 6.545061 -21.632230 2.960170
            CHANNELS 3 Xrotation Yrotation Zrotation
            JOINT LeftForeArm
            {
              OFFSET 1.498368 -23.182161 2.338304
              CHANNELS 3 Xrotation Yrotation Zrotation
              JOINT LeftHand
              {
                OFFSET -1.465154 -3.436964 -0.741780
                CHANNELS 3 Xrotation Yrotation Zrotation
                End Site
                {
                  OFFSET -0.439546 -1.031089 -0.222534
                }
              }
            }
          }
        }
      }
      JOINT RightCollar
      {
        OFFSET -3.000000 4.000000 0.000000
        CHANNELS 3 Xrotation Yrotation Zrotation
        JOINT RightShoulder
        {
          OFFSET -16.168012 6.279607 4.266810
          CHANNELS 3 Xrotation Yrotation Zrotation
          JOINT RightArm
          {
            OFFSET -21.602294 -8.789214 -2.250702
            CHANNELS 3 Xrotation Yrotation Zrotation
            JOINT RightForeArm
            {
              OFFSET -22.892153 1.498261 -8.563673
              CHANNELS 3 Xrotation Yrotation Zrotation
              JOINT RightHand
              {
                OFFSET -1.659101 2.167831 -4.005455
                CHANNELS 3 Xrotation Yrotation Zrotation
                End Site
                {
                  OFFSET -0.497730 0.650349 -1.201637
                }
              }
            }
          }
        }
      }
    }
  }
  JOINT LeftUpLeg
  {
    OFFSET 8.955008 -0.525145 1.977289
    CHANNELS 3 Xrotation Yrotation Zrotation
    JOINT LeftLeg
    {
      OFFSET 1.504921 -41.558457 -0.051202
      CHANNELS 3 Xrotation Yrotation Zrotation
      JOINT LeftFoot
      {
        OFFSET -2.334462 -39.878169 12.105340
        CHANNELS 3 Xrotation Yrotation Zrotation
        End Site
        {
          OFFSET -0.700339 -11.963451 3.631602
        }
      }
    }
  }
  JOINT RightUpLeg
  {
    OFFSET -8.955008 0.525145 -1.977289
    CHANNELS 3 Xrotation Yrotation Zrotation
    JOINT RightLeg
    {
      OFFSET 2.492134 -34.880539 -0.332581
      CHANNELS 3 Xrotation Yrotation Zrotation
      JOINT RightFoot
      {
        OFFSET -1.650886 -42.546039 9.164183
        CHANNELS 3 Xrotation Yrotation Zrotation
        End Site
        {
          OFFSET -0.495266 -12.763812 2.749255
        }
      }
    }
  }
}
MOTION
Frames: 96
Frame Time: 0.083333
0.156683 0.196649 0.060644 0.001188 -0.004564 -0.022075 0.000000 0.000000 0.000000 -10.645724 18.380560 -17.611292 -53.234732 -22.163315 -0.480772 0.000000 0.000000 0.000000 16.107898 -13.820483 21.225977 0.141689 -0.113284 -0.745739 -0.009508 0.146373 1.490158 0.023905 -0.307533 0.125430 0.000000 0.000000 0.000000 16.107898 -13.820483 21.225977 -0.079771 0.240974 -0.133828 0.146756 0.628975 0.232531 0.082297 -1.016222 -0.111819 0.000000 0.000000 0.000000 0.603124 0.028701 -0.248552 -2.398496 -0.005117 0.030514 0.000000 0.000000 0.000000 2.731695 0.155542 1.410606 -9.089129 -0.429829 -4.122736 0.000000 0.000000 0.000000
0.156838 0.195897 0.060873 -0.000284 -0.004302 -0.021132 0.000000 0.000000 0.000000 -10.645839 18.378357 -17.609523 -53.241009 -22.161433 -0.486799 0.000000 0.000000 0.000000 16.108981 -13.820500 21.225970 0.159049 -0.095196 -0.675474 -0.003507 0.124364 1.343567 0.013160 -0.300815 0.168911 0.000000 0.000000 0.000000 16.108981 -13.820500 21.225970 -0.075383 0.229162 -0.127248 0.139178 0.574752 0.218630 0.055087 -0.976685 -0.110809 0.000000 0.000000 0.000000 0.637493 0.029784 -0.214046 -2.405015 -0.002237 0.007223 0.000000 0.000000 0.000000 2.742600 0.157655 1.363493 -9.110925 -0.426994 -4.031279 0.000000 0.000000 0.000000
0.157131 0.194589 0.061355 -0.007012 -0.011200 -0.056475 0.000000 0.000000 0.000000 -10.640409 18.482446 -17.736731 -53.056627 -22.408790 -0.461712 0.000000 0.000000 0.000000 16.130490 -13.820761 21.225846 0.527895 -0.217693 -1.747463 -0.011411 0.286125 3.438267 0.010166 -0.853574 0.647740 0.000000 0.000000 0.000000 16.130490 -13.820761 21.225846 -0.200516 0.614971 -0.357199 0.375613 1.475018 0.589782 0.066024 -2.679199 -0.307842 0.000000 0.000000 0.000000 1.158354 0.062848 -0.697082 -2.579368 -0.133996 0.327204 0.000000 0.000000 0.000000 2.436610 0.112171 2.509231 -8.416299 -0.578265 -6.407020 0.000000 0.000000 0.000000
0.157373 0.193752 0.061754 -0.030561 -0.012677 -0.069183 0.000000 0.000000 0.000000 -10.635600 18.574468 -17.834211 -52.915461 -22.605338 -0.481027 0.000000 0.000000 0.000000 16.171345 -13.821131 21.225652 1.040764 -0.189417 -2.239693 -0.066242 0.244298 4.262673 -0.028383 -1.305032 1.404459 0.000000 0.000000 0.000000 16.171345 -13.821131 21.225652 -0.256114 0.791442 -0.551566 0.504306 1.780828 0.804422 -0.139266 -3.676418 -0.393673 0.000000 0.000000 0.000000 2.582519 0.127017 -0.785167 -4.205194 -0.280671 0.194452 0.000000 0.000000 0.000000 2.254223 0.084869 3.162809 -7.968821 -0.689568 -7.822132 0.000000 0.000000 0.000000
0.157494 0.193262 0.062115 -0.064980 -0.007925 -0.053947 0.000000 0.000000 0.000000 -10.629739 18.686276 -17.911714 -52.747803 -22.758507 -0.504127 0.000000 0.000000 0.000000 16.235748 -13.821505 21.225399 1.654280 -0.121735 -2.667640 -0.239690 0.124138 4.849283 0.015975 -1.725116 2.019897 0.000000 0.000000 0.000000 16.235748 -13.821505 21.225399 -0.251577 0.763560 -0.789560 0.553067 1.813993 0.952623 -0.368127 -3.991296 -0.273566 0.000000 0.000000 0.000000 4.401612 0.201636 -0.776052 -7.021066 -0.434081 -0.120887 0.000000 0.000000 0.000000 2.144824 0.060718 3.586726 -7.668463 -0.766401 -8.777179 0.000000 0.000000 0.000000
0.157513 0.192956 0.062418 -0.096110 -0.001799 -0.031272 0.000000 0.000000 0.000000 -10.624095 18.793821 -17.987399 -52.544765 -22.905395 -0.512941 0.000000 0.000000 0.000000 16.298352 -13.821893 21.225128 2.312528 -0.012536 -2.953786 -0.310963 -0.031356 5.189501 0.067022 -2.128391 2.348870 0.000000 0.000000 0.000000 16.298352 -13.821893 21.225128 -0.226458 0.687924 -1.048383 0.571304 1.810036 1.120232 -0.594272 -4.058832 -0.073155 0.000000 0.000000 0.000000 4.440063 0.202322 -1.006780 -6.968470 -0.434872 0.192965 0.000000 0.000000 0.000000 2.076873 0.042000 3.850090 -7.510492 -0.810584 -9.376174 0.000000 0.000000 0.000000
0.157441 0.192689 0.062721 -0.096345 0.000158 -0.021777 0.000000 0.000000 0.000000 -10.624242 18.790980 -18.044507 -52.314961 -22.964265 -0.383330 0.000000 0.000000 0.000000 16.301004 -13.822120 21.225055 2.478287 0.045372 -2.978339 -0.329965 -0.076638 5.165709 0.055842 -2.164391 2.373281 0.000000 0.000000 0.000000 16.301004 -13.822120 21.225055 -0.179589 0.686539 -1.270146 0.548797 1.747977 1.329687 -0.738434 -4.081115 -0.018943 0.000000 0.000000 0.000000 4.461382 0.205070 -1.129661 -7.069521 -0.439782 0.341171 0.000000 0.000000 0.000000 1.968940 0.029755 4.065232 -7.488842 -0.836744 -9.832837 0.000000 0.000000 0.000000
0.157371 0.192423 0.062932 -0.061331 -0.000144 -0.015088 0.000000 0.000000 0.000000 -10.627891 18.721302 -18.093197 -52.042507 -22.983774 -0.180826 0.000000 0.000000 0.000000 16.253728 -13.822191 21.225210 2.433610 0.083324 -2.954402 -0.457805 -0.074970 5.119902 -0.002439 -2.036335 2.447919 0.000000 0.000000 0.000000 16.253728 -13.822191 21.225210 -0.139197 0.750876 -1.423238 0.543706 1.699749 1.452948 -0.823768 -4.071205 0.035631 0.000000 0.000000 0.000000 4.441548 0.208014 -1.198770 -7.298189 -0.445682 0.397157 0.000000 0.000000 0.000000 1.809582 0.019292 4.303589 -7.586173 -0.861688 -10.337703 0.000000 0.000000 0.000000
0.157403 0.192151 0.063001 0.026705 -0.006152 -0.023917 0.000000 0.000000 0.000000 -10.637194 18.543728 -18.138550 -51.810571 -22.993925 0.026855 0.000000 0.000000 0.000000 16.125922 -13.822104 21.225703 2.174803 0.127589 -2.893419 -0.747940 -0.030191 5.015431 -0.060121 -1.709250 2.561152 0.000000 0.000000 0.000000 16.125922 -13.822104 21.225703 -0.080576 0.898690 -1.553483 0.546834 1.759418 1.530856 -0.812878 -4.152579 0.055458 0.000000 0.000000 0.000000 4.365774 0.217319 -1.243252 -7.695994 -0.449992 0.427192 0.000000 0.000000 0.000000 1.576663 0.013879 4.591082 -7.598689 -0.897684 -10.917761 0.000000 0.000000 0.000000
0.157598 0.191835 0.063000 0.112883 -0.016024 -0.052236 0.000000 0.000000 0.000000 -10.643092 18.431210 -18.141571 -51.745505 -23.071927 -0.003181 0.000000 0.000000 0.000000 16.009636 -13.822000 21.226068 1.891553 0.105494 -2.859044 -1.083226 0.014619 4.963755 -0.127336 -1.410964 2.878587 0.000000 0.000000 0.000000 16.009636 -13.822000 21.226068 -0.069868 1.040117 -1.712274 0.565921 1.923644 1.666248 -0.743118 -4.310471 0.062884 0.000000 0.000000 0.000000 4.287150 0.232009 -1.275787 -7.924205 -0.457451 0.475457 0.000000 0.000000 0.000000 1.420779 0.019055 4.754138 -7.527146 -0.929263 -11.233075 0.000000 0.000000 0.000000
0.157804 0.191480 0.063032 0.139272 -0.027411 -0.102204 0.000000 0.000000 0.000000 -10.641479 18.462662 -18.119250 -51.844687 -23.249104 -0.277910 0.000000 0.000000 0.000000 15.977584 -13.822150 21.225889 1.788985 0.037596 -2.831200 -1.210405 0.030951 4.994239 -0.143309 -1.379609 3.251158 0.000000 0.000000 0.000000 15.977584 -13.822150 21.225889 -0.157319 1.201010 -1.749762 0.645314 2.043630 1.768538 -0.599809 -4.491448 0.038342 0.000000 0.000000 0.000000 4.273591 0.251010 -1.310074 -7.898259 -0.466608 0.580168 0.000000 0.000000 0.000000 1.404601 0.032485 4.780475 -7.498233 -0.945117 -11.249279 0.000000 0.000000 0.000000
0.157817 0.191232 0.063243 0.149401 -0.039811 -0.160858 0.000000 0.000000 0.000000 -10.641717 18.459151 -18.097886 -51.918297 -23.446356 -0.556340 0.000000 0.000000 0.000000 15.949291 -13.822329 21.226018 1.701600 0.000634 -2.851493 -1.266908 0.063187 5.103575 -0.210856 -1.383127 3.684317 0.000000 0.000000 0.000000 15.949291 -13.822329 21.226018 -0.228259 1.392795 -1.778701 0.695864 2.087621 1.937487 -0.626350 -4.683107 -0.031919 0.000000 0.000000 0.000000 4.275397 0.271627 -1.333240 -7.868873 -0.470442 0.696835 0.000000 0.000000 0.000000 1.403395 0.047103 4.818819 -7.407720 -0.964074 -11.269863 0.000000 0.000000 0.000000
0.157630 0.191149 0.063757 0.015872 -0.044624 -0.214765 0.000000 0.000000 0.000000 -10.648439 18.331641 -18.119610 -51.804849 -23.520550 -0.491999 0.000000 0.000000 0.000000 16.025263 -13.822727 21.227690 1.653064 0.115018 -2.838223 -1.144427 0.125926 5.230394 -0.162946 -1.497661 3.960413 0.000000 0.000000 0.000000 16.025263 -13.822727 21.227690 -0.113901 1.486934 -1.796242 0.573021 1.973452 2.235636 -1.119381 -4.917662 -0.249497 0.000000 0.000000 0.000000 4.429216 0.283259 -1.309342 -7.843834 -0.471884 0.745081 0.000000 0.000000 0.000000 1.554862 0.055989 4.807352 -7.121229 -0.985204 -11.189344 0.000000 0.000000 0.000000
0.157355 0.191150 0.064457 -0.244102 -0.043201 -0.265893 0.000000 0.000000 0.000000 -10.665706 18.002208 -18.234029 -51.531322 -23.557361 -0.154596 0.000000 0.000000 0.000000 16.170800 -13.823492 21.232488 1.666527 0.452126 -2.773982 -0.934086 0.213713 5.392281 -0.096462 -1.600534 3.974918 0.000000 0.000000 0.000000 16.170800 -13.823492 21.232488 0.263608 1.495290 -1.930228 0.228296 1.834130 2.804603 -2.042898 -5.534852 -0.745979 0.000000 0.000000 0.000000 4.721030 0.289153 -1.269401 -7.840447 -0.480411 0.745780 0.000000 0.000000 0.000000 1.883128 0.064320 4.665709 -6.578365 -1.002447 -10.846071 0.000000 0.000000 0.000000
0.157148 0.191206 0.065008 -0.378458 -0.054705 -0.350847 0.000000 0.000000 0.000000 -10.683358 17.666568 -18.304354 -51.347420 -23.641178 0.049145 0.000000 0.000000 0.000000 16.189562 -13.824052 21.239174 1.833947 0.804799 -2.839468 -0.906077 0.248509 5.737140 -0.150124 -1.626199 3.798147 0.000000 0.000000 0.000000 16.189562 -13.824052 21.239174 0.813561 1.107906 -2.389345 -0.369688 1.813704 3.743736 -2.826614 -6.188502 -1.474678 0.000000 0.000000 0.000000 4.889987 0.311223 -1.206812 -7.825787 -0.483978 0.778352 0.000000 0.000000 0.000000 2.118837 0.089771 4.483698 -6.243541 -0.998957 -10.355455 0.000000 0.000000 0.000000
0.157050 0.191329 0.065328 -0.435793 -0.078712 -0.478945 0.000000 0.000000 0.000000 -10.697625 17.398802 -18.330444 -51.289780 -23.755324 0.151661 0.000000 0.000000 0.000000 16.141630 -13.824696 21.245780 2.026723 1.080654 -2.993277 -0.917379 0.273933 6.197558 -0.168114 -1.692850 3.630048 0.000000 0.000000 0.000000 16.141630 -13.824696 21.245780 1.219187 0.967547 -3.172257 -0.732831 1.624274 4.697464 -3.162306 -6.600531 -1.869724 0.000000 0.000000 0.000000 4.969732 0.348075 -1.089942 -7.837543 -0.493720 0.768152 0.000000 0.000000 0.000000 2.194040 0.121774 4.526382 -6.197683 -0.996597 -10.208519 0.000000 0.000000 0.000000
0.157078 0.191508 0.065561 -0.364598 -0.106521 -0.597879 0.000000 0.000000 0.000000 -10.701112 17.339598 -18.421334 -51.317432 -23.960971 0.196048 0.000000 0.000000 0.000000 16.029763 -13.826163 21.249078 2.210266 1.167664 -3.036252 -0.987874 0.275296 6.646543 -0.149786 -1.831242 3.682518 0.000000 0.000000 0.000000 16.029763 -13.826163 21.249078 1.404328 1.057661 -4.233254 -0.473523 1.200895 4.798085 -3.196183 -7.150633 -1.279903 0.000000 0.000000 0.000000 4.904013 0.386676 -0.995474 -7.778248 -0.509781 0.759945 0.000000 0.000000 0.000000 2.173262 0.158707 4.527889 -6.206774 -0.990570 -10.007481 0.000000 0.000000 0.000000
0.157242 0.191762 0.066013 -0.273975 -0.121575 -0.652081 0.000000 0.000000 0.000000 -10.697511 17.413682 -18.590756 -51.346235 -24.222925 0.185112 0.000000 0.000000 0.000000 15.951882 -13.828317 21.249861 2.376598 1.162670 -2.888802 -0.962564 0.267271 6.961636 -0.125130 -2.063874 3.839476 0.000000 0.000000 0.000000 15.951882 -13.828317 21.249861 1.670939 0.891337 -5.595938 0.127005 1.176028 3.970281 -2.122228 -7.196633 0.285931 0.000000 0.000000 0.000000 4.808753 0.406752 -0.984276 -7.707294 -0.530362 0.765838 0.000000 0.000000 0.000000 2.133429 0.179581 4.490440 -6.245787 -0.981721 -9.838560 0.000000 0.000000 0.000000
0.157634 0.192130 0.067308 0.058620 -0.139251 -0.670334 0.000000 0.000000 0.000000 -10.688054 17.597920 -18.809819 -51.646344 -24.474166 0.088650 0.000000 0.000000 0.000000 15.685746 -13.830843 21.246364 2.417664 0.979558 -2.608219 -0.976028 0.274138 7.290565 -0.140359 -2.330510 4.237588 0.000000 0.000000 0.000000 15.685746 -13.830843 21.246364 2.132487 0.118701 -7.057899 0.774845 1.605638 2.258190 -0.075240 -6.884014 2.312228 0.000000 0.000000 0.000000 4.457924 0.424869 -1.062582 -7.538232 -0.539605 0.890749 0.000000 0.000000 0.000000 1.858158 0.198678 4.440614 -6.201712 -0.974680 -9.694153 0.000000 0.000000 0.000000
0.158509 0.192738 0.069042 0.908896 -0.175953 -0.675952 0.000000 0.000000 0.000000 -10.666520 18.015365 -19.052426 -52.427240 -24.832325 -0.376686 0.000000 0.000000 0.000000 14.997252 -13.833433 21.235201 2.201463 0.393489 -2.220039 -1.095569 0.302247 7.591422 -0.076255 -2.521831 4.486705 0.000000 0.000000 0.000000 14.997252 -13.833433 21.235201 2.722264 -1.485235 -8.531629 1.295318 2.684574 -0.127038 2.452361 -5.784504 4.849920 0.000000 0.000000 0.000000 3.561632 0.455675 -1.214574 -7.331171 -0.522862 1.179431 0.000000 0.000000 0.000000 1.081430 0.230277 4.413615 -6.183833 -0.961279 -9.580493 0.000000 0.000000 0.000000
0.159660 0.193637 0.070470 1.809955 -0.210225 -0.658397 0.000000 0.000000 0.000000 -10.632625 18.672779 -19.134627 -53.355636 -25.178805 -1.223630 0.000000 0.000000 0.000000 14.324017 -13.834494 21.221247 2.012908 -0.414967 -2.029089 -1.109250 0.277381 7.694654 0.073793 -2.800702 4.674768 0.000000 0.000000 0.000000 14.324017 -13.834494 21.221247 2.643046 -2.499345 -9.394719 2.419674 3.398619 -3.291314 5.852951 -4.023042 7.179241 0.000000 0.000000 0.000000 2.560471 0.479301 -1.406319 -7.157133 -0.497538 1.499221 0.000000 0.000000 0.000000 0.252239 0.254992 4.491156 -6.530850 -0.933770 -9.676780 0.000000 0.000000 0.000000
0.160553 0.194635 0.071322 2.128443 -0.213434 -0.604112 0.000000 0.000000 0.000000 -10.619461 18.925747 -18.956212 -53.740750 -25.064288 -1.649813 0.000000 0.000000 0.000000 14.105291 -13.831418 21.219486 1.910578 -0.734015 -2.107356 -0.873563 0.273818 7.714576 0.232319 -3.166824 4.750807 0.000000 0.000000 0.000000 14.105291 -13.831418 21.219486 1.991953 -2.221262 -8.920929 3.720172 3.318528 -6.214147 8.934346 -2.795423 7.730429 0.000000 0.000000 0.000000 2.126431 0.471481 -1.517632 -7.003917 -0.490336 1.580582 0.000000 0.000000 0.000000 -0.045840 0.249512 4.654309 -7.086701 -0.906833 -10.015236 0.000000 0.000000 0.000000
0.161028 0.195305 0.071801 2.109851 -0.193588 -0.501353 0.000000 0.000000 0.000000 -10.617494 18.956724 -18.732382 -53.707594 -24.732178 -1.695128 0.000000 0.000000 0.000000 14.161221 -13.827711 21.221568 1.844927 -0.778115 -2.289276 -0.619867 0.281629 7.706381 0.318386 -3.491751 4.984155 0.000000 0.000000 0.000000 14.161221 -13.827711 21.221568 1.634407 -2.122473 -8.027388 4.213674 2.930518 -7.730661 9.994426 -2.323072 7.277895 0.000000 0.000000 0.000000 2.049318 0.443730 -1.671338 -6.862023 -0.493687 1.624584 0.000000 0.000000 0.000000 -0.025845 0.224029 4.761878 -7.502725 -0.899809 -10.402617 0.000000 0.000000 0.000000
0.161527 0.195527 0.071837 1.988150 -0.163716 -0.369229 0.000000 0.000000 0.000000 -10.615286 18.990012 -18.511005 -53.481964 -24.473018 -1.797310 0.000000 0.000000 0.000000 14.323039 -13.824757 21.224341 1.820912 -0.782027 -2.469097 -0.074178 0.302287 7.684501 -0.063102 -3.664281 5.036754 0.000000 0.000000 0.000000 14.323039 -13.824757 21.224341 1.206994 -2.163492 -5.738967 4.969432 2.851829 -11.188266 9.723795 -2.330501 8.149844 0.000000 0.000000 0.000000 2.108276 0.407555 -1.847694 -6.750767 -0.496215 1.668832 0.000000 0.000000 0.000000 0.097275 0.191096 4.766368 -7.817457 -0.892030 -10.653874 0.000000 0.000000 0.000000
0.162076 0.195458 0.071701 1.823975 -0.128937 -0.222455 0.000000 0.000000 0.000000 -10.606204 19.154902 -18.211717 -53.223518 -24.258578 -2.108740 0.000000 0.000000 0.000000 14.562051 -13.822526 21.228384 1.784293 -0.893454 -2.719902 0.552940 0.312236 7.632902 -0.729159 -3.732574 5.171655 0.000000 0.000000 0.000000 14.562051 -13.822526 21.228384 0.660976 -2.272011 -3.105271 5.491595 2.846115 -14.258541 9.275564 -1.809479 9.044224 0.000000 0.000000 0.000000 2.253873 0.369148 -2.054223 -6.626870 -0.493249 1.767165 0.000000 0.000000 0.000000 0.307271 0.159633 4.576149 -7.946281 -0.881012 -10.567478 0.000000 0.000000 0.000000
0.162342 0.195125 0.071640 1.649986 -0.095475 -0.087575 0.000000 0.000000 0.000000 -10.606243 19.148352 -17.743095 -53.051123 -23.874121 -2.492274 0.000000 0.000000 0.000000 14.767865 -13.821791 21.234401 1.457255 -0.967769 -3.109584 0.902137 0.353748 7.235950 -1.034136 -3.598453 5.329807 0.000000 0.000000 0.000000 14.767865 -13.821791 21.234401 -0.049977 -2.000239 0.011885 5.412231 2.540397 -15.823315 10.547273 -0.515071 7.496460 0.000000 0.000000 0.000000 2.423634 0.332437 -2.243765 -6.631104 -0.493244 1.846381 0.000000 0.000000 0.000000 0.529781 0.129649 4.364334 -8.147634 -0.874779 -10.458668 0.000000 0.000000 0.000000
0.162380 0.194034 0.071257 1.242747 -0.069992 -0.054367 0.000000 0.000000 0.000000 -10.609617 19.078069 -16.761870 -52.731515 -23.134984 -2.958714 0.000000 0.000000 0.000000 15.144923 -13.825306 21.242903 0.674994 -1.133242 -3.967856 1.439949 0.520699 6.685835 -1.175634 -3.305226 5.232120 0.000000 0.000000 0.000000 15.144923 -13.825306 21.242903 -1.070996 -1.163247 3.642396 4.598892 1.494441 -15.553375 9.594053 -1.197963 4.439849 0.000000 0.000000 0.000000 2.843365 0.307665 -2.300946 -6.686167 -0.495605 1.876066 0.000000 0.000000 0.000000 0.908594 0.102247 4.373713 -8.277498 -0.894045 -10.624863 0.000000 0.000000 0.000000
0.162423 0.191956 0.070530 0.675068 -0.044856 -0.062957 0.000000 0.000000 0.000000 -10.625693 18.766028 -15.610824 -52.333651 -22.172538 -3.285644 0.000000 0.000000 0.000000 15.599359 -13.836581 21.247764 -0.031113 -1.073144 -5.188678 2.037295 0.702968 6.121413 -1.300477 -3.035352 5.283968 0.000000 0.000000 0.000000 15.599359 -13.836581 21.247764 -2.122987 0.347659 7.562337 3.414968 0.220353 -14.709213 8.226928 -2.062617 0.471158 0.000000 0.000000 0.000000 3.453272 0.287632 -2.332553 -6.810127 -0.490411 1.959030 0.000000 0.000000 0.000000 1.329359 0.066966 4.606809 -8.254651 -0.934048 -11.132799 0.000000 0.000000 0.000000
0.162480 0.189447 0.069685 0.264307 -0.031170 -0.091211 0.000000 0.000000 0.000000 -10.638584 18.518846 -14.628305 -51.787649 -21.387598 -3.467344 0.000000 0.000000 0.000000 15.921893 -13.854179 21.250624 -0.454191 -1.023601 -6.473844 2.262977 0.818452 5.813955 -1.236294 -2.897128 5.573796 0.000000 0.000000 0.000000 15.921893 -13.854179 21.250624 -2.836509 1.288834 11.405742 1.584970 -0.204874 -12.831054 5.075884 -3.105381 -3.858761 0.000000 0.000000 0.000000 3.924833 0.283745 -2.401480 -6.976754 -0.472086 2.169617 0.000000 0.000000 0.000000 1.525473 0.039099 4.960566 -8.020232 -0.998476 -11.850018 0.000000 0.000000 0.000000
0.162317 0.187169 0.069209 -0.355207 -0.011470 -0.137042 0.000000 0.000000 0.000000 -10.652685 18.249046 -13.551134 -50.983383 -20.525374 -3.540853 0.000000 0.000000 0.000000 16.427042 -13.878007 21.249688 -1.014926 -0.977104 -7.901049 2.630499 1.024894 5.656602 -1.164917 -2.687828 5.516134 0.000000 0.000000 0.000000 16.427042 -13.878007 21.249688 -3.439655 2.395980 14.911150 -0.235057 -0.072885 -10.682365 0.476725 -2.713680 -7.320939 0.000000 0.000000 0.000000 4.601096 0.276366 -2.464479 -6.975215 -0.447187 2.426132 0.000000 0.000000 0.000000 2.098139 0.020689 5.009343 -7.631625 -1.053544 -11.981537 0.000000 0.000000 0.000000
0.161756 0.185168 0.069457 -0.733702 -0.006520 -0.198080 0.000000 0.000000 0.000000 -10.675978 17.804736 -12.759827 -50.422340 -19.718841 -3.336344 0.000000 0.000000 0.000000 16.653988 -13.901165 21.239567 -1.408216 -0.753058 -8.975552 2.879884 1.190778 5.475522 -1.049921 -2.389578 4.999092 0.000000 0.000000 0.000000 16.653988 -13.901165 21.239567 -3.820381 3.227644 19.037744 -2.255688 0.595706 -8.593503 -4.986141 -0.203308 -10.579298 0.000000 0.000000 0.000000 5.037131 0.282386 -2.438251 -6.801885 -0.424067 2.576856 0.000000 0.000000 0.000000 2.586063 0.030757 4.764833 -7.103446 -1.087897 -11.526119 0.000000 0.000000 0.000000
0.160870 0.183359 0.070319 -0.750839 -0.015636 -0.245116 0.000000 0.000000 0.000000 -10.686113 17.610747 -12.121006 -50.158489 -19.029324 -3.175210 0.000000 0.000000 0.000000 16.621335 -13.925030 21.238954 -1.422083 -0.638937 -9.723629 2.683397 1.121905 5.157993 -0.922951 -2.032072 4.110086 0.000000 0.000000 0.000000 16.621335 -13.925030 21.238954 -4.238472 3.123298 23.749612 -4.576701 1.726771 -6.638897 -11.038931 3.130788 -14.243597 0.000000 0.000000 0.000000 5.093073 0.299999 -2.440222 -6.766087 -0.408585 2.710558 0.000000 0.000000 0.000000 2.800244 0.061590 4.356660 -6.830536 -1.103595 -10.822420 0.000000 0.000000 0.000000
0.159861 0.181447 0.071404 -0.639862 -0.028300 -0.281544 0.000000 0.000000 0.000000 -10.699758 17.346848 -11.592175 -49.994518 -18.161825 -2.611444 0.000000 0.000000 0.000000 16.450801 -13.949182 21.234946 -1.125965 -0.414847 -10.478911 2.232897 0.960226 5.055277 -0.847933 -1.812069 3.679202 0.000000 0.000000 0.000000 16.450801 -13.949182 21.234946 -4.648191 2.905823 28.794475 -6.735687 3.390435 -4.979432 -17.347425 6.278278 -17.578647 0.000000 0.000000 0.000000 5.008233 0.319735 -2.477153 -6.926978 -0.397166 2.852995 0.000000 0.000000 0.000000 2.858820 0.092901 4.005751 -6.670407 -1.122058 -10.258203 0.000000 0.000000 0.000000
0.159042 0.179374 0.072458 -0.300832 -0.059516 -0.358810 0.000000 0.000000 0.000000 -10.732797 16.703990 -11.147351 -49.913738 -17.065767 -1.566952 0.000000 0.000000 0.000000 15.938472 -13.972401 21.215807 -0.281360 0.211027 -11.172668 1.516019 0.631751 4.867898 -0.786478 -1.624153 3.235296 0.000000 0.000000 0.000000 15.938472 -13.972401 21.215807 -4.924478 3.033958 33.715001 -8.572347 6.017459 -2.258705 -24.855267 9.069750 -20.690621 0.000000 0.000000 0.000000 4.683334 0.359661 -2.490657 -7.299240 -0.375289 3.036218 0.000000 0.000000 0.000000 2.507677 0.124319 4.103170 -6.575412 -1.152107 -10.393883 0.000000 0.000000 0.000000
0.158361 0.177121 0.075542 0.461228 -0.111985 -0.450324 0.000000 0.000000 0.000000 -10.807334 15.242850 -11.096715 -50.432488 -15.878245 -0.124906 0.000000 0.000000 0.000000 14.758540 -13.981299 21.168603 1.191569 1.547596 -11.792390 0.891281 0.283762 4.909894 -0.604122 -1.685292 2.732962 0.000000 0.000000 0.000000 14.758540 -13.981299 21.168603 -4.917482 3.560723 39.664472 -9.763398 9.052031 -1.031641 -29.693633 12.003620 -22.620830 0.000000 0.000000 0.000000 3.962421 0.417450 -2.420860 -7.534682 -0.359572 3.115396 0.000000 0.000000 0.000000 1.586253 0.166701 4.210049 -5.876030 -1.163880 -10.354813 0.000000 0.000000 0.000000
0.157811 0.174925 0.080633 1.548692 -0.165961 -0.482730 0.000000 0.000000 0.000000 -10.895213 13.494865 -11.132001 -51.165682 -14.541976 1.526921 0.000000 0.000000 0.000000 13.167025 -13.985525 21.137079 2.117150 2.907423 -12.459221 0.587543 0.180973 4.990581 -0.106413 -1.900316 2.884690 0.000000 0.000000 0.000000 13.167025 -13.985525 21.137079 -4.998464 3.548244 45.588006 -11.157603 12.798016 1.041724 -33.252909 14.890527 -23.858915 0.000000 0.000000 0.000000 2.936829 0.473719 -2.492049 -7.618209 -0.345545 3.331864 0.000000 0.000000 0.000000 0.278813 0.192340 4.365253 -4.318253 -1.153239 -10.297669 0.000000 0.000000 0.000000
0.156448 0.172891 0.088039 3.139629 -0.230093 -0.455687 0.000000 0.000000 0.000000 -11.005392 11.282829 -11.261129 -52.031305 -12.944634 3.655906 0.000000 0.000000 0.000000 10.927959 -13.983302 21.122738 2.523500 4.415788 -13.171360 0.326058 0.292528 5.103095 0.475775 -1.919670 3.343074 0.000000 0.000000 0.000000 10.927959 -13.983302 21.122738 -5.193890 2.814479 50.743366 -13.597810 16.992092 4.769994 -34.238027 14.533001 -26.417805 0.000000 0.000000 0.000000 1.438333 0.541761 -2.785280 -7.815347 -0.334509 3.798861 0.000000 0.000000 0.000000 -0.760232 0.218556 5.249587 -4.054962 -1.143789 -11.835974 0.000000 0.000000 0.000000
0.154374 0.171434 0.101240 4.974858 -0.303575 -0.419180 0.000000 0.000000 0.000000 -11.104613 9.256754 -11.416510 -53.226911 -11.593102 5.527897 0.000000 0.000000 0.000000 8.476404 -13.972244 21.181469 3.207965 5.769756 -13.896596 0.223286 0.361867 5.436606 0.620517 -1.919594 3.343824 0.000000 0.000000 0.000000 8.476404 -13.972244 21.181469 -5.760002 1.281570 55.032021 -16.603621 21.696263 10.967566 -33.741375 11.054629 -32.590515 0.000000 0.000000 0.000000 -0.307483 0.624899 -3.222304 -8.463957 -0.341817 4.417990 0.000000 0.000000 0.000000 -0.484998 0.281673 7.410368 -9.173433 -1.218489 -16.707478 0.000000 0.000000 0.000000
0.151532 0.170632 0.118383 7.052238 -0.388574 -0.380145 0.000000 0.000000 0.000000 -11.263189 5.948406 -12.420592 -54.420711 -10.299005 8.917365 0.000000 0.000000 0.000000 5.327252 -13.912377 21.429444 4.241162 8.113023 -13.936702 1.481809 0.760878 5.663302 0.649917 -2.285951 2.945132 0.000000 0.000000 0.000000 5.327252 -13.912377 21.429444 -5.966107 -0.531178 59.232362 -21.741949 26.937993 21.558962 -31.484374 5.433510 -43.920399 0.000000 0.000000 0.000000 -2.119730 0.745237 -3.874993 -9.715935 -0.336439 5.486290 0.000000 0.000000 0.000000 -3.106132 0.327031 7.742665 -9.547233 -1.188819 -17.231008 0.000000 0.000000 0.000000
0.148152 0.170268 0.129258 8.286029 -0.428916 -0.279040 0.000000 0.000000 0.000000 -11.437373 2.236945 -13.979138 -54.906811 -9.243337 13.067257 0.000000 0.000000 0.000000 2.867339 -13.837349 21.862775 4.456112 10.759539 -12.870350 2.395197 1.351882 5.535810 0.680242 -1.883990 2.289888 0.000000 0.000000 0.000000 2.867339 -13.837349 21.862775 -5.834983 -2.360245 62.667018 -26.635531 32.649161 35.972495 -32.212475 1.983016 -58.271077 0.000000 0.000000 0.000000 -2.894568 0.855383 -4.747396 -10.371517 -0.320979 6.953370 0.000000 0.000000 0.000000 -4.568741 0.380389 7.237409 -9.428217 -1.135937 -16.232862 0.000000 0.000000 0.000000
0.143845 0.169336 0.130249 8.357890 -0.419953 -0.185854 0.000000 0.000000 0.000000 -11.497005 0.944204 -15.089400 -54.566329 -9.181782 15.047133 0.000000 0.000000 0.000000 2.419533 -13.817707 22.118849 3.736351 11.676198 -11.364901 2.586225 1.676340 5.170108 0.515690 -1.185481 1.750836 0.000000 0.000000 0.000000 2.419533 -13.817707 22.118849 -6.412933 -3.768550 66.423356 -29.321502 39.563229 49.780154 -39.686500 1.115634 -77.290785 0.000000 0.000000 0.000000 -2.610833 0.896422 -5.154403 -10.674695 -0.336152 7.571335 0.000000 0.000000 0.000000 -4.695923 0.398665 6.634352 -9.370021 -1.078965 -15.107594 0.000000 0.000000 0.000000
0.138851 0.167766 0.129413 7.580039 -0.388530 -0.213750 0.000000 0.000000 0.000000 -11.520098 0.446794 -15.728437 -53.417421 -9.171984 16.253122 0.000000 0.000000 0.000000 3.043181 -13.812623 22.288892 3.089134 12.087770 -10.556081 2.731107 1.970827 5.378607 0.051532 -0.585643 1.250483 0.000000 0.000000 0.000000 3.043181 -13.812623 22.288892 -7.956695 -5.441229 72.226458 -30.397916 47.770893 63.007878 -48.904970 3.841014 -75.242064 0.000000 0.000000 0.000000 -1.632712 0.881394 -5.082577 -10.804808 -0.349018 7.539394 0.000000 0.000000 0.000000 -4.028050 0.372568 6.501665 -9.565523 -1.029360 -14.687185 0.000000 0.000000 0.000000
0.133705 0.166323 0.127000 6.296277 -0.335731 -0.247008 0.000000 0.000000 0.000000 -11.597225 -1.209217 -16.083340 -51.593027 -8.097305 18.350941 0.000000 0.000000 0.000000 3.680897 -13.798558 22.704399 3.664754 13.589228 -10.952502 3.421240 2.274593 5.860135 -0.601740 -0.549633 1.473186 0.000000 0.000000 0.000000 3.680897 -13.798558 22.704399 -9.994303 -7.966168 78.471670 -39.844839 53.647526 87.911629 -53.950754 9.775461 7.090684 0.000000 0.000000 0.000000 -0.198934 0.832872 -4.802874 -10.622486 -0.376024 7.106809 0.000000 0.000000 0.000000 -2.684593 0.335731 6.261288 -10.321626 -0.926962 -14.032859 0.000000 0.000000 0.000000
0.129259 0.165868 0.122048 5.215195 -0.303301 -0.350081 0.000000 0.000000 0.000000 -11.692175 -3.238049 -16.528850 -50.014397 -6.865840 20.834307 0.000000 0.000000 0.000000 4.018455 -13.785539 23.227331 4.757897 15.386594 -11.807953 4.328176 2.644264 7.021663 -1.758390 -0.477912 0.978348 0.000000 0.000000 0.000000 4.018455 -13.785539 23.227331 -11.869425 -9.309545 85.399108 -63.040388 54.168963 102.442575 -57.755511 19.615701 131.799657 0.000000 0.000000 0.000000 0.993589 0.801170 -4.436328 -10.544836 -0.378620 6.696747 0.000000 0.000000 0.000000 -2.066732 0.291795 6.300179 -10.577067 -0.848809 -13.700087 0.000000 0.000000 0.000000
0.126323 0.166083 0.116877 4.984320 -0.321196 -0.527342 0.000000 0.000000 0.000000 -11.703140 -3.463793 -17.070806 -49.796281 -7.100868 21.744130 0.000000 0.000000 0.000000 4.272978 -13.792867 23.343976 3.702383 15.261736 -11.981178 5.381598 3.503538 9.196004 -2.993010 -0.077015 0.212150 0.000000 0.000000 0.000000 4.272978 -13.792867 23.343976 -12.785892 -7.093358 92.435216 -87.496069 49.096438 20.352093 -57.649405 38.464731 51.295353 0.000000 0.000000 0.000000 1.092083 0.788979 -3.816620 -10.802765 -0.336803 6.025881 0.000000 0.000000 0.000000 -3.740508 0.249240 6.319922 -8.898029 -0.809300 -12.848567 0.000000 0.000000 0.000000
0.123847 0.166830 0.114415 4.769559 -0.318523 -0.567584 0.000000 0.000000 0.000000 -11.700044 -3.392743 -17.767108 -49.559955 -7.607837 22.306566 0.000000 0.000000 0.000000 4.617590 -13.801408 23.390212 3.364347 15.119706 -11.998364 5.319057 3.885085 10.918915 -3.511177 0.169142 -0.281301 0.000000 0.000000 0.000000 4.617590 -13.801408 23.390212 -14.734422 -8.479641 98.453810 -104.086067 41.969993 -144.770431 -43.621446 59.336333 -3.667798 0.000000 0.000000 0.000000 0.660595 0.722800 -3.536241 -10.918991 -0.246272 5.594841 0.000000 0.000000 0.000000 -6.863475 0.152755 6.237925 -4.886110 -0.910604 -11.863160 0.000000 0.000000 0.000000
0.120682 0.168676 0.112706 4.671516 -0.316211 -0.579257 0.000000 0.000000 0.000000 -11.699030 -3.369015 -18.513971 -49.528809 -8.133368 22.898077 0.000000 0.000000 0.000000 4.841890 -13.808922 23.442905 2.448216 15.012281 -10.856871 5.326902 4.137263 11.085489 -4.139991 0.824643 -0.271754 0.000000 0.000000 0.000000 4.841890 -13.808922 23.442905 -16.402752 -8.926426 104.718206 -114.030556 38.713045 -119.041907 -10.048433 71.289483 -71.880854 0.000000 0.000000 0.000000 1.247401 0.748405 -3.338343 -13.816775 -0.324212 5.008791 0.000000 0.000000 0.000000 -8.179446 0.118615 7.040269 -3.928521 -1.141221 -13.365898 0.000000 0.000000 0.000000
0.115032 0.173043 0.113537 4.467011 -0.290259 -0.474140 0.000000 0.000000 0.000000 -11.725318 -3.930603 -19.362912 -49.386687 -8.323757 23.773036 0.000000 0.000000 0.000000 4.946957 -13.813556 23.650098 1.894354 15.476176 -9.707112 5.327517 4.302701 10.967605 -4.799230 1.573818 -0.583016 0.000000 0.000000 0.000000 4.946957 -13.813556 23.650098 -18.472886 -13.494777 108.218929 -111.687532 32.944587 -103.889451 30.806488 70.072021 -128.765622 0.000000 0.000000 0.000000 5.502817 1.047385 -3.508497 -23.429662 -0.836702 4.642316 0.000000 0.000000 0.000000 -8.869362 0.097936 7.367221 -3.066838 -1.340124 -14.264336 0.000000 0.000000 0.000000
0.108163 0.179608 0.118119 3.982048 -0.249911 -0.359313 0.000000 0.000000 0.000000 -11.781337 -5.116312 -19.936700 -48.963497 -7.807584 24.962181 0.000000 0.000000 0.000000 5.040921 -13.814475 24.032558 2.533977 16.702106 -9.534667 4.330706 4.161320 11.265338 -5.104171 2.338380 -1.592845 0.000000 0.000000 0.000000 5.040921 -13.814475 24.032558 -21.363020 -23.429974 110.388951 -94.374119 30.033148 -103.720660 38.627122 62.606250 -133.464643 0.000000 0.000000 0.000000 5.914773 0.995211 -3.646064 -23.571808 -0.818550 4.699425 0.000000 0.000000 0.000000 -8.338558 0.082127 7.239971 -3.571463 -1.342822 -14.329863 0.000000 0.000000 0.000000
0.102138 0.186033 0.123375 3.383785 -0.200976 -0.228826 0.000000 0.000000 0.000000 -11.858736 -6.747798 -20.533224 -48.555568 -7.023357 26.397683 0.000000 0.000000 0.000000 5.075695 -13.814882 24.564591 3.490474 18.337149 -9.640262 2.975194 4.004389 11.766507 -5.470119 3.345939 -3.166126 0.000000 0.000000 0.000000 5.075695 -13.814882 24.564591 -23.437402 -32.889332 113.082311 -74.277520 29.821443 -109.925306 33.818279 56.809841 -119.247235 0.000000 0.000000 0.000000 6.408328 0.933222 -3.839506 -23.567497 -0.793943 4.855173 0.000000 0.000000 0.000000 -6.402846 0.076492 6.486752 -7.254332 -1.074716 -13.500584 0.000000 0.000000 0.000000
0.098463 0.190706 0.127094 3.107909 -0.166864 -0.104916 0.000000 0.000000 0.000000 -11.892723 -7.461120 -20.998174 -48.632524 -6.934726 26.876702 0.000000 0.000000 0.000000 5.119883 -13.816057 24.820060 3.981508 19.099655 -9.583110 2.299175 3.889497 11.886171 -5.481709 3.677975 -3.712780 0.000000 0.000000 0.000000 5.119883 -13.816057 24.820060 -22.939616 -33.649221 113.204751 -72.461404 26.635358 -104.753988 38.850121 52.766035 -127.585266 0.000000 0.000000 0.000000 6.602164 0.890570 -4.081039 -23.170073 -0.783687 5.124487 0.000000 0.000000 0.000000 -3.783163 0.093554 5.127056 -13.287993 -0.606061 -11.726503 0.000000 0.000000 0.000000
0.096054 0.193932 0.129136 3.177962 -0.154914 -0.018481 0.000000 0.000000 0.000000 -11.876009 -7.112076 -21.314696 -48.706397 -7.496716 26.531001 0.000000 0.000000 0.000000 5.220295 -13.817986 24.719320 3.846506 18.849303 -9.294031 1.950668 3.832134 12.016779 -5.391379 3.797124 -4.322058 0.000000 0.000000 0.000000 5.220295 -13.817986 24.719320 -22.269594 -33.893548 111.690702 -72.738293 21.922783 -97.330720 43.575339 48.045114 -136.834231 0.000000 0.000000 0.000000 6.461065 0.882742 -4.389796 -22.871960 -0.790133 5.552920 0.000000 0.000000 0.000000 -3.619787 0.095794 4.653989 -13.535701 -0.557640 -10.984931 0.000000 0.000000 0.000000
0.094273 0.196300 0.131178 3.149470 -0.137637 0.072490 0.000000 0.000000 0.000000 -11.872544 -7.038591 -21.540567 -48.646268 -7.745459 26.367662 0.000000 0.000000 0.000000 5.288471 -13.818708 24.707427 3.921513 18.839700 -9.249678 1.674161 3.766509 12.050872 -5.381042 3.963314 -5.132127 0.000000 0.000000 0.000000 5.288471 -13.818708 24.707427 -21.672007 -34.633488 110.278081 -70.928899 18.243766 -93.062948 45.461382 44.260368 -140.427827 0.000000 0.000000 0.000000 6.436202 0.860506 -4.585556 -22.599481 -0.789703 5.768161 0.000000 0.000000 0.000000 -3.423005 0.091282 4.283292 -13.667003 -0.526405 -10.446723 0.000000 0.000000 0.000000
0.092348 0.197798 0.133303 3.281785 -0.133741 0.131126 0.000000 0.000000 0.000000 -11.873595 -7.062060 -21.500694 -48.732525 -7.752390 26.181711 0.000000 0.000000 0.000000 5.132949 -13.818303 24.696650 4.015071 18.867024 -9.180705 1.736874 3.671114 11.629613 -5.389307 3.985248 -5.470348 0.000000 0.000000 0.000000 5.132949 -13.818303 24.696650 -21.372323 -33.876605 109.247666 -71.517782 16.352149 -89.928628 46.968174 42.246083 -143.194738 0.000000 0.000000 0.000000 6.250390 0.865909 -4.873473 -22.256401 -0.794814 6.215916 0.000000 0.000000 0.000000 -3.445370 0.096104 4.047394 -13.565200 -0.519265 -10.111798 0.000000 0.000000 0.000000
0.090410 0.198536 0.136414 3.524066 -0.147448 0.119420 0.000000 0.000000 0.000000 -11.879332 -7.186330 -21.271508 -48.790630 -7.536689 26.114160 0.000000 0.000000 0.000000 4.826636 -13.817284 24.699771 4.302759 18.981698 -9.235540 1.637564 3.477602 10.971212 -5.507168 4.061831 -5.343261 0.000000 0.000000 0.000000 4.826636 -13.817284 24.699771 -21.121588 -32.682758 108.184539 -72.225930 15.598996 -89.406114 47.899404 41.897618 -143.629364 0.000000 0.000000 0.000000 5.951946 0.895308 -5.079408 -21.616032 -0.790903 6.677300 0.000000 0.000000 0.000000 -3.534994 0.117171 3.782364 -13.206033 -0.513513 -9.574803 0.000000 0.000000 0.000000
0.088616 0.198714 0.140054 3.904324 -0.176845 0.054822 0.000000 0.000000 0.000000 -11.853667 -6.652891 -20.888759 -48.924169 -7.674440 25.558639 0.000000 0.000000 0.000000 4.620885 -13.816184 24.491596 4.154317 18.498553 -8.996159 1.420998 3.298230 10.366010 -5.415948 4.027472 -4.703790 0.000000 0.000000 0.000000 4.620885 -13.816184 24.491596 -20.991754 -32.470149 106.515711 -72.868066 14.968916 -90.434557 47.549320 43.405791 -141.199901 0.000000 0.000000 0.000000 5.519287 0.935954 -5.113746 -20.603333 -0.776407 6.954539 0.000000 0.000000 0.000000 -3.737272 0.153068 3.520674 -12.588415 -0.516811 -8.943164 0.000000 0.000000 0.000000
0.087124 0.198407 0.142772 4.379732 -0.201992 0.041200 0.000000 0.000000 0.000000 -11.823373 -6.021974 -20.469290 -49.242692 -7.900068 24.761760 0.000000 0.000000 0.000000 4.339860 -13.814523 24.246703 3.924035 17.922181 -8.625761 1.326287 3.225362 10.465521 -5.360666 3.810099 -3.632254 0.000000 0.000000 0.000000 4.339860 -13.814523 24.246703 -20.380989 -32.917384 103.012149 -72.798692 11.326855 -87.832361 46.724431 43.296003 -138.972811 0.000000 0.000000 0.000000 4.991047 0.962346 -5.142435 -19.706172 -0.772155 7.084619 0.000000 0.000000 0.000000 -4.192244 0.182022 3.125297 -11.483183 -0.527076 -8.160657 0.000000 0.000000 0.000000
0.085270 0.197763 0.143918 4.957406 -0.217829 0.115224 0.000000 0.000000 0.000000 -11.819446 -5.948990 -20.110005 -49.655282 -7.833125 24.201915 0.000000 0.000000 0.000000 3.749095 -13.811700 24.154974 3.950914 17.916332 -7.745282 1.515322 3.218990 11.301632 -5.690032 3.491131 -2.194834 0.000000 0.000000 0.000000 3.749095 -13.811700 24.154974 -18.959159 -33.171941 97.594478 -72.994901 4.767528 -81.036609 47.452162 40.931844 -142.241782 0.000000 0.000000 0.000000 4.334865 0.989845 -5.490808 -19.136719 -0.825873 7.489657 0.000000 0.000000 0.000000 -5.190381 0.187012 2.658949 -9.296773 -0.547339 -7.371830 0.000000 0.000000 0.000000
0.083058 0.196985 0.145731 5.359911 -0.216122 0.250162 0.000000 0.000000 0.000000 -11.852903 -6.664060 -19.809640 -50.316490 -7.361973 24.049454 0.000000 0.000000 0.000000 3.024106 -13.806007 24.302511 3.717991 18.755125 -5.372352 2.162952 3.274940 12.162655 -6.087446 3.273228 -1.367773 0.000000 0.000000 0.000000 3.024106 -13.806007 24.302511 -17.095995 -32.630324 91.613316 -70.919866 -1.251257 -76.650183 45.847198 38.940148 -141.269612 0.000000 0.000000 0.000000 3.864224 0.999653 -5.935319 -18.974538 -0.862606 7.980837 0.000000 0.000000 0.000000 -5.934537 0.177367 2.575846 -7.248399 -0.581366 -7.365801 0.000000 0.000000 0.000000
0.080573 0.195730 0.149307 5.590661 -0.215515 0.327155 0.000000 0.000000 0.000000 -11.880802 -7.258161 -19.139900 -50.878892 -6.621012 23.775638 0.000000 0.000000 0.000000 2.440759 -13.792525 24.422605 3.386331 20.020502 -0.779985 3.302235 2.736918 11.302158 -6.513434 2.967809 -0.693267 0.000000 0.000000 0.000000 2.440759 -13.792525 24.422605 -15.962731 -32.952807 86.199127 -67.569311 -4.972602 -75.575078 43.306377 38.653852 -137.294535 0.000000 0.000000 0.000000 2.920265 0.964394 -6.419798 -18.630084 -0.759639 8.714572 0.000000 0.000000 0.000000 -4.906888 0.232106 3.743047 -10.178020 -0.758189 -10.093105 0.000000 0.000000 0.000000
0.078597 0.194447 0.152546 5.739311 -0.243419 0.192735 0.000000 0.000000 0.000000 -11.901362 -7.698358 -17.727909 -51.743034 -5.443482 23.355173 0.000000 0.000000 0.000000 1.909933 -13.765021 24.482912 2.749787 21.548138 5.718697 4.708642 1.529421 9.128650 -7.168653 2.724739 0.643823 0.000000 0.000000 0.000000 1.909933 -13.765021 24.482912 -16.059801 -33.207226 82.533734 -64.691356 -6.554714 -75.042839 41.680293 38.211197 -133.818796 0.000000 0.000000 0.000000 0.021940 0.772365 -6.535436 -16.172629 -0.204205 9.445132 0.000000 0.000000 0.000000 -5.805428 0.216353 5.296153 -9.967741 -0.817856 -12.472229 0.000000 0.000000 0.000000
0.077359 0.193736 0.154147 5.846030 -0.288498 -0.070640 0.000000 0.000000 0.000000 -11.909654 -7.877911 -16.312221 -52.319505 -4.383860 23.013059 0.000000 0.000000 0.000000 1.558178 -13.733436 24.475590 3.476270 22.995749 11.429945 6.054701 -0.481110 8.499277 -8.637571 1.719786 3.365558 0.000000 0.000000 0.000000 1.558178 -13.733436 24.475590 -16.599953 -32.652759 80.848362 -64.950178 -7.235188 -73.900932 42.211067 37.481864 -135.814275 0.000000 0.000000 0.000000 -4.182948 0.439658 -6.021956 -11.434846 0.673255 9.578627 0.000000 0.000000 0.000000 -6.937635 0.199780 7.292614 -9.701201 -0.887699 -15.304934 0.000000 0.000000 0.000000
0.076988 0.193757 0.154802 6.068443 -0.332320 -0.294699 0.000000 0.000000 0.000000 -11.913491 -7.964428 -15.211364 -52.412379 -3.533758 22.779154 0.000000 0.000000 0.000000 1.188667 -13.704067 24.446053 4.658925 24.167011 16.727957 7.506966 -3.337278 7.550150 -11.098232 0.464625 7.029451 0.000000 0.000000 0.000000 1.188667 -13.704067 24.446053 -16.830566 -31.078452 79.969479 -67.121269 -8.860003 -69.275438 45.166128 34.218079 -144.656375 0.000000 0.000000 0.000000 -3.538151 0.538102 -5.363905 -12.923519 0.528277 8.922159 0.000000 0.000000 0.000000 -7.216930 0.214463 7.595490 -9.470737 -0.818601 -15.133615 0.000000 0.000000 0.000000
0.076876 0.194043 0.154917 6.562716 -0.361432 -0.343811 0.000000 0.000000 0.000000 -11.922925 -8.179052 -13.929658 -53.428279 -2.615888 22.145775 0.000000 0.000000 0.000000 0.431828 -13.657079 24.426624 6.624679 25.067281 20.987706 7.689188 -5.895123 8.336410 -14.595921 -0.804711 13.711685 0.000000 0.000000 0.000000 0.431828 -13.657079 24.426624 -17.033364 -28.301154 79.276878 -69.502547 -10.125034 -64.541053 47.964355 29.477068 -153.698127 0.000000 0.000000 0.000000 -3.993475 0.559019 -5.072678 -12.322989 0.555496 8.650837 0.000000 0.000000 0.000000 -7.532653 0.237272 7.410807 -9.583200 -0.718966 -14.494302 0.000000 0.000000 0.000000
0.076850 0.195778 0.153726 7.015074 -0.384875 -0.368511 0.000000 0.000000 0.000000 -11.924321 -8.224535 -12.524396 -54.392579 -1.631769 21.371625 0.000000 0.000000 0.000000 -0.255034 -13.597542 24.353144 8.978679 25.594016 25.325715 6.870659 -8.292270 8.567137 -19.294065 -0.843562 21.693857 0.000000 0.000000 0.000000 -0.255034 -13.597542 24.353144 -17.455108 -25.467443 79.100935 -72.534615 -11.514006 -58.395024 51.398418 24.049890 -161.351103 0.000000 0.000000 0.000000 -4.437170 0.574359 -4.868526 -11.921349 0.561075 8.409384 0.000000 0.000000 0.000000 -7.620125 0.263564 6.928347 -9.679099 -0.602751 -13.379921 0.000000 0.000000 0.000000
0.076601 0.198769 0.152271 7.241126 -0.392304 -0.350021 0.000000 0.000000 0.000000 -11.954469 -8.871026 -11.548761 -54.879196 -0.511339 21.325883 0.000000 0.000000 0.000000 -0.916353 -13.529499 24.533199 12.087467 26.094130 28.715371 5.159872 -9.225207 10.825404 -25.288524 0.159232 31.702695 0.000000 0.000000 0.000000 -0.916353 -13.529499 24.533199 -17.747827 -24.981041 78.132562 -71.546130 -14.775550 -47.770103 53.526608 15.258564 -142.055926 0.000000 0.000000 0.000000 -4.667189 0.578489 -4.757004 -11.662455 0.614597 8.356999 0.000000 0.000000 0.000000 -7.327436 0.289250 6.124643 -9.752420 -0.483067 -11.812730 0.000000 0.000000 0.000000
0.076036 0.202477 0.151618 7.828800 -0.408001 -0.268562 0.000000 0.000000 0.000000 -11.998479 -9.828625 -10.767912 -55.663976 0.494172 21.432166 0.000000 0.000000 0.000000 -2.028094 -13.451553 24.846715 15.781293 26.368445 32.105529 2.888944 -9.058375 12.798001 -31.928699 1.695637 40.076322 0.000000 0.000000 0.000000 -2.028094 -13.451553 24.846715 -17.852281 -24.429567 77.466368 -70.939381 -17.572586 -39.028200 54.117095 8.433826 -23.205729 0.000000 0.000000 0.000000 -5.235882 0.596435 -4.650532 -11.131153 0.690206 8.304718 0.000000 0.000000 0.000000 -7.567141 0.329662 5.417575 -9.300933 -0.426695 -10.524358 0.000000 0.000000 0.000000
0.075031 0.206195 0.151841 9.150776 -0.440792 -0.052695 0.000000 0.000000 0.000000 -12.055980 -11.114676 -9.941698 -57.294946 1.516611 21.487922 0.000000 0.000000 0.000000 -4.006051 -13.355521 25.266639 18.707787 27.069559 36.103441 0.808590 -8.589431 14.054646 -38.868434 3.749620 45.394918 0.000000 0.000000 0.000000 -4.006051 -13.355521 25.266639 -17.965141 -23.644827 77.193674 -70.668642 -20.421328 -30.094300 53.841981 1.471923 175.899400 0.000000 0.000000 0.000000 -6.525905 0.642296 -4.545685 -10.377818 0.712186 7.946236 0.000000 0.000000 0.000000 -8.664110 0.401000 4.771380 -9.236554 -0.350599 -9.545591 0.000000 0.000000 0.000000
0.074026 0.209908 0.151897 10.372003 -0.469551 0.187233 0.000000 0.000000 0.000000 -12.050451 -11.079317 -9.396834 -58.745185 1.590468 20.633730 0.000000 0.000000 0.000000 -5.303246 -13.319236 25.188349 18.360861 27.882676 41.207757 -0.212846 -9.769331 14.053000 -48.334330 3.202843 49.127527 0.000000 0.000000 0.000000 -5.303246 -13.319236 25.188349 -18.555612 -23.111151 78.038563 -71.838621 -21.703903 -25.491464 53.780576 -2.692472 170.988446 0.000000 0.000000 0.000000 -7.747462 0.689303 -4.385273 -10.087904 0.681784 7.297809 0.000000 0.000000 0.000000 -9.744014 0.473663 4.307167 -9.052055 -0.324782 -9.026440 0.000000 0.000000 0.000000
0.072966 0.212964 0.152048 10.924573 -0.484222 0.297287 0.000000 0.000000 0.000000 -12.024732 -10.573008 -8.755238 -59.535023 1.666826 19.609792 0.000000 0.000000 0.000000 -5.772429 -13.289834 24.948600 17.769122 28.297646 45.307730 -1.255374 -10.695694 14.158530 -56.964629 3.728471 53.363258 0.000000 0.000000 0.000000 -5.772429 -13.289834 24.948600 -19.455645 -23.044725 78.686903 -71.710948 -22.358531 -20.844696 53.157609 -6.730937 168.262628 0.000000 0.000000 0.000000 -8.319119 0.712434 -4.220046 -10.005150 0.659038 6.830855 0.000000 0.000000 0.000000 -10.209708 0.512665 4.080557 -8.724787 -0.321055 -8.733345 0.000000 0.000000 0.000000
0.071779 0.215252 0.152479 10.993340 -0.480711 0.362917 0.000000 0.000000 0.000000 -11.996135 -9.967716 -8.283593 -59.852788 1.730135 18.781386 0.000000 0.000000 0.000000 -5.706676 -13.272945 24.691407 17.616484 28.202431 48.125716 -2.291560 -11.507505 14.302092 -63.829544 4.530263 57.370690 0.000000 0.000000 0.000000 -5.706676 -13.272945 24.691407 -20.273387 -23.370089 78.845365 -70.797649 -22.760728 -17.024186 52.074660 -9.847113 166.310690 0.000000 0.000000 0.000000 -8.422391 0.712610 -4.118392 -9.904718 0.654172 6.561240 0.000000 0.000000 0.000000 -10.267387 0.520727 4.066571 -8.465411 -0.342857 -8.825238 0.000000 0.000000 0.000000
0.070535 0.216840 0.152997 11.151670 -0.479042 0.454490 0.000000 0.000000 0.000000 -11.993005 -9.911581 -7.842121 -60.328063 2.048345 18.409261 0.000000 0.000000 0.000000 -5.956533 -13.234068 24.659784 18.278020 28.169501 50.126643 -3.135369 -11.151981 14.313309 -66.719748 6.968890 62.281017 0.000000 0.000000 0.000000 -5.956533 -13.234068 24.659784 -20.761482 -23.577720 78.623484 -69.265448 -22.992899 -13.523357 50.856973 -12.889965 164.754002 0.000000 0.000000 0.000000 -8.805949 0.708173 -4.034904 -9.113169 0.680255 6.350911 0.000000 0.000000 0.000000 -10.376389 0.538151 3.951258 -8.355366 -0.337188 -8.733661 0.000000 0.000000 0.000000
0.069311 0.217993 0.153815 11.307305 -0.479571 0.525414 0.000000 0.000000 0.000000 -11.978799 -9.618092 -7.468589 -60.782873 2.188415 17.909686 0.000000 0.000000 0.000000 -6.078658 -13.213839 24.532453 18.285668 28.074546 51.330685 -3.593844 -11.100808 14.209397 -68.030316 8.552984 66.089036 0.000000 0.000000 0.000000 -6.078658 -13.213839 24.532453 -21.099116 -23.344591 78.535746 -68.823266 -23.144012 -11.000238 49.959228 -14.976219 163.539298 0.000000 0.000000 0.000000 -9.751154 0.671184 -3.945722 -6.726219 0.753601 6.211524 0.000000 0.000000 0.000000 -10.487130 0.554250 3.849691 -8.309823 -0.330158 -8.642101 0.000000 0.000000 0.000000
0.068208 0.219422 0.154887 11.366078 -0.479570 0.554706 0.000000 0.000000 0.000000 -11.985093 -9.757576 -6.978888 -61.088072 2.670164 17.790810 0.000000 0.000000 0.000000 -6.307180 -13.159582 24.583280 18.835929 27.990818 51.306078 -3.929092 -11.262200 13.987576 -68.219921 9.020757 66.667899 0.000000 0.000000 0.000000 -6.307180 -13.159582 24.583280 -20.989285 -22.966372 77.457867 -67.487048 -24.677334 -5.542524 48.045363 -17.933704 160.757735 0.000000 0.000000 0.000000 -10.802377 0.616751 -3.894497 -3.783603 0.894236 6.343802 0.000000 0.000000 0.000000 -10.511902 0.560850 3.824703 -8.346562 -0.303752 -8.560402 0.000000 0.000000 0.000000
0.067473 0.221021 0.155740 11.338989 -0.476642 0.569625 0.000000 0.000000 0.000000 -11.996596 -10.002711 -6.320051 -61.363949 3.367267 17.717030 0.000000 0.000000 0.000000 -6.531343 -13.080586 24.677684 20.001966 27.412805 50.198777 -4.258639 -11.471723 14.175904 -69.542137 8.820456 68.337247 0.000000 0.000000 0.000000 -6.531343 -13.080586 24.677684 -19.820048 -21.438482 74.477198 -65.794448 -29.254091 6.154320 44.018045 -22.903751 154.033197 0.000000 0.000000 0.000000 -10.031524 0.660211 -3.997932 -4.547641 0.883499 6.680521 0.000000 0.000000 0.000000 -10.462424 0.560615 3.833833 -8.439945 -0.253429 -8.443282 0.000000 0.000000 0.000000
0.067206 0.222013 0.154737 11.278530 -0.473274 0.572028 0.000000 0.000000 0.000000 -11.974233 -9.514591 -5.582681 -61.493353 3.875806 17.129765 0.000000 0.000000 0.000000 -6.402497 -13.045215 24.477424 20.821670 26.139861 49.715905 -4.785708 -11.444896 13.509382 -69.507695 8.081415 66.481724 0.000000 0.000000 0.000000 -6.402497 -13.045215 24.477424 -17.618281 -19.112461 68.950873 -64.617450 -36.279387 19.993956 38.905899 -28.280871 144.386509 0.000000 0.000000 0.000000 -10.029895 0.652129 -3.899854 -4.209128 0.891438 6.582294 0.000000 0.000000 0.000000 -10.374713 0.557120 3.877807 -8.487682 -0.197803 -8.332187 0.000000 0.000000 0.000000
0.067134 0.221803 0.153936 11.180925 -0.471944 0.537105 0.000000 0.000000 0.000000 -11.887460 -7.628120 -5.010079 -61.627631 3.600989 15.534318 0.000000 0.000000 0.000000 -5.534334 -13.148835 23.762916 19.529805 24.705958 50.579679 -4.673963 -10.483068 13.149984 -69.290811 7.858066 64.449455 0.000000 0.000000 0.000000 -5.534334 -13.148835 23.762916 -15.001960 -16.668497 62.058324 -65.938113 -40.306808 22.161996 38.638477 -28.993438 144.843467 0.000000 0.000000 0.000000 -10.051766 0.635793 -3.743753 -3.369701 0.845040 6.319040 0.000000 0.000000 0.000000 -10.180902 0.550493 3.960219 -8.564160 -0.177896 -8.349830 0.000000 0.000000 0.000000
0.067215 0.220836 0.154797 10.754039 -0.458691 0.455973 0.000000 0.000000 0.000000 -11.733345 -4.256308 -4.340087 -61.591419 2.696567 12.613419 0.000000 0.000000 0.000000 -3.623283 -13.398916 22.623363 16.217038 22.863820 51.756214 -4.353484 -10.074073 13.568366 -70.360856 6.905251 61.192182 0.000000 0.000000 0.000000 -3.623283 -13.398916 22.623363 -13.010165 -14.298159 55.545754 -70.410732 -41.924064 14.659654 42.583329 -24.736105 154.123893 0.000000 0.000000 0.000000 -9.836802 0.591841 -3.508247 -2.277944 0.758055 5.867474 0.000000 0.000000 0.000000 -9.633143 0.519425 4.232679 -8.606837 -0.188456 -8.697908 0.000000 0.000000 0.000000
0.067114 0.219675 0.157687 9.591598 -0.396867 0.475473 0.000000 0.000000 0.000000 -11.584262 -0.968288 -3.637322 -60.858707 2.032701 9.730630 0.000000 0.000000 0.000000 -1.005901 -13.678892 21.754264 12.079820 21.790676 52.256426 -3.907283 -10.834683 14.665602 -71.924612 6.132750 59.120259 0.000000 0.000000 0.000000 -1.005901 -13.678892 21.754264 -12.669669 -14.203046 49.841720 -72.883107 -41.081686 -0.816872 47.064635 -13.818071 144.450566 0.000000 0.000000 0.000000 -8.845108 0.514996 -3.500558 -2.141402 0.682308 5.512041 0.000000 0.000000 0.000000 -8.428988 0.447764 4.473678 -8.677630 -0.241466 -9.341283 0.000000 0.000000 0.000000
0.066763 0.218136 0.158950 7.899453 -0.298673 0.566425 0.000000 0.000000 0.000000 -11.455277 1.845613 -2.964386 -59.372406 1.430588 7.090961 0.000000 0.000000 0.000000 1.972202 -13.956822 21.188560 8.714716 20.738545 52.778302 -3.236813 -10.398764 14.974269 -72.135086 5.902770 57.516928 0.000000 0.000000 0.000000 1.972202 -13.956822 21.188560 -12.369882 -14.124206 44.332923 -75.352236 -37.480815 -34.368835 44.715393 8.965828 52.498199 0.000000 0.000000 0.000000 -7.315983 0.407928 -3.558615 -2.495316 0.622315 5.158426 0.000000 0.000000 0.000000 -6.643983 0.348118 4.510225 -9.225162 -0.262847 -9.796837 0.000000 0.000000 0.000000
0.066414 0.215794 0.157167 5.218607 -0.159266 0.571077 0.000000 0.000000 0.000000 -11.368249 3.706007 -2.379036 -56.698657 0.839643 5.144516 0.000000 0.000000 0.000000 5.545469 -14.163399 20.919957 5.949351 20.466768 53.437103 -2.130825 -8.851418 14.789346 -73.035995 5.450741 56.852306 0.000000 0.000000 0.000000 5.545469 -14.163399 20.919957 -11.181246 -12.583210 39.483500 -77.736535 -30.985451 -59.884034 21.418442 35.074324 -93.454496 0.000000 0.000000 0.000000 -4.803286 0.237039 -3.408870 -3.183280 0.553838 4.606713 0.000000 0.000000 0.000000 -3.952914 0.180156 4.795569 -9.811016 -0.296809 -10.577826 0.000000 0.000000 0.000000
0.066700 0.213538 0.151875 2.737632 -0.040961 0.500770 0.000000 0.000000 0.000000 -11.312511 4.870400 -2.013808 -54.454745 0.203211 3.853891 0.000000 0.000000 0.000000 8.601083 -14.287291 20.811220 4.756628 19.870200 54.168786 -1.487762 -7.100674 13.703975 -74.532202 3.688918 53.411970 0.000000 0.000000 0.000000 8.601083 -14.287291 20.811220 -9.872381 -11.063533 35.413292 -80.725430 -24.595314 3.988709 -21.215943 36.399594 -13.868109 0.000000 0.000000 0.000000 -2.595627 0.075130 -3.027750 -2.827940 0.487314 3.941192 0.000000 0.000000 0.000000 -1.199633 0.038987 4.839503 -9.891754 -0.339954 -10.715017 0.000000 0.000000 0.000000
0.067540 0.212394 0.145522 1.959882 -0.003605 0.483445 0.000000 0.000000 0.000000 -11.270415 5.754969 -2.375657 -53.351061 -0.786531 3.301574 0.000000 0.000000 0.000000 9.818073 -14.342076 20.787840 3.599812 19.697661 55.562214 -1.019501 -5.973783 12.933996 -77.584016 1.862320 49.377540 0.000000 0.000000 0.000000 9.818073 -14.342076 20.787840 -8.636251 -9.728856 32.755739 -79.334971 -14.711922 155.813533 -46.904786 9.037138 62.107593 0.000000 0.000000 0.000000 -2.116310 0.015487 -2.932521 -2.527476 0.431664 3.591207 0.000000 0.000000 0.000000 -0.139061 -0.000333 4.831016 -9.980858 -0.430650 -10.998192 0.000000 0.000000 0.000000
0.068584 0.211809 0.139626 1.843899 0.003829 0.490799 0.000000 0.000000 0.000000 -11.251281 6.158089 -2.525672 -52.943567 -1.236672 3.021426 0.000000 0.000000 0.000000 10.127945 -14.365542 20.780132 3.353438 19.358673 55.877572 -0.795820 -5.566440 13.802038 -80.782520 1.061747 43.078158 0.000000 0.000000 0.000000 10.127945 -14.365542 20.780132 -7.368668 -7.537887 30.715523 -76.684136 -4.711260 123.975471 -45.994492 -7.675155 86.826823 0.000000 0.000000 0.000000 -2.215765 -0.003045 -2.871027 -2.783854 0.337540 3.127662 0.000000 0.000000 0.000000 0.016803 -0.014093 5.075134 -10.097079 -0.535138 -11.799720 0.000000 0.000000 0.000000
0.070071 0.209937 0.131608 1.812887 0.017002 0.552690 0.000000 0.000000 0.000000 -11.244773 6.298960 -2.712302 -52.591342 -1.563983 2.855543 0.000000 0.000000 0.000000 10.232815 -14.367845 20.782465 3.968722 18.748262 56.216933 -0.903696 -5.236995 14.604945 -84.297609 0.264478 32.938954 0.000000 0.000000 0.000000 10.232815 -14.367845 20.782465 -6.400261 -5.078577 30.240778 -70.937317 4.326146 104.048724 -44.033780 -11.786442 7.226705 0.000000 0.000000 0.000000 -2.313332 -0.019857 -2.850044 -3.481334 0.246451 2.663042 0.000000 0.000000 0.000000 -0.169045 -0.042922 5.567346 -10.036557 -0.692736 -13.235952 0.000000 0.000000 0.000000
0.071800 0.206379 0.119321 2.039356 0.009998 0.578742 0.000000 0.000000 0.000000 -11.244530 6.306812 -3.059632 -52.240699 -1.977534 2.934752 0.000000 0.000000 0.000000 10.013357 -14.345479 20.800469 5.449083 17.714522 56.903383 -1.008384 -3.957350 14.675139 -86.774777 -0.356818 22.591991 0.000000 0.000000 0.000000 10.013357 -14.345479 20.800469 -5.209194 -1.317451 31.299150 -60.676674 14.480048 81.840987 -42.973014 -10.932218 -141.657644 0.000000 0.000000 0.000000 -2.666296 -0.015360 -2.814231 -3.693284 0.160620 2.282443 0.000000 0.000000 0.000000 -0.712751 -0.051468 6.226308 -9.505970 -0.913642 -14.968821 0.000000 0.000000 0.000000
0.073793 0.201986 0.106785 2.145774 -0.008583 0.508829 0.000000 0.000000 0.000000 -11.223067 6.753123 -3.227764 -52.214077 -2.525991 2.607154 0.000000 0.000000 0.000000 10.108352 -14.361963 20.801948 6.613082 16.298878 57.499809 -0.864188 -2.088650 14.149692 -86.839632 -0.256938 22.686938 0.000000 0.000000 0.000000 10.108352 -14.361963 20.801948 -4.187249 3.148416 33.331340 -48.802488 21.259680 61.264154 -44.484462 -6.362537 -92.740579 0.000000 0.000000 0.000000 -2.963520 -0.007547 -2.660565 -3.390073 0.066356 1.866677 0.000000 0.000000 0.000000 -0.962979 -0.042636 6.763429 -9.095437 -1.085367 -16.198109 0.000000 0.000000 0.000000
0.075475 0.197850 0.099371 2.179818 -0.020115 0.455791 0.000000 0.000000 0.000000 -11.181968 7.612697 -3.244618 -52.382155 -3.040983 2.024919 0.000000 0.000000 0.000000 10.467208 -14.420561 20.784207 6.997761 14.924126 58.080311 -0.772760 -0.819431 13.723009 -87.557055 -0.233021 23.413419 0.000000 0.000000 0.000000 10.467208 -14.420561 20.784207 -3.993771 5.310920 34.663830 -39.200663 22.787474 47.782273 -45.843377 -1.698396 -64.956413 0.000000 0.000000 0.000000 -3.148147 -0.005487 -2.591937 -3.069162 -0.061614 1.446923 0.000000 0.000000 0.000000 -1.001585 -0.035966 7.028919 -9.030614 -1.218200 -16.982137 0.000000 0.000000 0.000000
0.076809 0.194115 0.096154 2.286133 -0.035573 0.401785 0.000000 0.000000 0.000000 -11.165651 7.951885 -3.153050 -52.724132 -3.146710 1.741756 0.000000 0.000000 0.000000 10.509978 -14.448793 20.778706 6.524392 14.889515 58.466211 -0.547821 -0.524788 13.477594 -88.329574 0.496917 31.820868 0.000000 0.000000 0.000000 10.509978 -14.448793 20.778706 -3.791412 6.718051 35.658168 -31.378653 23.068835 38.192851 -47.558961 2.416791 -49.364945 0.000000 0.000000 0.000000 -3.282364 0.006931 -2.475520 -3.083336 -0.149048 1.112248 0.000000 0.000000 0.000000 -1.065405 -0.020597 7.079254 -9.354720 -1.241237 -17.142859 0.000000 0.000000 0.000000
0.077619 0.190763 0.094312 2.228499 -0.039861 0.362524 0.000000 0.000000 0.000000 -11.150739 8.260777 -2.972176 -52.865891 -3.181643 1.418069 0.000000 0.000000 0.000000 10.702960 -14.482103 20.772427 5.904496 15.059431 59.196181 -0.214004 -0.174282 12.963048 -88.564999 1.739128 44.856262 0.000000 0.000000 0.000000 10.702960 -14.482103 20.772427 -3.768304 7.440289 36.218839 -26.462647 22.354729 31.723090 -48.069112 4.706057 -42.177777 0.000000 0.000000 0.000000 -3.235504 0.008369 -2.402145 -3.131445 -0.214152 0.878560 0.000000 0.000000 0.000000 -1.172224 -0.021676 7.374237 -9.454568 -1.320931 -17.819838 0.000000 0.000000 0.000000
0.078590 0.188105 0.092568 2.142264 -0.046753 0.301333 0.000000 0.000000 0.000000 -11.131589 8.656652 -2.755353 -52.800138 -3.279601 1.057994 0.000000 0.000000 0.000000 10.960628 -14.522690 20.767621 5.952069 14.682466 60.624058 0.189615 0.698430 12.936593 -91.668613 3.549150 57.582181 0.000000 0.000000 0.000000 10.960628 -14.522690 20.767621 -4.034053 7.357021 36.459948 -24.411259 21.516856 28.196984 -46.075817 5.931161 -39.489959 0.000000 0.000000 0.000000 -3.163282 0.010536 -2.350529 -3.258924 -0.250289 0.776245 0.000000 0.000000 0.000000 -1.528943 -0.022923 8.023143 -8.978518 -1.499986 -19.141555 0.000000 0.000000 0.000000
0.079464 0.185952 0.091494 2.147953 -0.056036 0.252614 0.000000 0.000000 0.000000 -11.123077 8.832195 -2.652497 -52.776226 -3.393193 0.818213 0.000000 0.000000 0.000000 11.027589 -14.539947 20.767287 6.818186 14.020295 62.655363 0.662639 1.687963 14.293018 -100.911169 5.443567 61.334079 0.000000 0.000000 0.000000 11.027589 -14.539947 20.767287 -4.503777 6.318773 36.494319 -24.251997 21.182707 27.304281 -42.857173 5.811773 -40.017814 0.000000 0.000000 0.000000 -3.179232 0.016386 -2.332642 -3.566524 -0.295540 0.668195 0.000000 0.000000 0.000000 -2.254797 -0.017378 8.922983 -8.163077 -1.794731 -21.057200 0.000000 0.000000 0.000000
0.079941 0.183393 0.091300 2.228888 -0.069031 0.203646 0.000000 0.000000 0.000000 -11.119295 8.910496 -2.641086 -52.870853 -3.614797 0.517933 0.000000 0.000000 0.000000 10.975014 -14.542865 20.769523 7.317009 13.703931 64.229386 1.556169 2.495999 16.695172 -114.283477 5.280261 46.026975 0.000000 0.000000 0.000000 10.975014 -14.542865 20.769523 -4.622114 6.090616 36.588483 -23.727349 20.924984 26.325214 -41.871125 5.789824 -39.988700 0.000000 0.000000 0.000000 -3.244864 0.027090 -2.355378 -3.931406 -0.299510 0.735620 0.000000 0.000000 0.000000 -3.012254 -0.002453 9.690913 -7.245297 -2.077929 -22.660810 0.000000 0.000000 0.000000
0.080379 0.180543 0.091422 2.592835 -0.097306 0.145805 0.000000 0.000000 0.000000 -11.114805 9.007802 -2.662232 -53.340828 -3.947105 0.000430 0.000000 0.000000 0.000000 10.649265 -14.546988 20.772246 7.438252 13.573134 65.086893 2.680946 3.215263 20.477567 -130.041387 0.319406 59.376478 0.000000 0.000000 0.000000 10.649265 -14.546988 20.772246 -4.643892 6.202628 36.848872 -23.324054 20.524683 24.990470 -41.513642 5.965101 -39.040275 0.000000 0.000000 0.000000 -3.553755 0.054463 -2.446807 -4.283029 -0.284154 0.965762 0.000000 0.000000 0.000000 -3.548982 0.027036 9.879899 -7.233198 -2.142005 -22.992735 0.000000 0.000000 0.000000
0.082055 0.178707 0.090704 3.482492 -0.151805 0.082073 0.000000 0.000000 0.000000 -11.106144 9.201488 -2.898165 -54.349074 -4.490945 -0.582450 0.000000 0.000000 0.000000 9.846262 -14.544259 20.782602 9.027934 11.944512 64.982157 -0.746963 0.216250 26.879114 -144.017791 -17.668801 77.914852 0.000000 0.000000 0.000000 9.846262 -14.544259 20.782602 -4.574595 6.572956 37.130739 -23.132585 20.202763 24.169837 -41.712239 6.703329 -37.714966 0.000000 0.000000 0.000000 -4.372442 0.108812 -2.560060 -4.633355 -0.263529 1.255920 0.000000 0.000000 0.000000 -5.064394 0.091186 10.481844 -6.431351 -2.371709 -24.074846 0.000000 0.000000 0.000000
0.083273 0.178233 0.090059 4.631750 -0.211444 0.056129 0.000000 0.000000 0.000000 -11.106765 9.211351 -3.433577 -55.376980 -5.117835 -0.814598 0.000000 0.000000 0.000000 8.714388 -14.509111 20.799186 12.046031 9.244518 62.879663 -13.281525 -10.327536 33.591544 -139.102801 -45.638213 84.785720 0.000000 0.000000 0.000000 8.714388 -14.509111 20.799186 -4.550205 6.481213 37.564163 -22.832638 20.276058 23.989317 -42.780077 7.766654 -35.271285 0.000000 0.000000 0.000000 -5.471249 0.169001 -2.716151 -4.739787 -0.236692 1.574331 0.000000 0.000000 0.000000 -6.535078 0.157306 10.744124 -5.925645 -2.496101 -24.537676 0.000000 0.000000 0.000000
