HIERARCHY
ROOT Hips
{
  OFFSET 0.000000 0.000000 0.000000
  CHANNELS 6 Xposition Yposition Zposition Xrotation Yrotation Zrotation
  JOINT Spine
  {
    OFFSET -1.605968 -23.793274 -0.756600
    CHANNELS 3 Xrotation Yrotation Zrotation
    JOINT Chest
    {
      OFFSET -1.605968 -23.793274 -0.756600
      CHANNELS 3 Xrotation Yrotation Zrotation
      JOINT Neck
      {
        OFFSET -6.288522 -17.427103 -1.717909
        CHANNELS 3 Xrotation Yrotation Zrotation
        JOINT Head
        {
          OFFSET -6.418879 2.270624 -1.669267
          CHANNELS 3 Xrotation Yrotation Zrotation
          End Site
          {
            OFFSET 0.0 5.0 2.0
          }
        }
      }
      JOINT LeftShoulder
      {
        OFFSET 4.993806 -0.965454 -8.751451
        CHANNELS 3 Xrotation Yrotation Zrotation
        JOINT LeftArm
        {
          OFFSET -0.637901 21.036452 -4.788065
          CHANNELS 3 Xrotation Yrotation Zrotation
          JOINT LeftForeArm
          {
            OFFSET -12.620728 13.003071 -2.408415
            CHANNELS 3 Xrotation Yrotation Zrotation
            JOINT LeftHand
            {
              OFFSET -3.572583 3.611593 -2.340508
              CHANNELS 3 Xrotation Yrotation Zrotation
              End Site
              {
                OFFSET -3.0 0.0 2.0
              }
            }
          }
        }
      }
      JOINT RightShoulder
      {
        OFFSET -4.993806 0.965454 8.751451
        CHANNELS 3 Xrotation Yrotation Zrotation
        JOINT RightArm
        {
          OFFSET -4.928958 22.036360 -3.025883
          CHANNELS 3 Xrotation Yrotation Zrotation
          JOINT RightForeArm
          {
            OFFSET -12.506123 12.168533 -13.661999
            CHANNELS 3 Xrotation Yrotation Zrotation
            JOINT RightHand
            {
              OFFSET 5.000000 0.000000 0.000000
              CHANNELS 3 Xrotation Yrotation Zrotation
              End Site
              {
                OFFSET 3.0 0.0 2.0
              }
            }
          }
        }
      }
    }
  }
  JOINT LeftUpLeg
  {
    OFFSET 5.454339 0.341272 -5.424501
    CHANNELS 3 Xrotation Yrotation Zrotation
    JOINT LeftLeg
    {
      OFFSET -0.590307 39.928713 2.000000
      CHANNELS 3 Xrotation Yrotation Zrotation
      JOINT LeftFoot
      {
        OFFSET 8.025014 35.612765 7.026376
        CHANNELS 3 Xrotation Yrotation Zrotation
        JOINT LeftToeBase
        {
          OFFSET -2.284864 5.638587 -11.032027
          CHANNELS 3 Xrotation Yrotation Zrotation
          End Site
          {
            OFFSET 0.0 -1.0 3.0
          }
        }
      }
    }
  }
  JOINT RightUpLeg
  {
    OFFSET -5.454339 -0.341272 5.424501
    CHANNELS 3 Xrotation Yrotation Zrotation
    JOINT RightLeg
    {
      OFFSET -1.968025 39.300493 2.000000
      CHANNELS 3 Xrotation Yrotation Zrotation
      JOINT RightFoot
      {
        OFFSET 6.495313 37.662619 6.668724
        CHANNELS 3 Xrotation Yrotation Zrotation
        JOINT RightToeBase
        {
          OFFSET -6.948810 7.036144 -9.344696
          CHANNELS 3 Xrotation Yrotation Zrotation
          End Site
          {
            OFFSET 0.0 -1.0 3.0
          }
        }
      }
    }
  }
}
MOTION
Frames: 81
Frame Time: 0.066667
0.000000 0.000000 0.000000 0.000000 0.000000 0.000000 0.000000 0.000000 0.000000 0.000000 0.000000 0.000000 0.000000 0.000000 0.000000 0.000000 0.000000 0.000000 0.000000 0.000000 0.000000 0.000000 0.000000 0.000000 0.000000 0.000000 0.000000 0.000000 0.000000 0.000000 0.000000 0.000000 0.000000 0.000000 0.000000 0.000000 70.894977 42.032842 123.291713 0.000000 0.000000 0.000000 -3.863003 -0.057067 0.001925 0.000000 0.000000 0.000000 124.244815 18.519342 34.259467 0.000000 0.000000 0.000000 -0.282457 -0.014144 0.000035 0.000000 0.000000 0.000000 85.447797 44.551698 41.445179 0.000000 0.000000 0.000000
0.000000 0.000000 0.000000 4.927005 26.770823 6.338429 2.375500 -0.195532 0.665586 -162.266344 72.609308 -170.364361 54.926615 57.859541 55.278808 0.000000 0.000000 0.000000 7.150216 3.726151 21.454662 20.709023 22.540774 -17.089424 19.046418 10.561159 -18.540846 0.000000 0.000000 0.000000 7.257858 -0.610061 -29.197784 22.312355 17.512580 -2.173043 7.686410 3.766695 127.837689 0.000000 0.000000 0.000000 -5.934350 -0.087937 -0.201173 -1.451058 -0.601404 5.001235 117.700337 19.349006 25.108621 0.000000 0.000000 0.000000 -1.063488 -0.012594 -0.977233 -1.791852 0.153176 0.964320 85.991947 44.609946 30.745541 0.000000 0.000000 0.000000
0.000000 0.000000 0.000000 1.535337 -15.885918 0.376962 7.722983 -0.528552 0.053759 -3.997504 -21.154714 0.927848 -37.404814 -50.842730 27.878894 0.000000 0.000000 0.000000 23.678740 0.970474 16.163450 18.857628 17.615930 1.280032 14.522134 11.264588 -5.216446 0.000000 0.000000 0.000000 13.451671 2.892488 -6.017523 23.051298 2.626140 -22.909617 8.493662 9.431292 83.986944 0.000000 0.000000 0.000000 -6.092210 -0.070549 6.187994 -1.150006 -0.263628 2.786210 119.197951 19.729794 38.327483 0.000000 0.000000 0.000000 -1.590370 0.006186 -2.318723 -0.346534 -0.657130 4.096147 95.563857 46.061925 23.932059 0.000000 0.000000 0.000000
0.000000 0.000000 0.000000 1.357950 -26.865153 -0.896676 9.203056 -0.829248 1.814347 -5.845368 -45.418743 5.819218 -42.739804 -60.145695 28.182751 0.000000 0.000000 0.000000 10.623646 -1.589225 -14.334148 -19.031955 -16.505589 5.140990 -6.548519 -0.750231 8.082817 0.000000 0.000000 0.000000 7.890611 1.653700 -1.508601 6.204687 -21.258465 -22.839324 10.797652 39.207509 29.722131 0.000000 0.000000 0.000000 -6.516094 -0.074435 3.182515 2.783203 -1.256360 2.780351 121.495650 18.218107 -3.311427 0.000000 0.000000 0.000000 -4.260636 -0.249527 2.690044 3.876868 -1.122743 2.103195 90.252183 45.567439 14.532799 0.000000 0.000000 0.000000
0.000000 0.000000 0.000000 1.336002 -28.150612 -1.069507 9.222997 -1.099066 4.174851 -5.126192 -44.686104 5.750422 -47.621435 -65.314980 30.490256 0.000000 0.000000 0.000000 2.779911 -2.482743 -12.601630 -25.236803 -21.687235 6.478456 -11.043100 -4.560872 8.503965 0.000000 0.000000 0.000000 7.053048 1.385929 -2.491407 -4.146087 -17.239317 -9.411695 32.466146 62.559491 51.211581 0.000000 0.000000 0.000000 -7.533620 -0.073358 2.407134 5.041781 -2.142564 4.019488 119.581448 18.052203 -2.180134 0.000000 0.000000 0.000000 -7.972157 -0.193000 10.889221 7.977070 -1.507772 0.446827 88.889721 45.153965 20.117459 0.000000 0.000000 0.000000
0.000000 0.000000 0.000000 1.120454 -21.821693 -0.594671 8.917133 -0.990956 3.491487 -2.729504 -37.025095 4.449203 -29.075017 -54.071983 14.962345 0.000000 0.000000 0.000000 -6.018541 -0.762621 -2.035722 -21.915840 -17.428856 8.701836 -11.218511 -3.585722 9.977305 0.000000 0.000000 0.000000 5.563808 0.640891 -6.854498 3.258797 -31.209067 -25.885095 29.053617 57.196348 50.842541 0.000000 0.000000 0.000000 -11.481297 0.363206 10.592995 4.211053 -1.365664 1.716753 117.441482 18.717835 13.380687 0.000000 0.000000 0.000000 -8.823851 -0.068266 14.158616 6.776404 -1.702539 2.155196 84.160482 44.353713 23.522862 0.000000 0.000000 0.000000
0.000000 0.000000 0.000000 1.087442 -19.394666 -0.391912 7.416903 -0.885585 3.935832 -2.212976 -33.594189 3.900053 -20.081182 -41.479811 9.867554 0.000000 0.000000 0.000000 -3.412939 -0.971957 -3.344058 -18.536791 -17.084064 2.951218 -11.413797 -6.624912 6.358294 0.000000 0.000000 0.000000 13.299289 2.713692 -14.850463 8.379710 -21.811280 -25.633657 40.352262 49.555859 77.043200 0.000000 0.000000 0.000000 -12.093993 0.352251 9.540562 3.193778 -1.086395 1.586148 118.067810 18.937733 18.031816 0.000000 0.000000 0.000000 -9.740927 0.077583 16.420226 5.895939 -1.379240 1.513170 82.433003 44.021642 20.247381 0.000000 0.000000 0.000000
0.000000 0.000000 0.000000 1.509680 -17.045224 0.249242 7.817811 -0.923277 3.900215 -1.263502 -28.258516 3.249208 -18.034863 -39.347518 7.977154 0.000000 0.000000 0.000000 -3.038730 -1.011069 -3.586977 -13.175794 -12.097223 2.384461 -2.851264 -5.055951 -3.008722 0.000000 0.000000 0.000000 13.413805 2.677584 -19.999287 7.088952 -15.644001 -19.874902 41.169674 41.286458 89.822801 0.000000 0.000000 0.000000 -10.753247 0.223636 8.713887 2.871374 -0.965059 1.396239 119.605426 18.655823 13.411475 0.000000 0.000000 0.000000 -8.247570 -0.077535 15.713845 4.961987 -2.302401 6.375837 80.251757 43.835503 26.090229 0.000000 0.000000 0.000000
0.000000 0.000000 0.000000 2.139039 -12.737833 1.249203 7.317212 -1.100959 6.262048 1.793926 -11.417842 2.231352 -15.944837 -35.078484 7.272539 0.000000 0.000000 0.000000 -2.642966 1.897863 7.855113 -3.995546 -10.790767 -21.779682 5.203270 2.780738 -3.951766 0.000000 0.000000 0.000000 12.565128 2.188993 -25.684538 9.643090 -5.598361 -14.678552 36.812186 30.421040 101.499272 0.000000 0.000000 0.000000 -9.744326 0.092082 6.733452 1.412511 -0.195417 -0.587443 117.863423 18.167444 3.214991 0.000000 0.000000 0.000000 -2.352313 -0.593075 15.711005 -0.967316 -1.223398 8.152733 77.163604 43.573106 29.200738 0.000000 0.000000 0.000000
0.000000 0.000000 0.000000 1.997153 -4.350274 1.726356 4.825716 -0.788014 6.190962 2.637117 -8.798062 2.372471 -8.758195 -23.552643 1.614352 0.000000 0.000000 0.000000 -7.769855 1.206197 4.819583 -12.991904 -16.838270 -8.878226 4.153370 4.522274 0.909021 0.000000 0.000000 0.000000 4.581327 -1.126379 -21.431350 5.238782 -3.538332 -8.201809 47.492657 29.673306 117.893491 0.000000 0.000000 0.000000 -8.286151 0.162287 12.738978 -6.273840 1.615614 -1.564845 112.185300 17.765487 2.358630 0.000000 0.000000 0.000000 -0.918416 -0.398261 8.239278 -4.213195 0.719231 0.021636 73.249228 42.451107 21.228462 0.000000 0.000000 0.000000
0.000000 0.000000 0.000000 1.766440 -7.777049 1.252994 5.369272 -0.939582 7.253176 0.188060 -21.604034 2.785714 -11.110362 -33.349782 -0.216288 0.000000 0.000000 0.000000 -12.352619 -2.142840 -5.092700 -13.561468 -11.201950 5.590835 3.118267 5.141295 3.728837 0.000000 0.000000 0.000000 -2.719663 -2.815079 -13.139785 -0.304580 -12.121834 -9.550743 43.775744 35.400929 103.073057 0.000000 0.000000 0.000000 -11.274647 0.394409 11.564530 -6.913940 2.821434 -9.841276 103.969353 11.463128 -29.362589 0.000000 0.000000 0.000000 -4.504497 -0.303005 6.810835 -6.939939 1.095657 0.791734 70.790626 41.498057 16.194638 0.000000 0.000000 0.000000
0.000000 0.000000 0.000000 1.711123 -8.095570 1.174000 5.301920 -0.889674 6.736531 -0.608966 -22.234530 2.542539 -11.829365 -37.258142 -1.187092 0.000000 0.000000 0.000000 -13.816570 -0.799181 -1.020503 -13.148663 -12.992517 0.117775 3.146747 6.896915 6.969620 0.000000 0.000000 0.000000 -1.310089 -1.510517 -7.997721 1.825790 -10.360875 -10.348375 40.052734 32.968478 101.856803 0.000000 0.000000 0.000000 -13.820586 0.403043 8.580336 -9.264930 3.104701 -9.624528 103.106531 11.773010 -26.325410 0.000000 0.000000 0.000000 -6.063648 -0.294879 3.744316 -9.936255 1.864817 -2.012483 70.727211 40.462840 6.763997 0.000000 0.000000 0.000000
0.000000 0.000000 0.000000 1.455431 -8.832061 0.861963 3.840202 -0.706438 6.782424 -0.283466 -19.384637 2.267098 -10.917476 -35.476118 -1.799890 0.000000 0.000000 0.000000 -12.516766 -3.308153 -8.399559 -13.716382 -11.241128 5.857348 3.948694 7.238748 6.350411 0.000000 0.000000 0.000000 14.643470 3.214731 -8.227334 6.822262 -7.103804 -12.908553 40.375438 34.377830 99.851046 0.000000 0.000000 0.000000 -20.049503 0.431477 5.797691 -5.333038 2.444745 -8.652523 101.015677 11.668357 -23.655463 0.000000 0.000000 0.000000 -14.924674 0.485348 15.431648 -5.947875 2.385198 -11.325379 64.849810 38.050961 2.728697 0.000000 0.000000 0.000000
0.000000 0.000000 0.000000 1.198850 -10.288106 0.493559 5.394553 -0.861584 6.238358 -0.947356 -21.114322 2.231058 -10.038158 -36.674139 -4.019960 0.000000 0.000000 0.000000 -8.909791 -2.027166 -5.617715 -12.915209 -11.402894 3.509993 3.277997 4.945118 3.114182 0.000000 0.000000 0.000000 15.501194 3.470159 -8.530577 4.789743 -10.774153 -13.721241 42.388226 41.250601 91.705980 0.000000 0.000000 0.000000 -17.960378 0.088273 3.303973 3.806808 -1.022137 0.676500 92.661002 9.875782 -20.878234 0.000000 0.000000 0.000000 -14.476072 -0.635008 1.173792 -0.630742 3.654562 -21.138456 61.657438 28.691544 -30.593611 0.000000 0.000000 0.000000
0.000000 0.000000 0.000000 0.586991 -15.726198 -0.565139 3.144983 -0.338331 2.114263 -3.790424 -32.393830 3.141155 -3.393330 -41.200724 -17.665463 0.000000 0.000000 0.000000 -8.999760 -4.619315 -13.803215 -17.624289 -13.574376 8.749853 -0.765258 7.088945 13.126473 0.000000 0.000000 0.000000 12.299816 2.632442 -3.679626 -0.637933 -17.104145 -12.784473 49.792706 57.865324 80.033445 0.000000 0.000000 0.000000 -17.648489 -0.960683 -6.690749 3.704739 1.036066 -8.178431 100.449090 12.660119 -18.412819 0.000000 0.000000 0.000000 -16.190781 -0.191171 6.812924 1.001662 3.325029 -19.142679 70.429378 35.454190 -28.455407 0.000000 0.000000 0.000000
0.000000 0.000000 0.000000 -0.132604 -20.059276 -1.684205 2.166280 -0.134382 -0.234965 -6.422975 -36.050507 3.138580 -4.346089 -44.984662 -17.274673 0.000000 0.000000 0.000000 -5.654817 -4.637071 -15.771206 -19.674759 -16.699100 5.997567 -4.176936 3.656487 11.758820 0.000000 0.000000 0.000000 11.906344 2.552364 -2.973192 -6.549532 -23.652376 -11.227362 44.308187 61.778698 68.478303 0.000000 0.000000 0.000000 -17.465245 -1.594304 -12.926386 6.346287 -0.542415 -3.525443 107.029946 14.770157 -15.563749 0.000000 0.000000 0.000000 -12.898998 -0.812626 -2.697366 2.864355 1.203132 -8.433651 76.142942 41.139875 -5.193012 0.000000 0.000000 0.000000
0.000000 0.000000 0.000000 0.078314 -23.762626 -1.844716 2.254923 -0.015584 -2.653418 -10.254630 -43.885762 4.428112 -0.547063 -57.917087 -26.280667 0.000000 0.000000 0.000000 -7.108640 -6.849820 -22.169842 -27.216506 -20.335703 12.083945 -12.241662 4.255805 22.151035 0.000000 0.000000 0.000000 3.829257 0.493673 -3.505317 -16.189953 -33.709730 -7.868187 8.177349 75.398683 10.568434 0.000000 0.000000 0.000000 -15.369274 -1.887600 -19.460569 2.525427 -1.052250 2.161015 107.145019 15.015502 -14.122641 0.000000 0.000000 0.000000 -28.659827 0.438274 9.324337 5.741371 2.173219 -13.975092 81.415308 43.289985 0.898572 0.000000 0.000000 0.000000
0.000000 0.000000 0.000000 -0.722248 -24.991512 -2.782347 2.660765 -0.005422 -3.165120 -11.260483 -40.390498 3.026805 -7.966150 -53.319499 -14.326982 0.000000 0.000000 0.000000 -4.099196 -5.328635 -19.318499 -19.245017 -16.786645 4.976961 -9.125894 2.420394 15.939644 0.000000 0.000000 0.000000 -1.148362 -1.292404 -6.890316 -14.117473 -27.702783 -6.489352 7.807295 54.064598 15.234672 0.000000 0.000000 0.000000 -15.862333 -1.715508 -16.559259 1.438830 -0.542725 1.029445 110.271284 16.131079 -10.342868 0.000000 0.000000 0.000000 -16.510881 -1.709997 -9.354632 2.850729 2.114137 -13.008505 88.020363 45.225562 7.264540 0.000000 0.000000 0.000000
0.000000 0.000000 0.000000 -1.274231 -27.175879 -3.583255 3.500430 0.033659 -4.328802 -13.150228 -43.870310 3.791486 -22.028749 -57.871743 3.515510 0.000000 0.000000 0.000000 3.130261 -3.024624 -15.515223 -17.808107 -18.556120 -1.502250 -9.968353 -3.218842 8.956013 0.000000 0.000000 0.000000 0.516688 -0.908818 -7.604986 -9.213778 -28.680403 -11.660813 6.094614 48.562491 13.460364 0.000000 0.000000 0.000000 -16.179061 -1.611231 -14.896190 1.200788 -0.608074 1.608827 111.360330 15.842462 -14.576947 0.000000 0.000000 0.000000 -13.916418 -1.574110 -12.253048 3.341047 2.486821 -14.980450 89.871208 45.785604 4.686018 0.000000 0.000000 0.000000
0.000000 0.000000 0.000000 -1.035453 -34.527379 -4.299482 5.737162 -0.145587 -2.953375 -17.244689 -56.181450 8.978855 -62.714814 -75.298181 40.391897 0.000000 0.000000 0.000000 6.103311 -3.800678 -22.706654 -25.435388 -25.640629 0.180192 -10.966187 -2.840101 10.660464 0.000000 0.000000 0.000000 1.018118 0.656094 3.374386 -2.071928 -42.948715 -26.710300 2.693147 34.057208 8.777594 0.000000 0.000000 0.000000 -11.335889 -0.727152 -11.385854 8.584806 -1.797103 -0.607118 110.150198 13.578180 -30.026963 0.000000 0.000000 0.000000 -10.291514 -0.871232 -9.046874 9.219683 0.217894 -7.017169 98.096730 46.965363 17.366811 0.000000 0.000000 0.000000
0.000000 0.000000 0.000000 -0.854279 -36.561420 -4.424412 5.500427 -0.280495 -1.143438 -16.331621 -57.988573 10.057753 -76.658735 -77.580534 53.115415 0.000000 0.000000 0.000000 5.389034 -4.042792 -23.090739 -27.448268 -25.442128 3.798200 -10.239351 0.043511 13.763838 0.000000 0.000000 0.000000 3.492974 1.329760 5.310206 2.454393 -44.600941 -32.372072 3.311451 33.242631 11.061568 0.000000 0.000000 0.000000 -10.423940 -0.551434 -9.671796 8.512986 -1.581864 -1.321184 111.343865 13.765585 -31.943082 0.000000 0.000000 0.000000 -9.177838 -0.631660 -5.852280 9.041138 -1.506905 -0.296396 95.869596 45.970576 26.004553 0.000000 0.000000 0.000000
0.000000 0.000000 0.000000 -0.538699 -35.629301 -3.963739 11.556913 -0.763302 -0.163756 -11.771879 -55.981083 9.110190 -60.997305 -65.161841 45.186293 0.000000 0.000000 0.000000 16.679975 -1.128351 -20.387789 -7.038663 -9.191903 -6.970540 3.169911 3.733840 1.131778 0.000000 0.000000 0.000000 14.196804 3.174178 5.684781 27.519420 -33.940469 -56.539310 4.864726 24.207944 22.407839 0.000000 0.000000 0.000000 -11.243177 -0.347086 -3.760911 7.378126 -2.145825 1.706223 114.693348 16.931628 -9.894625 0.000000 0.000000 0.000000 -9.309585 -0.622784 -5.130907 9.913333 -0.938939 -2.975882 89.847109 45.370164 18.390924 0.000000 0.000000 0.000000
0.000000 0.000000 0.000000 -0.621936 -33.143548 -3.686508 11.208047 -0.990571 1.751357 -8.741339 -50.420451 7.014065 -55.299568 -64.638739 39.428683 0.000000 0.000000 0.000000 16.747767 0.390728 -1.340841 -6.358428 -9.743830 -10.753961 5.891243 -1.684022 -12.343792 0.000000 0.000000 0.000000 12.336790 2.703277 -1.094533 26.263042 -5.485117 -35.470831 9.963214 26.012636 41.349411 0.000000 0.000000 0.000000 -13.383729 -0.309533 -1.673233 -4.169730 0.765804 1.058445 117.654054 17.556105 -7.599188 0.000000 0.000000 0.000000 -11.229255 -1.291806 -15.211154 -0.500559 0.512114 -2.478508 94.011566 45.981529 21.196945 0.000000 0.000000 0.000000
0.000000 0.000000 0.000000 -0.575658 -32.759089 -3.586717 13.541055 -1.251769 2.173772 -6.833213 -51.317909 7.573487 -63.005249 -66.010050 46.730511 0.000000 0.000000 0.000000 18.391467 0.628968 1.367003 -5.877958 -11.159098 -16.121812 5.971053 -2.324270 -13.437290 0.000000 0.000000 0.000000 17.168735 3.813022 -1.152463 24.939253 -3.782239 -32.026185 18.392915 31.080667 60.416362 0.000000 0.000000 0.000000 -13.397396 -0.102964 1.415978 -3.831618 0.449414 2.523799 118.877157 18.205613 2.815091 0.000000 0.000000 0.000000 -9.653985 -1.182822 -20.423371 -0.182333 0.994776 -5.534579 95.763362 46.175766 22.645859 0.000000 0.000000 0.000000
0.000000 0.000000 0.000000 -0.496459 -31.120681 -3.287314 12.938552 -1.375366 3.378661 -5.888318 -53.035979 8.279783 -57.723399 -66.408864 40.874493 0.000000 0.000000 0.000000 4.232566 -2.391776 -13.222786 -20.201139 -19.168339 2.090037 -4.131492 -3.294264 1.221578 0.000000 0.000000 0.000000 23.767885 4.639263 7.507360 17.329656 -7.870808 -25.669788 23.597971 34.647787 67.619849 0.000000 0.000000 0.000000 -11.543662 -0.079854 1.783809 4.801103 -1.288884 0.809723 117.273566 17.690428 -4.385582 0.000000 0.000000 0.000000 -7.916734 -0.508428 -6.100842 10.196435 -1.681492 -0.402101 90.753950 45.127636 30.445761 0.000000 0.000000 0.000000
0.000000 0.000000 0.000000 -0.015687 -26.344457 -2.221998 10.708492 -1.611877 6.967567 -2.005282 -46.082263 6.724572 -40.842558 -60.735303 25.561438 0.000000 0.000000 0.000000 -2.952658 -3.893695 -14.786186 -23.556168 -19.054542 8.431579 -10.636454 0.626780 15.055335 0.000000 0.000000 0.000000 24.650144 4.619937 9.282170 14.299985 -9.473002 -23.327434 30.601102 44.100609 68.072133 0.000000 0.000000 0.000000 -11.653694 -0.098415 1.423098 8.285376 -1.881466 -0.056866 115.957828 18.294174 6.583145 0.000000 0.000000 0.000000 -2.951723 -0.197618 1.997984 13.919339 -3.367207 2.901916 81.950617 44.173362 30.635120 0.000000 0.000000 0.000000
0.000000 0.000000 0.000000 0.318072 -24.057511 -1.634518 4.314084 -0.968058 9.623960 3.020763 -32.869901 5.461899 -26.217575 -51.178180 12.847204 0.000000 0.000000 0.000000 -3.856031 -5.122146 -18.752346 -23.462021 -13.526262 19.551112 -10.772956 6.662323 24.378904 0.000000 0.000000 0.000000 19.356306 4.008587 6.496966 6.688771 -9.062311 -14.376915 27.286223 38.026822 70.320237 0.000000 0.000000 0.000000 -10.194796 -0.147954 0.063983 7.818517 -2.083686 1.079734 116.214223 18.052711 2.865551 0.000000 0.000000 0.000000 -3.550303 -0.272779 4.818846 10.691459 -1.726740 -0.552497 79.869188 44.025427 32.835886 0.000000 0.000000 0.000000
0.000000 0.000000 0.000000 1.530011 -24.438267 -0.453103 3.525877 -0.872941 10.023869 7.072184 -32.581564 6.736712 -24.290171 -49.995845 10.872024 0.000000 0.000000 0.000000 -4.507712 -4.469798 -15.915009 -22.173125 -12.742204 19.150460 -14.217145 0.812673 19.252940 0.000000 0.000000 0.000000 30.593444 1.902334 34.879016 5.502793 9.317688 4.218738 40.159292 33.920483 100.323952 0.000000 0.000000 0.000000 -7.524606 -0.116384 -0.341912 12.368120 -2.723512 -0.424829 114.887412 18.256931 6.480105 0.000000 0.000000 0.000000 -3.789983 -0.300978 6.310080 12.094898 -2.031052 -0.351358 77.774423 43.731981 30.930334 0.000000 0.000000 0.000000
0.000000 0.000000 0.000000 1.191315 -16.267769 -0.003212 3.060742 -0.740462 9.026088 5.779689 -28.369407 5.839315 -12.936978 -28.479112 6.424927 0.000000 0.000000 0.000000 -13.014515 -2.819018 -6.854861 -22.937852 -13.201884 19.402391 -10.395499 3.780185 19.446723 0.000000 0.000000 0.000000 16.261692 3.453523 11.311647 5.810228 -1.224759 -6.706402 63.532433 47.882311 108.715913 0.000000 0.000000 0.000000 -6.554018 -0.079011 2.474214 7.894674 -0.975519 -3.054785 112.371301 19.757548 22.411088 0.000000 0.000000 0.000000 -4.659764 -0.358833 12.502157 8.519045 -1.479736 -0.045745 70.848846 43.057400 31.781592 0.000000 0.000000 0.000000
0.000000 0.000000 0.000000 1.388029 -2.371523 1.244583 1.949230 -0.661484 10.731719 7.209630 -16.985477 5.343745 -8.398648 -22.097573 1.923342 0.000000 0.000000 0.000000 -17.637553 1.776700 5.888887 -17.357802 -9.344911 18.711889 -6.449308 4.059411 15.295698 0.000000 0.000000 0.000000 6.211278 1.894285 6.519145 2.347584 -6.610596 -7.893185 56.866530 45.330506 104.716994 0.000000 0.000000 0.000000 -5.089435 -0.137260 11.029549 2.312151 1.138277 -7.676973 99.473118 21.685178 25.116446 0.000000 0.000000 0.000000 -2.637219 -0.462158 11.905574 3.221256 -0.367401 -0.924041 69.066917 42.213556 25.766269 0.000000 0.000000 0.000000
0.000000 0.000000 0.000000 1.865664 -4.004243 1.617245 2.124925 -0.691172 10.752821 7.790440 -17.938349 5.680758 -8.833569 -23.928582 1.500303 0.000000 0.000000 0.000000 -15.333700 -0.100624 1.021991 -22.119683 -9.787026 26.029995 -11.782316 8.548132 28.466990 0.000000 0.000000 0.000000 4.075423 1.056205 1.499291 -6.444345 -19.571889 -8.745913 42.571623 45.828915 85.331040 0.000000 0.000000 0.000000 -5.905849 -0.076863 6.856027 2.356504 0.174562 -3.239916 105.613985 18.902136 12.321490 0.000000 0.000000 0.000000 -2.600354 -0.612634 17.169969 2.620786 -0.528582 0.370555 68.993188 42.478759 28.263318 0.000000 0.000000 0.000000
0.000000 0.000000 0.000000 2.045183 -2.820874 1.877203 2.625383 -0.737822 10.129044 7.181140 -18.030767 5.417238 -6.983722 -24.948412 -3.126853 0.000000 0.000000 0.000000 -25.056172 -2.064682 -2.638140 -26.796015 -8.621388 35.538657 -10.198225 12.267278 33.435431 0.000000 0.000000 0.000000 -0.255949 0.732143 5.709076 -6.984580 -23.261311 -10.564726 38.605861 40.646127 86.801956 0.000000 0.000000 0.000000 -11.311059 0.624285 16.166177 7.494212 -0.310529 -5.253084 98.329545 20.880380 20.723870 0.000000 0.000000 0.000000 -10.691315 0.571136 25.737048 6.813988 -0.708922 -1.998713 61.487666 39.839675 18.530083 0.000000 0.000000 0.000000
0.000000 0.000000 0.000000 2.495287 -5.268028 2.165843 3.005676 -0.778094 9.798416 7.224560 -20.247016 5.623175 -6.297140 -25.378347 -4.860608 0.000000 0.000000 0.000000 -20.762619 -3.373216 -6.301462 -26.261153 -9.485706 32.833556 -9.705911 10.306709 29.454427 0.000000 0.000000 0.000000 3.276261 1.417854 6.510219 -3.199706 -18.780637 -11.371542 44.517924 39.046034 98.195256 0.000000 0.000000 0.000000 -11.013061 0.153181 6.844443 9.576641 -1.831939 -1.268899 104.432666 15.246166 -9.538820 0.000000 0.000000 0.000000 -21.591987 3.106936 29.874143 9.451786 -1.973419 1.183636 66.051541 41.993663 27.499554 0.000000 0.000000 0.000000
0.000000 0.000000 0.000000 2.615729 -5.864335 2.245930 2.801168 -0.733799 9.577560 6.158359 -19.906353 5.134772 -4.535085 -18.141518 -4.023410 0.000000 0.000000 0.000000 -25.517569 -1.595166 -1.597844 -32.888725 -9.661645 40.338960 -13.189257 9.641844 31.583566 0.000000 0.000000 0.000000 -5.913834 -0.150844 6.197916 -11.818093 -24.510712 -6.759989 44.629218 50.720766 81.778814 0.000000 0.000000 0.000000 -8.581617 -0.156132 -1.186256 7.785180 -0.620992 -4.291011 109.673206 17.532994 1.758584 0.000000 0.000000 0.000000 -17.548109 2.516282 32.531002 9.302783 -2.723527 4.100330 56.074058 42.464429 36.893138 0.000000 0.000000 0.000000
0.000000 0.000000 0.000000 2.787015 -6.399743 2.381186 3.917731 -0.638890 5.624887 6.053369 -8.858070 4.123786 -2.902667 -6.853212 1.585012 0.000000 0.000000 0.000000 -38.795802 3.206076 7.200087 -34.217162 -14.686069 31.999382 -10.731843 0.014202 14.295230 0.000000 0.000000 0.000000 -13.264918 -4.909645 -7.035266 -10.718179 -31.561496 -11.852814 31.425820 47.497848 65.190077 0.000000 0.000000 0.000000 -8.826696 -0.290659 -5.930571 13.468588 -3.163167 0.128051 105.437605 16.843319 -0.733204 0.000000 0.000000 0.000000 -13.274480 1.562560 33.572963 10.486356 -3.832545 7.121613 61.627947 41.185172 26.320749 0.000000 0.000000 0.000000
0.000000 0.000000 0.000000 3.005412 -8.296560 2.465233 4.030130 -0.573473 4.464471 5.035558 -11.573334 3.848252 -5.483053 -11.616400 3.983069 0.000000 0.000000 0.000000 -31.862338 -2.265907 -2.193998 -28.788279 -13.115661 28.315228 -9.076351 4.111806 18.480686 0.000000 0.000000 0.000000 -10.590485 -5.081411 -10.988334 -1.440494 -27.726045 -18.836076 21.970839 33.397538 65.811679 0.000000 0.000000 0.000000 -7.875857 -0.294196 -9.484411 23.393936 -5.132956 -1.012215 104.407150 15.322070 -9.076701 0.000000 0.000000 0.000000 -7.339213 0.078505 32.887583 15.659260 -7.574224 14.291035 68.399926 42.221539 26.691148 0.000000 0.000000 0.000000
0.000000 0.000000 0.000000 0.124965 -4.926088 -0.198425 -8.889486 0.776134 3.810784 -1.373203 -7.831678 0.183105 -3.259951 -7.405201 2.068042 0.000000 0.000000 0.000000 -24.220460 -3.804481 -6.478941 -17.883961 -10.602031 16.477097 10.036635 15.117125 14.186412 0.000000 0.000000 0.000000 4.601518 -0.107461 -11.648447 -0.122061 -12.787546 -10.223362 49.484309 28.078354 123.031012 0.000000 0.000000 0.000000 -30.556760 2.186821 11.984301 -11.179034 6.415749 -44.005163 82.401522 6.623925 -21.182653 0.000000 0.000000 0.000000 -11.245601 1.411886 40.487895 -22.959635 3.172244 -23.260108 60.141534 29.975190 -22.912396 0.000000 0.000000 0.000000
0.000000 0.000000 0.000000 0.280023 -12.496702 -0.605140 -5.214398 0.388275 2.623183 -2.595154 -13.601423 0.361512 -3.447777 -7.679882 2.333000 0.000000 0.000000 0.000000 -21.958016 -6.473747 -12.984692 -34.301307 -21.760523 19.728351 -5.685688 5.236451 16.288986 0.000000 0.000000 0.000000 -10.082806 -4.453493 -9.119955 -24.834943 -27.874443 2.830294 107.314843 58.569135 135.157420 0.000000 0.000000 0.000000 -23.652840 -2.697213 -14.770486 21.438100 0.610003 -14.134733 96.571576 6.867753 -35.944119 0.000000 0.000000 0.000000 -21.627732 4.323141 38.059065 7.761109 4.384546 -23.478897 55.906575 29.195490 -16.865278 0.000000 0.000000 0.000000
0.000000 0.000000 0.000000 -0.199578 24.579969 1.087935 -5.014053 0.365161 2.214676 -0.609099 3.681010 -0.759871 0.797774 4.866252 4.337551 0.000000 0.000000 0.000000 -26.481747 -7.912254 -14.296783 -26.464204 -24.454353 3.806648 -1.626947 5.500611 11.452346 0.000000 0.000000 0.000000 28.568342 7.770057 -11.497366 28.867407 24.850845 3.491802 52.110341 21.909247 136.804174 0.000000 0.000000 0.000000 -11.858381 1.464990 30.062337 5.350444 0.574231 -7.299809 80.666176 22.295961 19.910317 0.000000 0.000000 0.000000 -1.936317 0.289339 -11.293677 -11.861647 4.863059 -42.073533 40.446653 10.943003 -28.681145 0.000000 0.000000 0.000000
0.000000 0.000000 0.000000 0.238827 23.892667 1.497509 -3.060777 0.190043 3.306082 5.144794 20.594239 1.421807 0.508227 2.824462 2.113910 0.000000 0.000000 0.000000 -30.510438 -0.332495 1.270530 -24.320306 -25.307233 -1.186436 5.772179 -5.074460 -16.958198 0.000000 0.000000 0.000000 20.006243 6.554971 -40.618501 4.035523 -5.631003 -8.776523 50.373268 44.983570 97.277022 0.000000 0.000000 0.000000 -10.935283 0.741125 19.718802 -5.382241 5.010771 -26.886846 87.803855 7.025178 -24.789592 0.000000 0.000000 0.000000 -5.663063 -0.289359 4.808070 -12.955662 3.197613 -17.223608 52.302833 26.793629 -17.274194 0.000000 0.000000 0.000000
0.000000 0.000000 0.000000 0.084382 19.669814 1.148987 -2.999020 0.186736 2.825911 4.173376 7.168368 1.781201 -4.019252 -7.707152 4.002983 0.000000 0.000000 0.000000 -21.461472 1.480023 4.975633 -30.338553 -15.318015 25.987966 -28.871847 -2.247182 28.896974 0.000000 0.000000 0.000000 18.379962 4.337700 -8.769058 -35.378559 -47.146182 2.890870 -155.210076 53.771859 -167.283647 0.000000 0.000000 0.000000 -9.872480 0.569944 19.656818 -6.770247 2.390377 -6.670971 94.033390 20.026046 15.765872 0.000000 0.000000 0.000000 -5.555545 -0.265669 -5.360431 -12.087089 4.418587 -36.117174 52.116846 18.313026 -35.410835 0.000000 0.000000 0.000000
0.000000 0.000000 0.000000 -4.150880 18.970497 -3.130828 -5.265400 0.348860 -0.436248 -1.336214 0.037641 -0.767937 -10.510458 -24.781395 4.364075 0.000000 0.000000 0.000000 -42.465115 20.579327 32.376961 7.864633 8.964694 34.833450 11.945456 15.717241 12.313063 0.000000 0.000000 0.000000 -6.344264 -0.192043 6.362485 -39.244103 -35.339227 11.088096 -11.351353 40.731204 -29.976437 0.000000 0.000000 0.000000 -13.622940 1.639186 26.304513 -9.095236 4.564172 -23.425928 54.408529 14.512181 3.877386 0.000000 0.000000 0.000000 -6.179910 -0.315117 -1.924197 -14.024195 3.014661 -13.072201 61.906328 25.733480 -39.788688 0.000000 0.000000 0.000000
0.000000 0.000000 0.000000 -7.475060 23.204752 -6.258347 -5.335512 0.321282 -2.577545 -3.805933 -0.192655 -2.154621 -15.322119 -34.453149 6.611483 0.000000 0.000000 0.000000 -40.539749 23.120852 37.157579 10.947519 10.465150 42.602468 7.244572 14.380173 16.991834 0.000000 0.000000 0.000000 -16.649489 -1.112161 9.288724 -45.117380 -33.118092 16.557983 -8.885231 26.228079 -36.887086 0.000000 0.000000 0.000000 -13.743387 2.274791 34.469723 -7.537006 4.720440 -24.849059 66.933281 12.252818 -1.986999 0.000000 0.000000 0.000000 -5.912000 -0.296959 -1.625043 -13.022357 2.501953 -5.022691 62.237242 34.602479 -9.590317 0.000000 0.000000 0.000000
0.000000 0.000000 0.000000 -6.089801 16.371517 -5.195851 0.979587 0.032962 -2.456298 -2.810760 -1.163493 -1.459639 -10.471391 -28.858348 1.406751 0.000000 0.000000 0.000000 -18.762934 29.792492 68.305131 37.031329 17.941571 54.916045 23.259612 19.527228 -3.605791 0.000000 0.000000 0.000000 -33.937926 -1.921902 13.340238 -61.089170 -26.879263 30.057917 -3.593673 21.669407 -18.617496 0.000000 0.000000 0.000000 -11.934686 1.147809 24.151042 9.764245 -1.713079 -1.822002 72.359466 20.665940 14.538687 0.000000 0.000000 0.000000 -15.084965 0.529219 15.800821 -5.081411 1.652535 -6.051878 61.481132 36.820237 2.383627 0.000000 0.000000 0.000000
0.000000 0.000000 0.000000 -2.360987 -1.119137 -2.442107 5.244143 -0.162225 -2.473808 -3.538963 -8.055684 -0.920742 -9.112104 -31.354555 -2.774838 0.000000 0.000000 0.000000 -29.539416 33.270268 61.845348 29.288971 17.671409 43.546128 16.111071 10.587463 -10.698376 0.000000 0.000000 0.000000 -27.960557 -3.872800 6.694015 -49.697688 -31.524310 20.572396 -0.507200 20.060112 -2.867095 0.000000 0.000000 0.000000 -9.752882 0.329740 13.457645 30.657631 -8.175606 1.371174 80.765623 18.048777 8.615214 0.000000 0.000000 0.000000 -20.926307 1.769667 21.154358 3.832093 -2.176120 7.018344 62.839077 36.785808 -0.294531 0.000000 0.000000 0.000000
0.000000 0.000000 0.000000 -1.846725 -3.049430 -2.052414 6.430055 -0.269421 -1.878018 -3.508734 -14.292100 0.023952 -7.066154 -33.379711 -7.769720 0.000000 0.000000 0.000000 -18.521646 31.984441 72.662419 45.987462 28.218577 32.488929 23.849583 12.301676 -29.317061 0.000000 0.000000 0.000000 -24.544680 2.507462 22.587646 -50.760022 -52.004963 14.104092 1.157582 17.045751 7.713056 0.000000 0.000000 0.000000 -9.659202 0.301878 12.932012 18.609902 -3.698262 -1.766544 112.055809 15.894191 -15.458101 0.000000 0.000000 0.000000 -14.646835 0.930558 21.426450 0.747405 -2.716297 13.706755 65.426365 41.869804 27.220891 0.000000 0.000000 0.000000
0.000000 0.000000 0.000000 -3.625815 38.060289 -1.787654 -0.966444 0.057394 0.335356 4.187719 32.302789 -0.048828 11.248772 29.553903 -4.708248 0.000000 0.000000 0.000000 -10.885008 8.141544 25.479949 26.045990 21.869891 11.252039 26.864626 21.739568 -7.570167 0.000000 0.000000 0.000000 38.276314 7.037832 6.759181 52.979173 44.882282 66.840647 -4.384040 -16.503596 29.569973 0.000000 0.000000 0.000000 -6.739622 0.332803 46.765600 -9.020575 -1.026274 25.155168 81.591566 43.411686 75.403397 0.000000 0.000000 0.000000 6.400893 0.150209 1.600740 -3.394472 4.772036 -29.387084 43.743681 19.190332 -20.483505 0.000000 0.000000 0.000000
0.000000 0.000000 0.000000 -2.897527 52.613002 -0.522304 -3.906847 0.268001 1.821126 7.979256 43.618860 2.184134 15.830304 38.934648 0.973362 0.000000 0.000000 0.000000 -12.959508 4.471119 13.908889 19.700002 19.408128 -5.919316 25.774485 9.290627 -42.863557 0.000000 0.000000 0.000000 36.692222 7.900839 1.076814 36.266185 39.603792 40.264963 -13.860458 -11.920337 98.679658 0.000000 0.000000 0.000000 -5.535926 -0.160931 43.871906 -9.918444 0.403265 16.564408 84.362204 40.791797 72.840484 0.000000 0.000000 0.000000 0.382028 -0.501453 9.615458 -13.406082 4.362841 -38.727017 72.636957 37.987372 -20.476407 0.000000 0.000000 0.000000
0.000000 0.000000 0.000000 -2.822484 59.769537 -0.201302 -3.044131 0.197372 1.560805 11.640184 45.968027 4.989700 10.733187 28.359434 -7.131288 0.000000 0.000000 0.000000 5.232278 1.706636 8.612113 57.243830 33.726993 33.316333 27.219126 25.322262 12.675049 0.000000 0.000000 0.000000 30.442224 6.652819 0.438670 33.863164 40.836736 46.372567 -110.506827 -11.541111 171.980605 0.000000 0.000000 0.000000 -2.425418 -1.489365 47.693735 -3.720440 -1.547976 14.204046 50.554820 47.519136 53.312906 0.000000 0.000000 0.000000 -0.745856 0.102048 -3.137760 -13.234369 4.312845 -37.310624 57.265495 29.269223 -19.209977 0.000000 0.000000 0.000000
0.000000 0.000000 0.000000 -0.259180 70.092322 2.705163 -2.236198 0.144083 0.556120 15.591978 58.620812 7.971833 16.761888 41.977500 -2.008663 0.000000 0.000000 0.000000 7.023230 1.433350 7.466747 63.323760 41.407427 25.064060 33.986631 20.413893 -55.568133 0.000000 0.000000 0.000000 20.787374 5.715904 -20.105155 27.800146 32.530865 23.272395 -36.340311 -3.376015 169.738278 0.000000 0.000000 0.000000 -0.772746 -2.310569 49.999924 -2.622113 -1.251147 10.418320 70.132943 42.928490 61.278100 0.000000 0.000000 0.000000 1.034576 0.305172 -4.214838 -14.044650 3.818347 -29.820119 48.956970 22.553496 -21.718315 0.000000 0.000000 0.000000
0.000000 0.000000 0.000000 -0.502947 67.463026 2.375855 -2.576548 0.182270 -0.919541 14.607603 57.121741 7.157619 14.792943 38.082570 -3.432249 0.000000 0.000000 0.000000 9.587084 3.597583 23.315248 66.673511 27.595912 54.090087 49.297096 34.400721 48.156970 0.000000 0.000000 0.000000 41.338764 9.818537 -2.634848 62.417558 43.963568 57.149894 -144.893180 -27.362891 171.193490 0.000000 0.000000 0.000000 -1.495084 -1.644004 42.072239 -7.027576 0.226847 9.985736 81.032645 34.296971 52.163476 0.000000 0.000000 0.000000 0.638737 -0.129583 2.863081 -12.167023 3.546960 -22.852149 32.848359 30.393892 12.955114 0.000000 0.000000 0.000000
0.000000 0.000000 0.000000 0.953962 65.961139 3.785972 -2.442536 0.174024 -0.891678 13.095290 51.302654 6.018120 14.168861 36.298232 -2.328394 0.000000 0.000000 0.000000 16.489718 5.256511 55.767070 78.634070 31.221219 55.201726 47.688681 40.335592 -25.296822 0.000000 0.000000 0.000000 46.351717 8.604970 5.991511 56.784632 44.451701 63.841544 -112.120443 -33.141582 157.352520 0.000000 0.000000 0.000000 -1.624316 -0.630086 16.805267 -11.579898 1.375538 12.983657 81.904769 30.026716 41.564013 0.000000 0.000000 0.000000 -0.262853 -0.510321 10.251444 -13.189035 1.792250 7.741708 43.982198 36.911161 21.685429 0.000000 0.000000 0.000000
0.000000 0.000000 0.000000 0.505026 62.301645 3.215788 -0.277677 0.057964 -1.336802 9.787779 46.779380 3.481289 9.258675 24.129239 -5.606507 0.000000 0.000000 0.000000 9.262193 14.762679 84.447669 66.508590 26.991157 55.142435 34.062887 26.308441 -23.429650 0.000000 0.000000 0.000000 48.114161 10.272696 1.550921 88.773479 40.916557 85.902799 2.376724 -10.091475 -26.442865 0.000000 0.000000 0.000000 -2.228390 -0.522757 15.934221 -12.074019 1.663124 11.661438 86.188430 30.383163 46.299479 0.000000 0.000000 0.000000 -0.511366 -0.539608 11.095504 -13.033670 1.964743 4.221219 50.701526 36.456353 14.786125 0.000000 0.000000 0.000000
0.000000 0.000000 0.000000 -6.165584 54.659913 -3.720987 -8.473787 0.461897 -2.584619 1.079176 38.630710 -2.860895 0.906732 -3.121121 -7.082412 0.000000 0.000000 0.000000 -3.669724 18.943446 66.398410 56.759345 27.836460 45.828763 34.708312 28.639572 -2.989027 0.000000 0.000000 0.000000 22.538967 4.121335 12.400983 -6.627308 26.075056 32.640443 0.055863 33.464066 0.185824 0.000000 0.000000 0.000000 -10.333842 0.575549 18.015135 -24.532114 5.520288 4.755990 89.149668 32.218455 55.170584 0.000000 0.000000 0.000000 -12.641881 0.204736 14.004266 -19.751761 3.329847 -3.465667 53.281479 35.999767 10.390156 0.000000 0.000000 0.000000
0.000000 0.000000 0.000000 -5.616783 52.573653 -3.244888 -4.705918 0.292508 -2.633048 6.574601 39.785597 1.288673 6.690967 11.187064 -17.937550 0.000000 0.000000 0.000000 14.045319 8.862781 73.293288 77.307069 31.634875 53.772156 103.491725 35.855054 70.552682 0.000000 0.000000 0.000000 44.520502 2.440328 28.019978 40.320145 48.257650 81.686664 52.940825 -21.017542 -139.136071 0.000000 0.000000 0.000000 -13.557241 1.853005 29.471054 -21.728307 4.770654 -0.412030 72.733752 32.261011 40.554271 0.000000 0.000000 0.000000 2.005270 -1.724906 26.484462 -12.489944 2.573641 -7.226034 35.588010 22.213059 -5.206568 0.000000 0.000000 0.000000
0.000000 0.000000 0.000000 -5.967204 57.264366 -3.432930 -4.638235 0.266342 -5.252563 9.005773 48.860336 2.764954 10.116628 28.348703 -31.160426 0.000000 0.000000 0.000000 20.554356 3.891384 66.858311 88.003122 28.840011 63.240888 -159.637092 46.843597 74.210699 0.000000 0.000000 0.000000 36.264796 0.833909 37.788557 25.488714 45.555353 64.620576 22.411534 -12.107805 -123.676453 0.000000 0.000000 0.000000 -11.286331 1.738268 38.015070 -17.423810 3.906678 -1.910511 71.209543 33.235126 41.701490 0.000000 0.000000 0.000000 7.371395 -3.097563 29.663442 -9.467223 2.054360 -4.913865 35.334888 25.285751 0.674614 0.000000 0.000000 0.000000
0.000000 0.000000 0.000000 -6.258769 56.166464 -3.762154 -4.976440 0.258776 -6.511233 10.340729 48.090173 3.875473 9.999179 26.945948 -29.109552 0.000000 0.000000 0.000000 21.420262 3.012284 59.858018 86.734835 24.872150 68.091474 134.762244 -14.960722 118.186332 0.000000 0.000000 0.000000 43.932941 1.069246 33.372604 45.030013 47.132482 78.711570 36.693088 -22.454422 -118.192736 0.000000 0.000000 0.000000 -11.587520 1.975903 40.445761 -20.161472 4.436148 -0.312614 66.979244 38.616161 49.849528 0.000000 0.000000 0.000000 11.186399 -3.654175 27.954269 -8.073759 1.804107 -4.161850 34.787631 26.708975 3.931764 0.000000 0.000000 0.000000
0.000000 0.000000 0.000000 -6.177009 51.944313 -3.827297 -4.467854 0.234787 -9.049562 8.007940 42.501586 2.260575 9.732766 25.067042 -23.360221 0.000000 0.000000 0.000000 19.665589 4.447821 66.935468 80.714388 26.686866 63.181322 101.094320 64.275820 7.613363 0.000000 0.000000 0.000000 41.063464 0.432113 37.067278 27.665712 48.241848 74.831625 26.915984 -18.687735 -110.975990 0.000000 0.000000 0.000000 -11.699577 1.924094 38.878449 -19.752936 4.299119 3.180224 81.735818 36.012992 57.339962 0.000000 0.000000 0.000000 3.919598 -2.939562 36.112647 -8.437203 1.561429 -1.230241 46.144159 34.621142 12.922706 0.000000 0.000000 0.000000
0.000000 0.000000 0.000000 -6.490860 50.973305 -4.175426 -4.797682 0.208639 -11.230372 9.892388 40.601142 3.808926 10.078045 29.031034 -34.568194 0.000000 0.000000 0.000000 17.591500 4.582366 54.270303 69.859506 36.553877 40.170109 38.181513 29.609190 -49.754346 0.000000 0.000000 0.000000 43.773899 -0.512141 39.498282 45.306840 46.865096 77.216225 58.774489 -39.537928 -114.909360 0.000000 0.000000 0.000000 -10.889087 1.559976 37.055453 -18.896328 3.989591 7.580244 83.227706 39.437197 67.897417 0.000000 0.000000 0.000000 3.728774 -2.758522 34.668550 -9.363349 2.071438 -5.246434 48.419380 33.737715 7.955044 0.000000 0.000000 0.000000
0.000000 0.000000 0.000000 -6.001691 46.061216 -3.863107 -5.105748 0.182013 -12.558422 9.892792 37.118553 3.948462 9.949296 27.244611 -35.365518 0.000000 0.000000 0.000000 15.808667 4.893328 49.004752 66.396285 40.029156 30.811780 35.678140 9.974916 -83.165137 0.000000 0.000000 0.000000 48.162432 -2.345999 43.500520 54.974518 45.302758 72.114640 74.585072 -52.103325 -114.608826 0.000000 0.000000 0.000000 -8.867271 0.558415 24.878092 -18.738181 3.775704 14.414455 87.191453 33.820185 57.610114 0.000000 0.000000 0.000000 -9.409758 0.491867 30.249281 -14.588731 2.524166 -1.151745 59.474485 39.391576 18.418609 0.000000 0.000000 0.000000
0.000000 0.000000 0.000000 -6.547880 45.204775 -4.440681 -5.990343 0.155180 -12.046130 2.660720 36.950324 -1.521895 9.730622 23.843496 -34.050047 0.000000 0.000000 0.000000 19.756998 3.494477 53.412647 82.948002 20.094093 73.634369 -163.205253 -3.514554 84.798893 0.000000 0.000000 0.000000 32.030353 3.679538 22.221983 -18.139859 35.106757 47.749039 8.754995 -7.223640 -100.983769 0.000000 0.000000 0.000000 -9.518104 1.269323 41.049743 -18.588555 3.695129 15.454598 80.953524 37.427187 60.078235 0.000000 0.000000 0.000000 -10.070070 0.908296 37.153672 -7.337003 2.604549 -12.492743 46.729391 30.134765 -0.541149 0.000000 0.000000 0.000000
0.000000 0.000000 0.000000 -5.934314 44.794292 -3.842306 -4.765517 0.234181 -8.761932 4.868099 29.097423 0.661754 7.073802 1.458160 -28.424535 0.000000 0.000000 0.000000 21.081951 2.245092 39.710108 78.329121 13.102042 83.263086 71.045582 -2.376092 172.956945 0.000000 0.000000 0.000000 5.635056 2.346138 13.123758 -38.886177 9.952961 33.359557 -12.894356 10.628883 -101.078593 0.000000 0.000000 0.000000 -10.528065 1.843283 45.482050 -17.532866 3.837382 0.742218 81.596289 28.435524 36.998840 0.000000 0.000000 0.000000 -5.473572 -0.430336 50.604575 -2.933144 3.649587 -21.405707 39.023017 22.088899 -9.210001 0.000000 0.000000 0.000000
0.000000 0.000000 0.000000 -2.314372 25.940851 -0.973378 -1.790317 0.209376 -5.517584 3.906847 2.928967 1.970581 2.660622 -15.990371 -21.295738 0.000000 0.000000 0.000000 -5.391650 4.244877 15.853485 0.882930 8.497189 64.815788 -29.328164 15.567803 51.354148 0.000000 0.000000 0.000000 -14.021313 -3.244163 -0.143602 -42.855543 -11.080099 24.395823 -51.632203 50.261566 -91.764824 0.000000 0.000000 0.000000 -12.131632 2.715645 48.929791 -20.774942 4.405616 30.484369 89.585232 36.618620 69.106961 0.000000 0.000000 0.000000 -10.334085 1.347555 45.525443 0.043218 4.702243 -27.139927 40.342570 17.111939 -19.416783 0.000000 0.000000 0.000000
0.000000 0.000000 0.000000 -2.715958 28.088590 -1.282874 -1.478562 0.219652 -6.384720 5.599429 8.135579 2.578238 4.530998 -7.081896 -22.798318 0.000000 0.000000 0.000000 2.541321 3.780379 18.064546 41.836584 19.604163 54.042035 -7.678599 22.201527 51.984209 0.000000 0.000000 0.000000 -5.557759 -2.033441 -4.086313 -47.953137 9.658399 37.275505 -29.867857 24.819099 -100.954671 0.000000 0.000000 0.000000 -11.772719 2.360129 45.736943 -19.653717 3.924537 24.808686 85.175331 36.494253 62.658962 0.000000 0.000000 0.000000 -2.342921 -1.471034 43.297205 -1.952110 5.097138 -30.619368 36.687234 19.724091 -10.673113 0.000000 0.000000 0.000000
0.000000 0.000000 0.000000 -2.850444 32.806618 -1.220498 -1.482354 0.210328 -5.884083 5.747077 12.512193 2.365462 4.337604 -1.778332 -18.846899 0.000000 0.000000 0.000000 -12.658607 1.252536 4.747162 2.622303 5.097909 21.383567 -2.783379 2.349375 7.758160 0.000000 0.000000 0.000000 36.668045 11.030681 -14.184532 54.683200 46.423738 83.185771 78.758108 -14.522930 -162.351834 0.000000 0.000000 0.000000 -4.877439 -0.389187 40.846126 -7.275831 -1.444022 22.438400 79.716746 39.397190 63.519652 0.000000 0.000000 0.000000 -1.354051 0.144436 -5.421427 -13.027136 3.108794 -15.638916 60.390864 39.571431 18.331399 0.000000 0.000000 0.000000
0.000000 0.000000 0.000000 -3.518144 39.069684 -1.640712 -1.629397 0.273510 -9.374534 10.323877 32.777200 4.441403 6.543245 4.265950 -24.201337 0.000000 0.000000 0.000000 -3.462536 -1.306466 -4.616406 43.256982 22.134033 47.112973 23.214927 28.780081 49.738280 0.000000 0.000000 0.000000 25.514812 8.428110 -26.982107 33.464664 26.842386 2.025340 -0.538656 -0.326960 117.485401 0.000000 0.000000 0.000000 -5.647672 -0.110739 35.435262 -10.462037 -0.534936 26.739334 82.371898 37.969930 63.098246 0.000000 0.000000 0.000000 1.763410 -0.211722 4.528253 -9.198568 2.751058 -12.931406 58.753178 38.035607 12.473215 0.000000 0.000000 0.000000
0.000000 0.000000 0.000000 -4.301625 48.027259 -2.090890 -5.435636 0.182456 -11.648084 14.090714 44.867130 6.963006 10.257990 29.619021 -30.799321 0.000000 0.000000 0.000000 14.820081 2.200568 18.543895 73.371703 31.042743 52.283741 107.372661 34.018742 74.379999 0.000000 0.000000 0.000000 23.911049 6.615964 -15.794590 26.771066 36.893285 36.385732 -107.701854 -9.582589 172.992063 0.000000 0.000000 0.000000 -6.122432 0.039343 37.071010 -12.405736 2.053758 8.361969 76.121794 29.796129 36.974753 0.000000 0.000000 0.000000 -1.043151 -0.538839 11.676445 -18.011546 3.216177 -12.701825 50.253570 31.171471 -2.061634 0.000000 0.000000 0.000000
0.000000 0.000000 0.000000 -5.096598 64.144510 -2.330697 -13.808418 -0.165930 -12.320450 23.962373 55.049334 15.026434 12.461333 50.355052 -31.641905 0.000000 0.000000 0.000000 22.436930 1.500242 29.753993 82.812535 29.663383 59.753065 131.502658 43.891540 63.248446 0.000000 0.000000 0.000000 38.257902 8.934024 -2.151428 47.384633 43.356040 54.671469 114.501548 -30.945112 -159.809221 0.000000 0.000000 0.000000 -3.428648 -0.682470 30.765673 -28.916234 6.517202 2.700961 57.416486 23.376074 17.725912 0.000000 0.000000 0.000000 5.925303 -1.462727 17.086478 -26.863360 4.282694 -3.719594 55.532198 33.604861 -1.558086 0.000000 0.000000 0.000000
0.000000 0.000000 0.000000 -20.579926 65.811097 -17.735707 -21.248948 -0.643050 -13.436591 -0.492736 62.208156 -6.100489 10.161354 33.467626 -37.415116 0.000000 0.000000 0.000000 13.284238 4.200413 34.445163 84.631067 33.478769 55.238342 99.971923 74.244375 -14.373197 0.000000 0.000000 0.000000 22.820798 6.864850 -23.907742 35.521688 27.184681 -0.095654 -57.823372 -36.119899 118.884576 0.000000 0.000000 0.000000 -6.296061 0.057485 30.056835 -30.831871 6.209883 -6.238425 66.795395 22.256447 17.121677 0.000000 0.000000 0.000000 -8.767810 0.166812 23.306397 -27.547248 4.675356 0.486002 57.858520 35.197502 1.039096 0.000000 0.000000 0.000000
0.000000 0.000000 0.000000 -18.495912 63.470264 -15.733642 -16.383243 -0.714685 -16.280223 4.367319 58.205158 -1.597233 9.657230 27.960508 -51.498158 0.000000 0.000000 0.000000 21.023128 2.598825 47.058618 90.202231 25.409607 68.538841 -153.522910 84.591591 66.232530 0.000000 0.000000 0.000000 23.693943 7.538053 -26.904412 28.539631 26.271899 7.031185 -30.873595 -29.148955 93.446934 0.000000 0.000000 0.000000 -5.841043 -0.065100 22.321841 -28.757342 5.895803 -5.942210 68.522064 32.189257 37.837145 0.000000 0.000000 0.000000 1.258431 -1.767822 29.295593 -12.063837 2.422898 -5.609407 48.868248 30.304482 -2.739537 0.000000 0.000000 0.000000
0.000000 0.000000 0.000000 -17.309381 62.110213 -14.595052 -14.899173 -0.759264 -17.859842 5.600823 53.789036 -0.286050 10.587736 20.451971 -55.179490 0.000000 0.000000 0.000000 19.882933 3.187306 49.278031 91.916403 24.619794 70.069994 33.292787 57.005552 -123.827391 0.000000 0.000000 0.000000 22.994809 6.158720 -14.303929 29.277388 19.771302 -7.222998 -86.515848 -19.763198 159.023651 0.000000 0.000000 0.000000 -5.594532 -0.104172 17.671431 -28.992139 5.872564 -6.841010 75.810381 29.615706 36.352992 0.000000 0.000000 0.000000 1.590350 -1.954262 31.022535 -12.536438 2.746829 -9.961771 49.107058 30.402562 -2.774813 0.000000 0.000000 0.000000
0.000000 0.000000 0.000000 -13.090718 60.619746 -10.436094 -14.001658 -0.788780 -19.059650 9.953190 54.352512 3.320574 9.931878 24.903716 -48.024201 0.000000 0.000000 0.000000 21.984286 2.344807 50.598137 91.102607 27.342133 66.392905 121.983065 85.390294 -11.977747 0.000000 0.000000 0.000000 39.974557 7.503157 5.940440 47.025564 41.757591 44.389639 144.771572 -44.912477 -165.048113 0.000000 0.000000 0.000000 -5.350707 -0.149341 20.867742 -30.450189 6.150581 -6.211911 76.122615 27.912192 32.425760 0.000000 0.000000 0.000000 9.634208 -3.839020 31.455536 -15.344463 2.923595 -8.724033 45.664537 28.294344 -3.968018 0.000000 0.000000 0.000000
0.000000 0.000000 0.000000 -9.012913 41.669740 -7.035402 -8.755611 -0.174930 -17.060099 -1.355427 31.649557 -4.083653 9.501356 -1.599866 -39.715073 0.000000 0.000000 0.000000 -6.047662 8.845641 31.343275 48.568315 22.885929 50.599409 11.667624 -1.785717 -23.682969 0.000000 0.000000 0.000000 -6.317973 0.894078 12.022873 -23.946450 0.545959 18.918863 -60.712833 36.761615 -120.862986 0.000000 0.000000 0.000000 -10.562997 0.955277 25.980634 -23.558218 5.115217 -2.605336 79.341509 24.615375 25.613443 0.000000 0.000000 0.000000 4.670856 -2.730829 31.863768 -11.212963 2.783461 -11.902038 48.181972 28.033617 -7.880431 0.000000 0.000000 0.000000
0.000000 0.000000 0.000000 -6.150454 17.331734 -5.209613 1.781228 0.560469 -14.396716 -5.653410 0.275469 -3.285085 3.636133 -11.327141 -21.999178 0.000000 0.000000 0.000000 -22.041202 3.573869 9.690034 -9.289851 0.098122 33.402901 -10.183500 -6.129630 5.461996 0.000000 0.000000 0.000000 -12.934166 -4.952332 -7.567176 -31.603123 -19.212510 12.670291 -9.109530 43.150854 -22.780634 0.000000 0.000000 0.000000 -11.272698 1.012625 24.083346 -9.766426 1.315257 7.936152 95.430231 23.637132 30.959623 0.000000 0.000000 0.000000 -14.875431 1.009150 22.006332 -0.022767 1.763289 -10.074085 60.095240 36.734922 4.297740 0.000000 0.000000 0.000000
0.000000 0.000000 0.000000 -7.169188 9.887392 -6.606732 -6.352802 0.288202 -5.882703 -10.671452 -24.651038 -1.163354 -7.486735 -31.704047 -6.093484 0.000000 0.000000 0.000000 -33.046809 8.545990 17.140342 -7.234997 2.148635 38.274596 -17.264135 -0.431139 20.702175 0.000000 0.000000 0.000000 -6.499694 -0.862218 3.063261 -41.865069 -20.253968 19.567781 -18.248822 32.169486 -58.236201 0.000000 0.000000 0.000000 -12.043204 1.389034 27.958207 -11.719134 1.498903 12.172136 97.854103 28.710485 54.781767 0.000000 0.000000 0.000000 -18.765234 0.675953 14.216853 1.069747 5.772410 -32.587154 63.274679 34.000508 -14.606617 0.000000 0.000000 0.000000
0.000000 0.000000 0.000000 -6.098846 3.508634 -5.897572 -1.697826 0.162875 -2.862547 -8.649724 -23.190085 -0.655399 -7.808432 -25.480502 -1.733550 0.000000 0.000000 0.000000 -30.003695 12.348844 25.125961 -18.799991 3.140829 60.027401 -29.535048 15.500458 51.357646 0.000000 0.000000 0.000000 -21.817743 1.029247 17.965095 -57.567219 -8.250713 34.186325 -24.814328 28.668598 -81.451803 0.000000 0.000000 0.000000 -11.162488 1.237923 29.054260 -3.666646 -2.694472 20.520546 101.235868 23.634154 36.301291 0.000000 0.000000 0.000000 -12.765826 0.166913 13.237121 5.037118 5.009724 -26.864368 69.795681 35.430566 -26.272339 0.000000 0.000000 0.000000
0.000000 0.000000 0.000000 -6.243800 7.055126 -5.837946 -0.305371 0.071751 -1.757938 -0.151187 5.845337 -0.718564 -1.007288 -2.967321 -0.123850 0.000000 0.000000 0.000000 -24.854246 12.276368 27.502975 -14.749439 8.482636 78.425689 -50.618145 8.934791 53.142327 0.000000 0.000000 0.000000 -6.426149 6.064949 39.456796 -55.133351 -1.466560 35.532875 -26.135972 28.984509 -83.849954 0.000000 0.000000 0.000000 -13.363747 2.051926 32.935118 -21.798871 4.882653 20.113774 92.559063 33.115926 62.739466 0.000000 0.000000 0.000000 5.611006 0.105064 1.764931 3.408787 4.403434 -24.450644 47.285051 26.950159 -9.341257 0.000000 0.000000 0.000000
0.000000 0.000000 0.000000 -6.824740 7.781148 -6.377688 -1.143254 0.155273 -3.595364 -3.992142 9.659456 -3.526897 -2.821176 -6.361755 1.879939 0.000000 0.000000 0.000000 -19.160583 10.080916 25.732732 2.511932 9.786828 77.775052 -13.870899 21.564233 53.930615 0.000000 0.000000 0.000000 -1.795630 3.405317 25.540721 -59.719820 -16.168692 32.637707 -32.193944 63.294680 -50.178876 0.000000 0.000000 0.000000 -38.457652 15.126474 50.593490 -2.139273 -5.376659 30.359336 66.264784 34.295789 40.775362 0.000000 0.000000 0.000000 8.403972 -0.771787 9.576748 10.592636 1.728903 -13.164636 45.391832 30.404769 1.721889 0.000000 0.000000 0.000000
0.000000 0.000000 0.000000 -9.749093 20.328367 -8.659012 -9.225071 0.420167 -4.125578 -2.427930 15.269940 -3.169844 1.219334 -2.029448 -7.082010 0.000000 0.000000 0.000000 -21.624710 10.641805 25.709499 0.219744 9.967600 81.740285 48.974666 28.644185 126.856595 0.000000 0.000000 0.000000 14.968147 3.295937 21.775699 -49.085825 20.624453 43.675404 2.228566 -2.527736 -82.799651 0.000000 0.000000 0.000000 -28.117235 9.996805 49.739285 -17.349285 3.422061 10.850095 83.359691 32.075506 48.460856 0.000000 0.000000 0.000000 2.108071 -0.237790 4.956747 -8.537759 2.364750 -9.297544 42.758264 34.357878 15.026913 0.000000 0.000000 0.000000
0.000000 0.000000 0.000000 -7.935214 36.311335 -6.165915 -3.708645 0.245235 -6.818663 7.695235 30.748265 2.611230 8.657782 15.914255 -28.217190 0.000000 0.000000 0.000000 1.198283 5.612371 25.508134 67.010419 37.289894 36.313955 36.352222 30.424647 11.271230 0.000000 0.000000 0.000000 28.551320 4.631496 13.613061 37.534139 44.228862 60.291001 10.552848 -10.201753 -91.948939 0.000000 0.000000 0.000000 -10.605050 0.795108 22.151983 -14.684241 4.106434 -14.587441 71.701780 26.559387 27.341819 0.000000 0.000000 0.000000 7.801039 -0.365621 6.347802 -5.350715 1.920545 -7.936974 41.574696 29.404784 3.286584 0.000000 0.000000 0.000000
0.000000 0.000000 0.000000 -7.291238 31.662684 -5.710193 -1.731385 0.275229 -9.567768 0.380535 16.085455 -1.401756 1.574564 -23.011797 -21.350280 0.000000 0.000000 0.000000 -10.433612 3.737145 12.463273 31.422766 9.980656 90.103965 26.620420 35.282374 107.742001 0.000000 0.000000 0.000000 39.573613 8.711090 0.259064 -26.525866 48.328068 65.046882 -1.931351 1.537395 -102.960941 0.000000 0.000000 0.000000 -12.026176 0.669672 15.347576 -15.195794 4.355975 -18.422135 88.559114 22.849057 24.157578 0.000000 0.000000 0.000000 -5.508834 -0.292631 6.507667 -7.614867 2.791838 -14.132287 53.691377 35.446492 7.809195 0.000000 0.000000 0.000000
