HIERARCHY
ROOT Hips
{
  OFFSET 0.000000 0.000000 0.000000
  CHANNELS 6 Xposition Yposition Zposition Xrotation Yrotation Zrotation
  JOINT Spine
  {
    OFFSET 0.384862 23.362435 -6.545746
    CHANNELS 3 Xrotation Yrotation Zrotation
    JOINT Chest
    {
      OFFSET 0.384862 23.362435 -6.545746
      CHANNELS 3 Xrotation Yrotation Zrotation
      JOINT Neck
      {
        OFFSET -0.726359 3.494450 -9.275600
        CHANNELS 3 Xrotation Yrotation Zrotation
        JOINT Head
        {
          OFFSET -0.827274 3.104519 -12.830805
          CHANNELS 3 Xrotation Yrotation Zrotation
          End Site
          {
            OFFSET -0.248182 0.931356 -3.849242
          }
        }
      }
      JOINT LeftCollar
      {
        OFFSET 3.000000 4.000000 0.000000
        CHANNELS 3 Xrotation Yrotation Zrotation
        JOINT LeftShoulder
        {
          OFFSET 16.753096 -1.874518 -2.350806
          CHANNELS 3 Xrotation Yrotation Zrotation
          JOINT LeftArm
          {
            OFFSET 9.215470 -17.927143 -6.750691
            CHANNELS 3 Xrotation Yrotation Zrotation
            JOINT LeftForeArm
            {
              OFFSET -8.631796 -1.807562 -13.626102
              CHANNELS 3 Xrotation Yrotation Zrotation
              JOINT LeftHand
              {
                OFFSET -3.581741 1.574515 -2.219805
                CHANNELS 3 Xrotation Yrotation Zrotation
                End Site
                {
                  OFFSET -1.074522 0.472355 -0.665942
                }
              }
            }
          }
        }
      }
      JOINT RightCollar
      {
        OFFSET -3.000000 4.000000 0.000000
        CHANNELS 3 Xrotation Yrotation Zrotation
        JOINT RightShoulder
        {
          OFFSET -16.753096 1.874518 2.350806
          CHANNELS 3 Xrotation Yrotation Zrotation
          JOINT RightArm
          {
            OFFSET -4.024878 -26.092607 -12.467419
            CHANNELS 3 Xrotation Yrotation Zrotation
            JOINT RightForeArm
            {
              OFFSET 6.746233 1.826222 -21.720462
              CHANNELS 3 Xrotation Yrotation Zrotation
              JOINT RightHand
              {
                OFFSET 4.773503 3.298478 -5.155945
                CHANNELS 3 Xrotation Yrotation Zrotation
                End Site
                {
                  OFFSET 1.432051 0.989543 -1.546783
                }
              }
            }
          }
        }
      }
    }
  }
  JOINT LeftUpLeg
  {
    OFFSET 9.108096 0.180174 1.189578
    CHANNELS 3 Xrotation Yrotation Zrotation
    JOINT LeftLeg
    {
      OFFSET 8.006705 -41.225060 -10.059709
      CHANNELS 3 Xrotation Yrotation Zrotation
      JOINT LeftFoot
      {
        OFFSET 4.362087 -38.764367 9.241715
        CHANNELS 3 Xrotation Yrotation Zrotation
        End Site
        {
          OFFSET 1.308626 -11.629310 2.772515
        }
      }
    }
  }
  JOINT RightUpLeg
  {
    OFFSET -9.108096 -0.180174 -1.189578
    CHANNELS 3 Xrotation Yrotation Zrotation
    JOINT RightLeg
    {
      OFFSET -2.107032 -32.214779 1.747249
      CHANNELS 3 Xrotation Yrotation Zrotation
      JOINT RightFoot
      {
        OFFSET -6.367369 -42.204761 13.125504
        CHANNELS 3 Xrotation Yrotation Zrotation
        End Site
        {
          OFFSET -1.910211 -12.661428 3.937651
        }
      }
    }
  }
}
MOTION
Frames: 96
Frame Time: 0.083333
1.251348 59.983048 -0.318912 2.004902 -0.038183 -0.026444 0.000000 0.000000 0.000000 -1.395780 -0.083613 -0.070513 -0.065135 -0.102192 0.001891 176.495729 2.427558 -19.219278 -0.748789 -1.007724 -0.051039 1.808685 1.867444 0.708607 0.637652 -1.020733 -0.903139 0.000000 0.000000 0.000000 0.000000 0.000000 0.000000 -0.748789 -1.007724 -0.051039 0.935899 1.256356 -0.112954 0.839362 0.229222 0.313519 0.000000 0.000000 0.000000 0.000000 0.000000 0.000000 -2.296203 -0.075635 0.103808 -1.108631 0.061881 0.390064 0.000000 0.000000 0.000000 6.666945 -0.516417 -0.258959 -22.114201 1.621731 -1.608488 0.000000 0.000000 0.000000
2.573096 60.050878 -1.194191 2.056406 -0.040102 -0.032302 0.000000 0.000000 0.000000 -1.440500 -0.094805 -0.070203 -0.066113 -0.104406 0.003256 176.306506 2.299173 -19.175262 -0.759315 -1.024090 -0.057648 1.561461 1.522380 0.926341 0.869706 -0.805901 -1.089004 0.000000 0.000000 0.000000 0.000000 0.000000 0.000000 -0.759315 -1.024090 -0.057648 0.902680 1.170129 -0.206115 0.662131 0.165298 0.429928 0.000000 0.000000 0.000000 0.000000 0.000000 0.000000 -2.424983 -0.068496 0.120070 -0.909652 0.120019 0.532437 0.000000 0.000000 0.000000 6.117196 -0.493657 -0.292069 -21.304413 1.544418 -1.601280 0.000000 0.000000 0.000000
5.011657 60.670246 -2.401600 2.059129 -0.040177 -0.032547 0.000000 0.000000 0.000000 -1.442817 -0.095379 -0.070252 -0.066203 -0.104567 0.003319 178.410141 3.957732 -18.325180 -0.759904 -1.024935 -0.058433 3.829523 3.615678 3.247693 3.029497 -1.792759 -3.543409 0.000000 0.000000 0.000000 0.000000 0.000000 0.000000 -0.759904 -1.024935 -0.058433 2.554938 3.335213 -0.896251 1.267715 0.208631 1.658294 0.000000 0.000000 0.000000 0.000000 0.000000 0.000000 -7.249731 -0.216830 0.611608 -2.062502 0.630032 2.044001 0.000000 0.000000 0.000000 0.281698 -0.314846 -1.210788 -18.013882 0.603164 -1.500761 0.000000 0.000000 0.000000
7.503401 62.975149 -0.795173 6.190176 -0.134273 -0.176624 0.000000 0.000000 0.000000 -4.630254 -0.428112 -0.168205 -0.172347 -0.282164 0.034161 178.187010 6.164798 -17.215606 -1.943381 -2.457276 -0.282495 4.167265 4.406189 6.130912 6.200528 -1.791285 -5.838232 0.000000 0.000000 0.000000 0.000000 0.000000 0.000000 -1.943381 -2.457276 -0.282495 3.939350 5.669078 -1.970047 0.487643 -0.444381 3.729619 0.000000 0.000000 0.000000 0.000000 0.000000 0.000000 -11.513033 -0.506062 2.197947 -1.916700 1.754438 3.767388 0.000000 0.000000 0.000000 -5.576410 -0.106910 -2.543077 -13.781764 -0.606789 -0.725558 0.000000 0.000000 0.000000
9.671864 64.965798 3.271541 10.123319 -0.265633 -0.575634 0.000000 0.000000 0.000000 -8.226441 -1.238644 -0.163193 -0.238663 -0.430218 0.134852 176.573586 11.470633 -16.164127 -2.479236 -2.986005 -0.952072 3.820565 7.168023 7.403522 10.362599 -2.698155 -5.559099 0.000000 0.000000 0.000000 0.000000 0.000000 0.000000 -2.479236 -2.986005 -0.952072 5.274386 9.259912 -1.988144 0.516918 -1.224572 5.593718 0.000000 0.000000 0.000000 0.000000 0.000000 0.000000 -13.302401 -0.985091 5.242328 -2.639197 2.770256 2.942623 0.000000 0.000000 0.000000 -4.910476 -0.112836 -4.293506 -18.408990 -1.716994 0.578863 0.000000 0.000000 0.000000
11.032640 65.270614 6.509035 12.661563 -0.386615 -1.152799 0.000000 0.000000 0.000000 -10.456275 -2.460897 -0.157687 -0.353955 -0.697014 0.269838 175.203035 17.136106 -15.311223 -3.091146 -4.384175 -2.379364 2.114308 9.314773 7.663743 19.168900 -3.082083 -4.210385 0.000000 0.000000 0.000000 0.000000 0.000000 0.000000 -3.091146 -4.384175 -2.379364 5.881944 11.485388 -0.062201 3.021667 -1.303918 5.964620 0.000000 0.000000 0.000000 0.000000 0.000000 0.000000 -12.919029 -0.780200 7.276712 -4.935361 2.570534 0.210062 0.000000 0.000000 0.000000 -5.743654 -0.236639 -6.791962 -22.003451 -3.226433 1.951613 0.000000 0.000000 0.000000
11.293871 64.683897 7.023736 15.682374 -0.478662 -1.645689 0.000000 0.000000 0.000000 -12.584905 -3.499731 -0.257155 -0.533780 -1.093451 0.356791 174.516085 18.798365 -15.249824 -4.171030 -5.416555 -4.018103 2.074501 11.612744 3.805929 24.287209 -3.262327 -0.266346 0.000000 0.000000 0.000000 0.000000 0.000000 0.000000 -4.171030 -5.416555 -4.018103 4.670694 10.447963 3.460177 5.880657 -0.944337 2.897698 0.000000 0.000000 0.000000 0.000000 0.000000 0.000000 -6.463768 0.581573 7.060003 -8.319475 1.951120 2.084882 0.000000 0.000000 0.000000 -11.954469 -0.865551 -10.662371 -16.412426 -2.568288 8.111706 0.000000 0.000000 0.000000
10.928274 63.976105 6.295324 14.782207 -0.614604 -2.592093 0.000000 0.000000 0.000000 -11.268097 -4.091203 0.354663 -0.580148 -1.183841 0.441070 172.924406 15.957516 -14.144027 -4.523643 -5.328551 -4.002404 1.637398 13.389383 -0.134550 28.425206 -3.146939 4.263134 0.000000 0.000000 0.000000 0.000000 0.000000 0.000000 -4.523643 -5.328551 -4.002404 3.155552 9.801210 5.546002 6.951332 -1.267419 1.491320 0.000000 0.000000 0.000000 0.000000 0.000000 0.000000 -4.608792 1.112518 8.140590 -5.742286 1.603797 2.769154 0.000000 0.000000 0.000000 -20.581021 -2.098479 -12.836786 -7.814401 0.309150 14.731658 0.000000 0.000000 0.000000
10.080007 62.699726 5.218695 14.339120 -0.845254 -4.105137 0.000000 0.000000 0.000000 -11.129605 -4.147240 1.978435 -0.770081 -0.922892 0.579219 169.545136 14.516670 -12.331312 -4.166413 -5.201878 -4.701038 3.656690 13.772532 0.700279 25.413233 -4.836905 4.312983 0.000000 0.000000 0.000000 0.000000 0.000000 0.000000 -4.166413 -5.201878 -4.701038 3.078014 9.601635 4.680206 4.887095 -1.494802 2.965779 0.000000 0.000000 0.000000 0.000000 0.000000 0.000000 -5.569409 0.845329 9.112085 -5.543569 1.792043 2.905580 0.000000 0.000000 0.000000 -20.672371 -2.409515 -11.673238 -4.230657 1.244565 14.809556 0.000000 0.000000 0.000000
9.241838 61.406797 4.729849 13.342343 -1.029391 -5.137080 0.000000 0.000000 0.000000 -10.761713 -3.680962 3.369878 -0.981240 -0.847056 0.573573 168.942839 8.456339 -12.502447 -3.547372 -4.615243 -5.608841 6.252633 10.551749 2.171094 18.350708 -6.335318 2.932353 0.000000 0.000000 0.000000 0.000000 0.000000 0.000000 -3.547372 -4.615243 -5.608841 2.940584 6.616402 2.378348 5.334389 -1.314545 5.088488 0.000000 0.000000 0.000000 0.000000 0.000000 0.000000 -5.186494 0.768157 9.480581 -4.560652 2.093665 3.791287 0.000000 0.000000 0.000000 -22.893315 -2.997136 -11.578820 0.683762 2.588731 14.354456 0.000000 0.000000 0.000000
8.646628 60.551572 5.188993 11.915253 -1.129359 -5.500498 0.000000 0.000000 0.000000 -9.986832 -2.490504 4.343536 -0.995097 -0.512125 0.459090 171.027993 2.847109 -14.617287 -2.859462 -1.736606 -5.675272 7.063739 5.622241 4.243535 11.375883 -6.383675 -0.024613 0.000000 0.000000 0.000000 0.000000 0.000000 0.000000 -2.859462 -1.736606 -5.675272 0.881322 3.394401 0.049038 7.500047 -0.198325 6.505125 0.000000 0.000000 0.000000 0.000000 0.000000 0.000000 -2.672552 0.945676 9.225230 -7.618416 2.734771 4.725420 0.000000 0.000000 0.000000 -20.941347 -2.648339 -13.674226 -0.480334 1.804109 14.948694 0.000000 0.000000 0.000000
7.285120 59.554095 7.076271 11.352486 -0.989609 -4.569748 0.000000 0.000000 0.000000 -9.486717 -0.975693 4.033564 -0.903669 -0.199094 0.264143 175.155222 -2.599675 -16.670528 -2.556666 0.572845 -4.956021 7.235159 0.545510 3.766590 4.395023 -5.452795 -1.094052 0.000000 0.000000 0.000000 0.000000 0.000000 0.000000 -2.556666 0.572845 -4.956021 -3.117496 -0.994838 -2.162043 11.272905 0.809362 6.498206 0.000000 0.000000 0.000000 0.000000 0.000000 0.000000 1.794006 1.212051 8.669784 -14.504823 3.748247 5.924855 0.000000 0.000000 0.000000 -15.260130 -1.722772 -18.500124 -8.021183 -1.570230 17.246876 0.000000 0.000000 0.000000
3.519922 58.129511 9.054668 11.856928 -0.653223 -2.732693 0.000000 0.000000 0.000000 -9.699836 1.978659 3.483748 -0.764745 0.045964 -0.229379 177.569544 -8.361902 -18.194414 -2.315993 1.964416 -4.053188 6.718233 -4.588960 3.388108 -3.040239 -3.575806 -1.169399 0.000000 0.000000 0.000000 0.000000 0.000000 0.000000 -2.315993 1.964416 -4.053188 -5.315091 -7.203086 -0.168575 10.189878 1.971873 2.271626 0.000000 0.000000 0.000000 0.000000 0.000000 0.000000 4.387094 0.593945 6.953413 -14.365099 4.777617 8.701356 0.000000 0.000000 0.000000 -6.815979 -0.598895 -24.383741 -19.065623 -5.617450 21.111540 0.000000 0.000000 0.000000
-2.287671 55.720392 10.084746 11.320837 -0.164029 0.055206 0.000000 0.000000 0.000000 -8.558261 3.535292 1.355123 -0.730811 0.480173 -0.379686 174.196100 -13.430462 -19.091306 -2.119538 5.122603 -3.559897 5.329010 -10.439671 3.150160 -3.820603 -0.569450 -1.184645 0.000000 0.000000 0.000000 0.000000 0.000000 0.000000 -2.119538 5.122603 -3.559897 -6.263279 -12.808856 -0.227151 8.297334 2.339310 0.897968 0.000000 0.000000 0.000000 0.000000 0.000000 0.000000 3.794687 -0.852945 5.846762 -6.719494 5.338661 10.048981 0.000000 0.000000 0.000000 -2.678644 -0.336832 -24.396536 -27.118989 -5.606750 21.869585 0.000000 0.000000 0.000000
-7.951201 52.883267 11.061100 10.490717 0.353169 2.797185 0.000000 0.000000 0.000000 -8.302117 3.282206 -1.520513 -0.776286 0.898471 -0.258014 167.990947 -17.491627 -20.586109 -0.708253 10.474903 -2.983906 4.428131 -13.881776 2.448620 -2.879132 0.354299 -0.724006 0.000000 0.000000 0.000000 0.000000 0.000000 0.000000 -0.708253 10.474903 -2.983906 -6.883579 -15.188255 -3.020270 6.329296 2.048073 2.928487 0.000000 0.000000 0.000000 0.000000 0.000000 0.000000 1.029582 -2.112368 5.692032 -4.722695 5.863996 6.473988 0.000000 0.000000 0.000000 -3.717882 -0.674863 -16.005965 -19.846462 -1.708072 11.321988 0.000000 0.000000 0.000000
-11.492437 51.521442 12.428346 9.542410 0.690384 4.391128 0.000000 0.000000 0.000000 -8.603319 2.651412 -3.426768 -0.980034 1.244066 -0.125841 167.354298 -15.925514 -20.860187 0.963735 14.310741 -2.433767 4.295427 -15.192605 3.391669 -0.458696 0.283177 -2.359730 0.000000 0.000000 0.000000 0.000000 0.000000 0.000000 0.963735 14.310741 -2.433767 -6.335662 -16.088593 -3.261974 6.326322 2.570065 2.701707 0.000000 0.000000 0.000000 0.000000 0.000000 0.000000 -2.822205 -1.637822 1.975773 -5.104479 4.721457 5.153209 0.000000 0.000000 0.000000 -6.006755 -0.567017 -5.838525 -14.424285 0.343860 -3.052145 0.000000 0.000000 0.000000
-13.198134 51.428124 13.168161 10.064837 0.872172 5.512623 0.000000 0.000000 0.000000 -9.468736 2.578496 -4.624329 -0.973047 1.154405 -0.137652 167.653247 -18.663502 -20.522267 1.603918 15.137003 -1.665913 3.909265 -17.443674 3.208661 1.043312 1.539861 -3.475232 0.000000 0.000000 0.000000 0.000000 0.000000 0.000000 1.603918 15.137003 -1.665913 -6.402760 -18.425497 -3.723718 5.027383 3.099415 1.805052 0.000000 0.000000 0.000000 0.000000 0.000000 0.000000 -11.060141 -0.265006 -3.733177 -1.368719 3.387845 7.945487 0.000000 0.000000 0.000000 -7.656073 -0.270828 -4.632010 -10.016535 0.366322 -3.638749 0.000000 0.000000 0.000000
-14.191428 51.156871 13.418470 11.281326 0.808193 5.597089 0.000000 0.000000 0.000000 -10.313216 3.081591 -4.558714 -1.121783 1.541437 -0.114867 167.980280 -19.746305 -20.812906 1.874155 16.788813 -0.707929 4.554230 -17.567404 3.789208 -3.073051 2.063302 -4.594205 0.000000 0.000000 0.000000 0.000000 0.000000 0.000000 1.874155 16.788813 -0.707929 -6.337554 -18.991129 -3.571313 2.720770 3.192941 0.568453 0.000000 0.000000 0.000000 0.000000 0.000000 0.000000 -16.382512 0.383136 -7.816190 9.044825 3.285648 12.516774 0.000000 0.000000 0.000000 -9.534069 0.091601 -3.582384 -6.068174 -0.969847 -6.948499 0.000000 0.000000 0.000000
-16.596580 50.507581 12.775129 11.677894 0.751684 5.417454 0.000000 0.000000 0.000000 -10.682593 3.390941 -4.267676 -1.114197 1.689980 -0.126658 169.394884 -21.410425 -20.715054 2.176613 16.666367 0.092233 5.848893 -16.948192 3.877909 -4.343082 0.650622 -4.279361 0.000000 0.000000 0.000000 0.000000 0.000000 0.000000 2.176613 16.666367 0.092233 -7.258439 -19.685733 -2.552781 -1.875398 3.924206 -1.406504 0.000000 0.000000 0.000000 0.000000 0.000000 0.000000 -17.134047 0.497324 -7.842512 11.259706 3.819088 15.428035 0.000000 0.000000 0.000000 -12.931666 0.737557 -1.439616 -2.863313 -1.965072 -10.035881 0.000000 0.000000 0.000000
-20.523521 49.675301 12.441560 12.080776 0.607171 4.717672 0.000000 0.000000 0.000000 -10.734773 3.603853 -3.459087 -1.049552 1.799866 -0.106122 170.446649 -24.481700 -19.667407 1.895291 16.702942 0.057297 7.497156 -16.768457 3.036403 -2.676849 -1.180912 -2.052882 0.000000 0.000000 0.000000 0.000000 0.000000 0.000000 1.895291 16.702942 0.057297 -6.905333 -22.079500 -0.684430 -0.663419 5.086279 -2.332592 0.000000 0.000000 0.000000 0.000000 0.000000 0.000000 -15.794424 1.194694 -8.879701 9.678832 3.883088 21.926313 0.000000 0.000000 0.000000 -15.092340 1.142928 1.397364 -0.687733 -1.956701 -8.993984 0.000000 0.000000 0.000000
-24.286670 48.595102 15.199271 12.341180 0.360318 3.379612 0.000000 0.000000 0.000000 -10.527171 3.787250 -1.992829 -0.991782 1.950959 -0.067652 169.751354 -24.307454 -18.412110 1.366141 18.321334 -1.023003 8.066463 -15.457342 1.379091 1.771804 -2.074833 1.857063 0.000000 0.000000 0.000000 0.000000 0.000000 0.000000 1.366141 18.321334 -1.023003 -5.345881 -22.152368 0.040952 0.548711 4.602554 -0.318555 0.000000 0.000000 0.000000 0.000000 0.000000 0.000000 -12.915192 2.272322 -11.233357 7.739657 3.630963 29.737983 0.000000 0.000000 0.000000 -17.990448 1.849904 7.114924 6.441181 -3.129488 -10.410548 0.000000 0.000000 0.000000
-26.257265 47.591341 19.728867 11.497836 0.078517 1.535426 0.000000 0.000000 0.000000 -10.093487 3.766148 -0.103039 -0.951356 2.038931 -0.076636 168.008179 -23.794145 -17.432002 1.037358 18.876585 -3.311321 8.191316 -14.223414 0.145703 2.092783 -2.746442 4.733164 0.000000 0.000000 0.000000 0.000000 0.000000 0.000000 1.037358 18.876585 -3.311321 -4.520878 -21.188143 -0.456926 1.946308 3.500373 2.164947 0.000000 0.000000 0.000000 0.000000 0.000000 0.000000 -12.017429 2.424930 -10.554913 9.631622 2.760530 24.152717 0.000000 0.000000 0.000000 -13.441340 1.123874 8.408625 6.267000 -1.893134 -6.138714 0.000000 0.000000 0.000000
-26.230347 47.384769 22.583013 10.685756 -0.176085 0.005297 0.000000 0.000000 0.000000 -10.649253 3.421545 1.275486 -0.811703 2.291418 -0.011926 165.812072 -19.332147 -18.461608 1.699499 19.130857 -4.715395 8.361120 -12.788447 -0.438856 1.221756 -3.421874 6.236683 0.000000 0.000000 0.000000 0.000000 0.000000 0.000000 1.699499 19.130857 -4.715395 -4.486692 -19.886486 -0.872629 3.687079 2.804777 3.767894 0.000000 0.000000 0.000000 0.000000 0.000000 0.000000 -11.198251 2.988443 -11.914828 11.467667 1.249382 15.327169 0.000000 0.000000 0.000000 -7.333777 0.306055 7.000522 1.593432 0.884822 0.708894 0.000000 0.000000 0.000000
-25.838781 47.578895 24.082498 9.727552 -0.381352 -1.164462 0.000000 0.000000 0.000000 -10.964605 3.018625 2.285326 -0.707887 1.944178 -0.086526 165.154322 -17.143962 -18.991556 2.441920 18.840777 -5.491494 9.335391 -10.868718 -0.363506 -0.315919 -4.368145 6.705399 0.000000 0.000000 0.000000 0.000000 0.000000 0.000000 2.441920 18.840777 -5.491494 -4.149117 -18.659466 -1.239481 8.160706 2.435708 5.324736 0.000000 0.000000 0.000000 0.000000 0.000000 0.000000 -10.961520 3.648889 -13.744486 12.452948 0.577550 12.165165 0.000000 0.000000 0.000000 -4.751769 0.172429 4.445816 -5.045656 3.496149 7.918438 0.000000 0.000000 0.000000
-25.807456 47.785074 25.931439 9.260228 -0.564420 -2.132289 0.000000 0.000000 0.000000 -10.980218 3.052646 3.276752 -0.687463 1.656651 -0.171490 166.349609 -17.169544 -18.049533 2.639259 17.975062 -5.946017 9.731235 -10.833108 -0.113757 0.839554 -4.018915 7.223109 0.000000 0.000000 0.000000 0.000000 0.000000 0.000000 2.639259 17.975062 -5.946017 -3.652424 -19.116335 -0.628809 14.392639 2.483032 6.125599 0.000000 0.000000 0.000000 0.000000 0.000000 0.000000 -10.017356 4.425191 -14.845909 12.939163 0.806731 15.781344 0.000000 0.000000 0.000000 -2.408312 0.108626 1.602558 -14.842232 5.718653 11.931398 0.000000 0.000000 0.000000
-26.510381 47.911790 27.804651 9.069353 -0.692036 -2.757661 0.000000 0.000000 0.000000 -10.454827 3.100933 3.922914 -0.641601 1.512182 -0.170950 167.076590 -19.315571 -17.314111 2.128360 18.425291 -6.555161 10.723639 -11.987407 0.212815 3.548689 -4.369823 8.640926 0.000000 0.000000 0.000000 0.000000 0.000000 0.000000 2.128360 18.425291 -6.555161 -2.939078 -22.008323 1.252418 15.154248 2.998982 5.237704 0.000000 0.000000 0.000000 0.000000 0.000000 0.000000 -8.002754 4.861647 -14.542915 14.426785 1.597348 18.321948 0.000000 0.000000 0.000000 -3.759504 0.245007 -0.709165 -11.064619 5.100332 15.577349 0.000000 0.000000 0.000000
-27.114007 47.745227 29.906962 7.818359 -0.779321 -3.137703 0.000000 0.000000 0.000000 -8.771116 3.335175 4.360296 -0.637855 1.571701 -0.156363 166.824703 -20.871496 -16.810645 1.584805 20.778519 -7.587041 11.115592 -10.595916 -0.848420 5.484589 -5.127157 10.842737 0.000000 0.000000 0.000000 0.000000 0.000000 0.000000 1.584805 20.778519 -7.587041 0.178056 -22.222171 3.422249 13.977064 2.825790 5.007039 0.000000 0.000000 0.000000 0.000000 0.000000 0.000000 -7.935479 5.036830 -13.005560 16.675812 2.135036 16.672881 0.000000 0.000000 0.000000 -6.700552 0.121512 0.380113 -8.657932 4.507028 12.820625 0.000000 0.000000 0.000000
-28.347749 47.326188 31.991396 9.470201 -0.748658 -3.073635 0.000000 0.000000 0.000000 -10.155457 3.316247 4.327169 -0.736324 1.604024 -0.161796 167.097182 -20.478265 -17.168432 1.075720 20.766521 -8.449483 11.018418 -9.583151 -1.762087 4.362347 -5.539164 11.169587 0.000000 0.000000 0.000000 0.000000 0.000000 0.000000 1.075720 20.766521 -8.449483 1.310655 -21.568936 3.440616 13.030406 2.571086 5.051220 0.000000 0.000000 0.000000 0.000000 0.000000 0.000000 -10.881244 4.811600 -11.648903 17.217750 2.128590 16.071150 0.000000 0.000000 0.000000 -9.775960 -0.102363 1.734514 -11.138448 4.891303 11.033177 0.000000 0.000000 0.000000
-29.175784 46.980710 30.526931 13.591932 -0.664898 -2.863425 0.000000 0.000000 0.000000 -13.914304 3.130337 4.144788 -0.928694 1.661895 -0.167208 167.543386 -17.555732 -17.419780 0.828392 20.079940 -8.102338 10.105178 -9.481308 -1.686705 5.180527 -4.527711 9.987519 0.000000 0.000000 0.000000 0.000000 0.000000 0.000000 0.828392 20.079940 -8.102338 0.397867 -19.724256 1.998457 14.024372 2.240439 5.700243 0.000000 0.000000 0.000000 0.000000 0.000000 0.000000 -11.297878 4.428874 -10.698772 16.262456 1.867463 17.164634 0.000000 0.000000 0.000000 -10.705457 -0.020194 4.124238 -7.861728 4.072028 7.112814 0.000000 0.000000 0.000000
-28.945840 47.374413 24.182260 14.185602 -0.590662 -2.409599 0.000000 0.000000 0.000000 -14.441415 2.953188 3.612982 -0.944503 1.570647 -0.153197 169.523374 -14.249432 -16.243453 0.846730 18.680616 -7.408279 9.768635 -6.616407 -2.401072 8.277586 -4.654122 9.695706 0.000000 0.000000 0.000000 0.000000 0.000000 0.000000 0.846730 18.680616 -7.408279 -0.002113 -16.252244 0.679845 13.924073 1.960698 6.279043 0.000000 0.000000 0.000000 0.000000 0.000000 0.000000 -9.968325 4.227187 -9.474795 16.791621 1.883692 17.920957 0.000000 0.000000 0.000000 -14.481103 0.337593 6.169991 -1.977812 2.781886 2.691587 0.000000 0.000000 0.000000
-28.188267 48.024062 17.662566 14.111806 -0.466276 -1.628436 0.000000 0.000000 0.000000 -13.851858 2.843834 2.756695 -0.957820 1.404246 -0.131760 171.578185 -14.017097 -14.279877 0.356951 15.661199 -6.572521 11.042764 -3.393188 -3.593391 9.000100 -7.043345 10.906435 0.000000 0.000000 0.000000 0.000000 0.000000 0.000000 0.356951 15.661199 -6.572521 -0.433672 -15.764155 1.604227 10.106452 2.448203 4.335378 0.000000 0.000000 0.000000 0.000000 0.000000 0.000000 -5.066865 4.846986 -8.752134 17.543354 1.356771 17.342832 0.000000 0.000000 0.000000 -21.537673 1.091951 4.843766 5.083945 1.822297 2.702582 0.000000 0.000000 0.000000
-27.939998 48.164590 14.494822 12.339713 -0.355486 -0.951207 0.000000 0.000000 0.000000 -11.340016 2.655595 1.953502 -0.949379 1.430657 -0.032285 172.412864 -14.261225 -13.921135 -0.316182 14.780323 -5.997234 10.454536 -2.726975 -7.547601 15.235112 -6.516883 15.358294 0.000000 0.000000 0.000000 0.000000 0.000000 0.000000 -0.316182 14.780323 -5.997234 0.494599 -18.159772 3.878688 15.499863 3.105599 2.300724 0.000000 0.000000 0.000000 0.000000 0.000000 0.000000 -4.118967 5.117115 -9.234276 16.448492 0.808204 15.799336 0.000000 0.000000 0.000000 -29.106570 1.612758 2.673034 13.767379 0.621915 4.943835 0.000000 0.000000 0.000000
-27.916161 47.551358 11.383528 12.438565 -0.270985 -0.431118 0.000000 0.000000 0.000000 -10.768509 2.359069 1.287391 -1.056825 1.463429 0.059602 172.715536 -13.421009 -15.269368 -0.770475 16.337548 -5.502644 9.855267 -2.388167 -9.593857 21.110415 -4.546256 17.830106 0.000000 0.000000 0.000000 0.000000 0.000000 0.000000 -0.770475 16.337548 -5.502644 -0.468843 -19.767087 6.501920 17.415475 3.736827 -0.871546 0.000000 0.000000 0.000000 0.000000 0.000000 0.000000 -9.068716 3.768889 -8.232587 14.736629 1.138781 13.103436 0.000000 0.000000 0.000000 -21.490937 0.824494 2.532797 -1.013986 3.339132 4.798580 0.000000 0.000000 0.000000
-27.395566 47.081813 7.997389 14.010586 -0.295737 -0.474052 0.000000 0.000000 0.000000 -12.068232 2.226665 1.276729 -1.075426 1.303690 0.056072 172.980517 -13.597261 -15.992303 -1.013651 16.785301 -5.385599 9.712979 -5.031976 -7.036030 18.209537 -4.148247 14.708901 0.000000 0.000000 0.000000 0.000000 0.000000 0.000000 -1.013651 16.785301 -5.385599 -5.015240 -20.460460 5.918127 10.506649 4.145192 -2.635422 0.000000 0.000000 0.000000 0.000000 0.000000 0.000000 -14.897901 2.757887 -9.049618 13.040393 1.546743 13.244438 0.000000 0.000000 0.000000 -21.149556 0.780003 3.445069 2.187928 2.415091 4.853423 0.000000 0.000000 0.000000
-26.299207 46.477304 7.169957 15.495868 -0.316784 -0.490779 0.000000 0.000000 0.000000 -13.529611 2.191653 1.284046 -0.953468 1.239283 0.057007 173.164800 -13.494024 -15.819897 -0.973468 17.525164 -5.325197 10.073070 -6.649369 -3.647450 14.025804 -4.381934 9.894190 0.000000 0.000000 0.000000 0.000000 0.000000 0.000000 -0.973468 17.525164 -5.325197 -6.184070 -19.948114 5.304755 11.237206 3.958182 -3.182333 0.000000 0.000000 0.000000 0.000000 0.000000 0.000000 -18.115551 2.151815 -9.438545 14.156339 2.173161 11.989373 0.000000 0.000000 0.000000 -20.895431 0.852230 3.601465 5.411863 1.560133 5.217349 0.000000 0.000000 0.000000
-24.132196 45.873813 5.423620 16.568648 -0.265616 -0.006009 0.000000 0.000000 0.000000 -14.329879 2.274860 0.811331 -0.965618 1.134891 0.033778 172.909451 -10.341901 -16.441338 -1.033788 16.940047 -4.481338 9.627601 -7.038204 -1.580758 8.610777 -3.262993 4.784754 0.000000 0.000000 0.000000 0.000000 0.000000 0.000000 -1.033788 16.940047 -4.481338 -5.948527 -18.284206 5.683848 15.992453 4.148275 -4.706833 0.000000 0.000000 0.000000 0.000000 0.000000 0.000000 -14.717543 3.006616 -10.077907 13.109183 1.250129 11.556352 0.000000 0.000000 0.000000 -21.403697 1.215802 2.645810 6.081107 0.933204 3.475545 0.000000 0.000000 0.000000
-21.146440 45.500486 -0.120273 16.426618 -0.094491 1.220952 0.000000 0.000000 0.000000 -13.945621 2.527279 -0.362845 -1.092255 0.796212 -0.090849 173.305437 -8.448412 -18.357367 -0.869566 14.358749 -2.511754 9.698630 -8.796615 1.635147 0.501745 -2.369214 -1.094792 0.000000 0.000000 0.000000 0.000000 0.000000 0.000000 -0.869566 14.358749 -2.511754 -7.650674 -17.614933 4.970465 13.416442 4.713279 -6.642344 0.000000 0.000000 0.000000 0.000000 0.000000 0.000000 -7.720521 3.785214 -9.478308 12.723337 0.472794 13.694623 0.000000 0.000000 0.000000 -22.171754 1.519539 0.790102 8.630186 0.141549 2.081763 0.000000 0.000000 0.000000
-17.489341 46.434069 -6.275133 14.415589 0.085483 2.121904 0.000000 0.000000 0.000000 -11.942192 2.878394 -1.121748 -1.080314 0.623013 -0.215533 172.570848 -10.580462 -19.640364 -0.332816 12.974650 -0.701628 10.211069 -10.529119 2.012972 -1.791998 -2.204126 -2.331810 0.000000 0.000000 0.000000 0.000000 0.000000 0.000000 -0.332816 12.974650 -0.701628 -7.824663 -19.495830 3.981720 13.681947 5.017428 -6.999432 0.000000 0.000000 0.000000 0.000000 0.000000 0.000000 -3.442085 3.417493 -7.546092 13.762652 0.880284 17.709691 0.000000 0.000000 0.000000 -26.357100 1.665156 -1.943275 12.210348 0.555885 2.508845 0.000000 0.000000 0.000000
-13.420519 48.317570 -8.859760 12.081778 0.176416 2.191426 0.000000 0.000000 0.000000 -9.686372 2.813111 -1.174878 -1.113107 0.851550 -0.174330 173.006446 -9.459630 -19.289450 0.286027 14.539362 0.429470 10.331828 -10.222251 2.343807 -1.070997 -2.339467 -2.655102 0.000000 0.000000 0.000000 0.000000 0.000000 0.000000 0.286027 14.539362 0.429470 -6.815031 -19.456691 4.735902 12.445909 5.635190 -7.506131 0.000000 0.000000 0.000000 0.000000 0.000000 0.000000 -1.864444 2.199944 -4.292466 11.559241 1.148873 17.214797 0.000000 0.000000 0.000000 -30.648642 1.391608 -5.188702 19.095602 1.274527 4.922204 0.000000 0.000000 0.000000
-9.490263 50.032767 -9.200657 10.017838 0.211101 1.974354 0.000000 0.000000 0.000000 -7.730667 2.137467 -1.221611 -1.059425 0.824447 -0.074848 174.286437 -8.597274 -18.204978 0.239341 14.575303 0.686120 10.583953 -7.929399 0.166368 3.313518 -3.814253 0.145510 0.000000 0.000000 0.000000 0.000000 0.000000 0.000000 0.239341 14.575303 0.686120 -5.523710 -18.549255 4.864069 11.155955 5.690767 -6.650238 0.000000 0.000000 0.000000 0.000000 0.000000 0.000000 -3.620468 1.506710 -1.812758 10.988275 1.472345 13.609733 0.000000 0.000000 0.000000 -32.340437 0.932002 -6.180814 18.478320 1.124163 2.828997 0.000000 0.000000 0.000000
-6.978897 50.383590 -10.073885 10.745909 0.086433 1.420643 0.000000 0.000000 0.000000 -8.243823 1.301553 -1.069551 -0.993436 0.669365 0.065558 175.664840 -8.830883 -17.681365 -0.370578 14.654881 0.527573 9.469862 -5.374451 -2.692391 7.791566 -5.165551 4.641710 0.000000 0.000000 0.000000 0.000000 0.000000 0.000000 -0.370578 14.654881 0.527573 -4.045553 -16.952779 5.681474 10.720994 5.193982 -5.247423 0.000000 0.000000 0.000000 0.000000 0.000000 0.000000 -5.004654 1.624731 -1.376397 8.441351 1.309542 11.322492 0.000000 0.000000 0.000000 -31.899538 0.237539 -6.545214 16.930490 0.846604 1.183058 0.000000 0.000000 0.000000
-5.755462 50.123630 -13.928443 11.238652 -0.094544 0.473757 0.000000 0.000000 0.000000 -8.812947 0.646125 -0.417890 -0.821914 0.735453 0.214233 175.357352 -7.423484 -17.195030 -0.993295 14.110640 -0.880183 9.112615 -2.306609 -2.907396 11.166536 -5.396852 6.583725 0.000000 0.000000 0.000000 0.000000 0.000000 0.000000 -0.993295 14.110640 -0.880183 -2.356862 -13.803623 6.585077 9.322818 4.477863 -3.702450 0.000000 0.000000 0.000000 0.000000 0.000000 0.000000 -6.046455 1.984758 -1.456846 6.964369 1.008278 11.607337 0.000000 0.000000 0.000000 -31.207781 -0.090335 -4.862250 15.886140 0.253072 -0.117950 0.000000 0.000000 0.000000
-5.127616 50.296539 -17.828378 11.652346 -0.308833 -0.714449 0.000000 0.000000 0.000000 -9.819219 0.163919 0.606761 -0.692039 0.662173 0.261526 174.388371 -2.204026 -17.365699 -1.213768 12.001338 -2.688303 8.670356 1.081439 -1.759821 13.297815 -5.213491 5.475849 0.000000 0.000000 0.000000 0.000000 0.000000 0.000000 -1.213768 12.001338 -2.688303 -0.551078 -8.977809 6.703150 11.064318 3.033086 -2.460723 0.000000 0.000000 0.000000 0.000000 0.000000 0.000000 -7.008987 2.026938 -1.271761 3.816659 0.787100 11.940383 0.000000 0.000000 0.000000 -26.704952 -0.136969 -2.374726 9.949173 0.707983 1.520257 0.000000 0.000000 0.000000
-4.785263 50.539257 -19.494940 11.529154 -0.469347 -1.613748 0.000000 0.000000 0.000000 -10.286840 0.065775 1.524052 -0.609537 0.243262 0.143068 173.801094 3.129027 -17.317720 -1.187909 7.645997 -3.528115 8.866157 4.593405 -0.719464 12.260618 -5.762747 3.672891 0.000000 0.000000 0.000000 0.000000 0.000000 0.000000 -1.187909 7.645997 -3.528115 1.495128 -4.599457 6.521782 10.789357 2.403475 -2.032670 0.000000 0.000000 0.000000 0.000000 0.000000 0.000000 -5.722866 2.011934 -1.408190 1.559417 0.591277 11.782811 0.000000 0.000000 0.000000 -17.602965 0.308310 1.477486 0.223624 1.078775 0.269737 0.000000 0.000000 0.000000
-4.156509 50.436080 -19.914917 9.687060 -0.488357 -1.746787 0.000000 0.000000 0.000000 -8.934215 0.183411 1.730578 -0.512652 -0.027600 0.041186 173.623159 4.759473 -16.568536 -1.027576 3.191760 -3.582895 8.819807 5.264319 0.013924 8.996294 -6.887587 2.320561 0.000000 0.000000 0.000000 0.000000 0.000000 0.000000 -1.027576 3.191760 -3.582895 0.964330 -3.284025 6.591646 11.256029 2.614813 -2.579369 0.000000 0.000000 0.000000 0.000000 0.000000 0.000000 -4.850345 1.888616 -1.426372 3.454795 0.878627 11.854553 0.000000 0.000000 0.000000 -13.030737 0.726807 5.239023 -9.184405 0.293984 -8.004994 0.000000 0.000000 0.000000
-2.401166 50.948715 -19.874187 9.144249 -0.380294 -1.188284 0.000000 0.000000 0.000000 -8.662936 0.022372 1.125489 -0.525091 0.078215 0.087907 173.448814 5.190485 -16.208840 -0.809263 1.793077 -3.127170 7.857412 4.757589 0.988336 5.801861 -7.744798 0.652611 0.000000 0.000000 0.000000 0.000000 0.000000 0.000000 -0.809263 1.793077 -3.127170 0.311126 -2.472860 6.658870 11.468086 2.606820 -3.419076 0.000000 0.000000 0.000000 0.000000 0.000000 0.000000 -5.367716 0.960662 0.803031 5.481964 1.907721 11.110608 0.000000 0.000000 0.000000 -13.974791 0.898974 5.842724 -8.456431 -0.650974 -11.454649 0.000000 0.000000 0.000000
0.899398 53.270298 -18.864271 9.501665 -0.259971 -0.553734 0.000000 0.000000 0.000000 -9.077491 -0.451852 0.312300 -0.534284 0.087115 0.162779 172.632545 6.886706 -16.117332 -0.738564 1.115120 -2.280475 7.867289 3.630549 4.989013 5.613874 -5.079604 -3.858132 0.000000 0.000000 0.000000 0.000000 0.000000 0.000000 -0.738564 1.115120 -2.280475 0.663996 -0.115606 5.855193 12.268480 1.975496 -3.161628 0.000000 0.000000 0.000000 0.000000 0.000000 0.000000 -6.774921 -0.021682 4.399849 6.834611 3.148644 11.664249 0.000000 0.000000 0.000000 -15.758948 0.364087 0.764791 -8.109248 0.408394 -3.624375 0.000000 0.000000 0.000000
3.988850 55.285342 -17.441066 10.929360 -0.297742 -0.696245 0.000000 0.000000 0.000000 -10.469800 -0.989538 0.256256 -0.597622 -0.181197 0.197091 171.159482 10.273790 -16.083393 -0.905358 -0.627316 -1.629093 17.190055 2.529426 16.176944 -1.519069 2.201393 -16.746143 0.000000 0.000000 0.000000 0.000000 0.000000 0.000000 -0.905358 -0.627316 -1.629093 2.682750 4.635599 2.531228 12.969432 0.943636 -1.626340 0.000000 0.000000 0.000000 0.000000 0.000000 0.000000 -5.113824 -0.047853 8.366052 6.479398 3.085817 8.358289 0.000000 0.000000 0.000000 -18.346655 -0.561218 -5.353899 -5.400457 1.256573 7.197543 0.000000 0.000000 0.000000
5.497489 56.153806 -14.597767 12.143276 -0.572327 -2.173456 0.000000 0.000000 0.000000 -11.552053 -2.126344 1.321055 -0.862638 -0.234990 0.422425 167.785928 10.513519 -16.395627 -1.196657 -3.863225 0.423593 31.173016 0.622563 26.787057 -13.748120 9.353287 -29.781959 0.000000 0.000000 0.000000 0.000000 0.000000 0.000000 -1.196657 -3.863225 0.423593 4.169736 7.406569 -0.969589 12.647974 0.357612 -0.676859 0.000000 0.000000 0.000000 0.000000 0.000000 0.000000 1.074692 0.912843 12.449947 5.353797 2.536991 5.457564 0.000000 0.000000 0.000000 -17.819015 -1.270201 -5.578441 -8.585614 0.248557 7.875189 0.000000 0.000000 0.000000
5.360768 56.171027 -10.963767 11.485124 -1.025446 -4.864644 0.000000 0.000000 0.000000 -10.597213 -3.156735 3.630338 -1.346547 -0.182686 0.717259 165.303102 11.702812 -15.208484 -1.377283 -5.475454 3.051386 22.997635 7.671114 17.280936 5.026434 -0.956058 -21.453515 0.000000 0.000000 0.000000 0.000000 0.000000 0.000000 -1.377283 -5.475454 3.051386 5.456209 7.327100 4.087590 12.085634 0.216442 -4.061288 0.000000 0.000000 0.000000 0.000000 0.000000 0.000000 3.328447 1.784376 14.663694 4.589725 2.227167 4.487399 0.000000 0.000000 0.000000 -16.339980 -1.353057 -4.164365 -13.301501 -1.826538 4.969826 0.000000 0.000000 0.000000
4.757878 56.190463 -9.262127 12.284814 -1.339321 -6.818430 0.000000 0.000000 0.000000 -10.411216 -3.301653 5.397930 -1.770127 -0.633662 0.752167 164.883122 11.176566 -14.397466 -2.515567 -6.760012 0.753054 7.845366 12.836485 7.199341 30.611815 -7.389194 -6.227835 0.000000 0.000000 0.000000 0.000000 0.000000 0.000000 -2.515567 -6.760012 0.753054 6.347262 7.164230 8.733209 10.676759 0.273095 -4.270036 0.000000 0.000000 0.000000 0.000000 0.000000 0.000000 2.482055 1.990494 14.482057 2.132498 2.419814 5.627335 0.000000 0.000000 0.000000 -11.894402 -0.675194 -2.899723 -16.091693 -2.657749 4.049216 0.000000 0.000000 0.000000
3.878781 54.536402 -10.064137 12.432300 -1.415332 -7.313562 0.000000 0.000000 0.000000 -10.265494 -2.645822 6.101165 -1.681020 -0.978737 0.528151 167.175415 6.229206 -13.905700 -3.126818 -7.120997 -4.261923 3.393559 10.388351 -0.117618 26.048088 -5.883278 5.515085 0.000000 0.000000 0.000000 0.000000 0.000000 0.000000 -3.126818 -7.120997 -4.261923 2.645063 4.753085 6.933572 10.926832 0.640952 1.150213 0.000000 0.000000 0.000000 0.000000 0.000000 0.000000 2.482386 2.413838 12.611549 -2.740331 2.488691 7.825264 0.000000 0.000000 0.000000 -16.603772 -1.381353 -4.016257 -10.384976 -0.777820 6.953234 0.000000 0.000000 0.000000
2.366278 51.907199 -10.821714 12.580380 -1.313473 -6.735798 0.000000 0.000000 0.000000 -11.151598 -0.699178 6.472456 -1.360952 -0.272057 0.243348 172.611663 -4.744934 -15.290902 -2.507493 -3.758494 -7.267147 5.915677 1.590128 -2.874342 18.158446 -5.270516 10.038142 0.000000 0.000000 0.000000 0.000000 0.000000 0.000000 -2.507493 -3.758494 -7.267147 0.199202 -4.269124 0.751189 12.638661 1.057546 7.671467 0.000000 0.000000 0.000000 0.000000 0.000000 0.000000 3.076262 3.266430 8.074444 -10.237021 2.074694 11.043375 0.000000 0.000000 0.000000 -16.499586 -1.220820 -6.712883 -8.048262 0.129970 10.035656 0.000000 0.000000 0.000000
0.712071 49.080493 -11.333586 12.410269 -1.029874 -4.932469 0.000000 0.000000 0.000000 -11.278816 2.881297 6.131302 -0.841666 0.917265 -0.190784 173.785672 -15.162528 -16.619370 -1.660054 4.608051 -8.158129 10.341191 -9.918562 2.285778 10.623020 -4.549801 4.301910 0.000000 0.000000 0.000000 0.000000 0.000000 0.000000 -1.660054 4.608051 -8.158129 -3.760511 -16.804192 -1.575872 15.921583 2.584520 6.236470 0.000000 0.000000 0.000000 0.000000 0.000000 0.000000 0.161016 3.719193 -0.340464 -8.947851 0.536034 18.952637 0.000000 0.000000 0.000000 -14.101915 -0.898387 -14.307695 -11.165504 0.763728 18.909601 0.000000 0.000000 0.000000
-0.531070 47.361359 -11.956298 12.967805 -0.407833 -1.336701 0.000000 0.000000 0.000000 -11.778826 5.530918 3.629268 -0.691626 1.291129 -0.555964 173.267701 -20.934905 -19.549084 0.201811 13.935770 -6.744748 15.249172 -13.850216 5.119927 2.861271 -5.885810 -1.133545 0.000000 0.000000 0.000000 0.000000 0.000000 0.000000 0.201811 13.935770 -6.744748 -10.403662 -24.403348 -3.560773 14.055057 4.052247 0.075932 0.000000 0.000000 0.000000 0.000000 0.000000 0.000000 -2.009011 4.006060 -7.981589 -6.170303 0.395059 27.314661 0.000000 0.000000 0.000000 -8.839637 -0.590337 -23.129851 -18.977381 0.690080 29.332843 0.000000 0.000000 0.000000
-0.967690 46.694718 -14.900956 12.255750 0.173808 2.253010 0.000000 0.000000 0.000000 -10.566349 6.514643 0.348051 -0.587314 1.215836 -0.690134 172.452464 -24.930763 -21.048097 2.344442 19.006068 -2.223435 18.959530 -11.941520 4.835259 -3.310930 -9.612821 -2.558622 0.000000 0.000000 0.000000 0.000000 0.000000 0.000000 2.344442 19.006068 -2.223435 -13.362570 -26.410927 -3.928950 10.348783 5.118814 -4.232626 0.000000 0.000000 0.000000 0.000000 0.000000 0.000000 -6.657820 3.141734 -10.924571 0.584291 2.044103 31.192887 0.000000 0.000000 0.000000 -10.242296 -0.333736 -21.789216 -16.699848 -0.151785 22.373551 0.000000 0.000000 0.000000
0.037124 47.392599 -21.671251 12.666589 0.497838 4.260448 0.000000 0.000000 0.000000 -10.790079 6.443097 -1.760941 -0.562468 1.469980 -0.590515 172.557086 -23.219917 -20.431666 3.491337 20.142211 0.822995 18.613356 -9.366959 4.140309 -5.987543 -10.318593 -2.974888 0.000000 0.000000 0.000000 0.000000 0.000000 0.000000 3.491337 20.142211 0.822995 -11.615006 -23.763320 -2.140634 5.979129 5.633065 -5.336276 0.000000 0.000000 0.000000 0.000000 0.000000 0.000000 -4.502066 2.526679 -8.277169 -0.642034 2.311323 27.081190 0.000000 0.000000 0.000000 -19.157406 0.499030 -12.868819 -2.653248 -1.272007 5.116360 0.000000 0.000000 0.000000
3.262494 49.653127 -27.397806 12.060497 0.499796 4.099174 0.000000 0.000000 0.000000 -10.007413 4.889934 -2.248219 -0.525453 1.615511 -0.266397 170.197090 -15.100960 -18.460800 2.640262 18.208830 1.426806 14.277847 -4.477143 4.271279 -6.164627 -9.200193 -3.348844 0.000000 0.000000 0.000000 0.000000 0.000000 0.000000 2.640262 18.208830 1.426806 -7.641598 -13.242981 -1.870825 -0.305337 2.348863 -1.717245 0.000000 0.000000 0.000000 0.000000 0.000000 0.000000 0.016703 0.991334 1.526664 -3.711492 2.784749 13.132317 0.000000 0.000000 0.000000 -40.108736 0.819049 -8.766392 28.980193 1.742660 1.265843 0.000000 0.000000 0.000000
6.778488 51.873582 -28.483960 11.916743 0.119770 1.837540 0.000000 0.000000 0.000000 -9.423283 1.205104 -1.595228 -0.593864 1.036831 0.259266 162.406050 6.619614 -16.251431 0.066130 12.576265 0.324669 7.423368 10.711293 4.896930 10.087699 -8.452120 -0.649517 0.000000 0.000000 0.000000 0.000000 0.000000 0.000000 0.066130 12.576265 0.324669 -0.111406 5.125538 2.057597 -7.764737 -3.687589 0.285937 0.000000 0.000000 0.000000 0.000000 0.000000 0.000000 2.762080 -0.541704 12.387452 -0.863444 4.026497 -0.309825 0.000000 0.000000 0.000000 -38.665498 -2.660007 -11.549609 16.655994 5.357588 8.554601 0.000000 0.000000 0.000000
8.487527 52.095311 -27.839668 11.789610 -0.502333 -1.799450 0.000000 0.000000 0.000000 -8.501637 -4.180289 -0.647634 -1.059134 -0.657018 0.873370 156.621925 26.033101 -5.596626 -2.990501 -0.404718 -2.866497 0.002226 32.589979 6.449403 32.041855 -8.221787 6.539737 0.000000 0.000000 0.000000 0.000000 0.000000 0.000000 -2.990501 -0.404718 -2.866497 8.338080 13.105135 23.364081 -0.814576 -1.908119 -17.181938 0.000000 0.000000 0.000000 0.000000 0.000000 0.000000 4.437779 0.805531 14.931770 -1.800744 3.914023 1.249538 0.000000 0.000000 0.000000 -34.006078 -4.709473 -12.582353 5.437382 5.096869 12.175884 0.000000 0.000000 0.000000
8.747046 51.119129 -28.981897 11.164387 -1.129350 -5.004475 0.000000 0.000000 0.000000 -5.729348 -6.461907 0.756204 -1.926264 -1.788799 1.478178 152.787685 22.550167 4.345354 -4.682608 -16.085131 -10.181885 -9.662731 42.897243 7.364970 41.528199 -5.028675 15.079571 0.000000 0.000000 0.000000 0.000000 0.000000 0.000000 -4.682608 -16.085131 -10.181885 14.747521 3.814153 50.596913 21.306061 11.394434 -44.756570 0.000000 0.000000 0.000000 0.000000 0.000000 0.000000 7.438987 2.774288 15.876763 -6.195579 3.750126 3.765732 0.000000 0.000000 0.000000 -27.233591 -4.832110 -9.514972 -1.628034 2.585211 11.132697 0.000000 0.000000 0.000000
8.778146 51.243330 -30.472113 7.731808 -1.807503 -8.078279 0.000000 0.000000 0.000000 -1.291969 -5.182522 3.796383 -2.666520 -1.659905 1.771680 155.743691 21.182164 6.223066 -4.048341 -23.679659 -16.445604 -11.818384 37.882597 7.572485 40.044963 -2.404796 15.578252 0.000000 0.000000 0.000000 0.000000 0.000000 0.000000 -4.048341 -23.679659 -16.445604 12.011506 10.217931 41.586316 18.680732 9.667431 -31.542940 0.000000 0.000000 0.000000 0.000000 0.000000 0.000000 5.288788 3.379120 15.595379 -9.812814 3.429930 5.008790 0.000000 0.000000 0.000000 -19.829440 -3.206730 -6.476293 -10.929902 -0.639206 9.736409 0.000000 0.000000 0.000000
8.556840 52.189081 -31.153842 8.745338 -2.023132 -9.396263 0.000000 0.000000 0.000000 -3.132029 -4.316900 5.925769 -2.299209 -1.315740 1.429257 162.806454 14.459350 4.295598 -3.824317 -22.053026 -17.694736 -4.958235 25.461417 7.475869 26.932830 -5.143400 11.142773 0.000000 0.000000 0.000000 0.000000 0.000000 0.000000 -3.824317 -22.053026 -17.694736 8.274066 10.800952 30.496555 16.085357 5.810062 -15.695832 0.000000 0.000000 0.000000 0.000000 0.000000 0.000000 1.228674 3.047168 12.717839 -8.801318 2.344029 6.917298 0.000000 0.000000 0.000000 -12.463747 -0.970095 -4.132851 -18.850624 -2.160735 9.308896 0.000000 0.000000 0.000000
7.793501 52.657747 -32.039972 11.089878 -1.743356 -8.654053 0.000000 0.000000 0.000000 -6.861735 -3.271506 6.420369 -1.739341 -0.697603 0.974738 172.812230 4.264302 -3.833485 -4.248914 -14.324235 -15.886722 4.374437 9.841600 7.666668 17.148356 -5.710803 4.985226 0.000000 0.000000 0.000000 0.000000 0.000000 0.000000 -4.248914 -14.324235 -15.886722 9.587500 7.245366 5.862557 13.636724 -0.397068 8.030665 0.000000 0.000000 0.000000 0.000000 0.000000 0.000000 -4.540937 2.345124 7.910160 -7.869630 1.764845 12.252824 0.000000 0.000000 0.000000 -11.872743 -0.799188 -4.078816 -17.579098 1.117289 13.968395 0.000000 0.000000 0.000000
6.823185 52.739167 -32.181934 14.159988 -1.243713 -6.784694 0.000000 0.000000 0.000000 -11.452267 -0.832657 6.278725 -0.843340 -0.586526 0.093728 174.018370 -4.970709 -11.162360 -3.737056 -1.480591 -13.109492 7.022061 -5.420041 2.809773 4.170603 -3.735528 2.385337 0.000000 0.000000 0.000000 0.000000 0.000000 0.000000 -3.737056 -1.480591 -13.109492 1.215251 -8.415039 -1.188456 16.270068 2.032289 8.430961 0.000000 0.000000 0.000000 0.000000 0.000000 0.000000 -4.008031 2.533864 3.047128 -3.297320 1.424041 17.685074 0.000000 0.000000 0.000000 -8.879926 -0.251081 -3.814828 -18.605112 1.128265 9.889323 0.000000 0.000000 0.000000
6.483239 52.921373 -32.409605 13.155422 -0.797189 -3.897526 0.000000 0.000000 0.000000 -11.833940 3.807067 5.544606 -0.533491 0.215740 -0.525367 173.962134 -15.839640 -16.772532 -1.070038 8.002434 -7.078699 3.319404 -15.816353 -2.379874 0.007867 1.706666 2.927857 0.000000 0.000000 0.000000 0.000000 0.000000 0.000000 -1.070038 8.002434 -7.078699 -5.714723 -18.818996 -3.471390 11.626523 2.829567 3.640831 0.000000 0.000000 0.000000 0.000000 0.000000 0.000000 2.359779 2.862334 2.485176 0.618927 1.271828 17.606692 0.000000 0.000000 0.000000 -7.407265 -0.078522 -3.391190 -17.599381 1.554328 5.949420 0.000000 0.000000 0.000000
7.339058 53.254888 -33.391978 10.325171 -0.503219 -1.788100 0.000000 0.000000 0.000000 -9.142469 5.398875 3.980092 -0.347801 0.396704 -0.669292 172.809565 -13.405836 -17.213376 1.149014 15.171245 -3.090007 3.108684 -15.197741 -2.649374 -1.302487 1.429512 2.201120 0.000000 0.000000 0.000000 0.000000 0.000000 0.000000 1.149014 15.171245 -3.090007 -6.944053 -18.408164 -3.229772 12.756380 2.659117 2.107595 0.000000 0.000000 0.000000 0.000000 0.000000 0.000000 2.959964 2.443517 2.589485 2.114987 1.171692 15.861020 0.000000 0.000000 0.000000 -11.296141 -0.310055 -6.648431 -16.286777 2.513571 9.384931 0.000000 0.000000 0.000000
9.510718 53.506254 -35.087582 11.477794 -0.290153 -0.594653 0.000000 0.000000 0.000000 -10.622190 4.044375 2.184746 -0.429730 0.418579 -0.457313 169.100826 -5.144034 -16.430750 1.653834 15.554599 -1.624756 5.182052 -8.977473 1.959706 1.054543 -1.794158 -1.142023 0.000000 0.000000 0.000000 0.000000 0.000000 0.000000 1.653834 15.554599 -1.624756 -3.688432 -11.934305 -0.309404 11.602476 1.755079 1.346379 0.000000 0.000000 0.000000 0.000000 0.000000 0.000000 3.260278 2.091535 2.958517 2.045333 1.224752 14.067419 0.000000 0.000000 0.000000 -19.966638 -0.713394 -11.445662 -4.226033 3.524351 15.203073 0.000000 0.000000 0.000000
11.804687 53.467415 -36.057801 12.316051 -0.181123 0.089983 0.000000 0.000000 0.000000 -11.852103 1.630148 0.489747 -0.651861 -0.306559 -0.245755 165.726885 6.449727 -15.797151 0.872826 10.925647 -1.543449 5.844443 -0.614820 4.365646 10.088189 -5.034011 -2.926400 0.000000 0.000000 0.000000 0.000000 0.000000 0.000000 0.872826 10.925647 -1.543449 -1.206053 -3.237120 2.557057 11.382109 -0.056171 0.366324 0.000000 0.000000 0.000000 0.000000 0.000000 0.000000 2.084355 1.657366 4.955432 3.368816 1.521235 11.918487 0.000000 0.000000 0.000000 -23.051713 -1.037300 -11.891472 -2.387248 3.184622 13.957281 0.000000 0.000000 0.000000
13.739382 53.190758 -36.699389 13.242806 -0.298567 -0.522356 0.000000 0.000000 0.000000 -12.967655 -0.738612 0.205028 -0.899212 -1.383700 -0.063669 164.697446 11.300543 -15.837825 -0.276750 4.217658 -2.156065 6.018422 5.534961 1.596701 18.782968 -6.220916 0.134807 0.000000 0.000000 0.000000 0.000000 0.000000 0.000000 -0.276750 4.217658 -2.156065 1.339478 1.268689 3.617963 8.576146 -1.941299 0.325657 0.000000 0.000000 0.000000 0.000000 0.000000 0.000000 0.565607 1.330476 6.668156 6.665651 1.685840 10.638968 0.000000 0.000000 0.000000 -20.232525 -0.978578 -9.067693 -6.832410 1.126497 8.474966 0.000000 0.000000 0.000000
14.969809 52.719237 -36.616796 12.628384 -0.492201 -1.741554 0.000000 0.000000 0.000000 -12.522504 -1.805258 1.078062 -1.084028 -1.054911 0.221183 168.603120 4.278574 -16.461420 -0.684828 0.776051 -3.001170 5.310299 1.533188 0.301906 17.057641 -5.419822 2.480888 0.000000 0.000000 0.000000 0.000000 0.000000 0.000000 -0.684828 0.776051 -3.001170 0.428415 -2.788343 2.665566 9.514983 -0.631928 1.817356 0.000000 0.000000 0.000000 0.000000 0.000000 0.000000 -0.157949 1.869548 6.560201 6.413486 1.527891 11.552846 0.000000 0.000000 0.000000 -15.354719 -0.466067 -4.236564 -13.619100 -0.723367 3.610169 0.000000 0.000000 0.000000
15.415504 51.923840 -35.494717 12.671521 -0.686022 -2.923689 0.000000 0.000000 0.000000 -12.757361 -0.324423 2.910548 -0.811947 0.113711 0.162993 172.918774 -12.164138 -16.420116 -0.125253 3.953007 -3.836365 8.092727 -6.138294 1.434692 10.349510 -5.289671 2.669815 0.000000 0.000000 0.000000 0.000000 0.000000 0.000000 -0.125253 3.953007 -3.836365 -1.712674 -12.656674 1.104194 11.022218 1.992411 2.982960 0.000000 0.000000 0.000000 0.000000 0.000000 0.000000 -4.563144 2.039726 3.917642 9.726801 1.426439 14.826982 0.000000 0.000000 0.000000 -20.307982 -0.120106 -1.354682 -3.830749 0.247551 3.011377 0.000000 0.000000 0.000000
15.197400 51.168101 -35.059409 14.597828 -0.622620 -2.513878 0.000000 0.000000 0.000000 -13.910555 2.152657 3.466607 -0.623483 1.674303 0.141046 146.481431 -31.427393 -16.719395 0.282028 11.799564 -4.588612 10.866600 -14.073503 -4.347596 -10.055176 -5.254758 -4.054274 0.000000 0.000000 0.000000 0.000000 0.000000 0.000000 0.282028 11.799564 -4.588612 -6.142951 -27.649517 -4.030837 10.755503 3.634984 2.825601 0.000000 0.000000 0.000000 0.000000 0.000000 0.000000 -11.606051 1.548931 0.606525 17.035492 1.953086 19.893276 0.000000 0.000000 0.000000 -28.007121 1.251509 3.576201 7.871424 -3.062057 -8.067776 0.000000 0.000000 0.000000
15.344852 50.927920 -35.430080 17.502784 -0.373160 -0.676645 0.000000 0.000000 0.000000 -15.223933 4.936180 2.816090 -0.302460 2.701867 0.202382 25.648860 -45.745315 -13.584760 1.733273 24.330394 -3.467829 7.448708 -17.552943 -26.564859 -58.481289 -3.458127 -33.243966 0.000000 0.000000 0.000000 0.000000 0.000000 0.000000 1.733273 24.330394 -3.467829 -14.394808 -42.833115 -12.921532 8.055103 4.284069 2.460140 0.000000 0.000000 0.000000 0.000000 0.000000 0.000000 -16.126217 1.147229 -1.976619 22.747154 2.641365 23.345601 0.000000 0.000000 0.000000 -34.732376 2.984373 3.149143 21.237377 -6.085847 -11.695867 0.000000 0.000000 0.000000
15.965252 51.141954 -35.783921 18.468033 -0.111103 1.621967 0.000000 0.000000 0.000000 -14.371404 6.553837 1.303712 0.352806 4.008880 0.849963 -149.990615 -53.985170 -9.105920 4.359146 38.880428 -1.698316 -2.161446 -17.351270 -57.821767 -122.052402 5.540114 -70.974908 0.000000 0.000000 0.000000 0.000000 0.000000 0.000000 4.359146 38.880428 -1.698316 -18.770755 -51.813719 -20.073364 2.931798 4.309689 3.860998 0.000000 0.000000 0.000000 0.000000 0.000000 0.000000 -17.284305 1.227118 -3.304076 25.681719 2.833092 25.131760 0.000000 0.000000 0.000000 -40.323559 3.904721 1.256853 31.800022 -7.009458 -10.545706 0.000000 0.000000 0.000000
17.050137 53.620829 -37.513678 18.461560 -0.014134 2.502391 0.000000 0.000000 0.000000 -13.322061 6.771902 0.610628 0.860770 5.149160 1.648330 -53.244225 -54.101316 -8.781032 6.257533 48.828741 -1.301449 -0.443056 -22.405619 -49.036568 -124.837984 6.329396 -47.734660 0.000000 0.000000 0.000000 0.000000 0.000000 0.000000 6.257533 48.828741 -1.301449 -15.469418 -48.923164 -15.247689 0.729622 4.552843 1.998589 0.000000 0.000000 0.000000 0.000000 0.000000 0.000000 -16.616258 1.365339 -3.687407 26.707902 2.735795 24.692446 0.000000 0.000000 0.000000 -40.059972 3.433356 -0.094957 30.912626 -5.790210 -9.806109 0.000000 0.000000 0.000000
18.197365 56.949860 -39.169947 18.151725 -0.019151 2.423350 0.000000 0.000000 0.000000 -12.882234 6.431168 0.525669 0.777200 5.168699 1.685778 31.134729 -49.792415 -6.598053 4.931370 48.824318 -3.231718 2.172643 -28.784112 -30.836935 -119.860377 3.135927 -66.981496 0.000000 0.000000 0.000000 0.000000 0.000000 0.000000 4.931370 48.824318 -3.231718 -5.625808 -28.738605 -4.947510 -0.780901 2.766339 1.195723 0.000000 0.000000 0.000000 0.000000 0.000000 0.000000 -14.300125 0.445340 0.240200 24.317696 2.316753 17.623117 0.000000 0.000000 0.000000 -40.883163 1.070344 -4.435439 31.265029 -0.636263 -2.941482 0.000000 0.000000 0.000000
18.350776 59.164175 -40.592991 16.048811 -0.136118 0.945067 0.000000 0.000000 0.000000 -11.099032 4.656696 1.117714 0.639970 4.507706 1.446614 -139.062155 -42.183662 2.077934 0.329629 43.243904 -7.676389 -3.783846 -26.100207 -27.994409 -75.394331 -8.065167 -42.670335 0.000000 0.000000 0.000000 0.000000 0.000000 0.000000 0.329629 43.243904 -7.676389 4.441509 -2.378487 5.681943 5.329460 0.017767 -0.478448 0.000000 0.000000 0.000000 0.000000 0.000000 0.000000 -10.399094 1.167399 0.962953 16.040828 2.650601 18.292361 0.000000 0.000000 0.000000 -41.721796 -2.556757 -11.985871 27.164210 7.465193 9.564669 0.000000 0.000000 0.000000
17.579553 59.736339 -41.840989 14.206205 -0.399457 -1.267307 0.000000 0.000000 0.000000 -9.405505 1.260211 1.548608 1.209979 3.674799 1.825149 -26.343836 -7.146355 -7.587128 -4.639162 30.670891 -12.712805 3.849584 11.409154 10.566605 32.439944 -4.374046 3.538455 0.000000 0.000000 0.000000 0.000000 0.000000 0.000000 -4.639162 30.670891 -12.712805 13.464822 -5.837020 25.636284 16.427022 2.614625 -15.665481 0.000000 0.000000 0.000000 0.000000 0.000000 0.000000 -3.249148 2.616155 6.577626 5.290103 1.327585 13.719686 0.000000 0.000000 0.000000 -35.730042 -3.497630 -8.015481 8.852199 3.771527 8.006840 0.000000 0.000000 0.000000
17.312700 60.567033 -43.147811 14.355413 -1.029075 -5.069035 0.000000 0.000000 0.000000 -9.309279 -1.350194 3.773028 -0.514152 0.278163 0.563726 174.479538 10.280409 -5.277414 -6.088238 -1.813351 -14.193234 -5.320306 33.160553 9.372873 43.243861 -3.122156 10.578610 0.000000 0.000000 0.000000 0.000000 0.000000 0.000000 -6.088238 -1.813351 -14.193234 19.900736 -5.333757 54.565415 25.872686 7.961946 -49.651444 0.000000 0.000000 0.000000 0.000000 0.000000 0.000000 3.169553 4.232444 9.398847 -2.663089 1.312429 13.692864 0.000000 0.000000 0.000000 -24.335305 -2.975596 -4.916080 -11.796215 -0.370925 6.901150 0.000000 0.000000 0.000000
17.428965 60.315437 -40.739528 10.580967 -1.582196 -7.589834 0.000000 0.000000 0.000000 -4.024158 -1.581024 5.530706 -1.803783 -0.713814 0.659907 170.755686 18.238494 -4.798658 -6.713992 -20.015200 -19.476120 -8.241233 35.547120 8.689539 40.078168 -3.901196 13.635463 0.000000 0.000000 0.000000 0.000000 0.000000 0.000000 -6.713992 -20.015200 -19.476120 16.547940 -0.174536 52.291012 25.146533 5.337041 -45.558126 0.000000 0.000000 0.000000 0.000000 0.000000 0.000000 6.872614 5.707028 9.941611 -7.322781 1.005665 14.456100 0.000000 0.000000 0.000000 -25.421294 -3.369611 -3.148334 -8.530387 -0.843487 4.082504 0.000000 0.000000 0.000000
17.144351 59.656933 -37.669920 8.756667 -1.890509 -8.754911 0.000000 0.000000 0.000000 -2.860410 -1.324267 6.750420 -2.355286 -1.005277 0.698207 171.036448 17.482041 -4.340700 -5.759680 -21.974376 -20.277419 -4.660145 30.232241 10.878558 30.815480 -5.483639 10.359786 0.000000 0.000000 0.000000 0.000000 0.000000 0.000000 -5.759680 -21.974376 -20.277419 13.752151 6.885092 38.138500 14.508348 7.487026 -25.507777 0.000000 0.000000 0.000000 0.000000 0.000000 0.000000 3.890408 5.168655 9.273446 -6.559192 0.638786 14.122150 0.000000 0.000000 0.000000 -25.341328 -3.645170 -5.283386 -8.074533 -0.475937 7.037677 0.000000 0.000000 0.000000
16.840341 59.579254 -35.345664 11.498974 -1.663110 -8.433887 0.000000 0.000000 0.000000 -6.339861 -1.950696 6.673441 -2.132705 -0.601786 0.745147 171.673265 18.742300 -4.641418 -5.606070 -17.914907 -19.772005 -1.738267 22.117528 14.613363 16.001832 -7.096452 3.417743 0.000000 0.000000 0.000000 0.000000 0.000000 0.000000 -5.606070 -17.914907 -19.772005 5.577905 14.347126 22.898120 12.019474 -1.043137 -7.446603 0.000000 0.000000 0.000000 0.000000 0.000000 0.000000 0.520709 4.403198 7.700094 -3.933546 0.334067 13.988822 0.000000 0.000000 0.000000 -22.700340 -2.903883 -6.307205 -5.332480 0.160696 9.180643 0.000000 0.000000 0.000000
16.532826 59.010076 -33.903476 13.210053 -1.412273 -7.528230 0.000000 0.000000 0.000000 -9.260680 -1.469427 6.483100 -1.804858 -0.086313 0.580199 174.305341 10.417660 -8.066509 -4.832058 -15.396665 -17.774985 6.772666 13.763560 9.575455 11.652938 -8.039615 1.995097 0.000000 0.000000 0.000000 0.000000 0.000000 0.000000 -4.832058 -15.396665 -17.774985 5.018028 8.986152 6.398999 11.294564 -0.878496 6.862312 0.000000 0.000000 0.000000 0.000000 0.000000 0.000000 -2.145249 2.872632 7.070612 1.670066 0.978748 11.691248 0.000000 0.000000 0.000000 -23.433103 -2.587153 -7.481575 -1.267069 1.854303 11.262777 0.000000 0.000000 0.000000
15.868426 57.340469 -32.418576 13.349324 -1.133179 -5.824252 0.000000 0.000000 0.000000 -10.591908 0.297419 5.779964 -1.191385 0.690802 0.349373 175.860471 -2.679687 -12.325879 -3.870237 -5.546141 -12.878990 11.109904 -1.661118 6.233966 3.091039 -6.289088 -0.012410 0.000000 0.000000 0.000000 0.000000 0.000000 0.000000 -3.870237 -5.546141 -12.878990 1.126043 -6.209277 -1.562494 13.938691 1.718953 9.420472 0.000000 0.000000 0.000000 0.000000 0.000000 0.000000 -3.952323 1.946591 4.781725 9.166828 1.261141 11.758109 0.000000 0.000000 0.000000 -21.500546 -1.506417 -8.277036 -1.161163 2.142742 11.813010 0.000000 0.000000 0.000000
14.900541 55.738603 -32.174085 13.155661 -0.770275 -3.402751 0.000000 0.000000 0.000000 -11.287030 4.314610 5.233951 -0.638037 0.981066 -0.380209 175.123420 -12.095941 -16.850959 -1.836522 6.044260 -7.796207 9.868938 -13.716844 5.967687 -1.004950 -0.709202 -4.106768 0.000000 0.000000 0.000000 0.000000 0.000000 0.000000 -1.836522 6.044260 -7.796207 -5.397561 -17.178089 -4.348174 14.047867 3.987073 4.599640 0.000000 0.000000 0.000000 0.000000 0.000000 0.000000 -3.358506 2.354042 -0.049260 10.475961 0.888687 14.599016 0.000000 0.000000 0.000000 -22.121741 -0.210121 -8.982953 2.289094 1.037352 7.056211 0.000000 0.000000 0.000000
13.831525 55.363418 -34.540265 14.108946 -0.177159 0.350762 0.000000 0.000000 0.000000 -11.786613 6.127771 2.255909 -0.713894 0.872819 -0.737405 174.446675 -22.587218 -19.079301 0.439337 13.313267 -3.012893 11.342518 -17.779163 3.930081 0.896644 1.269203 -2.243839 0.000000 0.000000 0.000000 0.000000 0.000000 0.000000 0.439337 13.313267 -3.012893 -10.442070 -26.290186 -2.278511 9.208872 6.022489 -3.556124 0.000000 0.000000 0.000000 0.000000 0.000000 0.000000 -6.589734 1.678459 -3.727426 14.975017 1.585500 16.366717 0.000000 0.000000 0.000000 -24.381792 1.429600 -8.102467 7.421137 -1.042840 -1.069210 0.000000 0.000000 0.000000
12.715777 56.720939 -39.610443 14.384225 0.329227 3.837430 0.000000 0.000000 0.000000 -11.025433 6.962286 -0.898533 -0.799922 1.349506 -0.711336 173.568141 -33.930399 -20.610351 1.747472 19.364879 -0.932776 12.712900 -18.827928 -2.781096 18.751018 8.445551 8.183751 0.000000 0.000000 0.000000 0.000000 0.000000 0.000000 1.747472 19.364879 -0.932776 -14.081699 -35.090251 -3.542259 8.449059 7.761521 -6.522793 0.000000 0.000000 0.000000 0.000000 0.000000 0.000000 -9.832323 1.556081 -7.634405 16.876301 2.508206 20.752767 0.000000 0.000000 0.000000 -28.362273 3.130734 -7.508213 12.991620 -2.901478 -6.551883 0.000000 0.000000 0.000000
13.649529 59.090562 -46.341668 14.344021 0.730612 6.371002 0.000000 0.000000 0.000000 -10.526648 6.512765 -3.680743 -0.496039 2.141098 -0.246055 174.055400 -45.640639 -23.450696 3.401805 27.713737 0.704025 12.923394 -15.734414 -10.613584 39.366955 14.552209 21.365744 0.000000 0.000000 0.000000 0.000000 0.000000 0.000000 3.401805 27.713737 0.704025 -12.831509 -39.558967 -4.107929 5.021718 8.418611 -5.978463 0.000000 0.000000 0.000000 0.000000 0.000000 0.000000 -11.237658 1.211566 -9.386085 19.302560 3.553303 24.265004 0.000000 0.000000 0.000000 -32.040358 4.087106 -5.913391 17.402272 -4.148358 -9.174127 0.000000 0.000000 0.000000
17.393458 60.898747 -50.739468 12.053935 0.924443 6.555087 0.000000 0.000000 0.000000 -8.065122 5.406005 -4.222933 0.061109 3.176869 0.417702 173.857322 -38.413406 -25.670486 3.735341 32.249791 0.789407 19.312385 -18.505012 13.834472 13.359256 0.193449 -6.372211 0.000000 0.000000 0.000000 0.000000 0.000000 0.000000 3.735341 32.249791 0.789407 -10.107676 -32.125086 -0.862612 6.724717 7.645615 -7.845804 0.000000 0.000000 0.000000 0.000000 0.000000 0.000000 -10.023682 1.146297 -6.600229 19.438221 2.912170 19.780487 0.000000 0.000000 0.000000 -35.690409 3.931215 -4.940439 14.703035 -4.710237 -10.444903 0.000000 0.000000 0.000000
21.322750 61.398981 -51.659711 12.706440 0.655755 5.097447 0.000000 0.000000 0.000000 -8.598481 4.926290 -3.009488 -0.114377 2.149814 0.127791 174.843508 -19.460602 -23.318248 2.156044 24.219273 1.716991 14.147309 -13.808163 14.929139 9.713927 0.479414 -15.668460 0.000000 0.000000 0.000000 0.000000 0.000000 0.000000 2.156044 24.219273 1.716991 -0.571678 -21.759418 6.925516 11.807814 6.473829 -11.017288 0.000000 0.000000 0.000000 0.000000 0.000000 0.000000 -7.103577 1.201046 -0.879801 16.245655 1.525181 12.315695 0.000000 0.000000 0.000000 -38.150014 2.023368 -5.995175 10.372366 -3.962177 -8.087863 0.000000 0.000000 0.000000
23.453205 61.534554 -50.200198 14.817565 0.116405 2.264170 0.000000 0.000000 0.000000 -10.138378 2.564697 -1.387957 -0.815239 0.666779 0.037126 169.560135 -0.952867 -20.830054 -1.424285 12.915394 1.511158 11.793212 6.902340 3.340344 16.074370 -9.763394 -1.922530 0.000000 0.000000 0.000000 0.000000 0.000000 0.000000 -1.424285 12.915394 1.511158 13.915691 -14.306415 20.580573 9.335034 9.261989 -19.058311 0.000000 0.000000 0.000000 0.000000 0.000000 0.000000 -7.545618 1.003103 4.000381 15.787456 1.259824 7.099558 0.000000 0.000000 0.000000 -37.475603 -1.412170 -9.879280 4.266703 -0.034271 0.913337 0.000000 0.000000 0.000000
25.012607 61.355230 -50.884608 16.608168 -0.364260 -0.779801 0.000000 0.000000 0.000000 -11.719375 -1.506460 -0.505043 -1.905252 -0.725210 0.479724 162.785083 10.927884 -17.884724 -4.793863 1.847376 -1.380140 9.393453 22.325802 -1.109870 5.531242 -15.153992 6.254454 0.000000 0.000000 0.000000 0.000000 0.000000 0.000000 -4.793863 1.847376 -1.380140 18.018919 -6.343909 28.751891 3.546119 14.211338 -24.640629 0.000000 0.000000 0.000000 0.000000 0.000000 0.000000 -7.202986 0.942546 7.088410 18.210644 1.141424 5.349558 0.000000 0.000000 0.000000 -39.550131 -2.682466 -6.919963 9.048056 0.028337 -0.961398 0.000000 0.000000 0.000000
26.840199 60.917761 -53.331147 16.428683 -0.714458 -3.442611 0.000000 0.000000 0.000000 -11.286585 -3.189374 1.347215 -3.155347 -1.298522 0.945419 163.051537 15.575792 -12.581463 -6.180165 -8.801628 -5.592868 6.890250 23.074407 -1.260382 -10.347935 -17.382047 8.954982 0.000000 0.000000 0.000000 0.000000 0.000000 0.000000 -6.180165 -8.801628 -5.592868 13.533177 0.066900 25.144534 3.131731 9.617621 -18.742581 0.000000 0.000000 0.000000 0.000000 0.000000 0.000000 -5.742730 1.478364 6.930578 16.782967 1.010534 5.285781 0.000000 0.000000 0.000000 -35.177966 -2.818300 -6.178027 5.114921 -0.559513 -0.507754 0.000000 0.000000 0.000000
28.350302 60.382924 -55.953442 15.153553 -0.855873 -4.305813 0.000000 0.000000 0.000000 -10.901455 -3.365393 2.295889 -3.269757 -0.909539 1.148454 166.669074 16.684884 -10.285149 -5.306040 -9.355155 -7.307695 2.931173 14.679681 1.628173 -15.985768 -12.344748 7.985228 0.000000 0.000000 0.000000 0.000000 0.000000 0.000000 -5.306040 -9.355155 -7.307695 4.964504 2.796298 18.740101 7.406854 2.664441 -11.475011 0.000000 0.000000 0.000000 0.000000 0.000000 0.000000 -2.904083 2.470251 5.251948 11.591144 0.778234 6.230603 0.000000 0.000000 0.000000 -31.584523 -2.490248 -5.352246 6.673015 0.022955 0.525520 0.000000 0.000000 0.000000
28.909055 60.137615 -56.654429 12.561025 -0.955009 -4.565932 0.000000 0.000000 0.000000 -10.124394 -2.062909 3.438709 -2.248290 -0.471834 0.681523 167.554719 3.961502 -13.718428 -3.608801 -6.726674 -7.902727 5.802287 6.042062 4.743186 -9.583490 -7.053983 3.386087 0.000000 0.000000 0.000000 0.000000 0.000000 0.000000 -3.608801 -6.726674 -7.902727 -2.082375 1.484190 6.432616 6.204088 -0.249194 1.459980 0.000000 0.000000 0.000000 0.000000 0.000000 0.000000 -0.867886 3.096212 3.321953 10.424504 0.622946 8.086632 0.000000 0.000000 0.000000 -28.777671 -1.970547 -4.632427 9.570193 1.076091 2.358484 0.000000 0.000000 0.000000
