HIERARCHY
ROOT Hips
{
  OFFSET 0.000000 0.000000 0.000000
  CHANNELS 6 Xposition Yposition Zposition Xrotation Yrotation Zrotation
  JOINT Spine
  {
    OFFSET 0.211591 24.227834 -3.764787
    CHANNELS 3 Xrotation Yrotation Zrotation
    JOINT Chest
    {
      OFFSET 0.211591 24.227834 -3.764787
      CHANNELS 3 Xrotation Yrotation Zrotation
      JOINT Neck
      {
        OFFSET -1.100772 8.441563 -3.430650
        CHANNELS 3 Xrotation Yrotation Zrotation
        JOINT Head
        {
          OFFSET -1.192129 7.757112 -7.601908
          CHANNELS 3 Xrotation Yrotation Zrotation
          End Site
          {
            OFFSET -0.357639 2.327134 -2.280572
          }
        }
      }
      JOINT LeftShoulder
      {
        OFFSET 17.192089 0.613400 -1.554494
        CHANNELS 3 Xrotation Yrotation Zrotation
        JOINT LeftArm
        {
          OFFSET 6.822346 -20.001605 -11.416031
          CHANNELS 3 Xrotation Yrotation Zrotation
          JOINT LeftForeArm
          {
            OFFSET -10.811707 -3.287858 -20.004664
            CHANNELS 3 Xrotation Yrotation Zrotation
            JOINT LeftHand
            {
              OFFSET -2.972239 -0.032078 -2.791873
              CHANNELS 3 Xrotation Yrotation Zrotation
              End Site
              {
                OFFSET -0.891672 -0.009623 -0.837562
              }
            }
          }
        }
      }
      JOINT RightShoulder
      {
        OFFSET -17.192089 -0.613400 1.554494
        CHANNELS 3 Xrotation Yrotation Zrotation
        JOINT RightArm
        {
          OFFSET -7.078612 -20.128798 -9.457155
          CHANNELS 3 Xrotation Yrotation Zrotation
          JOINT RightForeArm
          {
            OFFSET 6.068787 -1.370308 -22.325569
            CHANNELS 3 Xrotation Yrotation Zrotation
            JOINT RightHand
            {
              OFFSET 2.627653 0.279547 -3.282648
              CHANNELS 3 Xrotation Yrotation Zrotation
              End Site
              {
                OFFSET 0.788296 0.083864 -0.984794
              }
            }
          }
        }
      }
    }
  }
  JOINT LeftUpLeg
  {
    OFFSET 11.367086 0.027478 -2.758015
    CHANNELS 3 Xrotation Yrotation Zrotation
    JOINT LeftLeg
    {
      OFFSET 2.451199 -39.057141 -4.768226
      CHANNELS 3 Xrotation Yrotation Zrotation
      JOINT LeftFoot
      {
        OFFSET 10.058204 -39.973237 0.774249
        CHANNELS 3 Xrotation Yrotation Zrotation
        End Site
        {
          OFFSET 3.017461 -11.991971 0.232275
        }
      }
    }
  }
  JOINT RightUpLeg
  {
    OFFSET -11.367086 -0.027478 2.758015
    CHANNELS 3 Xrotation Yrotation Zrotation
    JOINT RightLeg
    {
      OFFSET -4.668361 -37.080477 -5.635053
      CHANNELS 3 Xrotation Yrotation Zrotation
      JOINT RightFoot
      {
        OFFSET -2.542494 -41.040053 5.594103
        CHANNELS 3 Xrotation Yrotation Zrotation
        End Site
        {
          OFFSET -0.762748 -12.312016 1.678231
        }
      }
    }
  }
}
MOTION
Frames: 96
Frame Time: 0.083333
0.000000 60.000000 0.000000 -0.697435 0.072172 0.388394 -0.697435 0.072172 0.388394 170.239585 -1.207348 -28.759222 -19.740130 -2.834560 0.721468 119.477066 -0.866681 -10.573035 1.736840 0.323090 0.456205 7.645937 -0.590864 -0.773710 0.000000 0.000000 0.000000 0.000000 0.000000 0.000000 0.794111 -0.282190 0.002214 2.851025 -0.309081 0.159378 0.000000 0.000000 0.000000 0.000000 0.000000 0.000000 -0.709012 -0.056665 0.112734 -2.064574 -0.498257 0.307541 0.000000 0.000000 0.000000 -2.846786 0.362367 -0.073015 -1.383120 -0.023124 -0.661185 0.000000 0.000000 0.000000
0.404420 60.000000 1.105835 -0.696426 0.072060 0.387906 -0.696426 0.072060 0.387906 170.494676 -1.276634 -30.406625 -19.668194 -3.261803 0.448113 117.504632 0.529393 4.973568 1.727130 0.300571 0.481776 6.827943 -0.554870 -0.692341 0.000000 0.000000 0.000000 0.000000 0.000000 0.000000 1.046602 -0.311869 -0.114333 2.632807 -0.255006 0.145843 0.000000 0.000000 0.000000 0.000000 0.000000 0.000000 -0.708924 -0.060008 0.141638 -2.090989 -0.500619 0.364015 0.000000 0.000000 0.000000 -2.877802 0.367679 -0.090629 -1.406443 -0.022421 -0.664949 0.000000 0.000000 0.000000
1.336399 60.000000 4.095054 -0.696430 0.072041 0.387790 -0.696430 0.072041 0.387790 169.873932 0.687499 16.027352 -21.088545 -7.372690 -1.901192 117.274601 7.722990 58.083405 4.794206 0.739373 1.475076 17.060041 -1.466984 -1.734552 0.000000 0.000000 0.000000 0.000000 0.000000 0.000000 3.649363 -0.860225 -0.830601 6.692520 -0.622859 0.367945 -148.996185 -20.662163 -97.898678 0.000000 0.000000 0.000000 -0.707699 -0.060162 0.142966 -2.092147 -0.500800 0.365193 0.000000 0.000000 0.000000 -2.878808 0.367926 -0.092188 -1.407409 -0.022408 -0.665174 0.000000 0.000000 0.000000
2.260113 60.000000 8.201629 -1.294159 0.154744 0.856547 -1.294159 0.154744 0.856547 170.646017 2.041158 45.987757 -21.865252 -14.008123 -5.844280 113.543938 13.670022 66.790939 6.650384 0.772036 2.415794 19.823885 -1.949415 -2.029175 0.000000 0.000000 0.000000 0.000000 0.000000 0.000000 6.869982 -0.923422 -2.827398 7.819136 -0.812956 0.423600 0.000000 0.000000 0.000000 0.000000 0.000000 0.000000 -1.520277 -0.228853 1.181376 -5.488523 -1.255366 1.654653 0.000000 0.000000 0.000000 -6.770191 0.907336 -0.702355 -3.459781 -0.019794 -1.408286 0.000000 0.000000 0.000000
2.612822 60.000000 12.603205 -0.529289 0.100739 0.602086 -0.529289 0.100739 0.602086 170.393096 3.183639 66.590399 -21.510084 -18.305273 -8.665607 115.284445 13.484407 72.275047 6.906099 0.839514 2.429007 21.794850 -2.389009 -2.254487 0.000000 0.000000 0.000000 0.000000 0.000000 0.000000 8.444821 -0.206886 -5.047744 7.566195 -1.362591 0.409243 161.100068 -30.113227 -107.089800 0.000000 0.000000 0.000000 -0.572147 -0.498509 3.753499 -6.926790 -1.366019 4.761085 0.000000 0.000000 0.000000 -7.185594 1.104510 -2.491242 -4.341011 0.056665 -1.184575 0.000000 0.000000 0.000000
2.479909 60.000000 14.737109 -0.719232 0.011652 0.039165 -0.719232 0.011652 0.039165 169.822350 4.120959 76.657833 -18.684100 -19.497617 -10.551564 114.697740 15.782116 76.390393 6.640249 2.103659 0.252094 26.258675 -3.192661 -2.782663 0.000000 0.000000 0.000000 0.000000 0.000000 0.000000 10.116491 -1.092803 -4.455325 8.775586 -1.955291 0.451782 0.000000 0.000000 0.000000 0.000000 0.000000 0.000000 3.237184 -0.725926 5.782046 -6.873252 -1.090841 7.936991 0.000000 0.000000 0.000000 -8.292002 1.422437 -5.300529 -6.548473 -0.015709 -1.944440 0.000000 0.000000 0.000000
2.522454 60.000000 14.161507 -1.190066 -0.068065 -0.466524 -1.190066 -0.068065 -0.466524 169.361014 5.692296 92.779131 -17.146963 -22.183650 -12.981340 111.441438 19.519735 74.939879 3.164406 3.742121 -4.304008 30.540228 -3.536743 -3.317923 0.000000 0.000000 0.000000 0.000000 0.000000 0.000000 8.782881 -4.120402 1.484853 9.664541 -2.945604 0.448680 0.000000 0.000000 0.000000 0.000000 0.000000 0.000000 11.860719 -0.964390 7.419667 -7.183372 -1.302814 5.893982 0.000000 0.000000 0.000000 -10.093947 1.789925 -9.009855 -11.114571 -0.374635 -4.027023 0.000000 0.000000 0.000000
2.893939 60.000000 12.618531 -1.463879 -0.154012 -1.014424 -1.463879 -0.154012 -1.014424 170.244324 6.781368 108.369328 -18.501771 -23.365011 -13.225092 108.515377 16.032647 59.424456 1.443481 3.957523 -5.782604 30.051932 -3.625038 -3.260207 0.000000 0.000000 0.000000 0.000000 0.000000 0.000000 8.859856 -6.508281 5.521737 12.337781 -3.689567 0.512384 0.000000 0.000000 0.000000 0.000000 0.000000 0.000000 20.010147 -1.054726 7.726859 -5.916803 -1.114625 5.108667 0.000000 0.000000 0.000000 -12.372041 1.989840 -10.595400 -17.805048 -0.797817 -6.493260 0.000000 0.000000 0.000000
3.489879 60.000000 10.741720 -0.270787 -0.320767 -2.114474 -0.270787 -0.320767 -2.114474 171.420703 5.671195 103.841434 -22.055667 -20.471538 -9.821463 110.544446 11.398443 50.753178 2.178274 2.950089 -3.731381 27.858346 -2.740411 -2.959877 0.000000 0.000000 0.000000 0.000000 0.000000 0.000000 8.176562 -3.857581 1.459816 9.275641 -2.984115 0.450510 0.000000 0.000000 0.000000 0.000000 0.000000 0.000000 18.141132 -0.974585 7.520219 -6.640998 -1.231438 5.445202 0.000000 0.000000 0.000000 -10.038031 2.096304 -12.684470 -18.685530 -0.272062 -4.759726 0.000000 0.000000 0.000000
4.577485 60.000000 9.958374 1.189883 -0.588136 -4.016939 1.189883 -0.588136 -4.016939 173.652385 3.342107 91.222815 -24.240585 -16.943749 -6.856273 110.453671 11.879217 52.133375 5.772406 2.054348 -0.074071 27.694708 -2.009439 -2.933814 0.000000 0.000000 0.000000 0.000000 0.000000 0.000000 6.351122 -1.550275 -1.395541 6.307643 -1.835459 0.345853 0.000000 0.000000 0.000000 0.000000 0.000000 0.000000 11.624341 -1.049882 7.902998 -8.942728 -1.588938 6.589941 0.000000 0.000000 0.000000 -4.458285 2.252650 -15.189797 -16.243905 0.253930 -2.802456 0.000000 0.000000 0.000000
5.349533 60.000000 9.013909 3.099376 -0.568994 -4.214054 3.099376 -0.568994 -4.214054 175.139299 1.813662 64.243984 -25.297949 -12.794090 -4.048988 113.263529 4.006405 24.271758 7.537666 1.490067 1.780019 16.622453 -2.165815 -1.625163 0.000000 0.000000 0.000000 0.000000 0.000000 0.000000 4.461518 -0.244529 -2.517546 1.313863 -0.909080 0.098354 0.000000 0.000000 0.000000 0.000000 0.000000 0.000000 7.809837 -1.017278 7.899349 -9.470550 -1.484271 8.525750 0.000000 0.000000 0.000000 -2.138107 2.389561 -16.192375 -11.241018 -0.262780 -4.068549 0.000000 0.000000 0.000000
5.097302 60.000000 9.444477 4.272419 -0.392488 -2.955349 4.272419 -0.392488 -2.955349 176.039042 -0.032617 -11.995093 -23.865541 -2.532763 1.675485 113.956878 -7.642461 -45.194486 5.951921 0.836215 1.920840 4.307634 -2.050859 -0.215977 0.000000 0.000000 0.000000 0.000000 0.000000 0.000000 -0.593117 0.368912 0.029958 -3.431706 0.026802 -0.177270 0.000000 0.000000 0.000000 0.000000 0.000000 0.000000 5.866677 -1.047754 8.164327 -10.976376 -1.640217 9.494181 0.000000 0.000000 0.000000 -3.194708 2.439614 -16.826035 -12.204997 -0.699907 -5.950764 0.000000 0.000000 0.000000
4.261646 60.000000 10.446084 5.034795 -0.070208 -0.085947 5.034795 -0.070208 -0.085947 176.818416 -3.139080 -128.042275 -21.839998 6.280193 6.789945 113.524238 -10.254622 -55.082672 1.156619 0.130551 0.373912 -0.514215 -0.575698 0.143314 140.835797 19.609596 -110.141910 0.000000 0.000000 0.000000 -8.336421 1.153602 4.468227 -1.354332 0.733935 -0.125489 -145.656921 -27.139843 -89.320354 0.000000 0.000000 0.000000 4.019655 -1.107726 8.667708 -11.629723 -1.642092 10.543613 0.000000 0.000000 0.000000 -4.426682 2.584383 -18.296042 -13.726846 -0.450766 -4.949029 0.000000 0.000000 0.000000
3.534028 60.000000 10.882226 5.930808 0.254004 2.838445 5.930808 0.254004 2.838445 175.083570 -4.437553 -120.911256 -21.498100 6.950015 7.259902 113.670923 -7.579726 -44.039133 -1.446140 0.174275 -1.232245 -1.724372 0.534361 0.094782 0.000000 0.000000 0.000000 0.000000 0.000000 0.000000 -8.208275 0.745946 5.423149 -1.999710 0.881243 -0.171278 0.000000 0.000000 0.000000 0.000000 0.000000 0.000000 2.533352 -1.251426 9.836461 -9.062911 -1.035405 12.872208 0.000000 0.000000 0.000000 -2.811179 2.797822 -19.456532 -11.481848 0.344003 -1.253533 0.000000 0.000000 0.000000
1.694793 60.000000 6.881416 4.619912 0.511112 4.792510 4.619912 0.511112 4.792510 173.942793 -6.159107 -128.113661 -25.248415 4.167375 5.699812 107.318787 -2.339460 -9.816482 1.729898 0.139515 0.679290 1.384108 1.332537 -0.368361 0.000000 0.000000 0.000000 0.000000 0.000000 0.000000 -4.222959 0.060304 3.330921 1.616528 1.597610 0.024108 -148.513527 -22.034010 -96.533823 0.000000 0.000000 0.000000 1.988256 -1.595884 12.359384 -3.956976 -0.184735 15.106190 0.000000 0.000000 0.000000 -1.029735 2.802765 -17.729766 -7.598849 1.273641 3.819758 0.000000 0.000000 0.000000
-0.754579 60.000000 2.424182 4.003601 0.676587 5.862180 4.003601 0.676587 5.862180 171.883920 -8.043226 -126.251644 -31.150844 2.513077 4.968958 106.546300 -3.454980 -13.835418 5.116815 -0.615575 3.810668 5.558629 1.119178 -0.740507 0.000000 0.000000 0.000000 0.000000 0.000000 0.000000 -0.076953 -1.032322 2.245684 8.705399 2.036192 0.494672 0.000000 0.000000 0.000000 0.000000 0.000000 0.000000 2.234104 -1.670916 12.770504 1.383747 0.494101 15.067681 0.000000 0.000000 0.000000 -7.490024 2.350725 -11.703323 -6.716055 1.955236 7.560409 0.000000 0.000000 0.000000
-1.246800 60.000000 2.237534 2.697492 0.909035 7.085867 2.697492 0.909035 7.085867 170.261341 -10.329473 -129.955311 -31.541156 5.425678 6.510775 106.032665 -5.739498 -22.045159 6.671773 -0.791479 4.860953 7.446419 1.687836 -1.003903 0.000000 0.000000 0.000000 0.000000 0.000000 0.000000 -1.008999 -1.004879 3.100397 10.264691 2.501085 0.591908 0.000000 0.000000 0.000000 0.000000 0.000000 0.000000 2.454126 -1.048855 7.927331 5.170669 0.988297 11.399732 0.000000 0.000000 0.000000 -15.777139 1.986957 -3.293258 -3.900240 1.072603 4.851117 0.000000 0.000000 0.000000
-0.919997 60.000000 5.143549 1.690818 0.989175 7.164687 1.690818 0.989175 7.164687 168.781027 -12.390334 -131.432746 -29.954310 10.976070 9.520502 102.121559 -15.456045 -45.435277 7.661655 0.076139 3.959349 7.511945 2.203282 -1.079642 0.000000 0.000000 0.000000 0.000000 0.000000 0.000000 -4.900225 -1.169513 7.217621 4.515678 3.447540 0.138180 0.000000 0.000000 0.000000 0.000000 0.000000 0.000000 0.677164 -0.038575 0.529505 5.526687 1.193195 6.567267 0.000000 0.000000 0.000000 -15.418375 1.943861 -1.925264 -2.062924 0.877016 4.854824 0.000000 0.000000 0.000000
-0.580082 60.000000 7.274651 0.459107 0.978256 6.468673 0.459107 0.978256 6.468673 169.413030 -13.908674 -138.924170 -26.831240 16.242208 12.529726 103.342868 -14.674932 -45.524911 5.573148 0.926583 1.534566 9.049833 2.480076 -1.265748 0.000000 0.000000 0.000000 0.000000 0.000000 0.000000 -8.997218 -1.644303 12.319432 3.429691 4.765310 0.026385 0.000000 0.000000 0.000000 0.000000 0.000000 0.000000 -0.069825 0.256099 -2.142990 6.121173 1.371509 4.399546 0.000000 0.000000 0.000000 -17.093612 2.135272 -2.639184 -3.141880 0.844190 3.990320 0.000000 0.000000 0.000000
-0.959493 60.000000 8.350624 0.984157 0.808940 5.569158 0.984157 0.808940 5.569158 169.824420 -14.387210 -141.736670 -26.201853 14.740051 11.738122 105.768631 -10.893822 -39.109273 1.811921 1.420221 -1.350211 11.831084 1.443898 -1.389943 0.000000 0.000000 0.000000 0.000000 0.000000 0.000000 -6.187715 -1.910733 9.829515 7.254642 4.445657 0.382027 0.000000 0.000000 0.000000 0.000000 0.000000 0.000000 0.114844 0.209986 -1.661439 6.643997 1.385506 6.385784 0.000000 0.000000 0.000000 -19.993546 2.419155 -1.996684 -5.167909 1.087432 4.136638 0.000000 0.000000 0.000000
-1.173546 60.000000 9.339029 1.007447 0.663434 4.666966 1.007447 0.663434 4.666966 169.357751 -14.473080 -140.391365 -24.804649 15.100258 12.190420 103.009799 -20.470583 -58.120890 0.197209 2.422536 -4.038347 13.068163 1.594713 -1.513335 0.000000 0.000000 0.000000 0.000000 0.000000 0.000000 -4.600826 -1.180211 6.473005 6.922160 4.208857 0.351185 0.000000 0.000000 0.000000 0.000000 0.000000 0.000000 0.598668 0.224547 -1.514453 7.596140 1.417695 10.186463 0.000000 0.000000 0.000000 -18.512898 2.234649 -0.908203 -4.675739 1.604283 7.381281 0.000000 0.000000 0.000000
-3.913416 60.000000 7.863888 -0.447585 0.427656 2.860658 -0.447585 0.427656 2.860658 168.944782 -14.229703 -138.390604 -23.683823 18.886445 14.676178 102.697893 -22.832803 -62.137282 -0.126920 4.663767 -8.058371 16.890864 2.222981 -1.930484 0.000000 0.000000 0.000000 0.000000 0.000000 0.000000 -4.681401 0.539600 2.557079 8.489321 3.881044 0.488027 152.818737 -23.633411 -122.086528 0.000000 0.000000 0.000000 -0.733720 0.256049 -2.835974 5.849916 1.025673 12.666882 0.000000 0.000000 0.000000 -16.324940 1.938783 4.766176 -0.286656 1.300655 9.095431 0.000000 0.000000 0.000000
-5.135888 60.000000 7.551823 -2.449309 0.015644 -0.082755 -2.449309 0.015644 -0.082755 171.056097 -13.705363 -144.322482 -25.292735 18.703869 14.321772 101.611426 -16.888310 -47.961803 -1.149040 4.373180 -8.303410 12.685239 2.806704 -1.612113 0.000000 0.000000 0.000000 0.000000 0.000000 0.000000 -5.009212 1.527623 0.456506 7.986218 3.832062 0.445430 136.095704 -42.605690 99.102790 0.000000 0.000000 0.000000 -2.342766 0.620180 -7.384805 4.024808 0.928606 8.516037 0.000000 0.000000 0.000000 -13.790352 1.424067 9.685796 6.265270 0.407282 10.255853 0.000000 0.000000 0.000000
-4.907559 60.000000 10.027497 -1.309543 -0.295875 -1.840625 -1.309543 -0.295875 -1.840625 172.947999 -14.203216 -152.069373 -27.424711 17.717982 13.341996 100.108974 -19.538565 -51.257716 -4.594919 2.830769 -8.223850 7.568908 3.459171 -1.266901 0.000000 0.000000 0.000000 0.000000 0.000000 0.000000 -5.919862 2.419361 -1.037153 5.284628 3.786502 0.215454 0.000000 0.000000 0.000000 0.000000 0.000000 0.000000 -1.695412 1.533738 -14.433326 6.088268 1.724429 -0.560422 0.000000 0.000000 0.000000 -11.548383 0.973733 9.539537 7.348367 0.489075 13.249904 0.000000 0.000000 0.000000
-3.726013 60.000000 13.381772 0.484481 -0.291721 -1.900273 0.484481 -0.291721 -1.900273 175.473288 -15.664659 -164.067345 -25.484784 18.131822 13.875852 102.568015 -17.923304 -51.906780 -6.789505 2.557989 -9.439541 4.089049 4.124646 -1.079724 0.000000 0.000000 0.000000 0.000000 0.000000 0.000000 -7.377252 3.368334 -2.230162 3.863376 3.965422 0.093425 0.000000 0.000000 0.000000 0.000000 0.000000 0.000000 0.272317 2.622384 -20.503784 9.742298 2.980913 -7.317311 0.000000 0.000000 0.000000 -10.931265 0.998475 6.867736 6.849540 0.364985 10.238997 0.000000 0.000000 0.000000
-3.137661 60.000000 13.978132 2.911652 -0.258495 -1.809057 2.911652 -0.258495 -1.809057 174.545724 -16.121824 -161.367803 -25.458905 15.967563 12.555183 103.671724 -16.471736 -50.519867 -4.919784 5.313352 -13.014002 9.975282 4.022778 -1.539885 0.000000 0.000000 0.000000 0.000000 0.000000 0.000000 -6.151135 2.691635 -1.462959 7.152119 3.822281 0.373144 135.036016 -41.860639 96.966956 0.000000 0.000000 0.000000 -0.202044 2.886406 -23.470398 8.615047 2.682736 -7.866367 0.000000 0.000000 0.000000 -10.042303 1.048611 3.518272 7.242320 0.323282 10.405226 0.000000 0.000000 0.000000
-1.671894 60.000000 13.383883 2.025845 -0.246657 -1.672928 2.025845 -0.246657 -1.672928 175.594745 -15.397733 -164.420392 -25.106187 15.623112 12.396676 103.367169 -16.936610 -51.069671 -3.152473 7.248244 -14.868860 17.641408 3.312712 -2.058783 0.000000 0.000000 0.000000 0.000000 0.000000 0.000000 -4.969145 2.303883 -1.447915 10.307875 3.549604 0.629777 0.000000 0.000000 0.000000 0.000000 0.000000 0.000000 -0.824682 2.726636 -23.500545 7.297623 2.047521 -4.267351 0.000000 0.000000 0.000000 -9.138177 1.074395 0.924774 6.123327 0.602174 11.819658 0.000000 0.000000 0.000000
-0.154759 60.000000 11.181359 3.098345 -0.248071 -1.753892 3.098345 -0.248071 -1.753892 177.662479 -14.400744 -170.903526 -25.302471 16.351720 12.816763 102.137558 -16.225873 -47.292564 -0.462837 8.195702 -14.116321 19.923390 3.041263 -2.231542 0.000000 0.000000 0.000000 0.000000 0.000000 0.000000 -2.623567 1.600927 -1.572670 14.302631 3.135430 0.936703 0.000000 0.000000 0.000000 0.000000 0.000000 0.000000 -1.436286 2.261886 -20.901101 6.682423 1.819271 -3.154210 0.000000 0.000000 0.000000 -9.175092 0.986976 2.286586 6.325293 0.563684 11.761976 0.000000 0.000000 0.000000
0.525824 60.000000 8.612143 5.091970 -0.264953 -2.006522 5.091970 -0.264953 -2.006522 177.525927 -13.787191 -169.659142 -27.267806 15.080674 11.852302 102.779467 -13.684155 -42.061941 -0.058932 7.654248 -12.918317 19.935263 2.719742 -2.215285 0.000000 0.000000 0.000000 0.000000 0.000000 0.000000 -3.152463 1.754745 -1.523837 18.415358 2.858710 1.249909 0.000000 0.000000 0.000000 0.000000 0.000000 0.000000 -2.233633 1.715156 -17.812746 6.435388 1.690291 -1.774501 0.000000 0.000000 0.000000 -9.785564 0.947522 4.220917 6.540499 0.517630 11.651940 0.000000 0.000000 0.000000
-0.193704 60.000000 7.439628 5.089386 -0.236109 -1.772345 5.089386 -0.236109 -1.772345 176.105509 -12.273329 -161.530245 -28.779641 11.039116 9.472064 108.007484 -8.311900 -34.306437 0.989392 7.104738 -11.185047 17.978016 2.377056 -2.020471 0.000000 0.000000 0.000000 0.000000 0.000000 0.000000 -4.383780 1.734729 -0.535658 14.858993 2.457194 0.967781 0.000000 0.000000 0.000000 0.000000 0.000000 0.000000 -2.171028 1.445496 -15.248146 6.459930 1.684721 -1.568191 0.000000 0.000000 0.000000 -10.958562 1.124785 4.458985 5.768277 0.593930 11.128067 0.000000 0.000000 0.000000
-1.362989 60.000000 7.565621 4.434156 -0.068481 -0.391479 4.434156 -0.068481 -0.391479 173.300748 -10.909736 -146.226958 -29.178097 6.057128 6.693270 111.135680 -6.499801 -32.791652 1.469751 6.706258 -10.175288 15.037898 1.565162 -1.711503 0.000000 0.000000 0.000000 0.000000 0.000000 0.000000 -5.589079 1.828165 0.221486 8.701157 1.986013 0.489346 0.000000 0.000000 0.000000 0.000000 0.000000 0.000000 -1.348328 1.223900 -11.892387 6.631274 1.679986 -0.628925 0.000000 0.000000 0.000000 -12.347608 1.331359 4.839490 3.309810 0.907631 10.363146 0.000000 0.000000 0.000000
-2.317662 60.000000 4.968249 2.578271 0.204048 1.617203 2.578271 0.204048 1.617203 171.202214 -10.740709 -135.818001 -26.637336 4.530876 5.820904 112.215258 -6.395076 -34.604851 2.106996 7.653199 -11.189508 16.322357 1.264949 -1.808696 0.000000 0.000000 0.000000 0.000000 0.000000 0.000000 -5.679657 0.442082 3.679411 8.777771 2.390602 0.499676 138.932706 -45.828104 79.638337 0.000000 0.000000 0.000000 -0.038494 1.188240 -9.715432 7.330551 1.725606 2.453610 0.000000 0.000000 0.000000 -14.446428 1.685545 4.539909 0.730727 1.213596 9.706717 0.000000 0.000000 0.000000
-3.876615 60.000000 -1.609550 0.848217 0.359262 2.471944 0.848217 0.359262 2.471944 171.852442 -10.961080 -139.707088 -24.837988 4.738118 5.882279 110.703981 -8.114787 -38.833666 1.683490 7.919867 -11.937787 17.813941 1.934575 -1.988926 0.000000 0.000000 0.000000 0.000000 0.000000 0.000000 -5.955219 -1.257045 7.996106 9.715374 2.954362 0.575884 0.000000 0.000000 0.000000 0.000000 0.000000 0.000000 0.580020 1.180019 -8.935466 7.320895 1.787506 1.063566 0.000000 0.000000 0.000000 -16.183535 1.975717 3.849124 -1.503272 1.426184 8.813459 0.000000 0.000000 0.000000
-5.692145 60.000000 -7.761059 1.201251 0.246362 1.742430 1.201251 0.246362 1.742430 173.166208 -10.400363 -143.942757 -25.378341 5.450274 6.322286 111.415050 -6.118635 -31.601049 2.695902 7.410990 -10.394818 20.697455 2.025080 -2.262310 0.000000 0.000000 0.000000 0.000000 0.000000 0.000000 -6.102882 -2.679401 11.489974 11.520928 3.135787 0.713676 0.000000 0.000000 0.000000 0.000000 0.000000 0.000000 0.779455 1.030363 -7.566036 6.981900 1.807655 -1.154544 0.000000 0.000000 0.000000 -16.867634 2.088987 2.472037 -3.316341 1.886742 10.005134 0.000000 0.000000 0.000000
-6.098111 60.000000 -7.761780 2.021778 0.075643 0.658122 2.021778 0.075643 0.658122 172.969606 -8.661206 -134.990598 -26.062014 3.976498 5.501867 112.194855 -4.476348 -24.942771 4.420909 6.471323 -7.653574 22.726902 1.295593 -2.420072 0.000000 0.000000 0.000000 0.000000 0.000000 0.000000 -6.117562 -2.750462 11.683453 13.378019 2.623373 0.844049 157.006520 -25.572782 -115.882226 0.000000 0.000000 0.000000 0.836046 0.983379 -7.149165 6.706691 1.789794 -2.424291 0.000000 0.000000 0.000000 -16.501236 2.041127 0.793222 -3.488468 2.340963 12.513799 0.000000 0.000000 0.000000
-5.902852 60.000000 -3.774336 1.817803 0.113791 0.809218 1.817803 0.113791 0.809218 169.604451 -6.955667 -104.263698 -26.979992 2.173544 4.553466 110.780859 -0.936371 -4.870111 4.001165 4.840237 -5.391765 18.920314 0.294228 -2.014806 0.000000 0.000000 0.000000 0.000000 0.000000 0.000000 -7.032091 -3.294288 13.956727 12.444932 2.625286 0.773704 0.000000 0.000000 0.000000 0.000000 0.000000 0.000000 1.125278 1.034311 -7.256239 6.851799 1.820280 -2.627759 0.000000 0.000000 0.000000 -15.902521 1.958861 1.581871 -2.308019 2.156730 12.544185 0.000000 0.000000 0.000000
-6.014742 60.000000 -0.539573 -1.256289 0.401981 2.143654 -1.256289 0.401981 2.143654 166.341898 -4.884078 -70.858585 -28.381733 0.799398 3.891230 110.489008 -1.801818 -9.163039 2.398648 2.816428 -3.272556 13.444834 0.240937 -1.450094 0.000000 0.000000 0.000000 0.000000 0.000000 0.000000 -6.953978 -4.429403 16.474349 14.660278 2.381310 0.925952 0.000000 0.000000 0.000000 0.000000 0.000000 0.000000 3.417258 1.313566 -7.254476 8.854906 2.183499 -0.610425 0.000000 0.000000 0.000000 -16.543199 2.044817 2.664858 0.748344 1.330961 10.463831 0.000000 0.000000 0.000000
-5.900577 60.000000 0.556473 -4.168284 0.795166 3.929101 -4.168284 0.795166 3.929101 166.521887 -5.591478 -79.145672 -28.255386 1.245584 4.115004 110.012063 -2.407893 -11.837290 2.426046 2.110942 -2.099976 15.240066 0.040312 -1.626435 0.000000 0.000000 0.000000 0.000000 0.000000 0.000000 -4.954906 -4.857031 15.135179 17.509547 2.157883 1.115994 149.965330 -33.187952 -120.946263 0.000000 0.000000 0.000000 8.162168 1.623899 -5.748699 12.970300 2.863103 3.935195 0.000000 0.000000 0.000000 -18.401466 2.317972 3.183664 1.078047 0.770154 6.719528 0.000000 0.000000 0.000000
-5.573832 60.000000 0.660840 -3.863882 0.816472 4.103997 -3.863882 0.816472 4.103997 167.708840 -6.403010 -92.616346 -27.757667 0.567390 3.697951 112.531124 -0.840531 -4.952539 2.288986 1.819692 -1.705500 18.690546 -0.489525 -1.961056 0.000000 0.000000 0.000000 0.000000 0.000000 0.000000 -2.822968 -4.521449 12.165691 20.048158 1.848336 1.273833 0.000000 0.000000 0.000000 0.000000 0.000000 0.000000 9.463355 0.985869 -1.656172 13.038042 2.473935 8.470926 0.000000 0.000000 0.000000 -20.379965 2.597745 2.669749 -0.326881 0.369616 2.752387 0.000000 0.000000 0.000000
-5.635792 60.000000 0.138916 -2.687549 0.683057 3.647175 -2.687549 0.683057 3.647175 169.522265 -6.818114 -104.792043 -26.483226 -0.705622 2.888976 112.915740 -3.708458 -21.981765 2.344200 2.461812 -2.728468 20.896321 -0.865292 -2.181566 0.000000 0.000000 0.000000 0.000000 0.000000 0.000000 -0.216652 -3.889807 8.298152 18.181824 1.635999 1.124197 0.000000 0.000000 0.000000 0.000000 0.000000 0.000000 7.488260 -0.099346 3.182878 10.203165 1.755803 10.813264 0.000000 0.000000 0.000000 -21.386659 2.658460 0.425182 -2.764341 0.132515 -0.181875 0.000000 0.000000 0.000000
-6.438594 60.000000 -0.807987 -1.080583 0.467973 2.755493 -1.080583 0.467973 2.755493 170.424268 -7.551303 -115.400203 -25.225101 0.043795 3.174250 114.372175 -4.845008 -31.502825 1.830815 3.714221 -5.119036 22.928205 -0.582684 -2.411771 0.000000 0.000000 0.000000 0.000000 0.000000 0.000000 1.074195 -2.740306 4.821737 18.064976 1.480834 1.105420 0.000000 0.000000 0.000000 0.000000 0.000000 0.000000 5.192309 -0.583317 5.417954 7.690326 1.449741 9.126293 0.000000 0.000000 0.000000 -21.912863 2.539803 -3.816881 -4.409152 -0.124575 -2.076081 0.000000 0.000000 0.000000
-6.436149 60.000000 -3.271960 -0.514149 0.206590 1.248371 -0.514149 0.206590 1.248371 171.352507 -7.424623 -118.915090 -24.332256 -0.442470 2.810269 113.203928 -4.313308 -25.895930 0.960746 4.420802 -6.858702 24.258610 -0.759855 -2.553974 0.000000 0.000000 0.000000 0.000000 0.000000 0.000000 1.167215 -2.234582 3.720398 15.285013 1.296928 0.911651 0.000000 0.000000 0.000000 0.000000 0.000000 0.000000 3.819867 -0.495681 4.727118 6.610464 1.391876 6.586620 0.000000 0.000000 0.000000 -23.248227 2.547686 -5.965631 -6.811136 -0.675622 -5.454367 0.000000 0.000000 0.000000
-5.947944 60.000000 -6.228177 0.154101 0.044001 0.275516 0.154101 0.044001 0.275516 172.358491 -5.762895 -108.890401 -25.692613 -2.050878 2.046670 113.784054 0.430092 2.801154 0.875520 4.793649 -7.526742 24.927521 -1.308269 -2.620422 0.000000 0.000000 0.000000 0.000000 0.000000 0.000000 0.285918 -1.809216 3.573049 13.088802 0.930834 0.751561 0.000000 0.000000 0.000000 0.000000 0.000000 0.000000 3.931114 -0.182930 2.757942 7.114945 1.525197 5.786636 0.000000 0.000000 0.000000 -24.561715 2.652356 -5.584749 -9.013238 -0.650324 -5.467842 0.000000 0.000000 0.000000
-4.799951 60.000000 -6.067721 0.952355 -0.102876 -0.648459 0.952355 -0.102876 -0.648459 172.935305 -3.065035 -80.643146 -26.345360 -4.158015 0.944131 113.548160 -0.618338 -3.948138 0.813577 3.366386 -5.250134 23.525770 -1.940659 -2.457566 0.000000 0.000000 0.000000 0.000000 0.000000 0.000000 0.088742 -1.922401 3.955751 12.055777 0.578204 0.674994 0.000000 0.000000 0.000000 0.000000 0.000000 0.000000 4.714661 0.065911 1.454690 7.654891 1.703318 4.556831 0.000000 0.000000 0.000000 -21.380584 2.459952 -3.944686 -7.204052 0.086190 -1.583160 0.000000 0.000000 0.000000
-2.741512 60.000000 -2.275212 1.639461 -0.059841 -0.345903 1.639461 -0.059841 -0.345903 172.068310 -1.691139 -43.845126 -26.658640 -4.760422 0.673669 112.413147 1.178834 6.876520 2.060760 2.423702 -2.863421 22.455942 -2.023291 -2.329448 0.000000 0.000000 0.000000 0.000000 0.000000 0.000000 2.266251 -2.890519 4.116417 11.591929 0.031236 0.632398 0.000000 0.000000 0.000000 0.000000 0.000000 0.000000 7.459914 0.318943 0.792525 9.625992 2.216914 3.177832 0.000000 0.000000 0.000000 -17.227807 2.157617 -1.032362 -4.378119 0.364890 0.457006 0.000000 0.000000 0.000000
0.345771 60.000000 2.695100 0.863427 0.110874 0.788354 0.863427 0.110874 0.788354 171.483474 0.216344 4.105939 -27.540077 -7.044276 -0.417584 111.120113 3.858582 20.143109 2.866403 1.553519 -0.932197 22.024668 -2.810640 -2.266760 -125.256144 43.820580 109.420452 0.000000 0.000000 0.000000 5.557830 -4.321689 4.269062 10.831500 -0.719638 0.564008 0.000000 0.000000 0.000000 0.000000 0.000000 0.000000 11.455001 0.368865 1.524670 12.538090 2.855057 3.296265 0.000000 0.000000 0.000000 -18.456362 2.332925 3.067789 -3.663829 -0.114818 -2.030063 0.000000 0.000000 0.000000
3.618738 60.000000 7.142935 0.296638 0.293610 1.941265 0.296638 0.293610 1.941265 170.590096 1.559604 34.451456 -27.666164 -9.733489 -1.865669 113.517797 6.180072 36.681349 4.598756 -0.111336 1.998213 23.771108 -3.490118 -2.473798 0.000000 0.000000 0.000000 0.000000 0.000000 0.000000 7.586991 -4.871840 3.789487 11.966845 -1.657514 0.577887 0.000000 0.000000 0.000000 0.000000 0.000000 0.000000 13.340280 -0.126244 3.989243 11.246893 2.374814 6.037217 0.000000 0.000000 0.000000 -19.205441 2.458232 3.730846 -4.518388 -0.210098 -2.866496 0.000000 0.000000 0.000000
5.982004 60.000000 13.377580 -0.608498 0.245166 1.517315 -0.608498 0.245166 1.517315 169.749585 3.365890 61.590451 -26.088259 -13.671174 -4.438270 113.020908 11.253150 57.209444 14.017815 -6.998567 14.408549 25.499059 -4.879887 -2.670716 0.000000 0.000000 0.000000 0.000000 0.000000 0.000000 13.355194 -6.230927 1.914333 12.741484 -3.111469 0.570179 0.000000 0.000000 0.000000 0.000000 0.000000 0.000000 14.502102 -0.809368 6.842321 7.682131 1.466679 9.697370 0.000000 0.000000 0.000000 -18.692973 2.365682 1.049342 -8.070190 0.144170 -2.046620 0.000000 0.000000 0.000000
6.360846 60.000000 18.258120 -1.205293 -0.044639 -0.235813 -1.205293 -0.044639 -0.235813 167.869536 6.130025 89.314118 -24.624970 -19.277723 -8.109355 115.009846 12.352187 67.741479 27.492183 -17.076446 30.766261 24.391074 -6.332087 -2.499652 0.000000 0.000000 0.000000 0.000000 0.000000 0.000000 19.855172 -9.528988 2.325804 9.503021 -4.445086 0.462923 141.866734 -43.202785 -122.837559 0.000000 0.000000 0.000000 17.225727 -1.076174 7.804128 2.768143 0.630080 10.639571 0.000000 0.000000 0.000000 -17.588373 2.183490 -4.873352 -15.239875 0.931702 -0.109140 0.000000 0.000000 0.000000
4.930019 60.000000 19.197261 -2.439222 -0.519042 -3.002252 -2.439222 -0.519042 -3.002252 166.670110 8.335346 101.674369 -23.104003 -24.579323 -11.730002 101.686852 22.052956 58.867499 25.953268 -12.273298 22.808763 27.975285 -5.702110 -2.934605 0.000000 0.000000 0.000000 0.000000 0.000000 0.000000 20.316532 -14.205616 8.681896 6.161498 -5.478651 0.389895 0.000000 0.000000 0.000000 0.000000 0.000000 0.000000 23.457039 -1.253388 8.168826 0.488998 0.274236 10.358615 0.000000 0.000000 0.000000 -17.751657 2.156188 -8.380991 -22.313856 1.086544 -0.504774 0.000000 0.000000 0.000000
3.747599 60.000000 14.963378 -2.923228 -0.780750 -4.435576 -2.923228 -0.780750 -4.435576 167.662789 9.269099 110.130847 -24.748981 -28.174766 -13.178227 101.245688 20.442636 54.958292 5.461069 -1.867217 5.649665 34.039037 -4.127469 -3.760059 0.000000 0.000000 0.000000 0.000000 0.000000 0.000000 12.385127 -12.433741 11.753806 8.218318 -5.308465 0.404683 0.000000 0.000000 0.000000 0.000000 0.000000 0.000000 28.628179 -1.385610 8.398183 -0.055269 0.199900 10.256069 0.000000 0.000000 0.000000 -20.129271 2.274717 -8.111575 -28.793846 0.129195 -4.295439 0.000000 0.000000 0.000000
2.581564 60.000000 8.651485 -1.789860 -0.713338 -4.232385 -1.789860 -0.713338 -4.232385 170.105112 5.657780 75.315609 -24.607271 -17.253372 -6.865305 111.511801 -1.666132 -9.086279 1.874017 5.289769 -7.625477 24.569883 -4.344304 -2.630321 0.000000 0.000000 0.000000 0.000000 0.000000 0.000000 7.764084 -6.297241 5.342894 7.588979 -2.724409 0.433661 0.000000 0.000000 0.000000 0.000000 0.000000 0.000000 23.702024 -1.087639 7.654725 -2.026759 -0.027820 12.305833 0.000000 0.000000 0.000000 -18.637195 2.177124 -9.620727 -28.571410 0.666255 -2.860258 0.000000 0.000000 0.000000
1.711049 60.000000 3.909007 -0.048651 -0.576044 -3.608218 -0.048651 -0.576044 -3.608218 173.910821 -0.934173 -21.524385 -23.760369 0.233575 3.267327 111.657441 -6.939169 -35.887448 2.161892 5.500052 -7.810414 19.484395 -1.247157 -2.002327 0.000000 0.000000 0.000000 0.000000 0.000000 0.000000 1.898398 0.147144 -1.673741 9.871862 0.519648 0.561097 0.000000 0.000000 0.000000 0.000000 0.000000 0.000000 12.725144 -0.832409 6.627877 -5.756902 -0.518363 13.499289 0.000000 0.000000 0.000000 -18.925303 2.148663 -12.616877 -25.158946 1.722753 0.279373 0.000000 0.000000 0.000000
2.164120 60.000000 3.211013 2.971619 -0.317770 -2.073728 2.971619 -0.317770 -2.073728 175.482458 -6.671339 -135.877776 -21.483286 8.541969 8.390708 112.310123 -13.065728 -61.094008 4.548146 4.278535 -4.486860 23.451911 0.145633 -2.460147 -160.448822 43.062618 -124.110505 0.000000 0.000000 0.000000 -2.763693 1.231644 -0.339415 12.401206 2.152166 0.740428 0.000000 0.000000 0.000000 0.000000 0.000000 0.000000 4.221932 -0.315691 3.199655 -6.410151 -0.635833 13.483828 0.000000 0.000000 0.000000 -21.336461 2.242950 -11.885192 -20.382858 1.687747 1.160257 0.000000 0.000000 0.000000
3.084404 60.000000 4.385714 4.788507 0.086277 1.215588 4.788507 0.086277 1.215588 174.936616 -11.364771 -154.480263 -18.698076 14.240133 12.299548 108.162124 -16.434208 -59.614763 11.593012 3.084850 1.668155 27.555756 1.833409 -2.877138 159.123515 29.826293 -122.584275 0.000000 0.000000 0.000000 -7.691342 0.783151 4.762380 10.947301 3.539440 0.687036 0.000000 0.000000 0.000000 0.000000 0.000000 0.000000 1.198871 0.415494 -2.953179 -2.179070 0.076009 17.011746 0.000000 0.000000 0.000000 -25.151994 2.405129 -9.742176 -15.030539 1.339175 1.437071 0.000000 0.000000 0.000000
2.495143 60.000000 4.770275 5.409916 0.408067 4.264097 5.409916 0.408067 4.264097 174.193999 -13.264988 -155.425658 -19.043450 16.419153 13.801112 100.270772 -12.580912 -35.636065 17.420421 5.598867 1.209815 27.370475 3.637290 -2.846207 161.542115 29.074520 -124.198908 0.000000 0.000000 0.000000 -9.019121 0.631275 6.349685 11.789141 3.622251 0.758100 0.000000 0.000000 0.000000 0.000000 0.000000 0.000000 -2.059198 0.418128 -5.267718 -0.154560 0.368000 21.059476 0.000000 0.000000 0.000000 -23.346008 2.420512 -8.582786 -12.709497 1.312662 1.999588 0.000000 0.000000 0.000000
0.686243 60.000000 8.894072 5.189963 0.478081 4.818761 5.189963 0.478081 4.818761 172.295038 -11.438993 -137.738007 -21.293053 12.073511 10.824399 105.295690 -10.128905 -35.953643 14.778910 5.011676 0.618126 23.967455 3.389489 -2.558499 0.000000 0.000000 0.000000 0.000000 0.000000 0.000000 -5.330276 -1.171827 7.148758 11.141425 3.184585 0.720880 134.223640 -41.286205 95.655464 0.000000 0.000000 0.000000 -1.809121 0.282251 -3.895581 3.107325 0.597438 22.202084 0.000000 0.000000 0.000000 -24.757422 2.587817 -7.433788 -11.330977 0.947317 0.998021 0.000000 0.000000 0.000000
-0.307804 60.000000 16.485582 2.869095 0.506147 4.232701 2.869095 0.506147 4.232701 170.991186 -6.918296 -89.890173 -23.687746 -0.820106 3.152289 108.449829 9.185842 38.292864 7.245546 2.762215 -0.755077 18.273323 1.485079 -2.038254 0.000000 0.000000 0.000000 0.000000 0.000000 0.000000 -1.936726 -0.489068 2.832305 5.969386 1.052490 0.509129 0.000000 0.000000 0.000000 0.000000 0.000000 0.000000 -0.106299 -0.251858 1.142338 6.095189 0.794936 19.318300 0.000000 0.000000 0.000000 -27.931316 2.885095 -5.937819 -12.426685 0.577536 -0.658184 0.000000 0.000000 0.000000
-1.647584 60.000000 26.723478 0.878538 0.258366 2.253899 0.878538 0.258366 2.253899 168.113341 1.654911 13.117931 -26.088291 -19.935133 -8.216586 105.598389 17.114011 55.729670 0.567274 4.888143 -7.777160 22.614162 -2.608585 -2.397241 0.000000 0.000000 0.000000 0.000000 0.000000 0.000000 3.839857 -0.775152 -3.626452 -2.873189 -4.171467 0.315312 0.000000 0.000000 0.000000 0.000000 0.000000 0.000000 6.138175 -1.239626 8.184109 4.484163 0.824557 14.551869 0.000000 0.000000 0.000000 -27.473640 2.937989 -5.116103 -16.512505 -0.090296 -3.305019 0.000000 0.000000 0.000000
-3.001787 60.000000 33.742923 -2.414264 -0.305356 -1.900815 -2.414264 -0.305356 -1.900815 166.737533 8.718429 91.773827 -21.923647 -30.141824 -15.892583 103.308495 25.069054 67.234621 4.406610 7.814142 -9.721681 33.754839 -4.427340 -3.787363 0.000000 0.000000 0.000000 0.000000 0.000000 0.000000 14.340002 -18.329395 13.214539 -0.166217 -9.829547 0.529056 154.169235 -36.220780 -109.632026 0.000000 0.000000 0.000000 19.397567 -2.142365 11.082062 4.393682 0.825877 11.284414 0.000000 0.000000 0.000000 -28.288326 3.108866 -3.976966 -24.906413 -1.880014 -8.814824 0.000000 0.000000 0.000000
-1.961476 60.000000 33.870952 -1.612820 -0.879995 -5.705674 -1.612820 -0.879995 -5.705674 167.139498 15.025468 134.402062 -20.109708 -32.326985 -18.230616 101.586337 23.332753 61.072659 6.753973 8.219203 -8.599838 39.286571 -5.280453 -4.541138 0.000000 0.000000 0.000000 0.000000 0.000000 0.000000 19.908199 -44.990775 43.881195 15.728143 -10.413236 0.106667 0.000000 0.000000 0.000000 0.000000 0.000000 0.000000 26.460002 -2.876001 12.541489 0.815766 0.298607 8.770915 0.000000 0.000000 0.000000 -25.380078 2.856899 -4.147626 -32.193621 -4.459781 -14.701767 0.000000 0.000000 0.000000
1.920813 60.000000 24.166027 1.948344 -1.309518 -9.394745 1.948344 -1.309518 -9.394745 168.231319 13.572410 133.187621 -24.311733 -30.184808 -14.733527 94.430684 19.514097 43.214894 6.336537 8.018731 -8.557893 32.867651 -4.979783 -3.648845 0.000000 0.000000 0.000000 0.000000 0.000000 0.000000 22.514978 -35.357528 30.511469 19.973353 -5.885133 0.266748 0.000000 0.000000 0.000000 0.000000 0.000000 0.000000 24.426087 -2.611245 12.005369 0.455601 0.219027 6.843958 0.000000 0.000000 0.000000 -20.131854 2.360093 -5.159070 -32.520308 -5.450569 -16.806335 0.000000 0.000000 0.000000
5.283338 60.000000 12.406824 2.678166 -1.288194 -9.596355 2.678166 -1.288194 -9.596355 143.279210 8.944572 131.012610 -29.053861 -21.361528 -7.378020 108.516438 0.575487 2.597510 3.223648 4.807221 -5.940905 22.826183 -4.985753 -2.329546 0.000000 0.000000 0.000000 0.000000 0.000000 0.000000 17.639067 -17.907254 13.403673 14.353069 -1.394700 0.689449 0.000000 0.000000 0.000000 0.000000 0.000000 0.000000 16.900848 -1.956196 10.984742 0.388681 0.182976 6.095323 0.000000 0.000000 0.000000 -18.270733 2.217960 -6.512316 -24.151247 -3.295477 -12.732692 0.000000 0.000000 0.000000
8.395340 60.000000 4.233851 3.175782 -1.026484 -7.599397 3.175782 -1.026484 -7.599397 51.712900 1.500328 115.739101 -27.163608 -3.997047 1.291940 112.118839 -2.550008 -14.435203 4.159525 2.411159 -1.523160 21.123007 -3.477267 -2.159640 0.000000 0.000000 0.000000 0.000000 0.000000 0.000000 12.159004 1.711645 -10.122803 10.875959 -0.426377 0.585343 0.000000 0.000000 0.000000 0.000000 0.000000 0.000000 13.432486 -1.496953 9.547733 -4.297510 -0.693874 6.523463 0.000000 0.000000 0.000000 -15.094329 2.069500 -7.938359 -17.889104 -0.251479 -2.829162 0.000000 0.000000 0.000000
11.092587 60.000000 2.534222 6.554267 -0.591967 -5.207197 6.554267 -0.591967 -5.207197 -26.610209 -5.392141 19.727227 -25.846726 6.261663 7.031588 109.371099 -14.947975 -58.622336 4.169709 3.029118 -2.464282 17.515669 -1.431516 -1.851192 0.000000 0.000000 0.000000 0.000000 0.000000 0.000000 -0.150003 2.944185 -5.756023 12.497626 1.094809 0.678918 0.000000 0.000000 0.000000 0.000000 0.000000 0.000000 9.595159 -0.962170 7.262989 -5.768939 -0.784759 10.842553 0.000000 0.000000 0.000000 -12.395590 1.991749 -6.744160 -8.359056 2.030623 6.932076 0.000000 0.000000 0.000000
11.326974 60.000000 4.124539 8.646716 -0.236634 -2.163306 8.646716 -0.236634 -2.163306 178.914574 -9.679918 -172.281907 -25.350417 14.034360 11.509837 105.092043 -12.574116 -42.910390 5.009252 4.405795 -4.127318 12.835049 1.413575 -1.486954 0.000000 0.000000 0.000000 0.000000 0.000000 0.000000 -6.141851 1.825281 0.674146 8.031993 2.411520 0.442967 0.000000 0.000000 0.000000 0.000000 0.000000 0.000000 5.411867 -0.430414 4.511177 -2.361906 0.084536 18.309927 0.000000 0.000000 0.000000 -20.156701 2.457144 -2.256804 -4.949693 1.213526 5.182700 0.000000 0.000000 0.000000
8.869173 60.000000 6.769645 7.810174 0.020248 0.926774 7.810174 0.020248 0.926774 176.537342 -7.564415 -139.607342 -28.547438 7.287076 7.532053 109.452309 -3.821925 -17.970070 3.145442 3.956309 -4.615312 12.932119 0.191120 -1.421077 0.000000 0.000000 0.000000 0.000000 0.000000 0.000000 -3.695443 0.123799 2.542495 8.298196 1.344407 0.449313 0.000000 0.000000 0.000000 0.000000 0.000000 0.000000 5.117156 -0.278274 3.646635 1.819959 0.511379 22.542479 0.000000 0.000000 0.000000 -23.941208 2.885886 -1.238016 -8.997318 1.195160 3.022898 0.000000 0.000000 0.000000
5.390034 60.000000 7.258096 5.853344 0.223329 2.579149 5.853344 0.223329 2.579149 172.444873 -2.059932 -49.991331 -29.723321 -7.769753 -0.467370 105.941813 17.695461 57.797797 1.206808 3.116451 -4.516811 17.606764 -2.285536 -1.801748 0.000000 0.000000 0.000000 0.000000 0.000000 0.000000 2.384032 -2.656948 3.535134 9.547802 -0.454165 0.506749 160.750411 -35.036789 -100.759829 0.000000 0.000000 0.000000 10.267788 -0.074168 3.308938 7.951403 0.867509 21.800098 0.000000 0.000000 0.000000 -25.185660 3.018293 -1.361130 -12.766592 1.102278 1.240570 0.000000 0.000000 0.000000
1.993641 60.000000 5.722727 1.474245 0.388372 2.862992 1.474245 0.388372 2.862992 169.225784 3.084106 58.448026 -29.832811 -21.576388 -7.320911 102.940134 17.516659 51.645726 -1.520650 2.079573 -4.640073 25.746674 -4.494843 -2.693262 0.000000 0.000000 0.000000 0.000000 0.000000 0.000000 4.300736 -3.910543 4.478383 9.743043 -2.328406 0.487635 0.000000 0.000000 0.000000 0.000000 0.000000 0.000000 15.393250 -0.106963 4.162988 8.911064 1.076984 18.816867 0.000000 0.000000 0.000000 -25.494487 3.057926 -1.304378 -16.046991 0.928408 -0.233003 0.000000 0.000000 0.000000
-0.476510 60.000000 0.795260 -2.091992 0.430339 2.373033 -2.091992 0.430339 2.373033 168.963260 2.860036 46.577345 -32.251775 -19.774823 -5.536269 106.191579 11.881198 42.869694 -1.834624 2.870681 -6.257535 33.239353 -3.666158 -3.662953 0.000000 0.000000 0.000000 0.000000 0.000000 0.000000 3.870272 -3.471509 3.995443 8.756553 -3.793176 0.433152 0.000000 0.000000 0.000000 0.000000 0.000000 0.000000 17.525691 -0.228623 4.822056 8.084563 1.197776 15.203707 0.000000 0.000000 0.000000 -26.484769 3.175719 -1.245099 -18.671420 0.479957 -2.343619 0.000000 0.000000 0.000000
-1.847693 60.000000 -4.858904 -2.289167 0.309658 1.581929 -2.289167 0.309658 1.581929 144.299386 -1.520179 -5.337946 -31.103957 -7.369308 0.647090 105.521410 -7.716838 -28.408155 -1.576708 4.069059 -8.154428 30.013248 -2.761617 -3.274556 0.000000 0.000000 0.000000 0.000000 0.000000 0.000000 3.381642 -2.871044 3.091754 6.903322 -2.389342 0.395905 127.902346 -37.074984 88.335414 0.000000 0.000000 0.000000 18.432419 -0.190485 4.713684 7.184924 1.230370 12.516792 0.000000 0.000000 0.000000 -25.442263 3.032530 -1.826336 -16.464497 0.003659 -3.445960 0.000000 0.000000 0.000000
0.638235 60.000000 -5.074268 1.081976 0.095727 0.622256 1.081976 0.095727 0.622256 24.311286 -9.443934 -2.436026 -25.848302 12.245389 11.426196 97.357961 -24.054354 -55.513757 2.339953 5.284249 -7.146960 21.967381 -0.198404 -2.378508 0.000000 0.000000 0.000000 0.000000 0.000000 0.000000 -0.644343 -0.278544 0.692214 8.749627 1.153468 0.519075 0.000000 0.000000 0.000000 0.000000 0.000000 0.000000 13.770597 -0.139987 3.894944 7.429781 1.322225 11.155293 0.000000 0.000000 0.000000 -22.379840 2.629025 -3.424979 -12.395796 0.766443 0.371102 0.000000 0.000000 0.000000
6.622989 60.000000 2.771928 6.410292 -0.038551 0.197194 6.410292 -0.038551 0.197194 -152.309016 -16.844921 152.181924 -15.344989 26.195888 22.792620 96.940894 -27.601348 -60.754802 11.720039 11.251929 -8.215547 18.900013 4.438924 -2.186723 153.186635 31.674421 -118.702025 0.000000 0.000000 0.000000 -8.754036 3.488204 -1.513664 14.751535 3.206754 1.035878 138.028209 -40.406356 109.429954 0.000000 0.000000 0.000000 7.178537 0.124364 1.392310 8.011021 1.339728 12.138876 0.000000 0.000000 0.000000 -21.286108 2.458642 -4.626989 -7.772226 1.649092 5.724512 0.000000 0.000000 0.000000
10.373117 60.000000 10.860785 9.493377 -0.024432 1.098166 9.493377 -0.024432 1.098166 -29.517038 -23.172201 31.900311 -2.291497 31.118816 33.163645 87.273811 -35.029612 -58.358748 24.051999 25.399102 -16.373286 24.826002 9.265121 -2.104627 -152.804515 31.328107 121.634933 0.000000 0.000000 0.000000 -14.731753 5.122723 -1.392433 22.751684 5.378056 1.954909 0.000000 0.000000 0.000000 0.000000 0.000000 0.000000 2.553891 0.514398 -2.912591 9.410993 1.389874 14.792821 0.000000 0.000000 0.000000 -21.305930 2.473409 -1.152616 -2.457275 0.998784 6.516826 0.000000 0.000000 0.000000
9.180204 60.000000 12.717360 10.894938 0.154455 4.295530 10.894938 0.154455 4.295530 172.716324 -28.668096 -166.899330 9.586883 35.232601 44.858776 73.996660 -29.315426 -37.519645 17.427225 36.711829 -33.922576 41.502540 14.420780 -0.940270 0.000000 0.000000 0.000000 0.000000 0.000000 0.000000 -20.260147 7.336882 -3.140024 31.651887 7.018996 3.046320 0.000000 0.000000 0.000000 0.000000 0.000000 0.000000 -0.139285 1.164787 -10.212790 9.886051 1.660863 11.787143 0.000000 0.000000 0.000000 -17.936669 1.977620 5.060723 4.163753 0.077953 9.651336 0.000000 0.000000 0.000000
6.200551 60.000000 10.351611 10.993403 0.276389 6.406350 10.993403 0.276389 6.406350 172.576964 -28.699390 -167.007305 11.051798 36.950991 48.408829 77.096462 -25.559967 -35.396355 4.090845 30.079074 -40.026166 54.805435 14.883174 0.562186 0.000000 0.000000 0.000000 0.000000 0.000000 0.000000 -13.384730 5.249142 -2.361586 29.998647 6.644863 2.823507 151.847414 -18.974523 -124.631357 0.000000 0.000000 0.000000 -0.997768 1.881359 -17.214580 10.984661 2.305973 4.633069 0.000000 0.000000 0.000000 -15.202148 1.485226 8.598085 12.396924 -0.637093 13.618388 0.000000 0.000000 0.000000
-0.422688 60.000000 6.353406 9.861834 0.249075 5.297669 9.861834 0.249075 5.297669 176.191185 -22.812087 -163.452927 2.532005 30.944523 36.614493 98.008312 -31.237254 -67.814748 11.252758 22.935939 -25.927830 31.504398 10.810347 -1.868760 0.000000 0.000000 0.000000 0.000000 0.000000 0.000000 -8.786427 4.965078 -5.131301 18.204508 5.204097 1.397028 0.000000 0.000000 0.000000 0.000000 0.000000 0.000000 0.761927 0.844536 -6.973485 14.140489 2.295161 11.362508 0.000000 0.000000 0.000000 -21.339042 2.589975 -0.447492 6.082180 -0.580631 -0.447504 0.000000 0.000000 0.000000
-8.209852 60.000000 9.508504 7.536118 0.002986 1.649791 7.536118 0.002986 1.649791 174.166947 -10.740238 -105.788926 -8.015687 12.870968 15.620844 115.188811 0.604363 4.452420 23.385042 14.802323 -5.520420 23.051716 2.902390 -2.742730 0.000000 0.000000 0.000000 0.000000 0.000000 0.000000 1.744044 0.553316 -6.629694 7.814294 1.504035 0.148371 -156.126744 -44.778353 -29.873388 0.000000 0.000000 0.000000 5.310836 0.285490 -0.239556 16.711952 2.735654 10.883044 0.000000 0.000000 0.000000 -26.229532 3.066750 -2.061839 -5.880042 -0.379411 -3.600009 0.000000 0.000000 0.000000
-11.058887 60.000000 17.140202 2.286304 -0.294234 -1.900022 2.286304 -0.294234 -1.900022 169.347218 2.959066 30.824870 -17.245157 -10.076841 -4.830429 117.766531 14.277943 84.288437 16.781150 6.506681 -0.260497 31.496533 -2.851866 -3.372244 133.058943 48.810959 -112.251855 0.000000 0.000000 0.000000 29.521853 -21.518184 3.940083 14.118884 -6.729908 0.524679 0.000000 0.000000 0.000000 0.000000 0.000000 0.000000 12.983176 -0.277290 4.407338 12.452528 2.390697 8.127098 0.000000 0.000000 0.000000 -27.975485 3.122748 -3.438743 -16.420306 -0.669333 -5.352240 0.000000 0.000000 0.000000
-7.812127 60.000000 23.056146 -1.055837 -0.508208 -3.316131 -1.055837 -0.508208 -3.316131 171.353440 10.461298 135.302820 -16.595708 -17.221283 -9.882527 116.055904 7.699478 52.769573 16.126505 6.057667 -0.135109 28.993692 -5.298827 -3.155101 0.000000 0.000000 0.000000 0.000000 0.000000 0.000000 37.985177 -52.739392 34.146034 10.545561 -10.566569 0.272380 159.801677 -18.523150 -115.562200 0.000000 0.000000 0.000000 25.172262 -0.291351 5.455447 5.641822 1.121834 8.532682 0.000000 0.000000 0.000000 -27.869236 3.034935 -4.534049 -27.050676 -1.736238 -8.839297 0.000000 0.000000 0.000000
-4.032198 60.000000 21.177180 2.387037 -0.695443 -5.072772 2.387037 -0.695443 -5.072772 172.582641 11.011454 142.782466 -19.121029 -16.610837 -8.455714 116.086337 15.744109 81.206780 12.238623 7.466437 -4.316266 32.775689 -5.197366 -3.656002 0.000000 0.000000 0.000000 0.000000 0.000000 0.000000 20.394244 -46.188906 44.281033 15.243019 -8.827911 0.182487 0.000000 0.000000 0.000000 0.000000 0.000000 0.000000 25.185600 -0.619504 6.391483 0.754994 0.270288 7.543114 0.000000 0.000000 0.000000 -22.201189 2.516647 -5.458091 -30.994081 -2.759365 -11.137234 0.000000 0.000000 0.000000
-1.280637 60.000000 21.780488 4.046460 -0.733179 -5.837706 4.046460 -0.733179 -5.837706 174.008351 10.830148 148.608375 -19.837635 -20.477245 -10.671871 109.692964 14.890442 59.267112 5.363478 6.472423 -7.100479 32.768194 -4.125188 -3.623441 0.000000 0.000000 0.000000 0.000000 0.000000 0.000000 22.440885 -31.300662 26.344931 16.925122 -5.711324 0.468002 0.000000 0.000000 0.000000 0.000000 0.000000 0.000000 21.515091 -0.682733 6.473505 -1.432173 -0.139621 6.874421 0.000000 0.000000 0.000000 -17.999558 2.207131 -6.715540 -30.480222 -2.734486 -10.921140 0.000000 0.000000 0.000000
-0.281893 60.000000 17.956910 5.320762 -0.638789 -5.493025 5.320762 -0.638789 -5.493025 146.924100 7.572520 117.187377 -21.542170 -16.891045 -7.639455 116.026602 7.721442 52.765442 8.363340 5.280233 -3.351479 29.505229 -3.498788 -3.186477 0.000000 0.000000 0.000000 0.000000 0.000000 0.000000 18.057365 -15.344599 10.724749 18.093404 -3.858992 0.572453 0.000000 0.000000 0.000000 0.000000 0.000000 0.000000 14.858256 -0.604725 6.058475 -1.339495 -0.108379 7.528119 0.000000 0.000000 0.000000 -12.547175 1.968850 -8.671522 -25.199557 -0.802145 -5.734462 0.000000 0.000000 0.000000
-0.903749 60.000000 6.718010 5.275104 -0.579321 -4.871982 5.275104 -0.579321 -4.871982 24.218535 2.952103 31.089904 -19.855724 -7.413861 -2.313124 116.740873 -2.808082 -23.529896 9.134573 3.733155 -0.670010 27.614751 -2.778971 -2.959873 0.000000 0.000000 0.000000 0.000000 0.000000 0.000000 13.233914 -0.819257 -6.909936 11.563260 -1.533730 0.641263 -139.880525 -30.341565 -79.488858 0.000000 0.000000 0.000000 11.850009 -0.572332 5.772130 0.124869 0.180243 8.762196 0.000000 0.000000 0.000000 -7.195860 1.867914 -11.308522 -16.205354 1.282769 2.065377 0.000000 0.000000 0.000000
-2.149014 60.000000 -4.787488 7.050715 -0.459745 -4.091444 7.050715 -0.459745 -4.091444 -152.141535 -2.577077 -52.578439 -20.356752 2.167077 4.219097 116.546292 -7.800427 -55.278826 9.849272 2.341926 1.726862 23.606514 -0.615714 -2.529821 0.000000 0.000000 0.000000 0.000000 0.000000 0.000000 0.972987 2.474701 -5.702667 16.770915 1.323349 1.013506 0.000000 0.000000 0.000000 0.000000 0.000000 0.000000 8.560293 -0.498105 4.945632 1.405024 0.400376 10.553071 0.000000 0.000000 0.000000 -4.798782 1.704981 -9.283479 -7.195034 2.020409 7.721729 0.000000 0.000000 0.000000
-1.260058 60.000000 -4.505762 8.939354 -0.176996 -1.388846 8.939354 -0.176996 -1.388846 -28.071571 -8.894159 30.559639 -17.837705 10.849982 10.297243 114.132985 -18.127479 -79.868415 12.145628 2.268258 3.067196 19.100006 2.398910 -2.147310 0.000000 0.000000 0.000000 0.000000 0.000000 0.000000 -4.186662 1.503161 0.180516 18.441464 2.668878 1.203328 0.000000 0.000000 0.000000 0.000000 0.000000 0.000000 4.267056 -0.003002 1.346861 2.981798 0.608442 13.836401 0.000000 0.000000 0.000000 -12.689151 1.862582 -6.221810 -5.594881 1.814907 7.666672 0.000000 0.000000 0.000000
1.368160 60.000000 0.092885 8.439363 0.149959 2.524164 8.439363 0.149959 2.524164 176.095144 -14.211119 -164.416838 -14.438249 18.751083 16.349549 106.773671 -19.479324 -63.545213 18.239946 5.064093 1.965842 18.273336 4.531810 -2.178339 -153.547717 32.003229 122.187036 0.000000 0.000000 0.000000 -8.282434 0.471056 6.098933 16.347456 4.258230 1.203392 0.000000 0.000000 0.000000 0.000000 0.000000 0.000000 1.603354 0.478824 -2.880909 4.946037 0.742603 18.403631 0.000000 0.000000 0.000000 -19.497800 2.335702 -4.618766 -1.709313 1.143113 6.838050 0.000000 0.000000 0.000000
-0.022061 60.000000 3.347860 7.571085 0.395105 5.260329 7.571085 0.395105 5.260329 172.997257 -17.525954 -163.254694 -11.403767 22.328881 21.363725 103.136508 -20.961565 -59.342322 22.014966 2.964748 7.547840 6.091366 5.337364 0.306400 0.000000 0.000000 0.000000 0.000000 0.000000 0.000000 -13.481972 2.000772 7.286342 31.567613 5.417518 3.330123 0.000000 0.000000 0.000000 0.000000 0.000000 0.000000 0.853763 0.560479 -3.971236 8.823777 0.952843 21.052014 0.000000 0.000000 0.000000 -24.194814 2.762971 -3.710444 -4.092582 1.300399 6.144501 0.000000 0.000000 0.000000
-7.072552 60.000000 6.478977 8.387668 0.429950 6.168849 8.387668 0.429950 6.168849 161.299288 -23.494716 -149.005367 1.285552 25.207031 31.716238 47.680070 -39.594655 -27.980326 3.425230 -4.347330 13.465083 -39.136228 6.113835 9.252818 0.000000 0.000000 0.000000 0.000000 0.000000 0.000000 -28.483449 7.741605 7.272300 66.548461 6.278854 8.861773 0.000000 0.000000 0.000000 0.000000 0.000000 0.000000 2.782747 0.549388 -2.616274 14.359271 1.339945 20.670355 0.000000 0.000000 0.000000 -27.146821 3.027256 -3.792265 -6.723107 1.170306 3.863683 0.000000 0.000000 0.000000
-14.777551 60.000000 9.130175 7.655763 0.494113 6.468611 7.655763 0.494113 6.468611 151.350916 -26.485776 -115.467409 14.803898 23.179360 37.792458 111.111128 -22.086139 -78.945685 -27.868968 -11.109034 14.187937 -73.168788 6.387065 16.334066 0.000000 0.000000 0.000000 0.000000 0.000000 0.000000 -30.343528 7.948860 7.445386 95.608000 5.294802 13.182864 0.000000 0.000000 0.000000 0.000000 0.000000 0.000000 4.577144 0.315644 -0.431691 14.596811 1.527741 19.054947 0.000000 0.000000 0.000000 -27.736695 2.997624 -5.013864 -8.243476 0.593626 0.412178 0.000000 0.000000 0.000000
-16.385379 60.000000 12.374773 6.071901 0.487698 5.600548 6.071901 0.487698 5.600548 172.828556 -3.945570 -37.105411 -10.178192 7.669156 9.990660 115.029351 12.990959 69.847441 3.162767 -3.531083 8.284746 33.985507 -0.173500 -3.545122 0.000000 0.000000 0.000000 0.000000 0.000000 0.000000 12.036068 -11.742250 9.130363 31.852793 0.276575 1.984705 0.000000 0.000000 0.000000 0.000000 0.000000 0.000000 9.121223 -0.055992 2.785897 14.123030 1.914079 15.009185 0.000000 0.000000 0.000000 -27.276040 2.863413 -6.215366 -10.111181 -0.494201 -4.393515 0.000000 0.000000 0.000000
-13.304625 60.000000 17.930447 2.515124 0.467509 3.604843 2.515124 0.467509 3.604843 174.461215 4.733041 114.397323 -20.292901 -9.954690 -3.859251 116.609393 2.985445 24.595681 7.866015 2.105797 0.938514 28.111003 -2.583543 -2.951658 0.000000 0.000000 0.000000 0.000000 0.000000 0.000000 26.948500 -30.281640 19.862918 19.219206 -5.112307 0.611232 -133.387913 -25.438085 -78.811536 0.000000 0.000000 0.000000 17.212885 -0.138567 4.449794 13.335590 2.304001 10.144851 0.000000 0.000000 0.000000 -31.330860 3.434952 -3.573060 -16.676144 -1.313637 -8.263463 0.000000 0.000000 0.000000
-9.505884 60.000000 21.836631 3.334368 0.133729 0.953086 3.334368 0.133729 0.953086 175.958742 7.413929 151.202632 -24.141647 -13.350302 -4.927879 112.552240 14.783423 66.871366 8.423379 3.021525 -0.320625 22.716458 -4.635563 -2.344865 0.000000 0.000000 0.000000 0.000000 0.000000 0.000000 32.168387 -47.026989 33.344249 7.066369 -5.979302 0.410058 0.000000 0.000000 0.000000 0.000000 0.000000 0.000000 21.072066 -0.206709 5.017121 12.110563 2.394659 7.108028 0.000000 0.000000 0.000000 -32.072808 3.738151 -1.748843 -16.066365 -2.167144 -11.315599 0.000000 0.000000 0.000000
-6.528014 60.000000 20.255610 5.349182 -0.228465 -1.633043 5.349182 -0.228465 -1.633043 173.211111 9.062178 137.898444 -22.692320 -22.741189 -11.007512 111.627708 19.523283 75.450730 2.203281 3.642800 -4.710121 27.029219 -5.471848 -2.895450 136.698894 49.601525 -114.359293 0.000000 0.000000 0.000000 25.530513 -36.008041 28.520940 14.384298 -5.428436 0.476334 0.000000 0.000000 0.000000 0.000000 0.000000 0.000000 25.810073 0.050169 4.548556 11.314684 2.403567 5.100659 0.000000 0.000000 0.000000 -31.820734 3.725733 -1.660126 -16.002430 -2.728578 -13.291082 0.000000 0.000000 0.000000
-4.085311 60.000000 12.122390 2.913957 -0.292803 -2.083682 2.913957 -0.292803 -2.083682 171.717768 7.119135 99.253807 -23.393438 -19.233333 -8.843987 110.895873 8.498827 40.832636 2.650755 3.655948 -4.380423 21.595397 -4.658376 -2.160866 153.828026 28.983996 -119.123681 0.000000 0.000000 0.000000 18.159843 -23.771690 19.913597 14.305211 -3.457325 0.578516 0.000000 0.000000 0.000000 0.000000 0.000000 0.000000 25.498282 0.382906 3.587865 8.827589 1.960754 3.627804 0.000000 0.000000 0.000000 -29.831095 3.503276 -1.933274 -18.829581 -2.662931 -12.627207 0.000000 0.000000 0.000000
-2.695452 60.000000 7.280877 1.171821 -0.275481 -1.830289 1.171821 -0.275481 -1.830289 173.152898 0.706331 -16.068657 -26.205035 -2.172620 2.575959 107.537546 -17.521703 -60.831480 -1.884356 1.367871 -3.622388 19.668912 -2.935485 -1.917697 0.000000 0.000000 0.000000 0.000000 0.000000 0.000000 3.636108 -6.167250 8.976950 11.716585 -2.572044 0.589864 0.000000 0.000000 0.000000 0.000000 0.000000 0.000000 23.960891 0.611300 2.743514 5.154800 1.254385 1.768518 0.000000 0.000000 0.000000 -25.558259 2.928200 -3.688883 -20.649499 -1.069111 -6.875504 0.000000 0.000000 0.000000
