HIERARCHY
ROOT Hips
{
  OFFSET 0.000000 0.000000 0.000000
  CHANNELS 6 Xposition Yposition Zposition Xrotation Yrotation Zrotation
  JOINT Spine
  {
    OFFSET 0.863387 -21.960049 -9.813075
    CHANNELS 3 Xrotation Yrotation Zrotation
    JOINT Chest
    {
      OFFSET 0.863387 -21.960049 -9.813075
      CHANNELS 3 Xrotation Yrotation Zrotation
      JOINT Neck
      {
        OFFSET -5.142624 -12.687886 -11.636678
        CHANNELS 3 Xrotation Yrotation Zrotation
        JOINT Head
        {
          OFFSET -4.045376 6.611234 -9.455304
          CHANNELS 3 Xrotation Yrotation Zrotation
          End Site
          {
            OFFSET 0.0 5.0 2.0
          }
        }
      }
      JOINT LeftShoulder
      {
        OFFSET 15.577370 0.287953 -4.298819
        CHANNELS 3 Xrotation Yrotation Zrotation
        JOINT LeftArm
        {
          OFFSET 11.816022 21.671087 -5.251987
          CHANNELS 3 Xrotation Yrotation Zrotation
          JOINT LeftForeArm
          {
            OFFSET -14.813976 11.614788 -13.696364
            CHANNELS 3 Xrotation Yrotation Zrotation
            JOINT LeftHand
            {
              OFFSET -5.687378 1.840689 -2.898664
              CHANNELS 3 Xrotation Yrotation Zrotation
              End Site
              {
                OFFSET -3.0 0.0 2.0
              }
            }
          }
        }
      }
      JOINT RightShoulder
      {
        OFFSET -15.577370 -0.287953 4.298819
        CHANNELS 3 Xrotation Yrotation Zrotation
        JOINT RightArm
        {
          OFFSET -3.449842 23.133916 -3.360027
          CHANNELS 3 Xrotation Yrotation Zrotation
          JOINT RightForeArm
          {
            OFFSET -3.909147 7.979488 -23.481274
            CHANNELS 3 Xrotation Yrotation Zrotation
            JOINT RightHand
            {
              OFFSET 5.000000 0.000000 0.000000
              CHANNELS 3 Xrotation Yrotation Zrotation
              End Site
              {
                OFFSET 3.0 0.0 2.0
              }
            }
          }
        }
      }
    }
  }
  JOINT LeftUpLeg
  {
    OFFSET 11.198483 0.712783 -2.441644
    CHANNELS 3 Xrotation Yrotation Zrotation
    JOINT LeftLeg
    {
      OFFSET -1.544884 42.850295 2.000000
      CHANNELS 3 Xrotation Yrotation Zrotation
      JOINT LeftFoot
      {
        OFFSET 4.902850 31.674799 17.890372
        CHANNELS 3 Xrotation Yrotation Zrotation
        JOINT LeftToeBase
        {
          OFFSET 1.366001 12.060863 -11.667534
          CHANNELS 3 Xrotation Yrotation Zrotation
          End Site
          {
            OFFSET 0.0 -1.0 3.0
          }
        }
      }
    }
  }
  JOINT RightUpLeg
  {
    OFFSET -11.198483 -0.712783 2.441644
    CHANNELS 3 Xrotation Yrotation Zrotation
    JOINT RightLeg
    {
      OFFSET -4.278909 37.814860 2.000000
      CHANNELS 3 Xrotation Yrotation Zrotation
      JOINT RightFoot
      {
        OFFSET 5.403972 33.123335 19.167209
        CHANNELS 3 Xrotation Yrotation Zrotation
        JOINT RightToeBase
        {
          OFFSET -3.767241 13.109148 -8.921333
          CHANNELS 3 Xrotation Yrotation Zrotation
          End Site
          {
            OFFSET 0.0 -1.0 3.0
          }
        }
      }
    }
  }
}
MOTION
Frames: 81
Frame Time: 0.066667
0.000000 0.000000 0.000000 0.000000 0.000000 0.000000 0.000000 0.000000 0.000000 0.000000 0.000000 0.000000 0.000000 0.000000 0.000000 0.000000 0.000000 0.000000 0.000000 0.000000 0.000000 0.000000 0.000000 0.000000 0.000000 0.000000 0.000000 0.000000 0.000000 0.000000 0.000000 0.000000 0.000000 0.000000 0.000000 0.000000 49.891086 67.245607 69.945921 0.000000 0.000000 0.000000 -2.292189 -0.082618 0.001653 0.000000 0.000000 0.000000 87.721305 -6.456661 -6.205351 0.000000 0.000000 0.000000 -5.496237 -0.620945 0.029806 0.000000 0.000000 0.000000 65.529151 14.657943 9.463793 0.000000 0.000000 0.000000
0.000000 0.000000 0.000000 0.191712 -2.725528 0.088626 -7.827039 -0.396482 0.265373 0.172427 -8.858195 0.023519 -4.293288 -0.094589 1.729055 0.000000 0.000000 0.000000 -9.062793 5.587557 1.530093 -25.302697 -9.247028 17.121444 -17.128694 -6.682325 24.902121 0.000000 0.000000 0.000000 -9.279622 -0.557820 3.677782 -11.819145 -2.750026 1.274670 14.219410 79.304691 17.116534 0.000000 0.000000 0.000000 -2.597406 -0.068565 -1.043355 -6.606973 0.343292 1.321073 88.931273 -6.342161 -17.596738 0.000000 0.000000 0.000000 -4.632059 -0.530515 0.606607 -5.299281 -0.801121 3.162625 69.323749 14.712077 20.913612 0.000000 0.000000 0.000000
0.000000 0.000000 0.000000 0.332100 -4.551371 0.221080 -7.296006 -0.533409 0.682560 0.130688 -4.890524 0.165880 2.657422 6.287636 3.549500 0.000000 0.000000 0.000000 -17.174650 15.553444 12.015481 -60.414034 0.538830 45.938325 -35.177641 12.047395 66.795765 0.000000 0.000000 0.000000 -11.403055 1.107216 11.443048 -46.133974 3.641357 6.846813 -34.512457 37.145740 -85.504207 0.000000 0.000000 0.000000 -3.973999 -0.126334 -1.406372 -4.419419 -0.924121 3.086954 84.624189 -6.813672 -19.953923 0.000000 0.000000 0.000000 -9.349041 -0.930197 4.226639 0.775332 -1.084699 1.625162 65.396095 14.651742 17.087220 0.000000 0.000000 0.000000
0.000000 0.000000 0.000000 0.398072 -5.361560 0.307021 -7.788630 -0.615456 0.865046 0.143414 -2.085540 0.404038 2.839700 8.466057 5.175611 0.000000 0.000000 0.000000 -25.659702 19.830353 8.290629 -62.424182 -0.623586 46.570985 -33.590840 11.579249 64.469574 0.000000 0.000000 0.000000 0.923592 5.116805 36.890604 -61.180856 20.217307 5.241226 -26.279574 25.561856 -91.641775 0.000000 0.000000 0.000000 -5.131331 -0.179462 -2.922649 0.225176 -2.423986 4.185116 77.951297 -7.511477 -19.103586 0.000000 0.000000 0.000000 -17.345760 -1.233749 7.268439 5.567164 -0.942379 0.010984 60.710996 14.288477 13.551971 0.000000 0.000000 0.000000
0.000000 0.000000 0.000000 0.431442 -5.849300 0.323965 -7.657405 -0.598716 0.829827 0.287712 -1.557157 0.982890 1.931414 8.842740 5.772488 0.000000 0.000000 0.000000 -28.384627 20.346848 5.899548 -61.632723 -2.289347 45.476916 -36.720591 9.879949 66.096225 0.000000 0.000000 0.000000 14.622830 2.844744 49.915621 -63.963897 38.803201 0.369505 -26.765944 21.969389 -101.582462 0.000000 0.000000 0.000000 -5.608426 -0.210427 -3.598761 2.620177 -3.166680 4.594001 76.830790 -7.546710 -18.200363 0.000000 0.000000 0.000000 -16.535966 -1.203493 7.163004 5.734190 -1.013729 0.076293 61.017746 14.235098 11.551870 0.000000 0.000000 0.000000
0.000000 0.000000 0.000000 0.431347 -5.778841 0.349431 -7.661617 -0.592627 0.812974 0.535598 -0.970454 1.930972 2.229031 9.811142 6.431637 0.000000 0.000000 0.000000 -28.142653 19.705213 5.155812 -59.749003 -2.279083 44.412890 -35.756222 9.537595 64.661265 0.000000 0.000000 0.000000 15.330246 2.628910 49.350952 -57.697218 37.110988 2.113459 -34.458174 27.071826 -104.354499 0.000000 0.000000 0.000000 -5.011616 -0.170081 -3.627378 2.575919 -2.622736 3.707148 78.865522 -7.532356 -20.644574 0.000000 0.000000 0.000000 -13.665126 -1.146667 5.866927 3.135675 -1.436768 1.483908 61.236851 14.369273 14.658666 0.000000 0.000000 0.000000
0.000000 0.000000 0.000000 0.439249 -5.726930 0.415077 -7.414596 -0.560029 0.744550 0.489469 -1.566950 1.749053 2.216649 8.769612 5.621446 0.000000 0.000000 0.000000 -27.243864 18.870694 4.836189 -54.962293 -8.680319 38.887704 -35.662158 6.006951 60.910612 0.000000 0.000000 0.000000 11.367086 3.528601 43.497374 -50.606504 28.494908 4.603056 -38.390108 31.858173 -101.309963 0.000000 0.000000 0.000000 -4.682161 -0.147760 -3.629304 -0.243582 -1.089761 2.000656 81.818676 -7.283566 -22.767222 0.000000 0.000000 0.000000 -1.258627 -0.235357 2.233044 -2.479862 -2.679951 5.556392 64.742499 14.673364 24.924596 0.000000 0.000000 0.000000
0.000000 0.000000 0.000000 0.430098 -5.621135 0.399664 -7.348446 -0.423452 0.382469 0.363470 -2.325039 1.245776 1.091762 6.794659 4.496071 0.000000 0.000000 0.000000 -25.532200 17.963863 5.331395 -49.878512 -10.684616 34.694630 -32.075584 1.392469 52.247739 0.000000 0.000000 0.000000 10.821091 3.383482 37.856090 -44.056032 19.745706 5.792663 -46.991528 40.682421 -99.085504 0.000000 0.000000 0.000000 -4.132677 -0.105545 -4.101850 -1.078037 0.137326 0.051899 82.389871 -7.206813 -22.837837 0.000000 0.000000 0.000000 5.406098 0.641517 -0.275425 -2.610264 -3.589057 7.233801 64.989313 14.669703 25.182739 0.000000 0.000000 0.000000
0.000000 0.000000 0.000000 0.421259 -5.564611 0.368383 -7.216411 -0.356980 0.216175 0.359784 -2.245818 1.234097 0.745209 5.667642 3.780059 0.000000 0.000000 0.000000 -22.158616 18.915142 11.208508 -47.326746 -3.857344 36.196245 -29.028771 5.524031 52.375876 0.000000 0.000000 0.000000 9.730676 3.318212 33.188783 -41.009827 17.714620 5.919951 -50.257926 45.684261 -96.149726 0.000000 0.000000 0.000000 -4.821745 -0.151700 -4.847524 -4.654824 1.316461 -1.197978 84.881286 -6.844825 -22.384599 0.000000 0.000000 0.000000 5.561807 0.878608 -2.408805 -3.806187 -3.356126 7.337698 64.753763 14.697992 28.715375 0.000000 0.000000 0.000000
0.000000 0.000000 0.000000 0.382992 -5.571099 0.142173 -8.232186 -0.179988 -0.369336 0.302287 -0.251558 1.086670 0.050033 4.306295 3.042053 0.000000 0.000000 0.000000 -18.082603 19.618627 18.214284 -45.699186 2.201122 38.286870 -26.428327 8.496008 52.097900 0.000000 0.000000 0.000000 4.499605 3.236686 24.999709 -38.855314 14.169115 5.949271 -63.245386 49.711878 -106.089181 0.000000 0.000000 0.000000 -4.970467 -0.157746 -6.587635 -0.980230 -0.009083 0.289170 81.142671 -7.232191 -20.245573 0.000000 0.000000 0.000000 3.235509 0.566739 -2.444045 -2.076358 -2.996740 5.957089 64.504532 14.711056 28.737467 0.000000 0.000000 0.000000
0.000000 0.000000 0.000000 0.338232 -5.544795 -0.109433 -8.410001 0.207066 -1.459756 0.228942 0.209738 0.838608 0.159148 4.293430 2.991499 0.000000 0.000000 0.000000 -15.866294 19.210601 20.927760 -45.601939 3.123138 38.725418 -25.887156 7.357021 50.133916 0.000000 0.000000 0.000000 -4.568836 2.400516 16.739675 -35.790041 -0.054673 5.545271 -41.410033 52.742304 -74.642078 0.000000 0.000000 0.000000 -5.442441 -0.203182 -7.889951 0.411127 -0.532716 0.822311 79.815963 -7.276447 -18.624992 0.000000 0.000000 0.000000 2.438456 0.437503 -2.158468 -0.874855 -2.664679 4.902298 63.443283 14.789777 30.079892 0.000000 0.000000 0.000000
0.000000 0.000000 0.000000 0.286991 -5.492718 -0.387797 -8.206130 0.253935 -1.559718 0.143890 -0.072233 0.517699 0.311980 4.329120 2.959561 0.000000 0.000000 0.000000 -14.891640 18.783459 21.728614 -46.717080 3.526398 39.603078 -27.631779 7.523815 52.639594 0.000000 0.000000 0.000000 -9.371531 1.295418 11.844326 -36.118596 -8.634750 5.427205 -25.726527 45.113095 -57.600870 0.000000 0.000000 0.000000 -5.463061 -0.206244 -8.696209 1.089560 -0.397169 0.393804 79.061495 -7.362293 -18.722394 0.000000 0.000000 0.000000 4.286374 0.738504 -2.765290 1.695287 -2.393662 3.512109 61.795229 14.867741 29.251382 0.000000 0.000000 0.000000
0.000000 0.000000 0.000000 0.274871 -5.456683 -0.443905 -8.873768 -0.081346 -0.718811 0.147754 -0.459874 0.511488 -0.257564 4.811559 3.522327 0.000000 0.000000 0.000000 -13.200407 17.740518 22.612122 -46.984557 5.286997 40.708453 -27.312178 9.498561 54.384873 0.000000 0.000000 0.000000 -11.043528 0.318903 8.128818 -37.749515 -14.898247 5.753818 -17.631242 38.825805 -47.506487 0.000000 0.000000 0.000000 -6.020732 -0.276209 -9.908869 -1.212977 0.154917 0.057609 81.038924 -7.097987 -17.746357 0.000000 0.000000 0.000000 5.630416 1.039312 -3.869123 2.181556 -2.503367 3.525148 61.829632 14.852980 28.841757 0.000000 0.000000 0.000000
0.000000 0.000000 0.000000 0.265874 -5.338011 -0.448634 -8.569859 -0.464729 0.383905 0.361811 -0.985146 1.282137 -1.642686 3.479574 3.095103 0.000000 0.000000 0.000000 -12.871650 18.046446 23.766800 -47.598507 5.253119 41.039921 -27.462656 9.069993 54.102838 0.000000 0.000000 0.000000 -16.414288 -0.296362 7.491284 -36.616941 -18.845977 5.383636 -13.175368 37.240500 -37.839255 0.000000 0.000000 0.000000 -6.256595 -0.300151 -9.284313 -4.603814 1.158400 -0.901892 84.330359 -6.789828 -18.012543 0.000000 0.000000 0.000000 6.489984 1.217055 -4.315199 0.116356 -2.433125 4.136265 63.504366 14.774317 29.403644 0.000000 0.000000 0.000000
0.000000 0.000000 0.000000 0.245852 -4.481735 -0.233001 -6.664786 -1.041199 2.075586 0.878341 -2.326451 3.249085 -3.670249 2.643156 3.292390 0.000000 0.000000 0.000000 -13.481750 20.084064 26.483947 -48.782882 6.900162 42.588544 -27.453979 10.707173 55.951592 0.000000 0.000000 0.000000 -19.098649 -0.197279 8.533955 -35.067303 -19.832696 4.879666 -11.285397 36.659472 -33.212771 0.000000 0.000000 0.000000 -7.294168 -0.413087 -8.763352 -5.157701 1.259877 -0.951765 85.484312 -6.667602 -17.561081 0.000000 0.000000 0.000000 8.121115 1.472415 -4.358207 0.829445 -2.701324 4.330616 62.682384 14.830514 29.775056 0.000000 0.000000 0.000000
0.000000 0.000000 0.000000 0.270647 -3.928296 0.100717 -6.595471 -1.673979 3.748943 1.067578 -2.271361 3.982372 -3.382264 4.801400 4.649657 0.000000 0.000000 0.000000 -13.547986 20.324237 26.800833 -46.407781 8.449838 42.147723 -28.337336 10.437668 56.782010 0.000000 0.000000 0.000000 -16.856565 0.549738 10.459236 -32.863737 -18.594368 4.241073 -9.717516 40.891311 -25.689483 0.000000 0.000000 0.000000 -7.391223 -0.412028 -8.100655 -3.929800 1.261013 -1.280157 85.324876 -6.666709 -16.800763 0.000000 0.000000 0.000000 8.270667 1.488061 -4.300578 2.378073 -2.946820 4.179690 62.454748 14.844695 29.789697 0.000000 0.000000 0.000000
0.000000 0.000000 0.000000 0.364044 -3.897802 0.615616 -7.041918 -2.259218 5.312527 1.202838 -2.020040 4.490138 -2.785498 6.655254 5.729034 0.000000 0.000000 0.000000 -13.815426 20.237090 26.184089 -45.780189 8.823818 42.019375 -27.523498 10.545098 55.854430 0.000000 0.000000 0.000000 -17.318292 1.164256 12.586745 -30.709403 -17.519339 3.651022 -7.061455 44.098123 -17.323628 0.000000 0.000000 0.000000 -7.185547 -0.380661 -7.527609 -2.802474 1.248060 -1.543495 86.815652 -6.526008 -15.531461 0.000000 0.000000 0.000000 6.898185 1.206934 -3.685838 2.712712 -2.822762 3.860933 62.912110 14.799835 29.019125 0.000000 0.000000 0.000000
0.000000 0.000000 0.000000 0.516492 -3.916232 1.434243 -9.439155 -2.355459 5.692114 1.578652 0.154006 5.706005 -1.174556 9.667348 7.383061 0.000000 0.000000 0.000000 -12.332482 19.211940 26.909562 -45.594449 7.435105 41.118757 -26.177952 9.705297 53.114006 0.000000 0.000000 0.000000 -2.130090 1.525699 11.327697 -17.553714 -11.183015 0.809465 13.958411 53.606364 27.241559 0.000000 0.000000 0.000000 -7.148952 -0.374897 -7.400494 1.164441 0.633366 -1.410754 84.235055 -6.697653 -14.676607 0.000000 0.000000 0.000000 -5.997222 -0.676801 3.362544 5.770323 -1.076753 0.163616 59.110485 14.694690 23.280301 0.000000 0.000000 0.000000
0.000000 0.000000 0.000000 0.626488 -3.949864 2.020919 -9.442438 -2.247888 5.385455 1.878331 0.269047 6.771310 -1.952695 7.236340 5.862188 0.000000 0.000000 0.000000 -11.397336 18.106958 26.514525 -44.888366 3.168471 38.322859 -24.416849 8.413903 49.261917 0.000000 0.000000 0.000000 7.024021 1.517165 5.880521 -7.771743 -2.156536 0.691264 20.378061 51.188209 41.134803 0.000000 0.000000 0.000000 -7.282821 -0.384558 -7.176082 1.212105 0.652816 -1.456027 83.475367 -6.740214 -14.406710 0.000000 0.000000 0.000000 -3.993302 -0.548333 5.560615 7.042902 -2.083627 1.335788 54.606800 14.520967 21.122475 0.000000 0.000000 0.000000
0.000000 0.000000 0.000000 0.644062 -3.195315 2.300820 -10.364267 -2.104936 5.009926 2.098093 0.223063 7.567427 -2.811467 4.693731 4.371118 0.000000 0.000000 0.000000 -8.884145 15.639156 26.334671 -41.916952 -0.567272 34.417961 -24.387946 3.111856 43.767250 0.000000 0.000000 0.000000 4.566362 1.384653 6.860750 -5.735794 -3.423968 -0.035835 18.802097 50.221170 38.914523 0.000000 0.000000 0.000000 -6.989698 -0.349609 -6.767160 -0.692520 1.194416 -1.958578 85.537934 -6.595648 -14.049347 0.000000 0.000000 0.000000 -3.073180 -0.514826 6.556239 4.792761 -3.581776 4.335754 57.397570 14.911562 26.291801 0.000000 0.000000 0.000000
0.000000 0.000000 0.000000 0.602506 -1.522539 2.464508 -12.222038 -1.910865 4.479969 2.020018 2.573228 6.970020 -2.987352 4.836980 4.533172 0.000000 0.000000 0.000000 -8.122279 13.915117 24.136668 -37.668715 1.356100 32.737862 -16.767417 6.720920 35.989670 0.000000 0.000000 0.000000 2.010760 1.258001 7.615309 -6.174047 -4.305986 -0.197916 17.505871 54.229433 33.470779 0.000000 0.000000 0.000000 -6.641778 -0.314450 -6.593255 -1.304278 1.794802 -2.911485 86.736557 -6.498397 -11.602863 0.000000 0.000000 0.000000 -4.079675 -0.614611 9.217573 2.070222 -4.798444 7.302089 57.693842 15.134317 29.791413 0.000000 0.000000 0.000000
0.000000 0.000000 0.000000 0.571052 -0.709336 2.482218 -13.712077 -1.469306 3.085953 1.536060 2.723736 5.327161 -0.408425 7.166616 5.291586 0.000000 0.000000 0.000000 -5.839093 10.950699 21.898445 -24.861914 3.621113 25.255705 -8.932854 6.314643 22.116893 0.000000 0.000000 0.000000 -0.812689 0.865623 6.513408 -2.620369 -4.273347 -0.906074 15.067211 64.753381 23.563554 0.000000 0.000000 0.000000 -6.332872 -0.284974 -6.535247 -0.837759 1.999733 -3.384942 85.835401 -6.524635 -10.872768 0.000000 0.000000 0.000000 -4.211433 -0.621131 9.367244 2.243020 -4.904397 7.401499 58.329001 15.252596 32.362063 0.000000 0.000000 0.000000
0.000000 0.000000 0.000000 0.501906 -0.036528 2.297148 -13.737687 -0.799135 0.918183 0.853679 1.151876 3.068230 -1.623950 1.678170 1.837677 0.000000 0.000000 0.000000 -7.675646 8.388085 11.622627 -16.471462 3.454129 18.522121 -7.621775 3.995191 17.572183 0.000000 0.000000 0.000000 -1.813974 1.328342 9.989856 -4.540926 -11.492864 -2.625299 13.896956 61.391039 23.202383 0.000000 0.000000 0.000000 -6.127271 -0.268448 -6.916395 -1.030148 3.335934 -5.789130 86.119577 -6.549620 -13.403659 0.000000 0.000000 0.000000 -4.279633 -0.604025 8.074513 -0.328167 -3.891598 6.791982 61.220022 15.067909 33.840868 0.000000 0.000000 0.000000
0.000000 0.000000 0.000000 0.336814 1.223365 1.817914 -11.810022 0.139588 -1.781667 0.494327 0.905435 1.804533 -5.105976 -2.182090 0.728716 0.000000 0.000000 0.000000 -4.146836 3.677723 4.674460 -2.049688 4.433016 6.055136 0.629959 5.782186 2.752538 0.000000 0.000000 0.000000 -7.670286 1.072815 10.441032 -18.210149 -15.790184 0.189363 -16.744544 47.459715 -37.020537 0.000000 0.000000 0.000000 -6.071699 -0.264618 -7.154387 -1.317176 4.204921 -7.349225 87.448538 -6.474045 -14.057980 0.000000 0.000000 0.000000 -3.538440 -0.590870 8.915115 -0.878577 -2.742314 5.038234 61.621780 14.989612 32.634970 0.000000 0.000000 0.000000
0.000000 0.000000 0.000000 0.092309 1.392033 0.787194 -7.708921 1.298953 -4.318899 -0.378773 -2.523001 -1.665667 -8.100602 -4.747136 0.456083 0.000000 0.000000 0.000000 -1.018445 0.684995 0.503786 2.222078 1.245727 -1.361433 2.439413 4.761378 -1.834626 0.000000 0.000000 0.000000 -10.660393 0.546042 8.950233 -31.096998 -18.648709 3.697114 -16.645465 36.045704 -48.419498 0.000000 0.000000 0.000000 -6.286326 -0.298968 -8.726792 -0.192264 4.319303 -7.696449 86.750789 -6.527121 -15.076082 0.000000 0.000000 0.000000 -4.133465 -0.625498 9.786429 -0.730563 -1.737272 3.240498 60.840015 15.007242 31.410827 0.000000 0.000000 0.000000
0.000000 0.000000 0.000000 -0.105592 1.222633 -0.122460 -7.352596 1.650124 -5.182330 -0.941405 -2.822390 -3.924024 -8.089131 -3.629218 1.114647 0.000000 0.000000 0.000000 -0.416423 -0.054399 -1.145159 3.872004 1.923366 -2.615345 3.599210 4.870415 -4.254613 0.000000 0.000000 0.000000 -10.124437 0.611856 9.068876 -39.456691 -18.982153 6.257302 -16.593042 32.012642 -53.891267 0.000000 0.000000 0.000000 -6.567720 -0.361354 -11.542757 0.463611 3.285638 -5.931389 85.661125 -6.613939 -15.505255 0.000000 0.000000 0.000000 -9.960208 -0.765603 10.277686 -1.750402 -0.515801 1.428627 61.609139 14.790825 26.616010 0.000000 0.000000 0.000000
0.000000 0.000000 0.000000 -0.285628 1.204888 -0.916389 -7.104073 1.379100 -4.402883 -1.017469 -3.045084 -4.271050 -6.823594 -2.212976 1.435518 0.000000 0.000000 0.000000 -7.088537 3.985889 0.178572 -4.213794 0.122526 4.520859 -3.012928 8.733139 12.910273 0.000000 0.000000 0.000000 -13.926343 0.253579 8.731157 -43.537231 -15.962457 7.387517 -16.771343 29.811605 -57.954309 0.000000 0.000000 0.000000 -6.725885 -0.389006 -12.019991 -0.284523 3.993875 -7.095985 84.318485 -6.735159 -16.135114 0.000000 0.000000 0.000000 -3.938707 -0.615912 9.543321 3.885667 -0.533692 -0.180907 53.531529 14.931391 25.293792 0.000000 0.000000 0.000000
0.000000 0.000000 0.000000 -0.328319 1.039420 -1.156248 -8.158210 1.083087 -3.826354 -0.750309 -5.466743 -3.684245 -6.915586 -1.055385 2.186902 0.000000 0.000000 0.000000 -11.060373 6.994405 2.118952 -26.183832 3.988283 26.493037 -10.521681 15.316627 35.408636 0.000000 0.000000 0.000000 -15.909507 0.212737 9.100153 -51.486086 -15.803727 9.634790 -17.290407 30.404524 -58.456072 0.000000 0.000000 0.000000 -7.238358 -0.460598 -11.955801 -3.157467 4.323401 -7.336316 83.096451 -6.869869 -16.992682 0.000000 0.000000 0.000000 2.308418 -0.187468 6.150586 5.865567 -2.031976 1.602580 52.770260 15.014791 25.903723 0.000000 0.000000 0.000000
0.000000 0.000000 0.000000 -0.315133 0.669181 -1.218179 -9.189454 0.629523 -2.765153 -0.468615 -5.970979 -2.555990 -3.858700 6.037121 5.662862 0.000000 0.000000 0.000000 -15.191147 11.345301 6.235232 -49.203613 11.070963 45.108060 -28.144916 16.351749 63.893406 0.000000 0.000000 0.000000 -21.612832 0.099876 9.971775 -54.180821 -18.688362 10.786716 -14.798841 30.280932 -51.278343 0.000000 0.000000 0.000000 -7.439661 -0.499852 -12.533563 -3.736899 4.146679 -6.915974 81.102214 -7.017079 -16.453281 0.000000 0.000000 0.000000 5.201942 0.259996 3.343323 6.378374 -3.354165 3.449210 52.873282 15.115796 26.872993 0.000000 0.000000 0.000000
0.000000 0.000000 0.000000 -0.285600 0.281645 -1.213765 -8.411831 0.148289 -1.297522 -0.042778 -8.646407 -1.008192 -5.429063 -5.198484 -1.012878 0.000000 0.000000 0.000000 -19.533336 15.679166 8.897888 -48.996834 3.651543 40.993034 -25.597293 18.664761 63.921580 0.000000 0.000000 0.000000 -28.988001 0.350668 11.749042 -51.796830 -20.135193 10.208767 -10.483253 23.188678 -48.183164 0.000000 0.000000 0.000000 -8.623347 -0.657814 -12.008139 -3.254015 4.126446 -6.944035 80.851485 -7.043040 -16.531513 0.000000 0.000000 0.000000 5.894813 0.391653 2.643807 6.585252 -3.752516 3.978439 52.584273 15.345874 28.874344 0.000000 0.000000 0.000000
0.000000 0.000000 0.000000 -0.278407 0.197223 -1.209357 -7.055316 -0.771246 1.337168 0.304645 -8.641259 0.690005 -12.432841 -14.882434 -3.086007 0.000000 0.000000 0.000000 -20.909638 18.824693 12.740283 -44.803426 0.862072 37.021993 -25.328940 13.193022 56.136953 0.000000 0.000000 0.000000 -31.265905 5.546160 23.837771 -50.342925 -24.973602 10.225200 -9.339073 21.785517 -45.997162 0.000000 0.000000 0.000000 -8.169345 -0.564043 -10.840264 -1.891589 3.196997 -5.391057 82.406980 -6.760581 -13.303305 0.000000 0.000000 0.000000 9.754924 0.743226 2.637777 6.411475 -4.466734 5.108748 54.631432 15.588581 32.682997 0.000000 0.000000 0.000000
0.000000 0.000000 0.000000 -0.188040 -0.337561 -0.973085 -6.572325 -1.328301 2.836941 0.605461 -8.291957 2.162229 -13.172022 -18.534791 -4.564645 0.000000 0.000000 0.000000 -17.964759 14.023121 7.854212 -31.639584 -6.693098 23.694729 -17.725668 -0.001873 31.110964 0.000000 0.000000 0.000000 -25.677713 6.318448 26.924306 -19.778862 -6.809966 2.055232 5.037576 55.289159 9.601430 0.000000 0.000000 0.000000 -6.472734 -0.329037 -9.631161 0.117777 2.618359 -4.684396 84.840361 -6.680716 -15.668808 0.000000 0.000000 0.000000 6.387047 0.437910 2.628379 2.896987 -5.391766 7.907342 61.826633 15.042243 34.856577 0.000000 0.000000 0.000000
0.000000 0.000000 0.000000 0.046977 -0.665550 0.021464 -6.941538 -1.700919 3.820669 1.243213 -8.437680 5.252267 -12.554937 -18.654343 -4.962316 0.000000 0.000000 0.000000 -13.228279 10.743350 7.867295 -19.961373 -10.883002 11.520383 -4.402735 2.352136 10.181263 0.000000 0.000000 0.000000 7.115362 3.769503 34.048319 25.832381 12.552772 3.095454 37.794987 38.952736 88.135235 0.000000 0.000000 0.000000 -3.197296 0.038395 -8.174033 2.244976 1.594359 -3.304093 84.128193 -6.622449 -12.034461 0.000000 0.000000 0.000000 1.172110 -0.217066 5.553065 1.391497 -5.834528 9.279162 61.562706 15.103750 35.864393 0.000000 0.000000 0.000000
0.000000 0.000000 0.000000 0.414692 -1.449607 1.565948 -4.990304 -2.102785 4.835252 1.412820 -10.795226 6.480766 -7.815724 -17.834435 -7.161173 0.000000 0.000000 0.000000 -7.187259 7.506679 10.178015 -10.493265 -13.089235 1.198075 -0.484017 -4.789923 -1.911343 0.000000 0.000000 0.000000 21.882837 1.561371 32.951216 42.380418 13.390299 2.815763 36.148612 34.788812 92.343056 0.000000 0.000000 0.000000 -3.270786 0.004847 -6.767737 1.684165 1.242737 -2.583653 84.785865 -6.566893 -11.046197 0.000000 0.000000 0.000000 -1.274929 -0.467714 7.825917 0.937128 -5.923551 9.632991 62.686858 14.955686 34.968350 0.000000 0.000000 0.000000
0.000000 0.000000 0.000000 0.733539 -2.594511 2.895866 -4.797345 -2.355956 5.468074 1.599191 -11.387088 7.625317 -4.720390 -14.938519 -7.239580 0.000000 0.000000 0.000000 -2.439386 4.262172 10.228352 -7.425610 -14.716949 -2.967638 -2.828655 -15.760789 -3.206883 0.000000 0.000000 0.000000 19.800441 1.927834 30.855817 33.474738 9.444772 0.369431 39.288347 39.674983 89.391928 0.000000 0.000000 0.000000 -3.158220 -0.002969 -5.800664 2.140594 0.402193 -1.251038 84.414780 -6.500922 -8.261352 0.000000 0.000000 0.000000 -1.862517 -0.588578 10.464188 0.632847 -5.217882 8.606830 63.420630 14.825084 31.973642 0.000000 0.000000 0.000000
0.000000 0.000000 0.000000 0.905583 -4.217909 3.483819 -4.907881 -2.491172 5.814679 1.594106 -11.576100 7.645351 -3.871593 -15.077595 -7.795401 0.000000 0.000000 0.000000 1.812318 1.376047 10.139984 -4.850427 -17.889615 -7.683943 0.236169 -21.168813 -10.302993 0.000000 0.000000 0.000000 16.799776 2.318682 27.860452 29.257819 8.509453 0.158818 28.067636 32.445056 81.331084 0.000000 0.000000 0.000000 -3.547484 -0.044890 -5.284339 1.997044 0.419685 -1.245839 84.019543 -6.570676 -10.268112 0.000000 0.000000 0.000000 -1.021428 -0.614450 11.471308 0.908824 -4.872422 7.913998 62.992167 14.805701 29.494270 0.000000 0.000000 0.000000
0.000000 0.000000 0.000000 0.997075 -4.432720 3.949731 -5.670551 -2.424578 5.683763 1.626324 -12.152852 7.982072 -3.454300 -14.258459 -7.536971 0.000000 0.000000 0.000000 3.702153 0.119458 10.133399 -4.294468 -17.702988 -8.165336 0.186979 -20.656863 -10.045614 0.000000 0.000000 0.000000 14.285263 2.497656 23.762607 21.550273 5.509986 -0.762720 47.162568 50.163436 86.005383 0.000000 0.000000 0.000000 -3.842661 -0.071793 -5.085101 2.423067 0.424446 -1.357142 83.902066 -6.462361 -6.890136 0.000000 0.000000 0.000000 -0.806876 -0.662286 12.588817 0.986736 -4.775703 7.720759 62.437044 14.842177 29.652519 0.000000 0.000000 0.000000
0.000000 0.000000 0.000000 1.020431 -4.486687 4.070341 -5.814464 -2.465116 5.795845 1.653772 -11.903550 8.067743 -3.790557 -12.881579 -6.521226 0.000000 0.000000 0.000000 1.575562 1.830991 11.325076 -7.321536 -15.759001 -3.740050 -7.057400 -22.126415 0.715811 0.000000 0.000000 0.000000 8.079309 2.704010 21.208953 15.807381 -3.513408 -4.518497 34.438713 51.840240 65.050426 0.000000 0.000000 0.000000 -2.547128 0.033181 -5.110984 5.782915 0.217197 -1.799577 81.897185 -6.520543 -7.981961 0.000000 0.000000 0.000000 -0.623208 -0.629631 11.900484 2.478523 -5.157004 7.709123 62.954585 14.838729 30.907643 0.000000 0.000000 0.000000
0.000000 0.000000 0.000000 1.022094 -4.610782 4.058603 -6.277691 -2.381843 5.602563 1.575739 -12.732153 7.852708 -6.214675 -13.333864 -5.489366 0.000000 0.000000 0.000000 0.376531 2.812610 11.922416 -11.213100 -16.443854 -0.200789 -8.595261 -18.591158 4.669437 0.000000 0.000000 0.000000 7.959453 2.618716 19.955199 14.726912 -5.051394 -5.016593 29.280868 48.850366 59.816357 0.000000 0.000000 0.000000 -1.318695 0.130671 -5.060674 7.363511 0.133283 -2.018590 81.485917 -6.516267 -7.819455 0.000000 0.000000 0.000000 -0.671148 -0.616448 11.607243 2.619535 -5.188725 7.700649 63.463585 14.798409 30.646134 0.000000 0.000000 0.000000
0.000000 0.000000 0.000000 1.014395 -4.610919 4.015464 -6.533943 -1.903492 4.353964 1.485975 -12.998790 7.393967 -8.192422 -16.363732 -6.137699 0.000000 0.000000 0.000000 1.141529 1.687489 9.602856 -11.337770 -16.805616 -0.298396 -6.828834 -17.261204 2.550685 0.000000 0.000000 0.000000 7.523747 2.432745 17.328369 15.765166 -5.411731 -5.440724 31.461684 50.782993 61.371416 0.000000 0.000000 0.000000 -1.661758 0.115943 -5.458411 6.955006 1.413348 -3.915232 81.788870 -6.525504 -8.055211 0.000000 0.000000 0.000000 -0.578736 -0.599225 11.263833 3.245751 -4.825017 6.864665 63.345479 14.761380 28.209626 0.000000 0.000000 0.000000
0.000000 0.000000 0.000000 0.969140 -4.459149 3.789837 -7.066567 -1.012636 1.981312 1.396931 -13.140459 6.896251 -11.586105 -15.751753 -3.981565 0.000000 0.000000 0.000000 0.497741 0.852794 4.645392 -9.532384 -16.340116 -1.831542 -5.081093 -16.335154 0.199926 0.000000 0.000000 0.000000 6.060233 2.190074 14.483597 14.712540 -8.625496 -6.718172 27.178255 50.153049 54.639731 0.000000 0.000000 0.000000 -1.799285 0.144343 -6.740999 6.873467 2.100727 -4.972358 81.564842 -6.573070 -8.896573 0.000000 0.000000 0.000000 -0.048600 -0.551700 10.490881 4.261860 -3.974877 5.137437 62.616596 14.754966 26.547000 0.000000 0.000000 0.000000
0.000000 0.000000 0.000000 0.775899 -4.418694 2.725368 -6.178256 0.048330 -0.744785 1.091817 -11.890182 4.889930 -17.106427 -15.761668 -1.143399 0.000000 0.000000 0.000000 -1.048747 0.927519 1.381808 -4.408104 -16.365918 -7.202778 -1.231681 -14.277731 -5.219864 0.000000 0.000000 0.000000 -5.570711 1.498674 12.040040 5.507428 -12.541664 -5.786078 20.233993 60.040920 34.321445 0.000000 0.000000 0.000000 -3.764762 -0.015998 -8.659360 8.459312 2.430998 -5.725616 81.278968 -6.932071 -15.207834 0.000000 0.000000 0.000000 -0.750671 -0.502667 9.096989 4.397502 -3.190179 3.863270 63.010378 14.762213 27.503604 0.000000 0.000000 0.000000
0.000000 0.000000 0.000000 0.591927 -3.862599 1.856698 -7.770178 0.708275 -2.730929 0.887896 -9.350110 3.578670 -16.941249 -14.400294 -0.573958 0.000000 0.000000 0.000000 1.464361 -0.580216 0.954341 1.220003 -13.771911 -11.729961 2.908023 -10.149111 -10.699163 0.000000 0.000000 0.000000 -9.703864 0.749805 9.539802 -2.941775 -12.783452 -3.447321 9.672505 63.913368 15.447978 0.000000 0.000000 0.000000 -5.122470 -0.164269 -10.648825 7.492203 2.245563 -5.295737 81.263458 -6.965818 -15.786564 0.000000 0.000000 0.000000 0.963561 -0.387212 8.129949 6.304205 -2.710435 2.501205 59.275155 15.039307 29.815244 0.000000 0.000000 0.000000
0.000000 0.000000 0.000000 0.303852 -3.384756 0.458757 -7.387293 1.502054 -4.794016 0.417898 -8.306317 1.257846 -16.127659 -12.845698 -0.214454 0.000000 0.000000 0.000000 1.661483 -1.372983 -2.131984 1.124921 -11.693381 -10.207332 3.072544 -6.850799 -9.582631 0.000000 0.000000 0.000000 -8.661781 0.595613 8.536492 -9.860218 -12.088764 -1.366879 0.180667 64.991740 0.283635 0.000000 0.000000 0.000000 -5.233997 -0.176472 -13.089062 9.366204 1.118543 -3.903860 80.119572 -6.974065 -14.547779 0.000000 0.000000 0.000000 -0.763497 -0.462553 8.208073 7.938798 -1.425040 0.108637 60.532239 14.831647 26.717593 0.000000 0.000000 0.000000
0.000000 0.000000 0.000000 0.040407 -3.366210 -0.923351 -6.621150 1.936696 -5.762830 -0.016059 -6.971747 -0.673423 -16.295718 -12.495859 0.037978 0.000000 0.000000 0.000000 2.027692 -1.613804 -2.373822 1.894378 -11.114813 -10.680590 3.425206 -6.883290 -10.258814 0.000000 0.000000 0.000000 -9.708854 0.344378 7.786233 -13.968365 -9.838537 0.183396 -4.479957 67.821466 -6.660070 0.000000 0.000000 0.000000 -5.384048 -0.200116 -15.345993 9.344906 -0.239177 -1.888235 79.403178 -7.031185 -14.661177 0.000000 0.000000 0.000000 -3.698913 -0.567578 7.467955 6.416038 -0.532290 -0.838457 59.075804 14.638725 22.250519 0.000000 0.000000 0.000000
0.000000 0.000000 0.000000 -0.152730 -3.502969 -1.998016 -4.618824 2.736796 -7.275002 -0.469417 -6.829828 -2.717488 -12.636192 -13.762258 -2.399704 0.000000 0.000000 0.000000 -1.766057 0.341578 -2.400317 3.256993 -11.348031 -12.414665 3.908408 -8.971256 -12.043540 0.000000 0.000000 0.000000 -11.483636 0.082155 7.313250 -15.863048 -9.028284 0.795783 7.342276 68.018126 10.863909 0.000000 0.000000 0.000000 -5.881511 -0.286505 -15.562609 7.399229 -0.254734 -1.431239 81.471558 -6.830142 -13.597187 0.000000 0.000000 0.000000 -4.564222 -0.599747 6.764222 5.984574 -0.856715 -0.231649 58.904276 14.579671 21.205304 0.000000 0.000000 0.000000
0.000000 0.000000 0.000000 -0.270411 -3.975262 -2.841659 -4.647020 2.418670 -6.491684 -0.669359 -6.941034 -3.650244 -12.771455 -15.443271 -3.201011 0.000000 0.000000 0.000000 -2.963994 1.559013 -0.243527 -0.761381 -10.567235 -7.309483 2.553754 -8.263431 -9.249686 0.000000 0.000000 0.000000 -11.155198 0.488753 8.859517 -15.389496 -14.103038 -0.303956 1.953235 61.020539 3.313973 0.000000 0.000000 0.000000 -5.995279 -0.305531 -15.442450 5.981132 -0.163635 -1.243860 80.879774 -7.143240 -18.246473 0.000000 0.000000 0.000000 -3.973730 -0.540918 5.209894 6.686903 -1.643316 0.775193 58.341484 14.490617 19.850662 0.000000 0.000000 0.000000
0.000000 0.000000 0.000000 -0.311703 -4.079038 -3.115544 -4.639697 2.079635 -5.645736 -0.555621 -7.714044 -3.297186 -12.682474 -12.927502 -1.941303 0.000000 0.000000 0.000000 -6.787500 4.094760 1.035194 -10.647816 -12.802732 1.537439 -3.699345 -6.205675 3.120231 0.000000 0.000000 0.000000 -10.813113 -0.276770 5.591247 -16.508711 -17.832629 -0.682268 -5.642309 57.563752 -10.251886 0.000000 0.000000 0.000000 -6.178702 -0.332238 -14.791336 3.386054 0.672711 -1.997830 80.593027 -7.301372 -20.313897 0.000000 0.000000 0.000000 3.919185 0.118929 3.724057 8.591258 -3.041851 2.288151 55.634562 14.507130 20.802758 0.000000 0.000000 0.000000
0.000000 0.000000 0.000000 -0.336492 -3.920883 -3.171319 -5.186418 1.925140 -5.386818 -0.622683 -7.899288 -3.655741 -13.910263 -17.611131 -3.702762 0.000000 0.000000 0.000000 -7.968394 4.798600 1.100857 -16.994356 -10.544525 9.055327 -7.480062 -2.522678 12.178408 0.000000 0.000000 0.000000 -11.103315 -0.625713 4.290169 -17.582944 -18.569297 -0.480157 -5.265617 56.244906 -9.835049 0.000000 0.000000 0.000000 -6.104801 -0.317476 -14.434639 3.170857 0.829517 -2.210682 80.182602 -7.291627 -19.430864 0.000000 0.000000 0.000000 9.711048 0.684410 3.032505 10.379403 -3.830243 2.862272 53.380197 14.760183 23.596118 0.000000 0.000000 0.000000
0.000000 0.000000 0.000000 -0.354639 -3.527051 -3.076634 -5.385462 0.991585 -3.058838 -0.406727 -7.924949 -2.638712 -15.017969 -17.909455 -3.261476 0.000000 0.000000 0.000000 -10.502552 7.598783 4.580663 -20.761495 -10.554595 12.432667 -10.451547 -0.791386 18.622101 0.000000 0.000000 0.000000 -11.828224 0.310160 8.340461 -15.675253 -19.203027 -1.202862 -2.559669 52.495513 -5.188323 0.000000 0.000000 0.000000 -3.896104 0.033962 -13.707879 1.272459 1.369290 -2.712990 80.300252 -7.244789 -18.911960 0.000000 0.000000 0.000000 16.679826 1.503282 2.035534 10.909428 -6.727256 6.687322 52.294507 15.352579 28.795868 0.000000 0.000000 0.000000
0.000000 0.000000 0.000000 -0.184935 -4.518436 -2.635975 -7.043500 -0.167622 -0.272650 0.038089 -7.359248 -0.466868 -14.492162 -18.080216 -3.625565 0.000000 0.000000 0.000000 -11.944544 10.309309 8.914810 -20.092276 -11.451660 11.284025 -11.705729 -8.340820 15.302268 0.000000 0.000000 0.000000 -3.633211 1.836110 13.512110 -6.530700 -17.581551 -3.751791 12.737224 50.382099 26.697279 0.000000 0.000000 0.000000 0.357824 0.627930 -12.253363 1.979105 1.697245 -3.426370 81.574503 -7.094249 -18.633233 0.000000 0.000000 0.000000 15.770145 1.414731 2.029900 9.921145 -8.826625 9.970014 58.115891 14.926644 26.890719 0.000000 0.000000 0.000000
0.000000 0.000000 0.000000 0.152116 -6.174349 -1.481792 -7.413107 -1.214509 2.509285 0.588191 -9.088540 2.071842 -14.058725 -16.725453 -3.180753 0.000000 0.000000 0.000000 -8.403289 9.589708 13.356274 -29.629430 -20.484207 14.501568 -15.926088 -18.953295 15.424976 0.000000 0.000000 0.000000 9.211142 2.408567 17.101805 14.252793 -12.834944 -8.564378 22.027963 45.461006 49.838371 0.000000 0.000000 0.000000 -0.422439 0.424603 -10.174840 5.061476 1.724004 -4.061461 82.013820 -7.042515 -18.510971 0.000000 0.000000 0.000000 8.419202 0.359856 4.695333 11.818766 -9.411334 9.941292 65.896731 14.652658 24.305724 0.000000 0.000000 0.000000
0.000000 0.000000 0.000000 0.588549 -7.567648 0.644485 -10.833546 -2.170219 5.220634 1.044704 -10.758500 4.501911 -13.853051 -15.502749 -2.672259 0.000000 0.000000 0.000000 -5.968019 9.069507 16.805705 -33.813328 -29.497301 13.716725 -21.027766 -27.914625 17.871553 0.000000 0.000000 0.000000 16.167683 2.379720 18.014955 19.877258 -7.811094 -7.733460 28.501641 45.822497 62.006057 0.000000 0.000000 0.000000 -0.559165 0.336987 -8.509877 7.413799 1.654830 -4.370998 82.174912 -6.941827 -16.776990 0.000000 0.000000 0.000000 0.580803 -0.554554 10.769937 10.025961 -8.534042 9.521863 67.308430 14.656822 22.677469 0.000000 0.000000 0.000000
0.000000 0.000000 0.000000 0.915703 -8.363615 2.546749 -12.951779 -2.698066 6.982541 1.755604 -10.890427 8.344319 -12.992282 -14.325581 -2.511309 0.000000 0.000000 0.000000 -7.167757 9.722376 16.072782 -41.064530 -33.506832 18.156045 -33.826255 -27.004284 34.524786 0.000000 0.000000 0.000000 23.712880 2.162392 19.925891 28.701566 -3.100023 -7.322186 26.886599 40.495733 65.886464 0.000000 0.000000 0.000000 -1.256500 0.244723 -8.094538 7.849453 1.226687 -3.791325 80.420466 -6.887629 -13.511357 0.000000 0.000000 0.000000 -1.718122 -0.655962 12.357232 10.155448 -9.210326 10.394292 64.094897 14.709923 26.893871 0.000000 0.000000 0.000000
0.000000 0.000000 0.000000 1.093262 -10.588371 3.167903 -13.663680 -2.549070 6.572653 1.684925 -14.745891 9.213240 -12.966382 -17.345094 -4.072396 0.000000 0.000000 0.000000 -8.245031 10.121125 14.986502 -44.482758 -32.100276 21.580728 -34.603329 -23.737489 37.283665 0.000000 0.000000 0.000000 14.652819 2.413908 19.203137 20.349753 -6.095887 -6.946472 27.428547 42.497484 64.223333 0.000000 0.000000 0.000000 -1.723766 0.183935 -7.758107 10.074185 0.572711 -3.230741 77.446380 -7.181231 -14.821064 0.000000 0.000000 0.000000 -3.081746 -0.678245 12.993965 10.663146 -9.365790 10.382393 63.236698 14.696493 24.594387 0.000000 0.000000 0.000000
0.000000 0.000000 0.000000 1.157117 -11.558662 3.385236 -13.702570 -2.474686 6.335645 1.698576 -15.663433 9.697463 -13.307461 -16.627397 -3.526334 0.000000 0.000000 0.000000 -9.191204 10.465715 14.065535 -44.625359 -29.972425 22.567058 -34.437777 -23.703712 37.104606 0.000000 0.000000 0.000000 10.619774 2.477791 18.649373 16.953843 -11.170199 -8.601265 24.605294 45.941150 54.452311 0.000000 0.000000 0.000000 -2.190237 0.121501 -7.258706 9.986120 0.523156 -3.141306 77.309170 -7.193493 -14.849020 0.000000 0.000000 0.000000 -4.044095 -0.684324 13.412560 9.730315 -8.974115 10.256986 62.769911 14.710247 24.847675 0.000000 0.000000 0.000000
0.000000 0.000000 0.000000 1.183391 -12.059610 3.450878 -15.217444 -2.275461 5.786421 1.700023 -15.803814 9.772163 -14.534740 -16.308543 -2.724174 0.000000 0.000000 0.000000 -8.320370 9.750109 13.916026 -43.241111 -28.055783 22.246977 -30.821262 -21.228092 34.124360 0.000000 0.000000 0.000000 4.150608 2.448968 17.284390 16.600429 -13.182136 -9.480850 22.429372 44.917094 51.249550 0.000000 0.000000 0.000000 -0.946609 0.237477 -7.050381 11.064838 0.445996 -3.235756 77.363211 -7.208677 -15.059503 0.000000 0.000000 0.000000 -2.362927 -0.669884 12.705681 9.386617 -8.891651 10.294448 63.774116 14.686322 24.517961 0.000000 0.000000 0.000000
0.000000 0.000000 0.000000 1.196692 -12.741962 3.340326 -16.249128 -1.988030 4.848120 1.478852 -17.337714 8.855682 -13.114746 -14.778782 -2.682202 0.000000 0.000000 0.000000 -8.820858 9.536573 12.447890 -40.849196 -25.655977 21.350984 -22.850953 -16.308110 26.701367 0.000000 0.000000 0.000000 1.908180 2.347535 16.369074 16.885924 -16.650059 -11.277406 20.460487 40.803072 51.768894 0.000000 0.000000 0.000000 0.267585 0.362951 -7.181963 12.056506 1.434435 -4.817140 77.337106 -7.299741 -16.042704 0.000000 0.000000 0.000000 -1.447891 -0.652311 12.295936 9.492529 -8.556542 9.782425 64.589520 14.680789 25.482206 0.000000 0.000000 0.000000
0.000000 0.000000 0.000000 1.177317 -12.434057 3.271272 -18.866646 -1.561843 3.316118 1.323457 -15.667649 7.096943 -11.224596 -13.952698 -3.218123 0.000000 0.000000 0.000000 -6.732777 6.842198 9.200532 -33.090447 -18.520132 18.412299 -11.901571 -5.877255 17.276064 0.000000 0.000000 0.000000 0.949231 1.806957 12.341638 17.090241 -17.372387 -11.706290 21.426567 42.299601 52.120663 0.000000 0.000000 0.000000 -3.849702 -0.027395 -8.516127 10.106190 2.814468 -6.526039 77.902082 -7.061641 -13.801229 0.000000 0.000000 0.000000 -0.991922 -0.626516 11.756712 8.764047 -6.605689 7.342275 63.822173 14.713662 26.467913 0.000000 0.000000 0.000000
0.000000 0.000000 0.000000 1.103792 -11.975439 2.785836 -17.629341 -0.837289 0.674719 1.132160 -17.361052 6.176251 -10.579585 -15.519711 -4.390646 0.000000 0.000000 0.000000 -7.212731 5.148550 3.440795 -12.605207 -14.203622 2.571052 -1.809178 -4.795709 0.529827 0.000000 0.000000 0.000000 -2.055690 1.479014 11.015443 17.866260 -20.159008 -13.381710 19.842923 41.960186 49.039257 0.000000 0.000000 0.000000 -5.408525 -0.201476 -10.860001 9.815197 3.576688 -7.618028 78.454719 -7.173791 -15.611873 0.000000 0.000000 0.000000 -0.429620 -0.554240 10.379246 8.890401 -4.890675 4.851336 61.651415 14.779652 26.318810 0.000000 0.000000 0.000000
0.000000 0.000000 0.000000 0.930924 -12.001777 1.271248 -11.491939 0.174143 -1.834440 0.812445 -19.759573 3.976790 -11.691246 -18.061841 -5.130494 0.000000 0.000000 0.000000 -0.268368 0.561926 1.678715 -6.551547 -17.756016 -5.794523 0.780035 -8.867261 -6.295300 0.000000 0.000000 0.000000 -4.049216 1.199125 10.012286 12.837491 -24.900839 -13.546667 21.512456 49.322094 44.955825 0.000000 0.000000 0.000000 -5.324740 -0.189981 -15.017208 9.940964 3.373788 -7.331467 77.372535 -7.857389 -22.212083 0.000000 0.000000 0.000000 4.547979 -0.186622 7.575672 10.106007 -4.439580 3.802370 60.647481 14.563489 20.313261 0.000000 0.000000 0.000000
0.000000 0.000000 0.000000 0.769470 -12.064943 -0.170028 -7.829522 0.973485 -3.461766 0.515637 -18.895154 1.273949 -12.710203 -20.696977 -5.911767 0.000000 0.000000 0.000000 3.232020 -0.951277 3.838540 -2.635783 -16.304299 -9.084283 2.358402 -7.014600 -8.324042 0.000000 0.000000 0.000000 -4.976682 1.067901 9.607492 8.177359 -27.345149 -12.574037 14.654606 48.259143 32.033629 0.000000 0.000000 0.000000 -5.211859 -0.169042 -16.704274 8.397012 2.913549 -6.449925 76.522911 -8.151002 -24.009132 0.000000 0.000000 0.000000 7.977905 0.363654 4.404028 11.816863 -5.077572 4.120569 58.724058 14.441459 18.842472 0.000000 0.000000 0.000000
0.000000 0.000000 0.000000 0.679144 -12.042023 -0.942865 -7.041580 1.172739 -3.841143 0.323530 -18.235771 -0.266575 -11.114897 -21.717917 -7.346284 0.000000 0.000000 0.000000 2.178433 1.031672 9.722103 -2.977212 -15.137695 -7.961141 1.318374 -10.073764 -7.809062 0.000000 0.000000 0.000000 -8.464392 0.829988 9.537904 7.376643 -29.075916 -12.912963 8.524601 41.222970 22.417033 0.000000 0.000000 0.000000 -4.947317 -0.122115 -16.225294 5.493680 3.226724 -6.552520 77.717751 -7.992000 -24.262318 0.000000 0.000000 0.000000 13.154193 1.149639 2.080746 10.297349 -6.198297 6.186931 58.952712 14.638685 22.256398 0.000000 0.000000 0.000000
0.000000 0.000000 0.000000 0.640466 -11.840182 -1.143352 -7.065525 0.958108 -3.275014 0.274330 -17.590509 -0.537365 -9.063289 -20.638572 -7.971914 0.000000 0.000000 0.000000 -0.389564 2.715451 9.646953 -3.847576 -13.581477 -6.000110 -0.711825 -8.943505 -3.660844 0.000000 0.000000 0.000000 -10.338899 0.808660 9.963883 3.937801 -30.834491 -12.023524 4.622315 41.523577 12.153658 0.000000 0.000000 0.000000 -4.101006 0.024276 -15.732909 2.139804 3.802961 -7.072318 79.021893 -7.754405 -23.783950 0.000000 0.000000 0.000000 18.733099 2.250076 -0.417690 10.119636 -7.788113 8.454516 58.380422 14.777541 24.582237 0.000000 0.000000 0.000000
0.000000 0.000000 0.000000 0.619194 -11.944201 -1.396635 -7.182653 0.805718 -2.890047 0.140366 -17.924152 -1.689756 -9.429405 -20.305762 -7.581909 0.000000 0.000000 0.000000 -4.261316 5.158840 9.158670 -8.129838 -13.742521 -1.613182 -0.990148 -7.538453 -2.454717 0.000000 0.000000 0.000000 -14.878699 0.614976 10.279507 -11.645478 -32.967532 -5.641184 -3.868999 37.368830 -11.407229 0.000000 0.000000 0.000000 -4.143345 0.013923 -15.458872 1.024132 3.515927 -6.421736 78.660117 -7.820972 -23.939057 0.000000 0.000000 0.000000 18.806375 2.153788 0.055113 11.668363 -8.005727 8.125502 57.789869 14.708898 23.381601 0.000000 0.000000 0.000000
0.000000 0.000000 0.000000 0.538513 -10.785074 -1.305864 -9.680696 -0.146079 -0.634880 0.204832 -10.903448 -0.015107 -9.200318 -19.652706 -7.364428 0.000000 0.000000 0.000000 -5.972170 7.904369 13.655110 -14.113380 -10.419011 6.453879 -6.895901 -3.360586 10.568862 0.000000 0.000000 0.000000 -18.425500 2.507992 17.037775 -8.662890 -28.625619 -5.869913 1.010407 40.751258 2.720002 0.000000 0.000000 0.000000 -3.049438 0.164861 -13.613185 0.882330 2.980080 -5.456615 79.741811 -7.560800 -22.565851 0.000000 0.000000 0.000000 18.477826 2.082996 0.201516 10.308627 -8.246659 9.007435 58.495213 14.967714 27.812741 0.000000 0.000000 0.000000
0.000000 0.000000 0.000000 0.577494 -10.029746 -0.566145 -11.621884 -1.646397 3.664323 0.557654 -9.965144 1.905386 -9.709819 -18.185172 -6.289771 0.000000 0.000000 0.000000 -7.749255 9.941529 15.488931 -14.612081 -6.286186 9.702846 -7.836238 -2.156872 13.064925 0.000000 0.000000 0.000000 -18.178343 4.869741 24.682109 1.895592 -29.211376 -10.528674 3.944997 30.953161 14.180609 0.000000 0.000000 0.000000 -2.363866 0.210328 -11.291610 0.175470 3.094347 -5.544903 81.258017 -7.354214 -22.627455 0.000000 0.000000 0.000000 17.468808 1.911901 0.458620 9.473181 -9.369460 10.918423 59.571788 14.983380 29.065451 0.000000 0.000000 0.000000
0.000000 0.000000 0.000000 0.754801 -10.017127 0.778373 -11.149101 -2.158972 5.200395 1.259429 -10.733745 5.648479 -9.397379 -18.104290 -6.420688 0.000000 0.000000 0.000000 -6.680757 8.590403 14.088583 -21.703853 -4.336113 17.244795 -7.160271 -0.296592 13.242186 0.000000 0.000000 0.000000 -7.148934 4.461529 26.701333 4.714907 -25.707166 -10.466227 7.379306 41.076375 19.532694 0.000000 0.000000 0.000000 -2.371421 0.118466 -7.833190 -0.440804 3.016312 -5.303044 81.328896 -7.103875 -18.349596 0.000000 0.000000 0.000000 10.717888 0.685228 3.625604 4.909142 -10.670886 15.044101 66.685461 14.608361 27.677722 0.000000 0.000000 0.000000
0.000000 0.000000 0.000000 1.077346 -10.013338 3.217414 -8.281772 -2.677177 6.519948 2.095967 -8.296013 9.337154 -6.669074 -14.244318 -5.771584 0.000000 0.000000 0.000000 -12.103400 11.034911 10.346924 -24.876684 -8.952202 16.945933 -11.428837 -4.498178 17.477826 0.000000 0.000000 0.000000 39.399393 1.837925 19.262902 58.543700 7.158316 -5.301973 24.465483 25.024713 88.664055 0.000000 0.000000 0.000000 -2.281847 0.079045 -6.020421 -0.889355 2.393807 -4.091633 82.302142 -6.814366 -14.316168 0.000000 0.000000 0.000000 4.557637 -0.001996 5.584414 4.362491 -11.239273 16.191650 66.502112 14.617926 27.471005 0.000000 0.000000 0.000000
0.000000 0.000000 0.000000 1.353273 -9.986792 5.309765 -10.210010 -3.116163 7.951401 2.608216 -7.007274 11.324102 -7.312270 -12.271661 -4.301297 0.000000 0.000000 0.000000 -11.415669 10.711594 10.739900 -26.496721 -10.308263 17.477093 -15.218302 -5.198438 23.048654 0.000000 0.000000 0.000000 40.119400 2.248988 17.241583 47.441890 9.447553 -1.199660 30.015322 30.183144 89.665361 0.000000 0.000000 0.000000 -2.715620 0.004492 -4.456143 -0.040925 1.604988 -2.843296 82.897633 -6.704631 -12.639193 0.000000 0.000000 0.000000 1.100455 -0.422658 8.794065 3.948609 -10.646399 15.532299 66.785115 14.576818 30.240464 0.000000 0.000000 0.000000
0.000000 0.000000 0.000000 1.429609 -9.839367 5.903702 -13.453432 -2.805510 7.376802 2.476855 -8.942561 11.403437 -5.482202 -13.180647 -5.790325 0.000000 0.000000 0.000000 -13.289252 12.210859 11.070618 -30.823133 -14.696504 18.556776 -19.013800 -8.220023 26.611120 0.000000 0.000000 0.000000 24.372588 2.328211 17.342874 34.410969 1.884542 -5.246444 27.733889 33.756861 78.265139 0.000000 0.000000 0.000000 -3.890353 -0.102044 -3.004781 -0.043856 1.919624 -3.404658 83.392642 -6.824193 -16.484996 0.000000 0.000000 0.000000 1.004306 -0.510305 10.173001 3.786509 -9.594142 14.023856 66.940124 14.535076 32.886039 0.000000 0.000000 0.000000
0.000000 0.000000 0.000000 1.463740 -9.392835 6.201199 -14.509905 -2.582311 6.758173 2.511222 -9.001879 11.595551 -3.491783 -15.490010 -8.255955 0.000000 0.000000 0.000000 -14.612991 12.892926 10.462335 -33.749118 -16.229521 20.122016 -20.795612 -9.850767 28.048793 0.000000 0.000000 0.000000 21.139139 2.371547 16.810544 32.457998 -0.085856 -6.215592 24.975958 33.840624 72.111527 0.000000 0.000000 0.000000 -4.876002 -0.164691 -2.689644 -0.691090 2.354841 -4.059163 83.095569 -6.916023 -18.131472 0.000000 0.000000 0.000000 2.201992 -0.513101 10.608808 5.313898 -10.136222 14.036882 65.961179 14.615844 34.104815 0.000000 0.000000 0.000000
0.000000 0.000000 0.000000 1.431736 -7.455053 6.150289 -13.883165 -2.488156 6.393889 1.954120 -9.832347 9.081115 -4.548783 -7.172105 -2.644132 0.000000 0.000000 0.000000 -14.340643 12.695452 10.462173 -32.376970 -16.105019 19.075550 -19.925924 -9.926157 26.746615 0.000000 0.000000 0.000000 3.145815 2.621618 18.745712 9.214211 -18.641381 -9.423386 4.613220 39.615200 12.762275 0.000000 0.000000 0.000000 -4.201445 -0.116988 -3.449477 -0.998209 3.325953 -5.775906 83.766754 -6.912405 -19.950215 0.000000 0.000000 0.000000 14.696454 -0.109201 9.773741 7.706979 -10.317676 13.084193 61.435914 15.015262 32.918758 0.000000 0.000000 0.000000
0.000000 0.000000 0.000000 1.408992 -6.064884 6.120459 -16.059651 -2.337102 6.057581 1.389125 -7.181777 5.780449 -4.161135 -2.621571 0.041538 0.000000 0.000000 0.000000 -11.998702 12.032295 12.796199 -22.642678 -8.921994 15.079916 -16.410303 -4.620467 25.333296 0.000000 0.000000 0.000000 -4.417968 2.567544 17.660546 0.506817 -18.870109 -6.463559 8.371739 47.023211 19.098506 0.000000 0.000000 0.000000 -2.706805 -0.011308 -3.742958 -0.864997 5.467940 -9.727046 84.563382 -6.776035 -18.341922 0.000000 0.000000 0.000000 15.208944 0.042282 9.041259 6.436648 -10.317777 13.723435 61.966836 14.936301 31.841072 0.000000 0.000000 0.000000
0.000000 0.000000 0.000000 1.294621 -4.685579 5.577861 -14.135050 -1.042664 1.680036 0.941459 -4.387554 3.579297 -2.439171 2.082619 2.438039 0.000000 0.000000 0.000000 -9.015438 6.885064 5.182750 -13.747714 -10.625133 5.971932 -7.456218 -7.170618 9.049775 0.000000 0.000000 0.000000 -5.822393 4.025862 25.091075 -31.472705 -6.418372 4.524363 -30.425498 48.071419 -62.745363 0.000000 0.000000 0.000000 -4.654547 -0.137356 -5.052932 0.824799 4.614239 -8.337744 83.651232 -6.968269 -21.138924 0.000000 0.000000 0.000000 13.726567 -0.232823 10.329148 6.582558 -7.991658 10.262040 62.964927 14.949964 36.036786 0.000000 0.000000 0.000000
0.000000 0.000000 0.000000 1.089653 -2.506198 4.727180 -10.795319 -0.247075 -0.477403 0.004432 1.887965 0.134574 -0.897155 11.692493 8.817191 0.000000 0.000000 0.000000 -7.708061 4.524029 0.734652 2.821127 -13.205639 -13.186810 8.229149 -11.792357 -20.973712 0.000000 0.000000 0.000000 -10.342133 6.445585 33.795781 -37.226134 5.032505 5.812084 -37.266301 46.060021 -76.842501 0.000000 0.000000 0.000000 -8.278174 -0.457595 -6.193311 -3.659667 4.612449 -7.833003 86.226723 -6.728929 -27.500094 0.000000 0.000000 0.000000 15.128599 -0.100518 9.792074 6.877245 -6.145925 7.425136 57.316107 15.637935 36.672698 0.000000 0.000000 0.000000
0.000000 0.000000 0.000000 0.742404 -0.669062 3.299095 -6.968971 0.955797 -3.250920 -0.521117 1.483807 -1.714593 0.309499 13.166633 9.622020 0.000000 0.000000 0.000000 -0.938136 -1.051235 -6.349831 30.516685 -11.866339 -50.072042 29.235115 -12.193400 -60.384446 0.000000 0.000000 0.000000 -7.644257 7.697950 41.525220 -35.507154 14.753815 5.880799 -56.123806 57.193079 -88.720132 0.000000 0.000000 0.000000 -9.446809 -0.576542 -6.563187 -9.324261 4.745469 -7.372452 89.626036 -6.152957 -24.943654 0.000000 0.000000 0.000000 18.108023 0.130552 9.100666 7.868875 -5.727105 6.426986 54.843832 15.902509 36.332500 0.000000 0.000000 0.000000
0.000000 0.000000 0.000000 0.443910 2.395805 2.506757 -8.420355 1.142430 -4.044220 -1.007486 3.509673 -3.099763 5.567206 21.625049 15.713269 0.000000 0.000000 0.000000 -9.424302 1.325162 -11.593011 22.355703 -26.573724 -45.900591 26.646594 -34.811723 -53.480892 0.000000 0.000000 0.000000 -11.138197 14.470293 63.940678 -27.418912 23.763100 6.639695 -113.218865 72.192475 -128.663187 0.000000 0.000000 0.000000 -8.553583 -0.383144 -2.674939 -9.054015 1.777641 -0.937238 88.223279 -6.435972 -11.468388 0.000000 0.000000 0.000000 15.197771 0.086408 8.803427 6.843945 -5.944121 7.140995 57.284343 15.602722 36.118875 0.000000 0.000000 0.000000
0.000000 0.000000 0.000000 0.071523 3.913191 1.273871 -10.047530 1.636865 -5.828729 -1.625499 3.804869 -5.070789 2.774491 13.966836 9.612508 0.000000 0.000000 0.000000 -14.144450 0.850948 -18.532761 16.717850 -29.887383 -40.068373 25.324246 -20.647375 -52.375616 0.000000 0.000000 0.000000 -18.573765 17.943545 64.083664 -25.655332 12.933859 5.475480 -32.804220 77.152217 -40.513056 0.000000 0.000000 0.000000 -8.622722 -0.297481 0.448979 -11.269377 0.771955 2.010104 89.469130 -6.423374 -8.913914 0.000000 0.000000 0.000000 12.840909 -0.188783 9.941406 -0.443837 -4.442401 7.778209 56.322916 15.702409 35.983202 0.000000 0.000000 0.000000
0.000000 0.000000 0.000000 -0.008379 5.459039 1.276755 -5.931955 1.522307 -4.525476 -1.606789 3.991044 -4.975020 8.824552 20.813872 14.398423 0.000000 0.000000 0.000000 -20.443015 2.700701 -19.739642 10.927777 -36.542996 -36.035120 25.159817 -19.395981 -52.182241 0.000000 0.000000 0.000000 5.661670 7.142519 65.363646 -8.334645 51.595124 17.005363 113.589575 43.330719 150.851188 0.000000 0.000000 0.000000 -9.744472 -0.348616 0.055925 -14.072409 2.396898 -0.856136 90.012251 -6.391520 -9.995699 0.000000 0.000000 0.000000 14.659646 0.171495 8.228303 0.762050 -4.905889 8.032843 52.784951 16.143258 36.332113 0.000000 0.000000 0.000000
0.000000 0.000000 0.000000 -0.040224 5.854000 1.234262 -6.623415 1.239602 -3.933535 -1.582718 1.861510 -5.314738 4.987901 15.872492 10.662708 0.000000 0.000000 0.000000 -18.617554 2.353911 -18.942472 0.159164 -40.883074 -25.567251 16.338504 -29.647921 -37.711182 0.000000 0.000000 0.000000 -3.682993 6.979630 42.527139 10.295025 16.916197 5.930505 78.484460 52.312298 117.966727 0.000000 0.000000 0.000000 -9.070929 -0.351749 -0.773258 -11.895634 2.145497 -0.926460 88.708564 -6.405610 -12.675579 0.000000 0.000000 0.000000 15.207806 0.336776 7.469080 1.868198 -5.737810 8.907954 53.768828 16.070724 36.756170 0.000000 0.000000 0.000000
