HIERARCHY
ROOT Hips
{
  OFFSET 0.000000 0.000000 0.000000
  CHANNELS 6 Xposition Yposition Zposition Xrotation Yrotation Zrotation
  JOINT Spine
  {
    OFFSET 0.211591 24.227834 -3.764787
    CHANNELS 3 Xrotation Yrotation Zrotation
    JOINT Chest
    {
      OFFSET 0.211591 24.227834 -3.764787
      CHANNELS 3 Xrotation Yrotation Zrotation
      JOINT Neck
      {
        OFFSET -1.100772 8.441563 -3.430650
        CHANNELS 3 Xrotation Yrotation Zrotation
        JOINT Head
        {
          OFFSET -1.192129 7.757112 -7.601908
          CHANNELS 3 Xrotation Yrotation Zrotation
          End Site
          {
            OFFSET -0.357639 2.327134 -2.280572
          }
        }
      }
      JOINT LeftShoulder
      {
        OFFSET 17.192089 0.613400 -1.554494
        CHANNELS 3 Xrotation Yrotation Zrotation
        JOINT LeftArm
        {
          OFFSET 6.822346 -20.001605 -11.416031
          CHANNELS 3 Xrotation Yrotation Zrotation
          JOINT LeftForeArm
          {
            OFFSET -10.811707 -3.287858 -20.004664
            CHANNELS 3 Xrotation Yrotation Zrotation
            JOINT LeftHand
            {
              OFFSET -2.972239 -0.032078 -2.791873
              CHANNELS 3 Xrotation Yrotation Zrotation
              End Site
              {
                OFFSET -0.891672 -0.009623 -0.837562
              }
            }
          }
        }
      }
      JOINT RightShoulder
      {
        OFFSET -17.192089 -0.613400 1.554494
        CHANNELS 3 Xrotation Yrotation Zrotation
        JOINT RightArm
        {
          OFFSET -7.078612 -20.128798 -9.457155
          CHANNELS 3 Xrotation Yrotation Zrotation
          JOINT RightForeArm
          {
            OFFSET 6.068787 -1.370308 -22.325569
            CHANNELS 3 Xrotation Yrotation Zrotation
            JOINT RightHand
            {
              OFFSET 2.627653 0.279547 -3.282648
              CHANNELS 3 Xrotation Yrotation Zrotation
              End Site
              {
                OFFSET 0.788296 0.083864 -0.984794
              }
            }
          }
        }
      }
    }
  }
  JOINT LeftUpLeg
  {
    OFFSET 11.367086 0.027478 -2.758015
    CHANNELS 3 Xrotation Yrotation Zrotation
    JOINT LeftLeg
    {
      OFFSET 2.451199 -39.057141 -4.768226
      CHANNELS 3 Xrotation Yrotation Zrotation
      JOINT LeftFoot
      {
        OFFSET 10.058204 -39.973237 0.774249
        CHANNELS 3 Xrotation Yrotation Zrotation
        End Site
        {
          OFFSET 3.017461 -11.991971 0.232275
        }
      }
    }
  }
  JOINT RightUpLeg
  {
    OFFSET -11.367086 -0.027478 2.758015
    CHANNELS 3 Xrotation Yrotation Zrotation
    JOINT RightLeg
    {
      OFFSET -4.668361 -37.080477 -5.635053
      CHANNELS 3 Xrotation Yrotation Zrotation
      JOINT RightFoot
      {
        OFFSET -2.542494 -41.040053 5.594103
        CHANNELS 3 Xrotation Yrotation Zrotation
        End Site
        {
          OFFSET -0.762748 -12.312016 1.678231
        }
      }
    }
  }
}
MOTION
Frames: 96
Frame Time: 0.083333
0.449750 60.631218 -0.612862 -0.697435 0.072172 0.388394 0.000000 0.000000 0.000000 0.352165 -0.273145 -0.732244 0.049268 -0.202876 0.003330 5.000000 0.000000 0.000000 2.134006 0.520733 0.727072 5.895955 -1.000450 -1.154307 0.000000 0.000000 0.000000 0.000000 0.000000 0.000000 1.197083 -0.093537 0.279394 2.056792 -0.027777 0.136927 0.000000 0.000000 0.000000 0.000000 0.000000 0.000000 0.103718 -0.126579 -0.595338 -1.317609 -0.499005 0.379567 0.000000 0.000000 0.000000 -2.391730 0.364468 -0.409917 1.745768 -0.454428 -0.866827 0.000000 0.000000 0.000000
0.900782 61.171599 -1.153416 -0.696426 0.072060 0.387906 0.000000 0.000000 0.000000 0.344338 -0.283232 -0.751852 0.050550 -0.217908 0.000930 5.000000 0.000000 0.000000 2.059838 0.528660 0.806551 5.083872 -0.949739 -1.101096 0.000000 0.000000 0.000000 0.000000 0.000000 0.000000 1.389209 -0.090687 0.215232 1.584119 0.060153 0.242049 0.000000 0.000000 0.000000 0.000000 0.000000 0.000000 -0.013625 -0.128646 -0.275649 -1.357933 -0.425624 0.199873 0.000000 0.000000 0.000000 -2.144393 0.324586 -0.466232 1.464930 -0.380959 -0.566587 0.000000 0.000000 0.000000
1.803448 61.863223 -1.882396 -0.696430 0.072041 0.387790 0.000000 0.000000 0.000000 0.344338 -0.283513 -0.752443 0.050626 -0.218365 0.000870 5.000000 0.000000 0.000000 5.600364 1.547209 2.648483 12.206637 -2.508389 -3.018619 0.000000 0.000000 0.000000 0.000000 0.000000 0.000000 4.491161 -0.062978 0.349915 3.039039 0.253497 1.157304 61.274006 -38.618738 30.376591 0.000000 0.000000 0.000000 -0.278139 -0.376387 0.278102 -3.916907 -0.910447 0.506131 0.000000 0.000000 0.000000 -5.450931 0.827723 -1.526938 3.333216 -0.886683 -0.700829 0.000000 0.000000 0.000000
2.765996 61.446303 -1.652618 -1.294159 0.154744 0.856547 0.000000 0.000000 0.000000 0.441234 -0.837260 -2.130642 0.095965 -0.871687 -0.089092 5.000000 0.000000 0.000000 7.520164 2.413062 4.842435 13.058341 -3.253416 -4.209780 0.000000 0.000000 0.000000 0.000000 0.000000 0.000000 7.799330 0.737223 -0.415005 0.974631 0.119458 3.220983 0.000000 0.000000 0.000000 0.000000 0.000000 0.000000 -0.192360 -0.584275 3.112831 -6.255782 -0.436147 1.121830 0.000000 0.000000 0.000000 -6.620520 1.064685 -3.062083 2.938823 -0.922055 1.349609 0.000000 0.000000 0.000000
3.757325 59.777400 -0.294435 -0.529289 0.100739 0.602086 0.000000 0.000000 0.000000 -0.446714 -1.404389 -3.241291 0.109460 -1.954868 -0.322623 5.000000 0.000000 0.000000 7.638702 3.154434 5.974768 14.776592 -3.725908 -4.376316 0.000000 0.000000 0.000000 0.000000 0.000000 0.000000 9.248066 2.213235 -1.571491 -0.759368 -1.246345 5.459151 68.091072 -18.800691 54.065979 0.000000 0.000000 0.000000 3.833542 -0.707734 5.718250 -9.975402 0.732817 2.471226 0.000000 0.000000 0.000000 -7.541638 1.407908 -5.308419 1.940085 -1.313406 3.381594 0.000000 0.000000 0.000000
4.529111 57.993907 1.245803 -0.719232 0.011652 0.039165 0.000000 0.000000 0.000000 -0.197812 -1.830454 -3.874633 0.384504 -2.617029 -0.360807 5.000000 0.000000 0.000000 6.415831 4.490190 4.544712 19.692723 -4.854881 -2.316342 0.000000 0.000000 0.000000 0.000000 0.000000 0.000000 10.155106 1.574172 -0.329785 -1.161749 -1.085026 4.867352 0.000000 0.000000 0.000000 0.000000 0.000000 0.000000 13.052012 -0.768694 7.817416 -18.914163 2.038057 -0.742670 0.000000 0.000000 0.000000 -8.935377 1.774094 -8.523570 -0.574271 -2.329208 4.893468 0.000000 0.000000 0.000000
4.756200 57.325227 1.837229 -1.190066 -0.068065 -0.466524 0.000000 0.000000 0.000000 1.091688 -1.830848 -4.066519 0.712882 -2.780282 -0.390685 5.000000 0.000000 0.000000 2.389371 6.105537 0.879858 27.927822 -4.786320 2.228060 0.000000 0.000000 0.000000 0.000000 0.000000 0.000000 8.697918 -1.226184 6.385181 1.070604 0.855483 -1.255288 0.000000 0.000000 0.000000 0.000000 0.000000 0.000000 21.581746 -0.577417 8.605911 -25.792235 3.208650 -1.402728 0.000000 0.000000 0.000000 -10.989967 1.964031 -9.557253 -4.809741 -3.775974 3.809410 0.000000 0.000000 0.000000
4.523697 57.896346 1.347849 -1.463879 -0.154012 -1.014424 0.000000 0.000000 0.000000 1.721367 -1.950214 -4.249412 1.110506 -3.114891 -0.558543 5.000000 0.000000 0.000000 0.743555 6.244481 -0.451688 29.307486 -4.263930 3.734587 0.000000 0.000000 0.000000 0.000000 0.000000 0.000000 9.085856 -3.509482 10.486510 3.780970 2.354070 -5.445732 0.000000 0.000000 0.000000 0.000000 0.000000 0.000000 18.521162 -0.136195 9.459361 -24.685024 2.790001 -0.998491 0.000000 0.000000 0.000000 -9.881854 2.136973 -10.538515 -7.928285 -4.272537 7.434139 0.000000 0.000000 0.000000
4.163462 58.697038 0.676783 -0.270787 -0.320767 -2.114474 0.000000 0.000000 0.000000 0.442402 -1.881798 -3.221966 1.081813 -3.271741 -0.640748 5.000000 0.000000 0.000000 1.995653 5.091463 0.842444 26.072152 -3.738443 1.685519 0.000000 0.000000 0.000000 0.000000 0.000000 0.000000 8.523050 -1.194063 5.752836 1.149287 0.839333 -1.086117 0.000000 0.000000 0.000000 0.000000 0.000000 0.000000 10.504502 0.236311 11.752480 -20.480650 2.167893 -0.446916 0.000000 0.000000 0.000000 -5.816455 2.443334 -11.101630 -10.907607 -4.914420 11.663706 0.000000 0.000000 0.000000
3.905390 58.853026 0.521197 1.189883 -0.588136 -4.016939 0.000000 0.000000 0.000000 -1.316375 -1.501821 -0.589747 0.506741 -2.891733 -0.320532 5.000000 0.000000 0.000000 6.018878 4.134989 3.515971 21.962342 -3.664368 -2.119498 0.000000 0.000000 0.000000 0.000000 0.000000 0.000000 6.830047 0.592242 2.157506 -0.024279 -0.326096 1.707819 0.000000 0.000000 0.000000 0.000000 0.000000 0.000000 4.783205 -0.076436 12.079558 -17.207372 1.831349 1.267974 0.000000 0.000000 0.000000 -5.401656 2.579253 -11.879879 -8.032364 -5.047961 11.573820 0.000000 0.000000 0.000000
3.556212 58.086275 1.018550 3.099376 -0.568994 -4.214054 0.000000 0.000000 0.000000 -3.503587 -1.371565 0.488692 -0.093467 -2.446848 -0.081206 5.000000 0.000000 0.000000 7.987873 3.138692 4.268205 8.983292 -3.814605 -3.092874 0.000000 0.000000 0.000000 0.000000 0.000000 0.000000 5.007743 1.327819 0.020368 -3.112698 -0.875657 2.634731 0.000000 0.000000 0.000000 0.000000 0.000000 0.000000 1.644569 -0.506822 11.127225 -16.818020 1.717236 1.972219 0.000000 0.000000 0.000000 -7.633945 2.490214 -13.773728 -7.749916 -5.586082 10.298647 0.000000 0.000000 0.000000
2.737673 57.174347 1.544072 4.272419 -0.392488 -2.955349 0.000000 0.000000 0.000000 -4.806613 -1.099223 0.309534 -0.524692 -1.837041 0.030307 5.000000 0.000000 0.000000 6.162124 1.264840 2.407968 -1.761905 -2.823828 -2.158144 0.000000 0.000000 0.000000 0.000000 0.000000 0.000000 -0.338898 0.833855 0.520981 -2.846994 -0.828957 -0.123136 0.000000 0.000000 0.000000 0.000000 0.000000 0.000000 -1.007910 -0.957297 8.745383 -15.640915 1.717395 2.493056 0.000000 0.000000 0.000000 -9.485823 2.641254 -18.170054 -7.930324 -5.784471 12.686822 0.000000 0.000000 0.000000
1.351525 56.843928 1.568167 5.034795 -0.070208 -0.085947 0.000000 0.000000 0.000000 -5.272033 -0.182085 -0.460943 -0.639404 -0.142327 0.355541 5.000000 0.000000 0.000000 1.254525 -0.493014 -1.167700 -1.694398 -0.653967 -0.234367 -66.970779 -35.708200 63.587226 0.000000 0.000000 0.000000 -8.207541 0.774407 2.846840 6.926714 -0.952914 -4.419714 45.391636 0.426702 32.734221 0.000000 0.000000 0.000000 -3.502717 -1.340449 6.998333 -11.473210 2.025627 3.477841 0.000000 0.000000 0.000000 -8.541377 2.875267 -22.369469 -7.489822 -5.233222 17.679138 0.000000 0.000000 0.000000
-0.174700 57.599496 0.711340 5.930808 0.254004 2.838445 0.000000 0.000000 0.000000 -6.030655 0.632286 -1.302600 -0.329281 1.352777 0.496842 5.000000 0.000000 0.000000 -1.301766 -0.535325 -3.180487 -0.278963 0.355634 1.324823 0.000000 0.000000 0.000000 0.000000 0.000000 0.000000 -8.037259 0.272663 3.404573 6.169132 -0.468840 -5.478709 0.000000 0.000000 0.000000 0.000000 0.000000 0.000000 -2.809759 -1.893424 7.629923 -5.571634 2.582487 2.955725 0.000000 0.000000 0.000000 -5.357605 2.805915 -22.631629 -5.805502 -3.806644 21.159100 0.000000 0.000000 0.000000
-1.447541 59.147569 -0.668430 4.619912 0.511112 4.792510 0.000000 0.000000 0.000000 -4.763354 0.653749 -2.893125 -0.121829 1.462769 0.387430 5.000000 0.000000 0.000000 2.557288 -0.485551 -0.880322 -0.321394 1.175353 -1.054483 0.000000 0.000000 0.000000 0.000000 0.000000 0.000000 -3.393267 -0.395425 1.713914 5.901534 1.220342 -3.307499 50.704011 -50.531509 1.537918 0.000000 0.000000 0.000000 -2.012961 -2.190273 6.999362 -0.364147 2.411429 2.311058 0.000000 0.000000 0.000000 -11.235236 2.954516 -17.596596 0.900550 -1.273417 19.216226 0.000000 0.000000 0.000000
-2.448492 60.868337 -2.040979 4.003601 0.676587 5.862180 0.000000 0.000000 0.000000 -4.845684 0.393715 -4.311869 -0.528794 1.041029 0.167256 5.000000 0.000000 0.000000 7.291434 -1.265900 2.344295 0.568225 1.683971 -4.565588 0.000000 0.000000 0.000000 0.000000 0.000000 0.000000 2.088824 -1.539561 0.721975 8.901197 2.727440 -1.881781 0.000000 0.000000 0.000000 0.000000 0.000000 0.000000 -0.474770 -1.917613 0.890150 3.016919 1.774028 3.420746 0.000000 0.000000 0.000000 -18.185393 3.349939 -10.329017 11.876020 -0.218328 8.513507 0.000000 0.000000 0.000000
-3.426135 61.681653 -2.600959 2.697492 0.909035 7.085867 0.000000 0.000000 0.000000 -4.917985 0.159010 -5.581839 -1.047875 0.819477 -0.038617 5.000000 0.000000 0.000000 9.121510 -1.876468 2.830723 0.982142 2.400856 -5.889753 0.000000 0.000000 0.000000 0.000000 0.000000 0.000000 1.430577 -1.768406 0.927704 11.480936 2.894012 -2.653231 0.000000 0.000000 0.000000 0.000000 0.000000 0.000000 -1.140337 -0.893376 -6.651405 4.846305 1.231192 6.016080 0.000000 0.000000 0.000000 -16.832757 3.086553 -9.069835 13.379717 -0.577403 7.160282 0.000000 0.000000 0.000000
-4.446879 61.352360 -2.320109 1.690818 0.989175 7.164687 0.000000 0.000000 0.000000 -4.194635 0.285811 -5.024035 -0.984984 1.292455 -0.009289 5.000000 0.000000 0.000000 9.949468 -1.605374 1.114560 0.009955 2.197798 -5.023761 0.000000 0.000000 0.000000 0.000000 0.000000 0.000000 -2.671349 -2.155030 4.071060 9.993124 3.194554 -7.162860 0.000000 0.000000 0.000000 0.000000 0.000000 0.000000 -0.606839 -0.663479 -8.639727 6.139413 1.347119 6.504427 0.000000 0.000000 0.000000 -17.309354 3.108861 -9.144194 13.995572 -0.607922 7.067909 0.000000 0.000000 0.000000
-5.557038 60.538605 -1.798186 0.459107 0.978256 6.468673 0.000000 0.000000 0.000000 -2.770813 0.514461 -3.416204 -0.593132 2.155542 0.251199 5.000000 0.000000 0.000000 7.145366 -0.924177 -1.815932 3.557453 1.634835 -2.723176 0.000000 0.000000 0.000000 0.000000 0.000000 0.000000 -7.561268 -2.582279 8.603850 13.511231 3.615691 -12.384665 0.000000 0.000000 0.000000 0.000000 0.000000 0.000000 -0.935102 -0.511803 -7.257481 6.496892 1.365960 8.002381 0.000000 0.000000 0.000000 -20.779874 3.667809 -7.596812 14.817893 -0.729733 6.740451 0.000000 0.000000 0.000000
-6.708338 60.290766 -1.760509 0.984157 0.808940 5.569158 0.000000 0.000000 0.000000 -2.534642 0.855530 -2.042899 -0.044376 2.948503 0.777953 5.000000 0.000000 0.000000 3.532753 -0.155203 -4.714415 10.022167 0.374026 0.204342 0.000000 0.000000 0.000000 0.000000 0.000000 0.000000 -4.655678 -2.997394 6.274320 14.342372 3.881487 -9.620010 0.000000 0.000000 0.000000 0.000000 0.000000 0.000000 -0.440060 -0.409604 -6.166986 6.969395 1.375990 11.698094 0.000000 0.000000 0.000000 -19.383643 3.224982 -5.642014 13.768325 -0.413538 8.839957 0.000000 0.000000 0.000000
-7.896392 60.868360 -2.190920 1.007447 0.663434 4.666966 0.000000 0.000000 0.000000 -2.672894 0.940014 -1.246634 0.079552 2.697798 0.612199 5.000000 0.000000 0.000000 2.149288 1.012888 -7.297609 12.926241 0.433524 3.025928 0.000000 0.000000 0.000000 0.000000 0.000000 0.000000 -2.846035 -2.306332 3.105547 12.131466 4.096665 -6.231357 0.000000 0.000000 0.000000 0.000000 0.000000 0.000000 -0.323889 -0.161906 -5.627801 6.527582 1.070159 15.532966 0.000000 0.000000 0.000000 -15.804013 2.440515 1.860689 15.837266 -2.118542 5.124906 0.000000 0.000000 0.000000
-8.896429 61.674962 -2.669412 -0.447585 0.427656 2.860658 0.000000 0.000000 0.000000 -1.416558 0.980131 0.426929 0.383146 2.723576 0.745565 5.000000 0.000000 0.000000 2.503742 3.502815 -10.831680 17.161820 0.122280 7.124974 0.000000 0.000000 0.000000 0.000000 0.000000 0.000000 -2.246122 -0.395417 -0.293763 13.308791 2.778007 -1.879724 -75.908716 -37.861814 -38.732652 0.000000 0.000000 0.000000 0.111493 0.566900 -7.207998 6.233072 1.178831 15.946580 0.000000 0.000000 0.000000 -11.315876 1.426591 9.779172 19.657449 -4.236280 1.612327 0.000000 0.000000 0.000000
-9.684230 62.043902 -2.898219 -2.449309 0.015644 -0.082755 0.000000 0.000000 0.000000 -0.011927 1.011303 2.898640 0.766128 3.297642 1.562950 5.000000 0.000000 0.000000 1.489387 3.400125 -10.840159 13.893626 0.563843 7.515861 0.000000 0.000000 0.000000 0.000000 0.000000 0.000000 -2.486392 0.723641 -2.135238 13.005675 2.216329 0.336772 -64.245717 1.011164 -44.073774 0.000000 0.000000 0.000000 -0.431764 1.809346 -12.523213 7.410992 2.231906 13.922472 0.000000 0.000000 0.000000 -10.269500 0.936314 11.463457 18.599616 -3.543626 4.488403 0.000000 0.000000 0.000000
-10.378951 61.505086 -2.418710 -1.309543 -0.295875 -1.840625 0.000000 0.000000 0.000000 -1.219497 1.174172 4.399208 0.432357 3.321920 1.671557 5.000000 0.000000 0.000000 -2.151318 1.926706 -11.007973 11.937024 2.423516 7.407896 0.000000 0.000000 0.000000 0.000000 0.000000 0.000000 -3.488765 1.578488 -3.842104 11.175107 1.597051 1.693930 0.000000 0.000000 0.000000 0.000000 0.000000 0.000000 -0.292884 2.907256 -18.587618 8.751214 3.665014 13.335425 0.000000 0.000000 0.000000 -11.457114 0.907467 8.827030 17.600539 -2.697798 3.954803 0.000000 0.000000 0.000000
-10.999182 60.626940 -1.563331 0.484481 -0.291721 -1.900273 0.000000 0.000000 0.000000 -2.879687 1.211302 4.653653 0.072331 3.167549 1.391916 5.000000 0.000000 0.000000 -4.731897 1.781793 -12.224408 10.497464 3.479508 8.711675 0.000000 0.000000 0.000000 0.000000 0.000000 0.000000 -5.270123 2.617751 -5.023191 11.185911 1.080921 2.929757 0.000000 0.000000 0.000000 0.000000 0.000000 0.000000 -3.185624 3.051234 -21.678700 8.162085 3.342009 15.788026 0.000000 0.000000 0.000000 -12.980298 0.892584 5.332980 17.197606 -1.796063 7.373079 0.000000 0.000000 0.000000
-11.392399 60.342505 -1.229316 2.911652 -0.258495 -1.809057 0.000000 0.000000 0.000000 -4.926275 1.112142 4.530438 0.366177 3.176778 1.506034 5.000000 0.000000 0.000000 -2.547227 4.538074 -15.524028 14.741898 2.426260 12.411528 0.000000 0.000000 0.000000 0.000000 0.000000 0.000000 -3.891184 1.972326 -3.982085 13.242130 1.538536 2.418052 -66.765553 3.396376 -45.336278 0.000000 0.000000 0.000000 -2.905117 2.895164 -21.862207 7.705137 2.629336 19.418213 0.000000 0.000000 0.000000 -11.168640 0.992087 2.588622 15.237451 -0.673024 11.232385 0.000000 0.000000 0.000000
-11.533784 60.910388 -1.752971 2.025845 -0.246657 -1.672928 0.000000 0.000000 0.000000 -4.231347 1.012603 4.153049 0.391974 2.842304 1.300160 5.000000 0.000000 0.000000 -1.265154 6.374038 -17.401472 20.989352 1.863060 14.394793 0.000000 0.000000 0.000000 0.000000 0.000000 0.000000 -3.302333 1.515347 -3.992213 15.214095 1.718974 2.639361 0.000000 0.000000 0.000000 0.000000 0.000000 0.000000 -4.589846 2.368019 -19.181631 7.745479 2.481436 17.915402 0.000000 0.000000 0.000000 -12.277151 0.848553 4.035367 15.465486 -1.005587 9.849738 0.000000 0.000000 0.000000
-11.548882 61.476051 -2.295021 3.098345 -0.248071 -1.753892 0.000000 0.000000 0.000000 -4.740356 1.028590 4.267467 0.232175 2.792417 1.277870 5.000000 0.000000 0.000000 1.131030 7.058565 -16.930894 20.921952 0.363288 13.834320 0.000000 0.000000 0.000000 0.000000 0.000000 0.000000 -1.348181 0.577622 -4.406742 16.859695 2.085933 2.908863 0.000000 0.000000 0.000000 0.000000 0.000000 0.000000 -7.411887 1.723068 -15.820528 8.263790 2.642573 16.126722 0.000000 0.000000 0.000000 -14.895425 0.681017 6.243340 16.263384 -1.574964 7.878252 0.000000 0.000000 0.000000
-11.501888 61.301332 -2.159983 5.091970 -0.264953 -2.006522 0.000000 0.000000 0.000000 -6.395224 1.126195 4.826873 0.081220 2.909997 1.239751 5.000000 0.000000 0.000000 2.144808 6.464667 -15.782503 20.497337 0.062692 12.520764 0.000000 0.000000 0.000000 0.000000 0.000000 0.000000 -1.241166 0.721760 -4.426801 21.507968 1.777788 3.305068 0.000000 0.000000 0.000000 0.000000 0.000000 0.000000 -7.358265 1.442771 -13.465971 8.265635 2.530324 13.743915 0.000000 0.000000 0.000000 -16.078140 0.859168 6.259176 16.652373 -1.759471 7.191675 0.000000 0.000000 0.000000
-11.353372 60.486054 -1.411611 5.089386 -0.236109 -1.772345 0.000000 0.000000 0.000000 -7.012301 1.107314 4.659867 -0.071808 2.735819 0.960949 5.000000 0.000000 0.000000 3.627114 6.100126 -13.591659 17.523408 -1.014946 10.745960 0.000000 0.000000 0.000000 0.000000 0.000000 0.000000 -1.973355 0.952645 -3.006440 19.226360 0.976666 2.017419 0.000000 0.000000 0.000000 0.000000 0.000000 0.000000 -5.833291 1.200018 -11.500966 7.717486 2.110253 11.348226 0.000000 0.000000 0.000000 -16.778953 1.281168 5.260627 15.584058 -1.680759 6.065620 0.000000 0.000000 0.000000
-11.125851 59.780897 -0.738028 4.434156 -0.068481 -0.391479 0.000000 0.000000 0.000000 -6.821781 0.858680 2.833318 -0.377510 2.134603 0.612080 5.000000 0.000000 0.000000 4.359645 6.077851 -11.872592 14.268377 -2.489564 9.762787 0.000000 0.000000 0.000000 0.000000 0.000000 0.000000 -2.831849 1.411198 -1.530520 14.309693 0.158987 0.725869 0.000000 0.000000 0.000000 0.000000 0.000000 0.000000 -2.603058 1.027363 -11.357740 7.178855 1.783852 12.290874 0.000000 0.000000 0.000000 -16.963657 1.955652 2.953201 15.107637 -1.612357 5.722727 0.000000 0.000000 0.000000
-10.893381 59.678574 -0.550981 2.578271 0.204048 1.617203 0.000000 0.000000 0.000000 -5.275938 0.418398 0.101777 -0.681191 1.387141 0.320602 5.000000 0.000000 0.000000 4.389153 7.167666 -12.544887 15.183976 -3.278931 10.931647 0.000000 0.000000 0.000000 0.000000 0.000000 0.000000 -3.561617 0.146807 2.280524 14.604775 0.999187 -2.957336 -63.989314 2.492771 -41.811742 0.000000 0.000000 0.000000 -0.218019 0.829514 -11.435192 6.567910 1.660286 10.118429 0.000000 0.000000 0.000000 -16.933515 2.351366 1.382601 14.626617 -1.480261 5.543979 0.000000 0.000000 0.000000
-10.710527 59.948554 -0.683392 0.848217 0.359262 2.471944 0.000000 0.000000 0.000000 -2.954969 0.149887 -1.106631 -0.427409 1.116419 0.301957 5.000000 0.000000 0.000000 3.406137 7.472478 -13.189973 17.005177 -2.268523 11.678418 0.000000 0.000000 0.000000 0.000000 0.000000 0.000000 -4.436038 -1.530582 6.704109 16.160402 1.902254 -7.469181 0.000000 0.000000 0.000000 0.000000 0.000000 0.000000 -0.400730 0.787900 -9.314415 6.047432 1.594388 6.491971 0.000000 0.000000 0.000000 -18.014708 2.388797 0.732722 13.493278 -0.729505 8.076892 0.000000 0.000000 0.000000
-10.436296 60.275665 -0.941348 1.201251 0.246362 1.742430 0.000000 0.000000 0.000000 -2.765132 0.203852 -0.482030 -0.177326 1.129506 0.383544 5.000000 0.000000 0.000000 4.444183 6.754569 -11.973121 18.645011 -1.768119 9.913677 0.000000 0.000000 0.000000 0.000000 0.000000 0.000000 -4.631464 -3.081990 9.837236 18.439960 2.129091 -11.047674 0.000000 0.000000 0.000000 0.000000 0.000000 0.000000 -1.256045 0.917245 -7.785866 5.725693 1.532149 4.761968 0.000000 0.000000 0.000000 -18.535826 2.174233 0.149108 12.967266 0.185208 12.240538 0.000000 0.000000 0.000000
-9.976834 60.509461 -1.244263 2.021778 0.075643 0.658122 0.000000 0.000000 0.000000 -3.588309 0.492835 0.952790 -0.279969 1.243397 0.294040 5.000000 0.000000 0.000000 6.445684 5.705710 -9.342251 18.818464 -2.338238 6.901607 0.000000 0.000000 0.000000 0.000000 0.000000 0.000000 -4.365009 -3.191378 9.889401 20.178574 1.222363 -11.078929 -75.489252 -35.634150 -37.485128 0.000000 0.000000 0.000000 -0.781960 0.879363 -8.045621 5.589802 1.506022 4.655511 0.000000 0.000000 0.000000 -17.709123 2.064771 0.786832 13.531086 -0.132015 11.537497 0.000000 0.000000 0.000000
-9.372953 60.594654 -1.477622 1.817803 0.113791 0.809218 0.000000 0.000000 0.000000 -3.674660 0.485938 0.943630 -0.355784 1.015646 0.002106 5.000000 0.000000 0.000000 6.641179 4.130788 -7.057030 15.325120 -2.848332 4.507806 0.000000 0.000000 0.000000 0.000000 0.000000 0.000000 -4.630277 -3.668173 12.186866 20.315723 0.872715 -13.456930 0.000000 0.000000 0.000000 0.000000 0.000000 0.000000 4.646170 0.602781 -9.343903 5.296787 1.561327 6.716951 0.000000 0.000000 0.000000 -15.200105 2.175492 0.499701 17.226899 -1.409999 8.601363 0.000000 0.000000 0.000000
-8.738689 60.510726 -1.579280 -1.256289 0.401981 2.143654 0.000000 0.000000 0.000000 -1.266927 0.102819 -0.408261 -0.243210 0.725822 -0.247816 5.000000 0.000000 0.000000 5.313232 2.215816 -4.880643 11.186490 -1.902963 2.298106 0.000000 0.000000 0.000000 0.000000 0.000000 0.000000 -4.245260 -4.758560 14.786363 22.647420 0.251277 -15.989225 0.000000 0.000000 0.000000 0.000000 0.000000 0.000000 12.386780 0.010870 -9.486612 4.667856 1.755843 9.833884 0.000000 0.000000 0.000000 -14.051728 2.508867 -0.788811 19.390971 -2.480514 4.501812 0.000000 0.000000 0.000000
-8.059540 60.167672 -1.433708 -4.168284 0.795166 3.929101 0.000000 0.000000 0.000000 1.293658 -0.438721 -2.261767 -0.345404 0.507106 -0.386398 5.000000 0.000000 0.000000 5.076237 1.525417 -3.659163 12.886807 -1.574594 0.876955 0.000000 0.000000 0.000000 0.000000 0.000000 0.000000 -2.498528 -5.228305 13.505054 23.512033 0.705472 -14.687139 -77.753624 -29.052947 -35.189188 0.000000 0.000000 0.000000 13.364329 -0.759538 -5.517899 3.542043 1.630103 10.252446 0.000000 0.000000 0.000000 -16.313389 2.970125 -1.460896 19.969901 -3.013782 1.132895 0.000000 0.000000 0.000000
-7.213427 59.514535 -0.880767 -3.863882 0.816472 4.103997 0.000000 0.000000 0.000000 1.228014 -0.467803 -2.490519 -0.421454 0.582024 -0.290681 5.000000 0.000000 0.000000 4.800314 1.491518 -2.832484 16.474704 -1.738132 0.193601 0.000000 0.000000 0.000000 0.000000 0.000000 0.000000 -0.437790 -4.727973 11.001607 23.667102 1.045629 -11.609398 0.000000 0.000000 0.000000 0.000000 0.000000 0.000000 10.147667 -1.439737 -0.291844 2.816083 1.709603 7.660768 0.000000 0.000000 0.000000 -18.488960 3.165543 -3.227545 18.614146 -2.560451 0.281944 0.000000 0.000000 0.000000
-6.212520 58.958281 -0.283263 -2.687549 0.683057 3.647175 0.000000 0.000000 0.000000 0.178769 -0.474106 -2.503756 -0.407886 0.473101 -0.123644 5.000000 0.000000 0.000000 4.649735 2.612265 -3.009446 18.710620 -2.274232 1.197204 0.000000 0.000000 0.000000 0.000000 0.000000 0.000000 2.058041 -3.718232 8.019320 19.042592 2.624599 -7.981985 0.000000 0.000000 0.000000 0.000000 0.000000 0.000000 6.228437 -1.385481 2.738993 2.675146 1.791471 3.687335 0.000000 0.000000 0.000000 -20.681343 3.063847 -6.580715 17.663777 -1.413184 2.338827 0.000000 0.000000 0.000000
-5.301584 58.860624 -0.001532 -1.080583 0.467973 2.755493 0.000000 0.000000 0.000000 -1.244821 -0.592049 -2.502734 -0.328134 0.267761 0.196341 5.000000 0.000000 0.000000 3.807649 4.137947 -4.832367 21.414615 -2.149325 3.700992 0.000000 0.000000 0.000000 0.000000 0.000000 0.000000 3.084015 -2.314063 5.111448 17.303591 2.642304 -4.310262 0.000000 0.000000 0.000000 0.000000 0.000000 0.000000 4.322572 -0.807746 3.511669 2.943994 1.659596 1.833378 0.000000 0.000000 0.000000 -22.705391 2.827263 -7.230375 16.721840 -1.419740 0.956005 0.000000 0.000000 0.000000
-4.641170 59.254745 -0.173987 -0.514149 0.206590 1.248371 0.000000 0.000000 0.000000 -1.504437 -0.588116 -1.567882 -0.199857 0.385275 0.612944 5.000000 0.000000 0.000000 2.470173 5.004872 -6.142548 23.774407 -2.046452 5.499139 0.000000 0.000000 0.000000 0.000000 0.000000 0.000000 2.760424 -1.648181 4.432655 14.332218 2.542490 -3.249662 0.000000 0.000000 0.000000 0.000000 0.000000 0.000000 3.735363 -0.254714 2.499581 3.268429 1.545213 3.029431 0.000000 0.000000 0.000000 -24.740092 2.742657 -5.904604 15.819397 -1.672309 0.648475 0.000000 0.000000 0.000000
-4.111977 59.797747 -0.589060 0.154101 0.044001 0.275516 0.000000 0.000000 0.000000 -1.734890 -0.598218 -1.015821 -0.202100 0.290546 0.772359 5.000000 0.000000 0.000000 2.872064 5.509267 -6.733191 24.665995 -2.548661 6.212688 0.000000 0.000000 0.000000 0.000000 0.000000 0.000000 2.374614 -1.101111 4.370514 12.953902 1.898926 -3.136012 0.000000 0.000000 0.000000 0.000000 0.000000 0.000000 3.705978 0.207653 2.107938 3.000963 1.550320 3.116308 0.000000 0.000000 0.000000 -22.374772 2.306048 -3.343161 14.300017 -1.290590 2.908657 0.000000 0.000000 0.000000
-3.603388 60.203553 -1.034521 0.952355 -0.102876 -0.648459 0.000000 0.000000 0.000000 -3.020111 -0.610358 -0.177190 -0.263467 0.046379 0.625602 5.000000 0.000000 0.000000 3.275395 4.193231 -4.417983 23.135015 -2.942378 3.688315 0.000000 0.000000 0.000000 0.000000 0.000000 0.000000 2.627495 -1.103648 4.794856 12.115818 1.637248 -3.571211 0.000000 0.000000 0.000000 0.000000 0.000000 0.000000 5.761175 0.386027 1.120403 2.226562 1.869375 2.395755 0.000000 0.000000 0.000000 -18.879646 2.102351 -0.702845 12.829059 -1.573739 2.020045 0.000000 0.000000 0.000000
-3.163257 60.300748 -1.289720 1.639461 -0.059841 -0.345903 0.000000 0.000000 0.000000 -4.157757 -0.751167 -0.532161 -0.208445 -0.274537 0.372603 5.000000 0.000000 0.000000 4.243477 3.398278 -1.740958 20.611050 -3.238275 1.204179 0.000000 0.000000 0.000000 0.000000 0.000000 0.000000 4.553618 -1.902934 5.227724 9.518543 2.220602 -3.828308 0.000000 0.000000 0.000000 0.000000 0.000000 0.000000 10.556395 0.098677 0.742847 1.223723 2.505499 1.779470 0.000000 0.000000 0.000000 -19.295727 2.497987 2.326547 14.709929 -3.177185 -4.438303 0.000000 0.000000 0.000000
-2.762769 59.997174 -1.185500 0.863427 0.110874 0.788354 0.000000 0.000000 0.000000 -3.125957 -0.957614 -1.992053 -0.355552 -0.397348 0.472871 5.000000 0.000000 0.000000 5.095201 2.775621 0.544773 19.251079 -3.972127 -0.874828 30.414916 12.290569 -49.058088 0.000000 0.000000 0.000000 7.933579 -3.028932 5.686429 5.535128 3.179339 -4.090198 0.000000 0.000000 0.000000 0.000000 0.000000 0.000000 12.970082 -0.851495 2.114681 -1.801166 2.723380 2.073672 0.000000 0.000000 0.000000 -19.454096 2.837280 1.857573 14.601487 -3.637188 -5.946463 0.000000 0.000000 0.000000
-2.293125 59.112435 -0.456178 0.296638 0.293610 1.941265 0.000000 0.000000 0.000000 -2.632101 -1.291513 -3.547489 -0.448369 -0.787438 0.395128 5.000000 0.000000 0.000000 6.744287 1.355631 3.726176 19.704898 -3.349102 -4.127408 0.000000 0.000000 0.000000 0.000000 0.000000 0.000000 9.844483 -3.329093 5.450622 4.594826 2.829337 -3.555350 0.000000 0.000000 0.000000 0.000000 0.000000 0.000000 14.957020 -1.421947 5.376980 -6.359662 3.096301 3.044722 0.000000 0.000000 0.000000 -18.020656 2.633515 -0.448073 10.636321 -2.758471 -2.609260 0.000000 0.000000 0.000000
-1.864017 57.650438 0.906472 -0.608498 0.245166 1.517315 0.000000 0.000000 0.000000 -1.560466 -1.397704 -3.458691 -0.550249 -1.277404 0.196374 5.000000 0.000000 0.000000 15.545857 -4.661503 16.763907 14.147713 1.495471 -16.688342 0.000000 0.000000 0.000000 0.000000 0.000000 0.000000 14.808146 -3.989372 4.354985 -0.485820 2.992886 -1.001970 0.000000 0.000000 0.000000 0.000000 0.000000 0.000000 18.328383 -0.829521 7.899794 -14.019880 3.595335 3.387074 0.000000 0.000000 0.000000 -16.391004 2.205046 -4.640651 2.520109 -1.283702 4.862606 0.000000 0.000000 0.000000
-1.631443 56.354716 2.098451 -1.205293 -0.044639 -0.235813 0.000000 0.000000 0.000000 -0.037129 -1.372897 -2.736094 -0.665755 -2.087056 0.090699 5.000000 0.000000 0.000000 28.035064 -13.393499 33.973809 3.003749 11.014792 -31.878515 0.000000 0.000000 0.000000 0.000000 0.000000 0.000000 20.138965 -6.303412 5.991581 -9.976293 5.400389 0.364517 -27.516079 -34.564070 -14.357932 0.000000 0.000000 0.000000 25.928297 0.619121 10.543535 -22.583299 4.611451 3.343007 0.000000 0.000000 0.000000 -15.424593 1.818950 -5.331063 -4.347646 -1.685161 7.641073 0.000000 0.000000 0.000000
-1.727523 55.962456 2.392221 -2.439222 -0.519042 -3.002252 0.000000 0.000000 0.000000 2.692753 -1.076349 -1.533340 -0.812422 -3.263291 -0.096242 5.000000 0.000000 0.000000 25.186000 -8.450737 26.863092 6.390258 8.122003 -22.681086 0.000000 0.000000 0.000000 0.000000 0.000000 0.000000 19.878800 -10.702426 13.237217 -12.919034 9.597742 -4.749298 0.000000 0.000000 0.000000 0.000000 0.000000 0.000000 31.698160 1.612121 11.763805 -28.340105 5.454609 3.525966 0.000000 0.000000 0.000000 -17.373890 1.702567 -3.603060 -8.319830 -3.318520 3.322121 0.000000 0.000000 0.000000
-2.003056 56.420946 2.008821 -2.923228 -0.780750 -4.435576 0.000000 0.000000 0.000000 4.319961 -0.698260 -0.978544 -0.479859 -4.160757 -0.702314 5.000000 0.000000 0.000000 5.179424 0.485823 10.244972 28.980305 -5.797044 -9.601912 0.000000 0.000000 0.000000 0.000000 0.000000 0.000000 12.858168 -9.512030 16.082871 -2.460463 7.899153 -10.401202 0.000000 0.000000 0.000000 0.000000 0.000000 0.000000 25.630116 1.399641 11.176726 -25.541408 4.310794 5.847871 0.000000 0.000000 0.000000 -16.923837 1.631805 -5.333530 -9.733100 -3.064321 6.221117 0.000000 0.000000 0.000000
-2.486479 57.067245 1.462343 -1.789860 -0.713338 -4.232385 0.000000 0.000000 0.000000 2.180951 -1.000883 -0.544667 0.259002 -4.295316 -1.472548 5.000000 0.000000 0.000000 1.473104 6.662635 -4.498048 23.869752 -6.255013 6.440189 0.000000 0.000000 0.000000 0.000000 0.000000 0.000000 8.063065 -4.495643 8.253438 0.480712 4.041914 -4.473094 0.000000 0.000000 0.000000 0.000000 0.000000 0.000000 12.893795 0.601811 10.070740 -18.431187 2.534168 7.449185 0.000000 0.000000 0.000000 -18.951318 1.568744 -8.985094 -6.088515 -1.821819 12.558579 0.000000 0.000000 0.000000
-3.128014 57.466683 0.920861 -0.048651 -0.576044 -3.608218 0.000000 0.000000 0.000000 0.132644 -0.657435 0.494613 0.017836 -2.415745 -0.570555 5.000000 0.000000 0.000000 2.205893 5.744347 -7.251654 18.185249 -4.126408 7.105794 0.000000 0.000000 0.000000 0.000000 0.000000 0.000000 2.051180 0.504232 -1.169504 7.980385 0.650153 2.326551 0.000000 0.000000 0.000000 0.000000 0.000000 0.000000 1.322568 0.169802 5.353193 -10.670394 0.649648 10.401124 0.000000 0.000000 0.000000 -24.349500 1.814106 -9.806477 1.008132 -0.544534 13.010980 0.000000 0.000000 0.000000
-3.738057 57.621877 0.377289 2.971619 -0.317770 -2.073728 0.000000 0.000000 0.000000 -3.098704 0.021743 1.565437 -0.412427 0.308117 0.729902 5.000000 0.000000 0.000000 4.773154 3.103065 -6.692317 19.358515 -2.364067 3.137226 -40.587185 18.094723 14.189882 0.000000 0.000000 0.000000 -2.620533 0.503920 -2.732728 15.228763 0.914730 1.421601 0.000000 0.000000 0.000000 0.000000 0.000000 0.000000 -3.577293 0.547326 -4.150279 -3.448671 -0.381033 19.902668 0.000000 0.000000 0.000000 -29.864997 2.871255 -10.865542 10.100490 0.695236 11.479355 0.000000 0.000000 0.000000
-3.992024 57.692133 0.113674 4.788507 0.086277 1.215588 0.000000 0.000000 0.000000 -4.893440 0.939964 1.125607 0.003775 1.714669 0.438104 5.000000 0.000000 0.000000 11.294259 0.781488 -1.749748 15.923140 -1.640679 -3.797483 -48.203553 49.607702 27.039438 0.000000 0.000000 0.000000 -8.085513 -0.174280 0.743724 18.780367 1.253126 -3.525692 0.000000 0.000000 0.000000 0.000000 0.000000 0.000000 -7.467056 0.584353 -9.623388 1.885783 0.098706 26.443737 0.000000 0.000000 0.000000 -28.539602 4.108829 -12.541445 10.650623 0.505091 10.921282 0.000000 0.000000 0.000000
-3.980247 57.818695 0.031442 5.409916 0.408067 4.264097 0.000000 0.000000 0.000000 -4.937630 1.507312 -0.456598 0.540332 2.561057 0.556066 5.000000 0.000000 0.000000 17.206232 2.670560 -2.407204 9.924676 -2.057182 -3.044890 -45.900889 51.950764 26.531846 0.000000 0.000000 0.000000 -9.468491 -0.337286 1.808489 21.030351 0.832536 -4.909333 0.000000 0.000000 0.000000 0.000000 0.000000 0.000000 -7.142305 0.425739 -8.854792 4.985998 0.586839 26.257821 0.000000 0.000000 0.000000 -29.709473 4.579255 -11.913864 13.544910 0.137039 8.907919 0.000000 0.000000 0.000000
-3.771224 57.835816 0.124549 5.189963 0.478081 4.818761 0.000000 0.000000 0.000000 -4.667908 1.635055 -0.566982 0.861307 2.795676 0.632039 5.000000 0.000000 0.000000 14.702521 2.936518 -1.968748 9.265050 -1.462136 -2.317284 0.000000 0.000000 0.000000 0.000000 0.000000 0.000000 -5.723215 -2.019515 3.944565 17.027519 2.007485 -6.471711 -64.457177 2.869903 -40.762484 0.000000 0.000000 0.000000 -3.226779 -0.381509 -3.244514 6.466942 1.226641 18.319198 0.000000 0.000000 0.000000 -30.597433 4.653554 -9.893314 15.755447 -0.539688 5.917509 0.000000 0.000000 0.000000
-3.290559 57.443046 0.545730 2.869095 0.506147 4.232701 0.000000 0.000000 0.000000 -2.561448 0.895494 -1.246737 0.751562 2.062619 0.578918 5.000000 0.000000 0.000000 7.474890 2.617429 -0.696252 11.358830 -0.319207 -0.793324 0.000000 0.000000 0.000000 0.000000 0.000000 0.000000 -1.780567 -0.178224 2.642249 8.769369 -0.347333 -2.707648 0.000000 0.000000 0.000000 0.000000 0.000000 0.000000 5.066011 -1.142113 5.755104 -1.109454 2.513631 6.679743 0.000000 0.000000 0.000000 -28.264131 3.878100 -7.273076 11.341077 -1.869094 2.346857 0.000000 0.000000 0.000000
-2.641179 56.664085 1.411457 0.878538 0.258366 2.253899 0.000000 0.000000 0.000000 -1.218293 -0.242865 -2.220511 0.245523 0.118108 0.274086 5.000000 0.000000 0.000000 1.082984 7.196061 -3.494891 23.024483 -3.904275 6.756929 0.000000 0.000000 0.000000 0.000000 0.000000 0.000000 5.057909 2.024317 0.479481 -3.145757 -5.448232 3.204310 0.000000 0.000000 0.000000 0.000000 0.000000 0.000000 21.873295 -0.995708 12.548625 -14.203221 5.810222 1.402657 0.000000 0.000000 0.000000 -25.982498 2.632643 -2.160616 3.781988 -4.699742 -4.616060 0.000000 0.000000 0.000000
-2.101609 56.075176 2.073053 -2.414264 -0.305356 -1.900815 0.000000 0.000000 0.000000 1.265387 -1.780971 -2.448001 0.173630 -2.822987 -0.184199 5.000000 0.000000 0.000000 3.488941 11.645293 -2.531416 31.169912 -6.347995 8.590990 0.000000 0.000000 0.000000 0.000000 0.000000 0.000000 16.378068 -13.216985 20.329130 -0.391558 2.396658 -14.993761 106.191825 -55.011292 73.436783 0.000000 0.000000 0.000000 28.177918 0.454433 17.211964 -24.621891 8.245833 -1.328346 0.000000 0.000000 0.000000 -24.012667 1.420129 1.449165 -6.318816 -7.823763 -10.932970 0.000000 0.000000 0.000000
-1.768441 56.110968 2.198723 -1.612820 -0.879995 -5.705674 0.000000 0.000000 0.000000 1.307520 -2.449935 -1.623136 1.183347 -4.340660 -0.405776 5.000000 0.000000 0.000000 5.743585 11.679642 -2.475045 34.456706 -7.410370 7.204411 0.000000 0.000000 0.000000 0.000000 0.000000 0.000000 24.505043 -40.011254 50.534483 22.605930 26.948412 -47.101459 0.000000 0.000000 0.000000 0.000000 0.000000 0.000000 22.503641 2.108934 20.195767 -23.064479 7.424554 -3.006425 0.000000 0.000000 0.000000 -22.436602 -0.000760 4.076703 -11.799158 -8.818572 -12.428900 0.000000 0.000000 0.000000
-1.581300 56.908884 1.570764 1.948344 -1.309518 -9.394745 0.000000 0.000000 0.000000 -1.886602 -1.791758 3.071050 1.471721 -4.592218 -1.470689 5.000000 0.000000 0.000000 5.409329 11.154569 -2.963216 28.470454 -7.963491 7.782147 0.000000 0.000000 0.000000 0.000000 0.000000 0.000000 25.499943 -30.652816 35.734908 15.610417 24.805633 -33.552974 0.000000 0.000000 0.000000 0.000000 0.000000 0.000000 14.239921 1.707503 20.018781 -15.881456 5.140033 -4.020776 0.000000 0.000000 0.000000 -21.192453 -0.089853 2.901031 -5.422163 -6.155792 -6.554272 0.000000 0.000000 0.000000
-1.517753 57.932406 0.589806 2.678166 -1.288194 -9.596355 0.000000 0.000000 0.000000 -2.605349 -1.664006 3.855589 0.922044 -4.297981 -1.205268 5.000000 0.000000 0.000000 2.866247 6.803483 -1.778038 20.796083 -7.288616 4.967195 0.000000 0.000000 0.000000 0.000000 0.000000 0.000000 19.070443 -14.805922 17.164353 6.731642 13.328092 -14.856276 0.000000 0.000000 0.000000 0.000000 0.000000 0.000000 10.316945 0.990745 16.859825 -17.446907 3.670441 -2.239123 0.000000 0.000000 0.000000 -18.433319 0.623870 -0.414929 -2.594168 -2.828838 4.991170 0.000000 0.000000 0.000000
-1.553868 58.582781 -0.272705 3.175782 -1.026484 -7.599397 0.000000 0.000000 0.000000 -3.229320 -1.106150 3.454217 -0.172089 -3.103488 -0.458930 5.000000 0.000000 0.000000 4.757420 3.447528 0.260080 17.151279 -5.370091 -0.014744 0.000000 0.000000 0.000000 0.000000 0.000000 0.000000 12.814404 3.319925 -8.734341 -0.823980 -2.631164 10.751783 0.000000 0.000000 0.000000 0.000000 0.000000 0.000000 3.077629 0.068333 12.461063 -15.307460 2.242083 4.102060 0.000000 0.000000 0.000000 -19.016645 1.083437 -1.602598 3.933080 -0.037836 13.868924 0.000000 0.000000 0.000000
-1.532344 58.693217 -0.633837 6.554267 -0.591967 -5.207197 0.000000 0.000000 0.000000 -7.213059 -0.884220 3.413432 -0.779671 -0.418609 0.895238 5.000000 0.000000 0.000000 5.244879 2.250024 -4.162104 13.520638 -3.926119 1.155397 0.000000 0.000000 0.000000 0.000000 0.000000 0.000000 0.878250 2.526393 -7.599235 12.898492 -0.633057 6.952500 0.000000 0.000000 0.000000 0.000000 0.000000 0.000000 -3.319238 -0.285603 6.723415 -7.726612 1.152803 13.894025 0.000000 0.000000 0.000000 -28.861754 1.691048 -0.182720 15.261577 -0.564578 8.043287 0.000000 0.000000 0.000000
-1.277602 58.694971 -0.748472 8.646716 -0.236634 -2.163306 0.000000 0.000000 0.000000 -9.646410 0.429038 3.934116 -0.709777 1.399535 0.428021 5.000000 0.000000 0.000000 5.760486 2.587051 -7.650475 8.025693 -2.378525 3.202904 0.000000 0.000000 0.000000 0.000000 0.000000 0.000000 -5.505476 0.761413 -3.142689 14.167863 0.493188 0.261031 0.000000 0.000000 0.000000 0.000000 0.000000 0.000000 -2.829844 -0.332862 2.736215 -3.213750 1.014601 18.973759 0.000000 0.000000 0.000000 -31.746152 3.358739 -2.022035 15.028258 -1.270444 4.989836 0.000000 0.000000 0.000000
-0.764290 58.644891 -0.686319 7.810174 0.020248 0.926774 0.000000 0.000000 0.000000 -8.385199 1.555015 2.728725 -0.601350 2.686190 0.505096 5.000000 0.000000 0.000000 4.729535 2.940431 -6.833818 10.068539 -2.920419 3.760620 0.000000 0.000000 0.000000 0.000000 0.000000 0.000000 -2.206712 -0.465360 0.165012 12.042866 0.755330 -1.889343 0.000000 0.000000 0.000000 0.000000 0.000000 0.000000 4.269086 -0.520729 0.774917 -2.184341 1.092932 18.565557 0.000000 0.000000 0.000000 -30.946447 4.139076 -3.693762 12.485491 -1.537724 3.257862 0.000000 0.000000 0.000000
-0.105523 58.388991 -0.352278 5.853344 0.223329 2.579149 0.000000 0.000000 0.000000 -7.310598 0.893955 -0.322456 -0.807357 1.561276 0.240561 5.000000 0.000000 0.000000 3.396736 3.375685 -4.424181 16.794522 -4.028450 3.280296 0.000000 0.000000 0.000000 0.000000 0.000000 0.000000 4.582252 -2.295792 3.571330 7.295497 1.766268 -3.301654 62.829896 -31.685235 40.886582 0.000000 0.000000 0.000000 13.845974 -1.150921 1.465601 -6.354538 1.659268 14.752141 0.000000 0.000000 0.000000 -26.845511 4.020342 -4.038484 9.499930 -1.864575 1.567219 0.000000 0.000000 0.000000
0.448110 58.092079 0.007575 1.474245 0.388372 2.862992 0.000000 0.000000 0.000000 -3.696082 -0.522007 -2.973253 -0.779730 -0.897657 -0.577299 5.000000 0.000000 0.000000 0.396646 3.520578 -2.412712 27.720971 -4.103749 2.348794 0.000000 0.000000 0.000000 0.000000 0.000000 0.000000 6.435992 -2.253112 6.549608 5.555725 1.137292 -4.339591 0.000000 0.000000 0.000000 0.000000 0.000000 0.000000 19.672121 -1.427749 2.728813 -9.335289 2.213840 10.508220 0.000000 0.000000 0.000000 -24.251968 3.777817 -3.570132 7.861337 -2.513453 -0.758041 0.000000 0.000000 0.000000
0.724337 58.055187 0.093929 -2.091992 0.430339 2.373033 0.000000 0.000000 0.000000 -0.046002 -1.836325 -4.611908 -0.448012 -3.118316 -1.209072 5.000000 0.000000 0.000000 0.956650 5.001284 -3.159053 35.584680 -2.362691 3.077515 0.000000 0.000000 0.000000 0.000000 0.000000 0.000000 6.981557 -1.035358 6.854476 4.832487 -0.679700 -3.838480 0.000000 0.000000 0.000000 0.000000 0.000000 0.000000 20.864819 -1.094317 3.397601 -11.200973 2.364275 7.892870 0.000000 0.000000 0.000000 -23.012800 3.380210 -3.404990 9.001216 -2.715983 -1.249410 0.000000 0.000000 0.000000
0.730571 58.411005 -0.268911 -2.289167 0.309658 1.581929 0.000000 0.000000 0.000000 -0.828901 -2.351784 -4.677643 -0.480782 -2.820055 -0.241091 5.000000 0.000000 0.000000 0.541442 5.356313 -6.266062 32.240892 -1.837986 5.650881 0.000000 0.000000 0.000000 0.000000 0.000000 0.000000 5.757641 -1.310017 4.782004 3.525889 0.412721 -2.752910 -67.005531 12.404612 -45.136767 0.000000 0.000000 0.000000 12.831544 -0.432973 3.400592 -6.316625 2.018934 7.238459 0.000000 0.000000 0.000000 -23.378167 2.759125 -4.050257 9.979438 -1.202638 4.194115 0.000000 0.000000 0.000000
0.752443 58.835283 -0.876876 1.081976 0.095727 0.622256 0.000000 0.000000 0.000000 -3.391189 -1.349382 -2.456091 -0.779204 -0.908982 0.713697 5.000000 0.000000 0.000000 3.449974 4.890505 -7.898070 20.160414 -2.713877 5.655236 0.000000 0.000000 0.000000 0.000000 0.000000 0.000000 0.452114 -0.233714 -0.259708 9.467908 1.692497 0.174719 0.000000 0.000000 0.000000 0.000000 0.000000 0.000000 0.857682 0.151830 1.400966 0.806997 1.358699 10.681555 0.000000 0.000000 0.000000 -27.715864 2.572073 -4.873243 13.429963 0.281200 10.827808 0.000000 0.000000 0.000000
0.959272 59.152926 -1.187263 6.410292 -0.038551 0.197194 0.000000 0.000000 0.000000 -7.397082 0.258073 0.701496 -0.188813 2.163499 1.914333 5.000000 0.000000 0.000000 12.095066 8.698654 -11.878909 8.624878 -5.635542 6.200896 -50.051676 42.495112 35.424756 0.000000 0.000000 0.000000 -8.890251 2.701151 -5.825331 23.436255 0.810829 3.905148 -66.693806 5.339215 -40.373240 0.000000 0.000000 0.000000 -6.877164 0.778219 -3.901732 6.730562 1.364494 17.714058 0.000000 0.000000 0.000000 -30.768375 2.996939 -2.078717 18.705757 -1.124971 8.489121 0.000000 0.000000 0.000000
1.333659 59.298483 -1.471017 9.493377 -0.024432 1.098166 0.000000 0.000000 0.000000 -9.089399 1.739402 3.063371 1.535760 4.232555 2.657842 5.000000 0.000000 0.000000 23.124901 21.205910 -21.723367 4.800770 -11.537700 14.552352 1.357218 48.092003 115.435998 0.000000 0.000000 0.000000 -17.324504 4.911071 -7.731699 37.165643 3.033187 6.246951 0.000000 0.000000 0.000000 0.000000 0.000000 0.000000 -10.919727 1.880443 -14.502881 9.637416 2.405520 22.086475 0.000000 0.000000 0.000000 -28.616157 3.782988 1.210262 21.719072 -3.998401 5.823279 0.000000 0.000000 0.000000
1.679295 59.367354 -1.710597 10.894938 0.154455 4.295530 0.000000 0.000000 0.000000 -7.659728 2.567355 1.735108 2.874810 4.715854 3.596700 5.000000 0.000000 0.000000 16.676067 33.001140 -41.256253 26.336980 0.411588 37.973789 0.000000 0.000000 0.000000 0.000000 0.000000 0.000000 -24.170893 8.069057 -10.461524 51.306459 5.027828 10.805464 0.000000 0.000000 0.000000 0.000000 0.000000 0.000000 -11.807360 2.974812 -23.730556 11.339807 3.821728 22.026076 0.000000 0.000000 0.000000 -25.889123 4.035654 2.740121 27.059646 -5.719857 6.598264 0.000000 0.000000 0.000000
1.926759 59.308142 -1.741535 10.993403 0.276389 6.406350 0.000000 0.000000 0.000000 -6.005816 2.709407 0.514816 4.297537 4.925535 4.944773 5.000000 0.000000 0.000000 3.159860 27.648417 -48.682554 41.213448 27.392723 49.819135 0.000000 0.000000 0.000000 0.000000 0.000000 0.000000 -17.857212 5.311578 -10.313355 42.978938 4.290487 8.237806 33.299412 -57.963803 -7.151369 0.000000 0.000000 0.000000 -9.221144 1.592644 -12.354485 13.314885 3.073906 18.448499 0.000000 0.000000 0.000000 -30.915955 5.042868 -5.180450 27.613493 -2.748535 1.177271 0.000000 0.000000 0.000000
2.220376 59.007737 -1.192365 9.861834 0.249075 5.297669 0.000000 0.000000 0.000000 -4.602773 2.636645 2.194719 4.643452 4.864457 5.034781 5.000000 0.000000 0.000000 8.971968 20.740905 -31.766358 17.862597 4.947220 27.774591 0.000000 0.000000 0.000000 0.000000 0.000000 0.000000 -13.026460 4.541167 -11.036610 26.852568 2.588509 8.186839 0.000000 0.000000 0.000000 0.000000 0.000000 0.000000 -2.369143 0.626474 -2.000590 11.633683 2.799192 11.244872 0.000000 0.000000 0.000000 -33.712180 4.085249 -3.410804 20.659204 -2.592416 -0.554790 0.000000 0.000000 0.000000
2.580644 58.344850 -0.497255 7.536118 0.002986 1.649791 0.000000 0.000000 0.000000 -2.856762 2.151664 3.855551 3.314689 4.155848 4.062846 5.000000 0.000000 0.000000 19.757768 13.315961 -6.495443 0.938050 -12.422361 1.039084 0.000000 0.000000 0.000000 0.000000 0.000000 0.000000 -1.881925 0.788909 -8.280458 6.877527 2.173030 11.077751 41.290789 26.979481 46.988158 0.000000 0.000000 0.000000 10.606888 0.483436 6.063125 -0.155385 2.845454 3.875996 0.000000 0.000000 0.000000 -30.395078 2.464139 -1.645178 11.937623 -3.078089 -1.327230 0.000000 0.000000 0.000000
2.885523 57.523918 0.224857 2.286304 -0.294234 -1.900022 0.000000 0.000000 0.000000 1.750737 1.215179 3.258204 1.071891 1.851233 2.223763 5.000000 0.000000 0.000000 12.950040 7.310627 2.082835 14.900884 -8.951206 -1.404437 -63.681168 -7.362928 41.319910 0.000000 0.000000 0.000000 27.258316 -19.953484 6.272143 -9.838182 13.578777 11.018629 0.000000 0.000000 0.000000 0.000000 0.000000 0.000000 26.281918 1.591956 8.203964 -19.331700 3.257861 3.546958 0.000000 0.000000 0.000000 -26.998549 2.028693 -1.337629 1.296691 -4.730917 -4.239158 0.000000 0.000000 0.000000
2.999403 57.047281 0.613619 -1.055837 -0.508208 -3.316131 0.000000 0.000000 0.000000 4.588882 0.448553 0.809417 -0.698672 -1.697761 -0.303060 5.000000 0.000000 0.000000 12.081314 7.642489 3.716837 13.089155 -10.833808 -1.693944 0.000000 0.000000 0.000000 0.000000 0.000000 0.000000 37.712394 -49.759684 38.417562 -9.765425 36.195628 -11.474784 106.468251 -54.595080 84.344614 0.000000 0.000000 0.000000 22.809090 1.965230 10.800910 -24.284903 3.482856 1.976879 0.000000 0.000000 0.000000 -24.830689 1.042012 -0.510082 -8.261653 -6.108202 -6.203019 0.000000 0.000000 0.000000
2.969490 56.989469 0.651657 2.387037 -0.695443 -5.072772 0.000000 0.000000 0.000000 1.167425 0.028786 0.983028 -0.626575 -3.035790 -0.751934 5.000000 0.000000 0.000000 8.843027 8.912145 -0.534133 21.510268 -10.074779 2.728364 0.000000 0.000000 0.000000 0.000000 0.000000 0.000000 20.991744 -44.024756 49.163238 24.097346 27.548287 -47.419002 0.000000 0.000000 0.000000 0.000000 0.000000 0.000000 17.461547 1.772847 11.783075 -22.849110 3.022388 1.194239 0.000000 0.000000 0.000000 -22.328367 0.668554 -1.005488 -11.933534 -6.340817 -4.954949 0.000000 0.000000 0.000000
2.638027 57.360561 0.390170 4.046460 -0.733179 -5.837706 0.000000 0.000000 0.000000 -1.205957 -0.290128 1.939401 -0.791920 -2.892247 -0.504914 5.000000 0.000000 0.000000 2.963881 8.025079 -2.758043 28.652118 -6.264771 5.623335 0.000000 0.000000 0.000000 0.000000 0.000000 0.000000 22.769451 -28.442567 30.589737 8.302501 24.440797 -25.665475 0.000000 0.000000 0.000000 0.000000 0.000000 0.000000 9.573650 0.952674 11.390806 -16.146535 2.171112 1.851063 0.000000 0.000000 0.000000 -18.030899 0.859563 -3.265151 -12.272480 -4.563643 2.236313 0.000000 0.000000 0.000000
1.935386 57.908282 -0.029753 5.320762 -0.638789 -5.493025 0.000000 0.000000 0.000000 -3.457320 -1.012285 1.150334 -0.346056 -3.398553 -0.785642 5.000000 0.000000 0.000000 6.775629 6.910449 0.165927 21.791004 -7.138755 1.889078 0.000000 0.000000 0.000000 0.000000 0.000000 0.000000 17.827263 -13.066404 14.033023 4.697919 8.504765 -11.980384 0.000000 0.000000 0.000000 0.000000 0.000000 0.000000 6.636865 0.583886 10.619652 -11.675510 1.938194 3.135599 0.000000 0.000000 0.000000 -12.546186 1.394875 -6.440408 -8.867233 -2.405780 12.911542 0.000000 0.000000 0.000000
1.086405 58.308181 -0.429700 5.275104 -0.579321 -4.871982 0.000000 0.000000 0.000000 -4.051830 -0.953191 1.271333 -0.310988 -2.649842 -0.433388 5.000000 0.000000 0.000000 8.362596 4.730363 1.278400 18.726932 -5.991206 -1.096042 0.000000 0.000000 0.000000 0.000000 0.000000 0.000000 12.686378 0.508325 -5.174682 -1.551702 -0.873964 8.071793 42.797784 -2.722060 43.617896 0.000000 0.000000 0.000000 1.562516 0.182538 9.116584 -7.112532 1.662666 5.622763 0.000000 0.000000 0.000000 -11.867891 1.479120 -5.164055 -2.529600 -0.280218 16.921915 0.000000 0.000000 0.000000
0.522992 58.383258 -0.689227 7.050715 -0.459745 -4.091444 0.000000 0.000000 0.000000 -6.423009 -0.662834 2.096037 -0.127785 -0.933135 0.233424 5.000000 0.000000 0.000000 9.529944 2.175736 1.452793 13.809205 -3.165418 -3.620751 0.000000 0.000000 0.000000 0.000000 0.000000 0.000000 0.663119 2.499173 -6.054516 15.904189 0.215122 7.181227 0.000000 0.000000 0.000000 0.000000 0.000000 0.000000 -4.651409 0.137527 2.824030 -1.336170 0.804279 12.433292 0.000000 0.000000 0.000000 -21.561873 1.690268 -4.779455 6.962227 0.591222 14.098902 0.000000 0.000000 0.000000
0.343654 58.524103 -1.035798 8.939354 -0.176996 -1.388846 0.000000 0.000000 0.000000 -8.614990 0.043246 1.733316 -0.319469 0.689240 0.581056 5.000000 0.000000 0.000000 10.963456 0.433685 0.343138 6.975222 -0.329417 -5.047198 0.000000 0.000000 0.000000 0.000000 0.000000 0.000000 -5.443055 0.665559 -2.986874 22.690614 1.224925 1.605018 0.000000 0.000000 0.000000 0.000000 0.000000 0.000000 -6.831908 0.633664 -5.381499 3.269664 0.475974 21.291693 0.000000 0.000000 0.000000 -27.747742 3.433945 -6.873748 17.798434 0.318380 11.992780 0.000000 0.000000 0.000000
0.458186 58.756517 -1.370533 8.439363 0.149959 2.524164 0.000000 0.000000 0.000000 -7.117719 1.348394 0.540161 -0.139606 2.108939 0.567924 5.000000 0.000000 0.000000 16.634840 1.778232 -2.187548 0.086481 -0.151119 -4.069455 125.089825 52.548414 -127.498797 0.000000 0.000000 0.000000 -10.145203 -0.556089 0.869309 24.875399 1.245213 -4.075710 0.000000 0.000000 0.000000 0.000000 0.000000 0.000000 -6.688167 0.779523 -9.271865 7.912985 0.904684 25.124004 0.000000 0.000000 0.000000 -31.445974 5.208569 -8.351536 20.146551 -0.018689 10.612767 0.000000 0.000000 0.000000
0.941910 58.796825 -1.474936 7.571085 0.395105 5.260329 0.000000 0.000000 0.000000 -5.626190 2.076473 -0.287853 0.790899 3.304849 0.980686 5.000000 0.000000 0.000000 20.338034 -0.752290 3.336571 -15.959356 3.377740 -4.776947 0.000000 0.000000 0.000000 0.000000 0.000000 0.000000 -14.997677 1.470658 1.358442 17.173490 3.086828 -1.591173 0.000000 0.000000 0.000000 0.000000 0.000000 0.000000 -5.683012 0.733057 -8.848316 11.616374 1.337284 23.445026 0.000000 0.000000 0.000000 -35.140606 6.257032 -9.085960 20.532934 -0.330232 8.539125 0.000000 0.000000 0.000000
1.729488 58.510341 -1.217016 8.387668 0.429950 6.168849 0.000000 0.000000 0.000000 -6.550102 2.478209 -0.462040 1.631047 3.687187 1.428335 5.000000 0.000000 0.000000 0.963853 -5.963815 8.549905 -43.325471 10.330092 8.002578 0.000000 0.000000 0.000000 0.000000 0.000000 0.000000 -29.402740 8.970320 0.915551 -31.039843 9.389611 7.383931 0.000000 0.000000 0.000000 0.000000 0.000000 0.000000 -3.199407 0.229912 -6.957792 10.124103 1.378304 19.641407 0.000000 0.000000 0.000000 -34.976682 6.338453 -10.638859 19.646547 -0.533060 6.229394 0.000000 0.000000 0.000000
2.457967 58.144629 -0.833590 7.655763 0.494113 6.468611 0.000000 0.000000 0.000000 -5.695612 2.582219 -0.100919 3.540902 3.817167 2.490920 5.000000 0.000000 0.000000 -31.291763 -9.474221 7.802398 -46.976425 12.149473 22.241338 0.000000 0.000000 0.000000 0.000000 0.000000 0.000000 -31.409541 9.851147 1.264481 -81.597273 17.839189 11.427460 0.000000 0.000000 0.000000 0.000000 0.000000 0.000000 2.893914 -0.652870 -2.773620 5.228317 1.853894 12.315334 0.000000 0.000000 0.000000 -32.969863 5.532489 -11.254715 17.385469 -1.291763 2.428942 0.000000 0.000000 0.000000
2.915375 57.793511 -0.422445 6.071901 0.487698 5.600548 0.000000 0.000000 0.000000 -3.809745 2.387324 1.018078 5.418409 3.214940 2.923154 5.000000 0.000000 0.000000 1.026818 -4.947810 4.172566 31.318035 -2.178176 -12.523070 0.000000 0.000000 0.000000 0.000000 0.000000 0.000000 10.175109 -13.373426 5.176741 22.592816 9.717233 -6.859523 0.000000 0.000000 0.000000 0.000000 0.000000 0.000000 14.577975 -1.462978 1.025583 -3.606326 2.754555 5.756141 0.000000 0.000000 0.000000 -33.600328 5.030232 -6.906019 14.924944 -3.725569 -3.863822 0.000000 0.000000 0.000000
3.268347 57.515833 -0.125195 2.515124 0.467509 3.604843 0.000000 0.000000 0.000000 -0.975800 1.111974 0.355319 1.639866 1.264328 -0.249168 5.000000 0.000000 0.000000 6.492422 2.072332 1.331408 20.189242 -4.574036 -3.279154 0.000000 0.000000 0.000000 0.000000 0.000000 0.000000 26.095714 -30.110798 20.414638 2.762960 26.705321 -11.914064 39.372103 28.354127 29.651615 0.000000 0.000000 0.000000 17.666355 -0.579608 4.117830 -8.624232 3.367771 2.195226 0.000000 0.000000 0.000000 -35.375669 4.110818 -2.662572 16.312537 -5.270508 -8.590174 0.000000 0.000000 0.000000
3.579984 57.368272 0.062273 3.334368 0.133729 0.953086 0.000000 0.000000 0.000000 -1.994270 -0.104322 -1.358032 -0.748344 -1.405455 -1.063796 5.000000 0.000000 0.000000 5.932627 3.699187 2.232214 14.424830 -6.684753 -1.479457 0.000000 0.000000 0.000000 0.000000 0.000000 0.000000 31.585056 -45.293596 35.990853 -3.940031 45.701073 -17.536666 0.000000 0.000000 0.000000 0.000000 0.000000 0.000000 20.423393 0.839858 6.005509 -14.243032 3.483905 0.687071 0.000000 0.000000 0.000000 -37.356190 2.938600 -0.188573 16.143333 -5.887613 -10.762638 0.000000 0.000000 0.000000
3.751258 57.594980 -0.043027 5.349182 -0.228465 -1.633043 0.000000 0.000000 0.000000 -3.072494 -0.463693 -0.902082 -2.177751 -2.414541 -0.420869 5.000000 0.000000 0.000000 0.329311 5.269777 0.125338 25.598593 -6.773625 2.877391 -60.469959 -4.614704 39.048674 0.000000 0.000000 0.000000 26.627377 -32.481435 33.046764 5.427379 31.825263 -25.281323 0.000000 0.000000 0.000000 0.000000 0.000000 0.000000 22.627965 1.452146 5.417972 -16.602665 2.600664 0.069336 0.000000 0.000000 0.000000 -32.888321 2.614946 -0.004814 11.240730 -5.818983 -10.137267 0.000000 0.000000 0.000000
3.738863 58.096988 -0.387923 2.913957 -0.292803 -2.083682 0.000000 0.000000 0.000000 -1.459130 -1.335797 -2.724058 -0.775677 -3.967510 -0.757767 5.000000 0.000000 0.000000 1.963782 5.444710 -0.236453 19.647585 -6.637353 3.219613 31.855196 50.466137 -54.123556 0.000000 0.000000 0.000000 19.514820 -20.743223 23.742010 5.567367 20.272859 -18.885028 0.000000 0.000000 0.000000 0.000000 0.000000 0.000000 22.754592 1.575612 4.319502 -18.753213 1.593794 -1.008468 0.000000 0.000000 0.000000 -26.815494 2.347450 -1.934016 5.093968 -3.666436 -2.943737 0.000000 0.000000 0.000000
3.698954 58.416984 -0.621880 1.171821 -0.275481 -1.830289 0.000000 0.000000 0.000000 -0.871009 -1.351465 -2.361536 -0.399688 -3.182264 -0.490427 5.000000 0.000000 0.000000 -0.150821 2.677303 -1.508667 21.789465 -2.867522 1.904908 0.000000 0.000000 0.000000 0.000000 0.000000 0.000000 5.674014 -4.610932 10.921381 8.626066 2.493352 -8.658124 0.000000 0.000000 0.000000 0.000000 0.000000 0.000000 17.178006 1.407614 3.376818 -11.766906 1.651891 -1.337956 0.000000 0.000000 0.000000 -24.567275 2.029198 -4.253248 6.527274 -0.568932 7.096208 0.000000 0.000000 0.000000
