HIERARCHY
ROOT Hips
{
  OFFSET 0.000000 0.000000 0.000000
  CHANNELS 6 Xposition Yposition Zposition Xrotation Yrotation Zrotation
  JOINT Spine
  {
    OFFSET 0.211591 24.227834 -3.764787
    CHANNELS 3 Xrotation Yrotation Zrotation
    JOINT Chest
    {
      OFFSET 0.211591 24.227834 -3.764787
      CHANNELS 3 Xrotation Yrotation Zrotation
      JOINT Neck
      {
        OFFSET -1.100772 8.441563 -3.430650
        CHANNELS 3 Xrotation Yrotation Zrotation
        JOINT Head
        {
          OFFSET -1.192129 7.757112 -7.601908
          CHANNELS 3 Xrotation Yrotation Zrotation
          End Site
          {
            OFFSET -0.357639 2.327134 -2.280572
          }
        }
      }
      JOINT LeftShoulder
      {
        OFFSET 17.192089 0.613400 -1.554494
        CHANNELS 3 Xrotation Yrotation Zrotation
        JOINT LeftArm
        {
          OFFSET 6.822346 -20.001605 -11.416031
          CHANNELS 3 Xrotation Yrotation Zrotation
          JOINT LeftForeArm
          {
            OFFSET -10.811707 -3.287858 -20.004664
            CHANNELS 3 Xrotation Yrotation Zrotation
            JOINT LeftHand
            {
              OFFSET -2.972239 -0.032078 -2.791873
              CHANNELS 3 Xrotation Yrotation Zrotation
              End Site
              {
                OFFSET -0.891672 -0.009623 -0.837562
              }
            }
          }
        }
      }
      JOINT RightShoulder
      {
        OFFSET -17.192089 -0.613400 1.554494
        CHANNELS 3 Xrotation Yrotation Zrotation
        JOINT RightArm
        {
          OFFSET -7.078612 -20.128798 -9.457155
          CHANNELS 3 Xrotation Yrotation Zrotation
          JOINT RightForeArm
          {
            OFFSET 6.068787 -1.370308 -22.325569
            CHANNELS 3 Xrotation Yrotation Zrotation
            JOINT RightHand
            {
              OFFSET 2.627653 0.279547 -3.282648
              CHANNELS 3 Xrotation Yrotation Zrotation
              End Site
              {
                OFFSET 0.788296 0.083864 -0.984794
              }
            }
          }
        }
      }
    }
  }
  JOINT LeftUpLeg
  {
    OFFSET 11.367086 0.027478 -2.758015
    CHANNELS 3 Xrotation Yrotation Zrotation
    JOINT LeftLeg
    {
      OFFSET 2.451199 -39.057141 -4.768226
      CHANNELS 3 Xrotation Yrotation Zrotation
      JOINT LeftFoot
      {
        OFFSET 10.058204 -39.973237 0.774249
        CHANNELS 3 Xrotation Yrotation Zrotation
        End Site
        {
          OFFSET 3.017461 -11.991971 0.232275
        }
      }
    }
  }
  JOINT RightUpLeg
  {
    OFFSET -11.367086 -0.027478 2.758015
    CHANNELS 3 Xrotation Yrotation Zrotation
    JOINT RightLeg
    {
      OFFSET -4.668361 -37.080477 -5.635053
      CHANNELS 3 Xrotation Yrotation Zrotation
      JOINT RightFoot
      {
        OFFSET -2.542494 -41.040053 5.594103
        CHANNELS 3 Xrotation Yrotation Zrotation
        End Site
        {
          OFFSET -0.762748 -12.312016 1.678231
        }
      }
    }
  }
}
MOTION
Frames: 96
Frame Time: 0.083333
0.000000 60.000000 0.000000 -0.947731 0.087041 0.456756 -0.947731 0.087041 0.456756 0.000000 0.000000 0.000000 -1.096270 -1.012926 -0.823959 5.000000 0.000000 0.000000 1.736840 0.323090 0.456205 7.645937 -0.590864 -0.773710 0.000000 0.000000 0.000000 0.000000 0.000000 0.000000 0.794111 -0.282190 0.002214 2.851025 -0.309081 0.159378 0.000000 0.000000 0.000000 0.000000 0.000000 0.000000 -1.008250 -0.058316 -0.046374 -1.995844 -0.494974 0.137474 0.000000 0.000000 0.000000 -1.191986 0.339623 -1.513327 -3.231983 0.345426 0.862852 0.000000 0.000000 0.000000
0.404420 60.000000 1.105835 -0.697435 0.072172 0.388394 -0.697435 0.072172 0.388394 0.000000 0.000000 0.000000 -0.987918 -1.328574 -1.138276 5.000000 0.000000 0.000000 1.727130 0.300571 0.481776 6.827943 -0.554870 -0.692341 0.000000 0.000000 0.000000 0.000000 0.000000 0.000000 1.046602 -0.311869 -0.114333 2.632807 -0.255006 0.145843 0.000000 0.000000 0.000000 0.000000 0.000000 0.000000 -1.176341 -0.094672 0.327559 -1.612290 -0.401260 0.083433 0.000000 0.000000 0.000000 -0.908458 0.283776 -1.338881 -3.100452 0.313015 0.732276 0.000000 0.000000 0.000000
1.336399 60.000000 4.095054 -1.297711 0.155968 0.863712 -1.297711 0.155968 0.863712 0.000000 0.000000 0.000000 -2.605943 -5.095475 -4.483274 5.000000 0.000000 0.000000 4.794206 0.739373 1.475076 17.060041 -1.466984 -1.734552 0.000000 0.000000 0.000000 0.000000 0.000000 0.000000 3.649363 -0.860225 -0.830601 6.692520 -0.622859 0.367945 0.000000 0.000000 0.000000 0.000000 0.000000 0.000000 -3.506657 -0.361891 1.960679 -3.614312 -0.870919 0.676805 0.000000 0.000000 0.000000 -4.553161 0.833493 -2.373584 -4.844736 0.381659 0.454555 0.000000 0.000000 0.000000
2.260113 60.000000 8.201629 -0.519397 0.102127 0.610902 -0.519397 0.102127 0.610902 0.000000 0.000000 0.000000 -3.217530 -10.855344 -9.817617 5.000000 0.000000 0.000000 6.650384 0.772036 2.415794 19.823885 -1.949415 -2.029175 0.000000 0.000000 0.000000 0.000000 0.000000 0.000000 6.869982 -0.923422 -2.827398 7.819136 -0.812956 0.423600 0.000000 0.000000 0.000000 0.000000 0.000000 0.000000 -4.450045 -0.718379 5.131627 -3.365950 -0.684274 2.873331 0.000000 0.000000 0.000000 -4.998748 1.026145 -3.500364 -6.583363 0.436425 0.034608 0.000000 0.000000 0.000000
2.612822 60.000000 12.603205 -0.718360 0.012630 0.045279 -0.718360 0.012630 0.045279 0.000000 0.000000 0.000000 -2.402600 -14.846150 -13.926081 5.000000 0.000000 0.000000 6.906099 0.839514 2.429007 21.794850 -2.389009 -2.254487 0.000000 0.000000 0.000000 0.000000 0.000000 0.000000 8.444821 -0.206886 -5.047744 7.566195 -1.362591 0.409243 0.000000 0.000000 0.000000 0.000000 0.000000 0.000000 -0.561690 -0.865287 6.709831 -3.594637 -0.566645 6.328091 0.000000 0.000000 0.000000 -4.038409 1.442778 -7.817194 -10.466374 0.882033 0.898799 0.000000 0.000000 0.000000
2.479909 60.000000 14.737109 -1.198781 -0.064741 -0.445162 -1.198781 -0.064741 -0.445162 0.000000 0.000000 0.000000 1.251121 -15.792565 -16.353463 5.000000 0.000000 0.000000 6.640249 2.103659 0.252094 26.258675 -3.192661 -2.782663 0.000000 0.000000 0.000000 0.000000 0.000000 0.000000 10.116491 -1.092803 -4.455325 8.775586 -1.955291 0.451782 0.000000 0.000000 0.000000 0.000000 0.000000 0.000000 5.128186 -1.178859 8.902192 -1.871834 -0.293953 4.709879 0.000000 0.000000 0.000000 -4.796412 1.997739 -13.215892 -15.115103 1.139155 0.831811 0.000000 0.000000 0.000000
2.522454 60.000000 14.161507 -1.489170 -0.150913 -0.991462 -1.489170 -0.150913 -0.991462 0.000000 0.000000 0.000000 3.515864 -17.786326 -19.355368 5.000000 0.000000 0.000000 3.164406 3.742121 -4.304008 30.540228 -3.536743 -3.317923 0.000000 0.000000 0.000000 0.000000 0.000000 0.000000 8.782881 -4.120402 1.484853 9.664541 -2.945604 0.448680 0.000000 0.000000 0.000000 0.000000 0.000000 0.000000 11.644228 -1.289623 8.989399 -0.285700 0.030061 4.352019 0.000000 0.000000 0.000000 -9.663349 2.124088 -14.245727 -18.263729 0.622387 -1.802954 0.000000 0.000000 0.000000
2.893939 60.000000 12.618531 -0.299446 -0.319277 -2.100094 -0.299446 -0.319277 -2.100094 0.000000 0.000000 0.000000 2.993038 -18.534848 -19.904714 5.000000 0.000000 0.000000 1.443481 3.957523 -5.782604 30.051932 -3.625038 -3.260207 0.000000 0.000000 0.000000 0.000000 0.000000 0.000000 8.859856 -6.508281 5.521737 12.337781 -3.689567 0.512384 0.000000 0.000000 0.000000 0.000000 0.000000 0.000000 12.768672 -1.170818 8.420125 -2.756548 -0.451425 4.846760 0.000000 0.000000 0.000000 -8.341645 2.186598 -14.976284 -19.489508 0.799031 -1.457565 0.000000 0.000000 0.000000
3.489879 60.000000 10.741720 1.170971 -0.590453 -4.032429 1.170971 -0.590453 -4.032429 0.000000 0.000000 0.000000 0.164344 -16.437940 -16.524355 5.000000 0.000000 0.000000 2.178274 2.950089 -3.731381 27.858346 -2.740411 -2.959877 0.000000 0.000000 0.000000 0.000000 0.000000 0.000000 8.176562 -3.857581 1.459816 9.275641 -2.984115 0.450510 0.000000 0.000000 0.000000 0.000000 0.000000 0.000000 10.519249 -1.101822 8.416249 -7.298404 -1.340783 5.944510 0.000000 0.000000 0.000000 -3.889818 2.290506 -15.461141 -18.596756 0.707613 -1.679060 0.000000 0.000000 0.000000
4.577485 60.000000 9.958374 3.075227 -0.573399 -4.252678 3.075227 -0.573399 -4.252678 0.000000 0.000000 0.000000 -2.529700 -13.868366 -12.935600 5.000000 0.000000 0.000000 5.772406 2.054348 -0.074071 27.694708 -2.009439 -2.933814 0.000000 0.000000 0.000000 0.000000 0.000000 0.000000 6.351122 -1.550275 -1.395541 6.307643 -1.835459 0.345853 0.000000 0.000000 0.000000 0.000000 0.000000 0.000000 2.286699 -1.234464 10.013446 -3.813400 -0.605476 6.463066 0.000000 0.000000 0.000000 -1.196566 2.517017 -16.697895 -14.103322 0.173079 -2.698767 0.000000 0.000000 0.000000
5.349533 60.000000 9.013909 4.269310 -0.398046 -3.003444 4.269310 -0.398046 -3.003444 0.000000 0.000000 0.000000 -4.163107 -10.327235 -8.963954 5.000000 0.000000 0.000000 7.537666 1.490067 1.780019 16.622453 -2.165815 -1.625163 0.000000 0.000000 0.000000 0.000000 0.000000 0.000000 4.461518 -0.244529 -2.517546 1.313863 -0.909080 0.098354 0.000000 0.000000 0.000000 0.000000 0.000000 0.000000 -3.265774 -1.287024 11.796509 -2.060382 -0.289262 6.042528 0.000000 0.000000 0.000000 0.623522 2.830281 -18.718468 -16.595514 0.127602 -3.204711 0.000000 0.000000 0.000000
5.097302 60.000000 9.444477 5.036631 -0.074175 -0.119812 5.036631 -0.074175 -0.119812 0.000000 0.000000 0.000000 -3.130146 -1.401267 -0.725571 5.000000 0.000000 0.000000 5.951921 0.836215 1.920840 4.307634 -2.050859 -0.215977 0.000000 0.000000 0.000000 0.000000 0.000000 0.000000 -0.593117 0.368912 0.029958 -3.431706 0.026802 -0.177270 0.000000 0.000000 0.000000 0.000000 0.000000 0.000000 -5.838730 -1.243051 12.724087 -2.303023 -0.304588 6.646025 0.000000 0.000000 0.000000 -2.204702 2.816761 -19.510763 -16.771655 0.152780 -3.089845 0.000000 0.000000 0.000000
4.261646 60.000000 10.446084 5.949925 0.250010 2.811759 5.949925 0.250010 2.811759 0.000000 0.000000 0.000000 -1.586563 6.552677 6.836958 5.000000 0.000000 0.000000 1.156619 0.130551 0.373912 -0.514215 -0.575698 0.143314 0.000000 0.000000 0.000000 0.000000 0.000000 0.000000 -8.336421 1.153602 4.468227 -1.354332 0.733935 -0.125489 0.000000 0.000000 0.000000 0.000000 0.000000 0.000000 -5.503027 -1.299455 13.338055 -1.890090 -0.102153 9.214638 0.000000 0.000000 0.000000 -1.735180 2.930415 -20.245768 -13.887239 0.774755 -0.266530 0.000000 0.000000 0.000000
3.534028 60.000000 10.882226 4.632673 0.508172 4.775034 4.632673 0.508172 4.775034 0.000000 0.000000 0.000000 -1.100980 7.423060 7.732127 5.000000 0.000000 0.000000 -1.446140 0.174275 -1.232245 -1.724372 0.534361 0.094782 0.000000 0.000000 0.000000 0.000000 0.000000 0.000000 -8.208275 0.745946 5.423149 -1.999710 0.881243 -0.171278 0.000000 0.000000 0.000000 0.000000 0.000000 0.000000 -1.202077 -1.530077 13.100308 -2.114904 -0.034035 13.418081 0.000000 0.000000 0.000000 -0.776543 2.696355 -17.117875 -10.134526 1.208190 2.362480 0.000000 0.000000 0.000000
1.694793 60.000000 6.881416 4.028759 0.674007 5.855052 4.028759 0.674007 5.855052 0.000000 0.000000 0.000000 -4.647758 5.300989 5.843555 5.000000 0.000000 0.000000 1.729898 0.139515 0.679290 1.384108 1.332537 -0.368361 0.000000 0.000000 0.000000 0.000000 0.000000 0.000000 -4.222959 0.060304 3.330921 1.616528 1.597610 0.024108 0.000000 0.000000 0.000000 0.000000 0.000000 0.000000 -1.249325 -1.590150 13.577621 2.535971 0.631759 13.314259 0.000000 0.000000 0.000000 -4.804912 2.042705 -8.844819 -10.488611 1.280212 2.416594 0.000000 0.000000 0.000000
-0.754579 60.000000 2.424182 2.710277 0.909266 7.093574 2.710277 0.909266 7.093574 0.000000 0.000000 0.000000 -10.946869 4.086590 5.017011 5.000000 0.000000 0.000000 5.116815 -0.615575 3.810668 5.558629 1.119178 -0.740507 0.000000 0.000000 0.000000 0.000000 0.000000 0.000000 -0.076953 -1.032322 2.245684 8.705399 2.036192 0.494672 0.000000 0.000000 0.000000 0.000000 0.000000 0.000000 -1.887248 -1.253953 10.344711 6.206921 1.223500 9.308235 0.000000 0.000000 0.000000 -11.343389 1.224323 3.929739 -8.008225 -0.701913 -5.785176 0.000000 0.000000 0.000000
-1.246800 60.000000 2.237534 1.692727 0.990808 7.177184 1.692727 0.990808 7.177184 0.000000 0.000000 0.000000 -11.852554 6.604679 7.273306 5.000000 0.000000 0.000000 6.671773 -0.791479 4.860953 7.446419 1.687836 -1.003903 0.000000 0.000000 0.000000 0.000000 0.000000 0.000000 -1.008999 -1.004879 3.100397 10.264691 2.501085 0.591908 0.000000 0.000000 0.000000 0.000000 0.000000 0.000000 -3.994290 -0.737607 5.532262 6.687914 1.534366 3.808828 0.000000 0.000000 0.000000 -12.976834 1.427427 5.226731 -4.194128 -0.805419 -6.172725 0.000000 0.000000 0.000000
-0.919997 60.000000 5.143549 0.454378 0.980542 6.481984 0.454378 0.980542 6.481984 0.000000 0.000000 0.000000 -10.246326 10.979746 11.190079 5.000000 0.000000 0.000000 7.661655 0.076139 3.959349 7.511945 2.203282 -1.079642 0.000000 0.000000 0.000000 0.000000 0.000000 0.000000 -4.900225 -1.169513 7.217621 4.515678 3.447540 0.138180 0.000000 0.000000 0.000000 0.000000 0.000000 0.000000 -4.872113 -0.616988 3.965131 7.348194 1.783583 1.268593 0.000000 0.000000 0.000000 -16.225277 1.994783 4.657714 -3.226941 -0.965978 -7.151251 0.000000 0.000000 0.000000
-0.580082 60.000000 7.274651 1.010199 0.812725 5.598326 1.010199 0.812725 5.598326 0.000000 0.000000 0.000000 -6.167859 14.513437 14.484277 5.000000 0.000000 0.000000 5.573148 0.926583 1.534566 9.049833 2.480076 -1.265748 0.000000 0.000000 0.000000 0.000000 0.000000 0.000000 -8.997218 -1.644303 12.319432 3.429691 4.765310 0.026385 0.000000 0.000000 0.000000 0.000000 0.000000 0.000000 -4.801874 -0.643927 4.318642 7.828237 1.786882 3.143311 0.000000 0.000000 0.000000 -22.328658 2.991166 4.951358 -1.476312 -0.934038 -6.963687 0.000000 0.000000 0.000000
-0.959493 60.000000 8.350624 1.025901 0.669701 4.709360 1.025901 0.669701 4.709360 0.000000 0.000000 0.000000 -6.046615 13.526717 13.549946 5.000000 0.000000 0.000000 1.811921 1.420221 -1.350211 11.831084 1.443898 -1.389943 0.000000 0.000000 0.000000 0.000000 0.000000 0.000000 -6.187715 -1.910733 9.829515 7.254642 4.445657 0.382027 0.000000 0.000000 0.000000 0.000000 0.000000 0.000000 -4.544072 -0.654646 4.513241 8.692508 1.807735 6.555180 0.000000 0.000000 0.000000 -20.203538 2.612338 5.667660 -1.960143 -0.501239 -4.067374 0.000000 0.000000 0.000000
-1.173546 60.000000 9.339029 -0.440570 0.432516 2.892102 -0.440570 0.432516 2.892102 0.000000 0.000000 0.000000 -5.570972 13.423040 13.490792 5.000000 0.000000 0.000000 0.197209 2.422536 -4.038347 13.068163 1.594713 -1.513335 0.000000 0.000000 0.000000 0.000000 0.000000 0.000000 -4.600826 -1.180211 6.473005 6.922160 4.208857 0.351185 0.000000 0.000000 0.000000 0.000000 0.000000 0.000000 -5.075896 -0.528168 2.912053 6.796999 1.306592 8.924452 0.000000 0.000000 0.000000 -16.354673 1.949370 8.862984 0.119407 -0.155162 -0.376685 0.000000 0.000000 0.000000
-3.913416 60.000000 7.863888 -2.489472 0.017493 -0.070781 -2.489472 0.017493 -0.070781 0.000000 0.000000 0.000000 -6.179192 14.586644 14.560102 5.000000 0.000000 0.000000 -0.126920 4.663767 -8.058371 16.890864 2.222981 -1.930484 0.000000 0.000000 0.000000 0.000000 0.000000 0.000000 -4.681401 0.539600 2.557079 8.489321 3.881044 0.488027 0.000000 0.000000 0.000000 0.000000 0.000000 0.000000 -4.756987 0.124827 -3.443299 4.683973 1.072114 5.958126 0.000000 0.000000 0.000000 -13.665511 1.384642 10.681457 5.908888 -0.004801 5.466050 0.000000 0.000000 0.000000
-5.135888 60.000000 7.551823 -1.330120 -0.296174 -1.841647 -1.330120 -0.296174 -1.841647 0.000000 0.000000 0.000000 -7.355868 14.190537 14.091115 5.000000 0.000000 0.000000 -1.149040 4.373180 -8.303410 12.685239 2.806704 -1.612113 0.000000 0.000000 0.000000 0.000000 0.000000 0.000000 -5.009212 1.527623 0.456506 7.986218 3.832062 0.445430 0.000000 0.000000 0.000000 0.000000 0.000000 0.000000 -1.702539 1.524638 -14.366399 6.077947 1.721489 -0.533384 0.000000 0.000000 0.000000 -11.426700 0.977908 9.016923 7.231919 0.552044 13.793023 0.000000 0.000000 0.000000
-4.907559 60.000000 10.027497 0.476350 -0.292078 -1.902310 0.476350 -0.292078 -1.902310 0.000000 0.000000 0.000000 -8.124396 13.952596 13.813430 5.000000 0.000000 0.000000 -4.594919 2.830769 -8.223850 7.568908 3.459171 -1.266901 0.000000 0.000000 0.000000 0.000000 0.000000 0.000000 -5.919862 2.419361 -1.037153 5.284628 3.786502 0.215454 0.000000 0.000000 0.000000 0.000000 0.000000 0.000000 0.254435 2.585838 -20.248357 9.795364 3.021160 -7.736195 0.000000 0.000000 0.000000 -10.695543 1.014311 5.734249 6.625537 0.484801 11.308036 0.000000 0.000000 0.000000
-3.726013 60.000000 13.381772 2.897724 -0.258498 -1.808218 2.897724 -0.258498 -1.808218 0.000000 0.000000 0.000000 -5.890148 14.008434 14.044571 5.000000 0.000000 0.000000 -6.789505 2.557989 -9.439541 4.089049 4.124646 -1.079724 0.000000 0.000000 0.000000 0.000000 0.000000 0.000000 -7.377252 3.368334 -2.230162 3.863376 3.965422 0.093425 0.000000 0.000000 0.000000 0.000000 0.000000 0.000000 -0.318287 2.711726 -22.310069 8.803216 2.856753 -9.949758 0.000000 0.000000 0.000000 -10.014966 1.066606 3.059533 7.208078 0.354825 10.844848 0.000000 0.000000 0.000000
-3.137661 60.000000 13.978132 2.005097 -0.246354 -1.669035 2.005097 -0.246354 -1.669035 0.000000 0.000000 0.000000 -6.351184 12.482286 12.543216 5.000000 0.000000 0.000000 -4.919784 5.313352 -13.014002 9.975282 4.022778 -1.539885 0.000000 0.000000 0.000000 0.000000 0.000000 0.000000 -6.151135 2.691635 -1.462959 7.152119 3.822281 0.373144 0.000000 0.000000 0.000000 0.000000 0.000000 0.000000 -1.072608 2.382092 -21.237090 7.652409 2.386641 -8.557234 0.000000 0.000000 0.000000 -9.269665 1.057148 1.434424 6.236031 0.551054 11.422049 0.000000 0.000000 0.000000
-1.671894 60.000000 13.383883 3.084269 -0.248318 -1.755403 3.084269 -0.248318 -1.755403 0.000000 0.000000 0.000000 -4.975984 12.434416 12.598145 5.000000 0.000000 0.000000 -3.152473 7.248244 -14.868860 17.641408 3.312712 -2.058783 0.000000 0.000000 0.000000 0.000000 0.000000 0.000000 -4.969145 2.303883 -1.447915 10.307875 3.549604 0.629777 0.000000 0.000000 0.000000 0.000000 0.000000 0.000000 -1.593241 2.089539 -19.742108 6.893988 2.016563 -6.112851 0.000000 0.000000 0.000000 -9.414062 0.961664 3.193233 6.559067 0.458325 10.911758 0.000000 0.000000 0.000000
-0.154759 60.000000 11.181359 5.100274 -0.267207 -2.025652 5.100274 -0.267207 -2.025652 0.000000 0.000000 0.000000 -4.347778 13.363290 13.530701 5.000000 0.000000 0.000000 -0.462837 8.195702 -14.116321 19.923390 3.041263 -2.231542 0.000000 0.000000 0.000000 0.000000 0.000000 0.000000 -2.623567 1.600927 -1.572670 14.302631 3.135430 0.936703 0.000000 0.000000 0.000000 0.000000 0.000000 0.000000 -2.507801 1.488555 -16.118759 6.694714 1.894627 -4.793757 0.000000 0.000000 0.000000 -10.077833 0.918620 5.412853 6.849718 0.373283 10.430011 0.000000 0.000000 0.000000
0.525824 60.000000 8.612143 5.117613 -0.240236 -1.801662 5.117613 -0.240236 -1.801662 0.000000 0.000000 0.000000 -6.952797 12.782123 12.842767 5.000000 0.000000 0.000000 -0.058932 7.654248 -12.918317 19.935263 2.719742 -2.215285 0.000000 0.000000 0.000000 0.000000 0.000000 0.000000 -3.152463 1.754745 -1.523837 18.415358 2.858710 1.249909 0.000000 0.000000 0.000000 0.000000 0.000000 0.000000 -2.834006 0.969984 -11.710807 7.078242 2.062903 -6.016475 0.000000 0.000000 0.000000 -11.102147 1.106136 5.224008 5.953136 0.491779 10.232434 0.000000 0.000000 0.000000
-0.193704 60.000000 7.439628 4.458244 -0.071300 -0.410274 4.458244 -0.071300 -0.410274 0.000000 0.000000 0.000000 -9.507176 9.962023 10.219096 5.000000 0.000000 0.000000 0.989392 7.104738 -11.185047 17.978016 2.377056 -2.020471 0.000000 0.000000 0.000000 0.000000 0.000000 0.000000 -4.383780 1.734729 -0.535658 14.858993 2.457194 0.967781 0.000000 0.000000 0.000000 0.000000 0.000000 0.000000 -2.353735 0.670114 -8.056868 7.496778 2.152737 -5.342813 0.000000 0.000000 0.000000 -12.462863 1.334058 5.257688 3.494867 0.813532 9.753858 0.000000 0.000000 0.000000
-1.362989 60.000000 7.565621 2.584966 0.204755 1.622726 2.584966 0.204755 1.622726 0.000000 0.000000 0.000000 -11.463742 6.223534 6.852422 5.000000 0.000000 0.000000 1.469751 6.706258 -10.175288 15.037898 1.565162 -1.711503 0.000000 0.000000 0.000000 0.000000 0.000000 0.000000 -5.589079 1.828165 0.221486 8.701157 1.986013 0.489346 0.000000 0.000000 0.000000 0.000000 0.000000 0.000000 -1.337182 0.545246 -5.610921 8.443021 2.306711 -2.613043 0.000000 0.000000 0.000000 -14.600814 1.700358 4.999588 0.934583 1.096396 9.034514 0.000000 0.000000 0.000000
-2.317662 60.000000 4.968249 0.833055 0.361509 2.485894 0.833055 0.361509 2.485894 0.000000 0.000000 0.000000 -8.559966 4.947945 5.615456 5.000000 0.000000 0.000000 2.106996 7.653199 -11.189508 16.322357 1.264949 -1.808696 0.000000 0.000000 0.000000 0.000000 0.000000 0.000000 -5.679657 0.442082 3.679411 8.777771 2.390602 0.499676 0.000000 0.000000 0.000000 0.000000 0.000000 0.000000 -1.406440 0.123440 -1.888735 9.325680 2.745725 -5.807461 0.000000 0.000000 0.000000 -16.379747 2.004741 4.333445 -1.301582 1.305270 8.219273 0.000000 0.000000 0.000000
-3.876615 60.000000 -1.609550 1.203857 0.247062 1.747538 1.203857 0.247062 1.747538 0.000000 0.000000 0.000000 -5.878579 4.998825 5.514834 5.000000 0.000000 0.000000 1.683490 7.919867 -11.937787 17.813941 1.934575 -1.988926 0.000000 0.000000 0.000000 0.000000 0.000000 0.000000 -5.955219 -1.257045 7.996106 9.715374 2.954362 0.575884 0.000000 0.000000 0.000000 0.000000 0.000000 0.000000 -0.721509 0.353115 -3.331537 8.472374 2.461232 -5.327501 0.000000 0.000000 0.000000 -17.443589 2.177299 3.898677 -2.872418 1.614403 8.791774 0.000000 0.000000 0.000000
-5.692145 60.000000 -7.761059 2.062536 0.071170 0.637963 2.062536 0.071170 0.637963 0.000000 0.000000 0.000000 -6.255971 5.908792 6.385675 5.000000 0.000000 0.000000 2.695902 7.410990 -10.394818 20.697455 2.025080 -2.262310 0.000000 0.000000 0.000000 0.000000 0.000000 0.000000 -6.102882 -2.679401 11.489974 11.520928 3.135787 0.713676 0.000000 0.000000 0.000000 0.000000 0.000000 0.000000 0.083403 0.680790 -5.480951 7.381879 2.066007 -4.216817 0.000000 0.000000 0.000000 -17.838914 2.246548 4.296220 -2.437057 1.691160 9.601083 0.000000 0.000000 0.000000
-6.098111 60.000000 -7.761780 1.857857 0.108825 0.786361 1.857857 0.108825 0.786361 0.000000 0.000000 0.000000 -7.468682 5.271717 5.874003 5.000000 0.000000 0.000000 4.420909 6.471323 -7.653574 22.726902 1.295593 -2.420072 0.000000 0.000000 0.000000 0.000000 0.000000 0.000000 -6.117562 -2.750462 11.683453 13.378019 2.623373 0.844049 0.000000 0.000000 0.000000 0.000000 0.000000 0.000000 0.238253 0.727060 -5.709334 7.474014 2.088902 -4.387377 0.000000 0.000000 0.000000 -17.815668 2.256157 6.764139 -0.693341 1.191822 7.986342 0.000000 0.000000 0.000000
-5.902852 60.000000 -3.774336 -1.240227 0.399552 2.132013 -1.240227 0.399552 2.132013 0.000000 0.000000 0.000000 -9.267493 4.106392 4.953492 5.000000 0.000000 0.000000 4.001165 4.840237 -5.391765 18.920314 0.294228 -2.014806 0.000000 0.000000 0.000000 0.000000 0.000000 0.000000 -7.032091 -3.294288 13.956727 12.444932 2.625286 0.773704 0.000000 0.000000 0.000000 0.000000 0.000000 0.000000 1.891541 0.885806 -5.557929 9.415875 2.490595 -2.767217 0.000000 0.000000 0.000000 -17.360428 2.161486 5.645951 1.516440 0.868504 7.795595 0.000000 0.000000 0.000000
-6.014742 60.000000 -0.539573 -4.186852 0.796324 3.931110 -4.186852 0.796324 3.931110 0.000000 0.000000 0.000000 -10.701286 3.164295 4.230612 5.000000 0.000000 0.000000 2.398648 2.816428 -3.272556 13.444834 0.240937 -1.450094 0.000000 0.000000 0.000000 0.000000 0.000000 0.000000 -6.953978 -4.429403 16.474349 14.660278 2.381310 0.925952 0.000000 0.000000 0.000000 0.000000 0.000000 0.000000 5.590563 1.082002 -4.311683 13.268149 3.192587 1.354701 0.000000 0.000000 0.000000 -18.323602 2.288062 2.647020 1.030971 0.850136 7.257191 0.000000 0.000000 0.000000
-5.900577 60.000000 0.556473 -3.883788 0.820003 4.120010 -3.883788 0.820003 4.120010 0.000000 0.000000 0.000000 -10.155332 3.388434 4.372769 5.000000 0.000000 0.000000 2.426046 2.110942 -2.099976 15.240066 0.040312 -1.626435 0.000000 0.000000 0.000000 0.000000 0.000000 0.000000 -4.954906 -4.857031 15.135179 17.509547 2.157883 1.115994 0.000000 0.000000 0.000000 0.000000 0.000000 0.000000 6.722259 0.621377 -1.005455 13.318022 2.829398 5.471718 0.000000 0.000000 0.000000 -20.007744 2.491521 0.703436 -0.659675 0.679634 4.670576 0.000000 0.000000 0.000000
-5.573832 60.000000 0.660840 -2.704177 0.686569 3.664981 -2.704177 0.686569 3.664981 0.000000 0.000000 0.000000 -9.694747 2.328001 3.407260 5.000000 0.000000 0.000000 2.288986 1.819692 -1.705500 18.690546 -0.489525 -1.961056 0.000000 0.000000 0.000000 0.000000 0.000000 0.000000 -2.822968 -4.521449 12.165691 20.048158 1.848336 1.273833 0.000000 0.000000 0.000000 0.000000 0.000000 0.000000 5.807047 -0.127232 2.931668 10.261534 2.005478 7.531579 0.000000 0.000000 0.000000 -20.862367 2.544174 -1.024746 -3.112026 0.473071 1.739209 0.000000 0.000000 0.000000
-5.635792 60.000000 0.138916 -1.089551 0.471713 2.777843 -1.089551 0.471713 2.777843 0.000000 0.000000 0.000000 -8.759816 0.298957 1.534117 5.000000 0.000000 0.000000 2.344200 2.461812 -2.728468 20.896321 -0.865292 -2.181566 0.000000 0.000000 0.000000 0.000000 0.000000 0.000000 -0.216652 -3.889807 8.298152 18.181824 1.635999 1.124197 0.000000 0.000000 0.000000 0.000000 0.000000 0.000000 4.441146 -0.533996 5.055560 7.706754 1.621365 5.764056 0.000000 0.000000 0.000000 -21.999016 2.621900 -2.216775 -3.950548 -0.116957 -1.947311 0.000000 0.000000 0.000000
-6.438594 60.000000 -0.807987 -0.531297 0.208794 1.261900 -0.531297 0.208794 1.261900 0.000000 0.000000 0.000000 -7.329731 -0.068653 1.006418 5.000000 0.000000 0.000000 1.830815 3.714221 -5.119036 22.928205 -0.582684 -2.411771 0.000000 0.000000 0.000000 0.000000 0.000000 0.000000 1.074195 -2.740306 4.821737 18.064976 1.480834 1.105420 0.000000 0.000000 0.000000 0.000000 0.000000 0.000000 3.760850 -0.485684 4.671852 6.380513 1.476267 3.265305 0.000000 0.000000 0.000000 -23.275514 2.691217 -3.391288 -6.063629 -0.702560 -5.571593 0.000000 0.000000 0.000000
-6.436149 60.000000 -3.271960 0.148308 0.044390 0.277606 0.148308 0.044390 0.277606 0.000000 0.000000 0.000000 -5.902734 -0.851141 0.111709 5.000000 0.000000 0.000000 0.960746 4.420802 -6.858702 24.258610 -0.759855 -2.553974 0.000000 0.000000 0.000000 0.000000 0.000000 0.000000 1.167215 -2.234582 3.720398 15.285013 1.296928 0.911651 0.000000 0.000000 0.000000 0.000000 0.000000 0.000000 3.796960 -0.270040 3.340877 6.854613 1.634522 2.443145 0.000000 0.000000 0.000000 -24.780266 2.813932 -3.618657 -8.101607 -0.728906 -5.822819 0.000000 0.000000 0.000000
-5.947944 60.000000 -6.228177 0.952984 -0.105401 -0.665565 0.952984 -0.105401 -0.665565 0.000000 0.000000 0.000000 -7.782757 -2.066816 -0.674080 5.000000 0.000000 0.000000 0.875520 4.793649 -7.526742 24.927521 -1.308269 -2.620422 0.000000 0.000000 0.000000 0.000000 0.000000 0.000000 0.285918 -1.809216 3.573049 13.088802 0.930834 0.751561 0.000000 0.000000 0.000000 0.000000 0.000000 0.000000 3.058868 -0.331238 3.824132 8.789148 2.210808 0.823710 0.000000 0.000000 0.000000 -23.536255 2.713707 -3.036252 -6.127110 -0.214092 -2.870865 0.000000 0.000000 0.000000
-4.799951 60.000000 -6.067721 1.653345 -0.062466 -0.361982 1.653345 -0.062466 -0.361982 0.000000 0.000000 0.000000 -9.105453 -3.471815 -1.690713 5.000000 0.000000 0.000000 0.813577 3.366386 -5.250134 23.525770 -1.940659 -2.457566 0.000000 0.000000 0.000000 0.000000 0.000000 0.000000 0.088742 -1.922401 3.955751 12.055777 0.578204 0.674994 0.000000 0.000000 0.000000 0.000000 0.000000 0.000000 3.734410 -0.450087 4.999059 12.455994 3.178075 -0.524870 0.000000 0.000000 0.000000 -21.328475 2.631058 -0.211501 -2.643339 -0.058543 -1.379564 0.000000 0.000000 0.000000
-2.741512 60.000000 -2.275212 0.872686 0.110212 0.785009 0.872686 0.110212 0.785009 0.000000 0.000000 0.000000 -8.700231 -4.222774 -2.411751 5.000000 0.000000 0.000000 2.060760 2.423702 -2.863421 22.455942 -2.023291 -2.329448 0.000000 0.000000 0.000000 0.000000 0.000000 0.000000 2.266251 -2.890519 4.116417 11.591929 0.031236 0.632398 0.000000 0.000000 0.000000 0.000000 0.000000 0.000000 9.823048 0.047043 2.665416 13.178691 3.098058 2.282043 0.000000 0.000000 0.000000 -21.066774 2.698998 2.654473 -3.286141 -0.296711 -2.974071 0.000000 0.000000 0.000000
0.345771 60.000000 2.695100 0.310903 0.297669 1.966978 0.310903 0.297669 1.966978 0.000000 0.000000 0.000000 -9.223911 -6.151642 -3.971800 5.000000 0.000000 0.000000 2.866403 1.553519 -0.932197 22.024668 -2.810640 -2.266760 0.000000 0.000000 0.000000 0.000000 0.000000 0.000000 5.557830 -4.321689 4.269062 10.831500 -0.719638 0.564008 0.000000 0.000000 0.000000 0.000000 0.000000 0.000000 12.931877 -0.232495 4.360600 11.927886 2.589894 5.038656 0.000000 0.000000 0.000000 -20.144961 2.611628 3.311278 -5.558085 -0.289422 -3.580201 0.000000 0.000000 0.000000
3.618738 60.000000 7.142935 -0.589795 0.252063 1.556701 -0.589795 0.252063 1.556701 0.000000 0.000000 0.000000 -9.174112 -8.169333 -5.748151 5.000000 0.000000 0.000000 4.598756 -0.111336 1.998213 23.771108 -3.490118 -2.473798 0.000000 0.000000 0.000000 0.000000 0.000000 0.000000 7.586991 -4.871840 3.789487 11.966845 -1.657514 0.577887 0.000000 0.000000 0.000000 0.000000 0.000000 0.000000 14.526042 -0.793559 6.793394 8.566884 1.695213 8.008035 0.000000 0.000000 0.000000 -18.160812 2.387741 0.070595 -9.624854 0.383219 -1.677540 0.000000 0.000000 0.000000
5.982004 60.000000 13.377580 -1.198022 -0.039903 -0.208053 -1.198022 -0.039903 -0.208053 0.000000 0.000000 0.000000 -6.824365 -11.680126 -9.549259 5.000000 0.000000 0.000000 14.017815 -6.998567 14.408549 25.499059 -4.879887 -2.670716 0.000000 0.000000 0.000000 0.000000 0.000000 0.000000 13.355194 -6.230927 1.914333 12.741484 -3.111469 0.570179 0.000000 0.000000 0.000000 0.000000 0.000000 0.000000 16.182856 -1.043066 7.739600 5.256841 1.075240 8.606808 0.000000 0.000000 0.000000 -14.232146 1.987551 -6.998577 -17.921683 1.823974 2.102785 0.000000 0.000000 0.000000
6.360846 60.000000 18.258120 -2.444008 -0.518044 -2.995596 -2.444008 -0.518044 -2.995596 0.000000 0.000000 0.000000 -2.941290 -16.539593 -15.414026 5.000000 0.000000 0.000000 27.492183 -17.076446 30.766261 24.391074 -6.332087 -2.499652 0.000000 0.000000 0.000000 0.000000 0.000000 0.000000 19.855172 -9.528988 2.325804 9.503021 -4.445086 0.462923 0.000000 0.000000 0.000000 0.000000 0.000000 0.000000 19.709504 -1.125452 7.928962 5.299737 1.083536 8.644277 0.000000 0.000000 0.000000 -14.063523 2.043140 -11.081048 -24.596463 2.376644 2.485532 0.000000 0.000000 0.000000
4.930019 60.000000 19.197261 -2.954556 -0.782488 -4.441157 -2.954556 -0.782488 -4.441157 0.000000 0.000000 0.000000 1.565003 -19.787074 -20.383830 5.000000 0.000000 0.000000 25.953268 -12.273298 22.808763 27.975285 -5.702110 -2.934605 0.000000 0.000000 0.000000 0.000000 0.000000 0.000000 20.316532 -14.205616 8.681896 6.161498 -5.478651 0.389895 0.000000 0.000000 0.000000 0.000000 0.000000 0.000000 22.757358 -1.180789 8.036295 6.241827 1.248048 8.906623 0.000000 0.000000 0.000000 -17.061448 2.101502 -10.226963 -30.366283 1.318674 -1.519244 0.000000 0.000000 0.000000
3.747599 60.000000 14.963378 -1.830934 -0.717199 -4.255290 -1.830934 -0.717199 -4.255290 0.000000 0.000000 0.000000 0.655131 -20.781401 -20.969242 5.000000 0.000000 0.000000 5.461069 -1.867217 5.649665 34.039037 -4.127469 -3.760059 0.000000 0.000000 0.000000 0.000000 0.000000 0.000000 12.385127 -12.433741 11.753806 8.218318 -5.308465 0.404683 0.000000 0.000000 0.000000 0.000000 0.000000 0.000000 19.842329 -1.017943 7.565041 3.366782 0.747660 10.292887 0.000000 0.000000 0.000000 -15.452546 2.068418 -10.630289 -32.356108 1.532386 -1.259370 0.000000 0.000000 0.000000
2.581564 60.000000 8.651485 -0.081919 -0.582312 -3.656926 -0.081919 -0.582312 -3.656926 0.000000 0.000000 0.000000 -0.462871 -12.458542 -12.441952 5.000000 0.000000 0.000000 1.874017 5.289769 -7.625477 24.569883 -4.344304 -2.630321 0.000000 0.000000 0.000000 0.000000 0.000000 0.000000 7.764084 -6.297241 5.342894 7.588979 -2.724409 0.433661 0.000000 0.000000 0.000000 0.000000 0.000000 0.000000 11.510360 -0.837974 6.731528 -0.717006 0.091606 10.909464 0.000000 0.000000 0.000000 -15.884320 2.106055 -14.598160 -28.881863 3.096267 3.017392 0.000000 0.000000 0.000000
1.711049 60.000000 3.909007 2.948123 -0.322663 -2.119991 2.948123 -0.322663 -2.119991 0.000000 0.000000 0.000000 -2.013173 0.189126 0.579649 5.000000 0.000000 0.000000 2.161892 5.500052 -7.810414 19.484395 -1.247157 -2.002327 0.000000 0.000000 0.000000 0.000000 0.000000 0.000000 1.898398 0.147144 -1.673741 9.871862 0.519648 0.561097 0.000000 0.000000 0.000000 0.000000 0.000000 0.000000 3.090696 -0.362450 3.710048 -0.564442 0.107301 11.091703 0.000000 0.000000 0.000000 -18.154194 2.072139 -15.411455 -23.309150 3.111361 4.630301 0.000000 0.000000 0.000000
2.164120 60.000000 3.211013 4.797937 0.083146 1.192624 4.797937 0.083146 1.192624 0.000000 0.000000 0.000000 -0.748926 8.766827 9.232294 5.000000 0.000000 0.000000 4.548146 4.278535 -4.486860 23.451911 0.145633 -2.460147 0.000000 0.000000 0.000000 0.000000 0.000000 0.000000 -2.763693 1.231644 -0.339415 12.401206 2.152166 0.740428 0.000000 0.000000 0.000000 0.000000 0.000000 0.000000 1.924010 0.307934 -1.524626 0.841081 0.375799 14.257383 0.000000 0.000000 0.000000 -20.356149 2.034651 -15.595522 -18.169964 2.909981 5.740831 0.000000 0.000000 0.000000
3.084404 60.000000 4.385714 5.424934 0.407265 4.263119 5.424934 0.407265 4.263119 0.000000 0.000000 0.000000 2.449150 13.801292 14.621705 5.000000 0.000000 0.000000 11.593012 3.084850 1.668155 27.555756 1.833409 -2.877138 0.000000 0.000000 0.000000 0.000000 0.000000 0.000000 -7.691342 0.783151 4.762380 10.947301 3.539440 0.687036 0.000000 0.000000 0.000000 0.000000 0.000000 0.000000 -1.091392 0.313254 -3.504233 1.205133 0.442929 18.567527 0.000000 0.000000 0.000000 -17.834315 2.086888 -14.194087 -16.711949 2.671301 5.506441 0.000000 0.000000 0.000000
2.495143 60.000000 4.770275 5.237523 0.481351 4.851784 5.237523 0.481351 4.851784 0.000000 0.000000 0.000000 3.548997 15.364695 16.460128 5.000000 0.000000 0.000000 17.420421 5.598867 1.209815 27.370475 3.637290 -2.846207 0.000000 0.000000 0.000000 0.000000 0.000000 0.000000 -9.019121 0.631275 6.349685 11.789141 3.622251 0.758100 0.000000 0.000000 0.000000 0.000000 0.000000 0.000000 -1.915991 0.294629 -3.986700 3.083607 0.593750 22.265369 0.000000 0.000000 0.000000 -22.238522 2.021148 -14.117184 -12.519880 2.031497 4.992463 0.000000 0.000000 0.000000
0.686243 60.000000 8.894072 2.913490 0.513329 4.282214 2.913490 0.513329 4.282214 0.000000 0.000000 0.000000 2.807819 11.225523 12.150186 5.000000 0.000000 0.000000 14.778910 5.011676 0.618126 23.967455 3.389489 -2.558499 0.000000 0.000000 0.000000 0.000000 0.000000 0.000000 -5.330276 -1.171827 7.148758 11.141425 3.184585 0.720880 0.000000 0.000000 0.000000 0.000000 0.000000 0.000000 -0.277959 -0.234399 1.066281 6.125992 0.797439 19.379910 0.000000 0.000000 0.000000 -28.215549 1.984657 -14.143881 -10.648179 1.595166 4.474219 0.000000 0.000000 0.000000
-0.307804 60.000000 16.485582 0.875549 0.268486 2.326839 0.875549 0.268486 2.326839 0.000000 0.000000 0.000000 -0.843172 0.179120 1.230563 5.000000 0.000000 0.000000 7.245546 2.762215 -0.755077 18.273323 1.485079 -2.038254 0.000000 0.000000 0.000000 0.000000 0.000000 0.000000 -1.936726 -0.489068 2.832305 5.969386 1.052490 0.509129 0.000000 0.000000 0.000000 0.000000 0.000000 0.000000 5.721591 -1.233538 8.216894 4.851692 0.884385 14.569008 0.000000 0.000000 0.000000 -18.687999 2.170355 -10.317154 -22.603102 1.373012 0.567670 0.000000 0.000000 0.000000
-1.647584 60.000000 26.723478 -2.450363 -0.298319 -1.844109 -2.450363 -0.298319 -1.844109 0.000000 0.000000 0.000000 -4.484051 -16.564120 -15.021702 5.000000 0.000000 0.000000 0.567274 4.888143 -7.777160 22.614162 -2.608585 -2.397241 0.000000 0.000000 0.000000 0.000000 0.000000 0.000000 3.839857 -0.775152 -3.626452 -2.873189 -4.171467 0.315312 0.000000 0.000000 0.000000 0.000000 0.000000 0.000000 17.702646 -2.162666 11.422905 6.565357 1.194665 11.174024 0.000000 0.000000 0.000000 -19.146174 2.281909 -5.268260 -31.070944 -1.139366 -7.021492 0.000000 0.000000 0.000000
-3.001787 60.000000 33.742923 -1.632841 -0.877560 -5.686265 -1.632841 -0.877560 -5.686265 0.000000 0.000000 0.000000 0.384307 -25.913472 -25.757211 5.000000 0.000000 0.000000 4.406610 7.814142 -9.721681 33.754839 -4.427340 -3.787363 0.000000 0.000000 0.000000 0.000000 0.000000 0.000000 14.340002 -18.329395 13.214539 -0.166217 -9.829547 0.529056 0.000000 0.000000 0.000000 0.000000 0.000000 0.000000 22.448324 -2.896918 13.268898 6.287684 1.258556 8.615844 0.000000 0.000000 0.000000 -19.745409 2.346475 -4.267639 -35.263228 -3.770066 -12.876953 0.000000 0.000000 0.000000
-1.961476 60.000000 33.870952 1.928685 -1.312972 -9.413005 1.928685 -1.312972 -9.413005 0.000000 0.000000 0.000000 2.536304 -25.050098 -26.158615 5.000000 0.000000 0.000000 6.753973 8.219203 -8.599838 39.286571 -5.280453 -4.541138 0.000000 0.000000 0.000000 0.000000 0.000000 0.000000 19.908199 -44.990775 43.881195 15.728143 -10.413236 0.106667 0.000000 0.000000 0.000000 0.000000 0.000000 0.000000 21.671517 -2.508605 12.145340 5.446172 1.149094 7.313167 0.000000 0.000000 0.000000 -18.669951 2.242954 -5.225080 -33.198427 -4.667367 -15.069598 0.000000 0.000000 0.000000
1.920813 60.000000 24.166027 2.636704 -1.294207 -9.633760 2.636704 -1.294207 -9.633760 0.000000 0.000000 0.000000 1.040629 -23.067461 -23.465736 5.000000 0.000000 0.000000 6.336537 8.018731 -8.557893 32.867651 -4.979783 -3.648845 0.000000 0.000000 0.000000 0.000000 0.000000 0.000000 22.514978 -35.357528 30.511469 19.973353 -5.885133 0.266748 0.000000 0.000000 0.000000 0.000000 0.000000 0.000000 19.306029 -1.654295 9.648821 0.667468 0.283231 7.701418 0.000000 0.000000 0.000000 -17.085729 2.138502 -6.529915 -26.154731 -2.948519 -11.743093 0.000000 0.000000 0.000000
5.283338 60.000000 12.406824 3.142433 -1.032692 -7.648505 3.142433 -1.032692 -7.648505 0.000000 0.000000 0.000000 -2.070657 -16.393690 -15.727858 5.000000 0.000000 0.000000 3.223648 4.807221 -5.940905 22.826183 -4.985753 -2.329546 0.000000 0.000000 0.000000 0.000000 0.000000 0.000000 17.639067 -17.907254 13.403673 14.353069 -1.394700 0.689449 0.000000 0.000000 0.000000 0.000000 0.000000 0.000000 16.133210 -0.893988 6.993842 -3.293033 -0.363368 9.365231 0.000000 0.000000 0.000000 -14.007924 1.960380 -7.727643 -21.022634 -0.438937 -3.875412 0.000000 0.000000 0.000000
8.395340 60.000000 4.233851 6.544765 -0.596681 -5.256472 6.544765 -0.596681 -5.256472 0.000000 0.000000 0.000000 -5.297663 -4.348130 -3.242863 5.000000 0.000000 0.000000 4.159525 2.411159 -1.523160 21.123007 -3.477267 -2.159640 0.000000 0.000000 0.000000 0.000000 0.000000 0.000000 12.159004 1.711645 -10.122803 10.875959 -0.426377 0.585343 0.000000 0.000000 0.000000 0.000000 0.000000 0.000000 11.273482 -0.245377 3.959044 -3.846893 -0.312310 13.958089 0.000000 0.000000 0.000000 -12.551458 1.868956 -5.511188 -11.777582 1.511897 3.027406 0.000000 0.000000 0.000000
11.092587 60.000000 2.534222 8.678978 -0.240428 -2.197606 8.678978 -0.240428 -2.197606 0.000000 0.000000 0.000000 -5.978768 6.611474 7.364791 5.000000 0.000000 0.000000 4.169709 3.029118 -2.464282 17.515669 -1.431516 -1.851192 0.000000 0.000000 0.000000 0.000000 0.000000 0.000000 -0.150003 2.944185 -5.756023 12.497626 1.094809 0.678918 0.000000 0.000000 0.000000 0.000000 0.000000 0.000000 5.781707 0.122697 1.370807 -0.331050 0.327314 20.423580 0.000000 0.000000 0.000000 -16.263414 2.111946 1.703311 -10.587519 0.113253 -2.281681 0.000000 0.000000 0.000000
11.326974 60.000000 4.124539 7.870745 0.017316 0.915099 7.870745 0.017316 0.915099 0.000000 0.000000 0.000000 -4.571492 13.796796 14.082633 5.000000 0.000000 0.000000 5.009252 4.405795 -4.127318 12.835049 1.413575 -1.486954 0.000000 0.000000 0.000000 0.000000 0.000000 0.000000 -6.141851 1.825281 0.674146 8.031993 2.411520 0.442967 0.000000 0.000000 0.000000 0.000000 0.000000 0.000000 5.316623 0.106782 1.258759 3.003754 0.583937 23.472164 0.000000 0.000000 0.000000 -20.997837 2.826916 6.102769 -11.773390 -1.120877 -7.639506 0.000000 0.000000 0.000000
8.869173 60.000000 6.769645 5.914165 0.222008 2.582171 5.914165 0.222008 2.582171 0.000000 0.000000 0.000000 -7.970474 7.917492 8.524445 5.000000 0.000000 0.000000 3.145442 3.956309 -4.615312 12.932119 0.191120 -1.421077 0.000000 0.000000 0.000000 0.000000 0.000000 0.000000 -3.695443 0.123799 2.542495 8.298196 1.344407 0.449313 0.000000 0.000000 0.000000 0.000000 0.000000 0.000000 10.259519 0.038886 2.695219 7.924916 0.931112 21.315676 0.000000 0.000000 0.000000 -23.168876 3.231827 6.618662 -13.689583 -1.638350 -9.588690 0.000000 0.000000 0.000000
5.390034 60.000000 7.258096 1.496495 0.389733 2.875584 1.496495 0.389733 2.875584 0.000000 0.000000 0.000000 -10.067354 -4.045056 -2.217521 5.000000 0.000000 0.000000 1.206808 3.116451 -4.516811 17.606764 -2.285536 -1.801748 0.000000 0.000000 0.000000 0.000000 0.000000 0.000000 2.384032 -2.656948 3.535134 9.547802 -0.454165 0.506749 0.000000 0.000000 0.000000 0.000000 0.000000 0.000000 13.304814 -0.674736 6.511417 10.679774 1.533668 16.211920 0.000000 0.000000 0.000000 -23.006762 3.186467 6.356985 -17.063388 -1.972460 -10.428170 0.000000 0.000000 0.000000
1.993641 60.000000 5.722727 -2.136033 0.433223 2.386877 -2.136033 0.433223 2.386877 0.000000 0.000000 0.000000 -8.804227 -15.113274 -11.636901 5.000000 0.000000 0.000000 -1.520650 2.079573 -4.640073 25.746674 -4.494843 -2.693262 0.000000 0.000000 0.000000 0.000000 0.000000 0.000000 4.300736 -3.910543 4.478383 9.743043 -2.328406 0.487635 0.000000 0.000000 0.000000 0.000000 0.000000 0.000000 12.108091 -1.617717 10.372489 13.625064 2.330908 10.488013 0.000000 0.000000 0.000000 -24.083356 3.371596 6.016888 -19.322338 -2.481420 -11.879391 0.000000 0.000000 0.000000
-0.476510 60.000000 0.795260 -2.360743 0.312466 1.595782 -2.360743 0.312466 1.595782 0.000000 0.000000 0.000000 -12.397661 -16.347389 -11.396757 5.000000 0.000000 0.000000 -1.834624 2.870681 -6.257535 33.239353 -3.666158 -3.662953 0.000000 0.000000 0.000000 0.000000 0.000000 0.000000 3.870272 -3.471509 3.995443 8.756553 -3.793176 0.433152 0.000000 0.000000 0.000000 0.000000 0.000000 0.000000 12.926368 -1.390626 9.234671 12.935752 2.395710 8.704939 0.000000 0.000000 0.000000 -21.940972 2.995322 4.270730 -18.894492 -2.410730 -11.691632 0.000000 0.000000 0.000000
-1.847693 60.000000 -4.858904 1.019359 0.095852 0.608307 1.019359 0.095852 0.608307 0.000000 0.000000 0.000000 -10.680095 -7.327044 -4.025380 5.000000 0.000000 0.000000 -1.576708 4.069059 -8.154428 30.013248 -2.761617 -3.274556 0.000000 0.000000 0.000000 0.000000 0.000000 0.000000 3.381642 -2.871044 3.091754 6.903322 -2.389342 0.395905 0.000000 0.000000 0.000000 0.000000 0.000000 0.000000 10.596195 -0.933533 7.256791 11.059847 2.106407 8.379322 0.000000 0.000000 0.000000 -17.142958 2.175703 0.018563 -17.823758 -0.609543 -5.358957 0.000000 0.000000 0.000000
0.638235 60.000000 -5.074268 6.376838 -0.040437 0.156127 6.376838 -0.040437 0.156127 0.000000 0.000000 0.000000 -4.460745 7.924244 9.131160 5.000000 0.000000 0.000000 2.339953 5.284249 -7.146960 21.967381 -0.198404 -2.378508 0.000000 0.000000 0.000000 0.000000 0.000000 0.000000 -0.644343 -0.278544 0.692214 8.749627 1.153468 0.519075 0.000000 0.000000 0.000000 0.000000 0.000000 0.000000 6.217305 -0.553855 5.473238 9.732650 1.828515 8.933476 0.000000 0.000000 0.000000 -17.378376 2.153339 -3.862641 -12.397427 1.387727 3.066657 0.000000 0.000000 0.000000
6.622989 60.000000 2.771928 9.487525 -0.026914 1.059687 9.487525 -0.026914 1.059687 0.000000 0.000000 0.000000 5.064838 19.697943 22.449239 5.000000 0.000000 0.000000 11.720039 11.251929 -8.215547 18.900013 4.438924 -2.186723 0.000000 0.000000 0.000000 0.000000 0.000000 0.000000 -8.754036 3.488204 -1.513664 14.751535 3.206754 1.035878 0.000000 0.000000 0.000000 0.000000 0.000000 0.000000 1.370704 -0.663264 5.487481 10.819846 2.096351 7.746791 0.000000 0.000000 0.000000 -21.441140 2.501308 -1.831163 -2.741780 1.115121 6.720509 0.000000 0.000000 0.000000
10.373117 60.000000 10.860785 10.900660 0.154374 4.298266 10.900660 0.154374 4.298266 0.000000 0.000000 0.000000 18.044344 23.896686 31.735839 5.000000 0.000000 0.000000 24.051999 25.399102 -16.373286 24.826002 9.265121 -2.104627 0.000000 0.000000 0.000000 0.000000 0.000000 0.000000 -14.731753 5.122723 -1.392433 22.751684 5.378056 1.954909 0.000000 0.000000 0.000000 0.000000 0.000000 0.000000 -0.393283 -0.246835 1.647881 10.430617 2.371171 2.950501 0.000000 0.000000 0.000000 -18.516715 2.152235 3.348637 3.221283 0.365511 9.346892 0.000000 0.000000 0.000000
9.180204 60.000000 12.717360 11.029631 0.279461 6.457149 11.029631 0.279461 6.457149 0.000000 0.000000 0.000000 28.072738 25.735786 39.174349 5.000000 0.000000 0.000000 17.427225 36.711829 -33.922576 41.502540 14.420780 -0.940270 0.000000 0.000000 0.000000 0.000000 0.000000 0.000000 -20.260147 7.336882 -3.140024 31.651887 7.018996 3.046320 0.000000 0.000000 0.000000 0.000000 0.000000 0.000000 -0.558639 0.570378 -5.219201 10.746940 2.896286 -3.500942 0.000000 0.000000 0.000000 -16.162141 1.816715 6.780748 10.350394 -0.301173 12.116114 0.000000 0.000000 0.000000
6.200551 60.000000 10.351611 9.947169 0.253303 5.347682 9.947169 0.253303 5.347682 0.000000 0.000000 0.000000 30.156214 26.339000 41.537077 5.000000 0.000000 0.000000 4.090845 30.079074 -40.026166 54.805435 14.883174 0.562186 0.000000 0.000000 0.000000 0.000000 0.000000 0.000000 -13.384730 5.249142 -2.361586 29.998647 6.644863 2.823507 0.000000 0.000000 0.000000 0.000000 0.000000 0.000000 1.227318 0.409053 -2.542459 13.298395 2.624379 6.152807 0.000000 0.000000 0.000000 -20.837635 2.516370 -1.161755 4.655372 -0.379817 0.192238 0.000000 0.000000 0.000000
-0.422688 60.000000 6.353406 7.575045 0.007251 1.690102 7.575045 0.007251 1.690102 0.000000 0.000000 0.000000 24.865906 21.725404 31.891213 5.000000 0.000000 0.000000 11.252758 22.935939 -25.927830 31.504398 10.810347 -1.868760 0.000000 0.000000 0.000000 0.000000 0.000000 0.000000 -8.786427 4.965078 -5.131301 18.204508 5.204097 1.397028 0.000000 0.000000 0.000000 0.000000 0.000000 0.000000 5.631360 0.469432 -1.204930 15.265739 2.646151 9.765651 0.000000 0.000000 0.000000 -26.244224 3.081196 -2.024951 -4.588631 -0.281225 -2.888926 0.000000 0.000000 0.000000
-8.209852 60.000000 9.508504 2.281419 -0.290988 -1.873542 2.281419 -0.290988 -1.873542 0.000000 0.000000 0.000000 16.601972 9.393740 12.068454 5.000000 0.000000 0.000000 23.385042 14.802323 -5.520420 23.051716 2.902390 -2.742730 0.000000 0.000000 0.000000 0.000000 0.000000 0.000000 1.744044 0.553316 -6.629694 7.814294 1.504035 0.148371 0.000000 0.000000 0.000000 0.000000 0.000000 0.000000 12.509565 0.021809 2.688764 11.942267 2.317705 7.536165 0.000000 0.000000 0.000000 -27.524213 3.198579 -2.244565 -13.936121 -0.493694 -4.713690 0.000000 0.000000 0.000000
-11.058887 60.000000 17.140202 -1.100092 -0.507175 -3.299355 -1.100092 -0.507175 -3.299355 0.000000 0.000000 0.000000 9.160970 -6.397884 -9.177368 5.000000 0.000000 0.000000 16.781150 6.506681 -0.260497 31.496533 -2.851866 -3.372244 0.000000 0.000000 0.000000 0.000000 0.000000 0.000000 29.521853 -21.518184 3.940083 14.118884 -6.729908 0.524679 0.000000 0.000000 0.000000 0.000000 0.000000 0.000000 21.262706 -0.375528 5.530542 8.829994 1.813418 6.454516 0.000000 0.000000 0.000000 -27.725261 3.218550 -2.287087 -23.372974 -1.304251 -7.858916 0.000000 0.000000 0.000000
-7.812127 60.000000 23.056146 2.372657 -0.696022 -5.073607 2.372657 -0.696022 -5.073607 0.000000 0.000000 0.000000 9.073157 -12.443129 -16.131958 5.000000 0.000000 0.000000 16.126505 6.057667 -0.135109 28.993692 -5.298827 -3.155101 0.000000 0.000000 0.000000 0.000000 0.000000 0.000000 37.985177 -52.739392 34.146034 10.545561 -10.566569 0.272380 0.000000 0.000000 0.000000 0.000000 0.000000 0.000000 21.775300 -0.577524 6.195908 5.042184 1.102563 5.626610 0.000000 0.000000 0.000000 -23.694648 2.786584 -2.459096 -26.667580 -2.137801 -10.030918 0.000000 0.000000 0.000000
-4.032198 60.000000 21.177180 4.035728 -0.734136 -5.842465 4.035728 -0.734136 -5.842465 0.000000 0.000000 0.000000 6.100528 -12.476627 -14.797832 5.000000 0.000000 0.000000 12.238623 7.466437 -4.316266 32.775689 -5.197366 -3.656002 0.000000 0.000000 0.000000 0.000000 0.000000 0.000000 20.394244 -46.188906 44.281033 15.243019 -8.827911 0.182487 0.000000 0.000000 0.000000 0.000000 0.000000 0.000000 20.148731 -0.651693 6.391381 1.877623 0.478088 4.731999 0.000000 0.000000 0.000000 -21.220816 2.534446 -2.568806 -25.584379 -2.380934 -10.650370 0.000000 0.000000 0.000000
-1.280637 60.000000 21.780488 5.296805 -0.640754 -5.506508 5.296805 -0.640754 -5.506508 0.000000 0.000000 0.000000 3.943247 -15.678587 -17.370824 5.000000 0.000000 0.000000 5.363478 6.472423 -7.100479 32.768194 -4.125188 -3.623441 0.000000 0.000000 0.000000 0.000000 0.000000 0.000000 22.440885 -31.300662 26.344931 16.925122 -5.711324 0.468002 0.000000 0.000000 0.000000 0.000000 0.000000 0.000000 16.881547 -0.697966 6.488883 -0.300156 0.026696 4.663190 0.000000 0.000000 0.000000 -17.251029 2.234798 -3.676224 -20.333393 -1.140749 -6.908683 0.000000 0.000000 0.000000
-0.281893 60.000000 17.956910 5.248519 -0.583008 -4.909378 5.248519 -0.583008 -4.909378 0.000000 0.000000 0.000000 2.197321 -12.852116 -13.729998 5.000000 0.000000 0.000000 8.363340 5.280233 -3.351479 29.505229 -3.498788 -3.186477 0.000000 0.000000 0.000000 0.000000 0.000000 0.000000 18.057365 -15.344599 10.724749 18.093404 -3.858992 0.572453 0.000000 0.000000 0.000000 0.000000 0.000000 0.000000 14.530669 -0.739636 6.375185 0.556016 0.175340 5.594138 0.000000 0.000000 0.000000 -10.843313 1.943650 -7.206401 -13.277280 0.626197 0.294938 0.000000 0.000000 0.000000
-0.903749 60.000000 6.718010 7.052034 -0.465328 -4.149518 7.052034 -0.465328 -4.149518 0.000000 0.000000 0.000000 1.271833 -5.588743 -6.112355 5.000000 0.000000 0.000000 9.134573 3.733155 -0.670010 27.614751 -2.778971 -2.959873 0.000000 0.000000 0.000000 0.000000 0.000000 0.000000 13.233914 -0.819257 -6.909936 11.563260 -1.533730 0.641263 0.000000 0.000000 0.000000 0.000000 0.000000 0.000000 9.229626 -0.590392 4.584344 3.408886 0.625609 8.482265 0.000000 0.000000 0.000000 -4.645664 1.697254 -9.473221 -7.251844 2.057883 7.926435 0.000000 0.000000 0.000000
-2.149014 60.000000 -4.787488 8.940456 -0.180650 -1.436347 8.940456 -0.180650 -1.436347 0.000000 0.000000 0.000000 -0.263609 2.588351 2.941986 5.000000 0.000000 0.000000 9.849272 2.341926 1.726862 23.606514 -0.615714 -2.529821 0.000000 0.000000 0.000000 0.000000 0.000000 0.000000 0.972987 2.474701 -5.702667 16.770915 1.323349 1.013506 0.000000 0.000000 0.000000 0.000000 0.000000 0.000000 1.740380 0.142002 -0.047704 6.755775 1.147719 13.888272 0.000000 0.000000 0.000000 -12.536412 1.846155 -7.101113 -5.485778 1.950081 8.687106 0.000000 0.000000 0.000000
-1.260058 60.000000 -4.505762 8.443837 0.147567 2.496764 8.443837 0.147567 2.496764 0.000000 0.000000 0.000000 3.221506 11.116921 12.043826 5.000000 0.000000 0.000000 12.145628 2.268258 3.067196 19.100006 2.398910 -2.147310 0.000000 0.000000 0.000000 0.000000 0.000000 0.000000 -4.186662 1.503161 0.180516 18.441464 2.668878 1.203328 0.000000 0.000000 0.000000 0.000000 0.000000 0.000000 0.719056 -0.079547 1.661969 5.668535 0.976650 14.573472 0.000000 0.000000 0.000000 -19.723186 2.315093 -6.605930 -0.518135 1.284980 8.828003 0.000000 0.000000 0.000000
1.368160 60.000000 0.092885 7.564458 0.394821 5.252366 7.564458 0.394821 5.252366 0.000000 0.000000 0.000000 7.427116 17.619605 19.728263 5.000000 0.000000 0.000000 18.239946 5.064093 1.965842 18.273336 4.531810 -2.178339 0.000000 0.000000 0.000000 0.000000 0.000000 0.000000 -8.282434 0.471056 6.098933 16.347456 4.258230 1.203392 0.000000 0.000000 0.000000 0.000000 0.000000 0.000000 -1.203701 -0.615680 5.122002 10.133749 1.499416 13.356193 0.000000 0.000000 0.000000 -25.426271 2.770035 -5.304263 -0.666488 1.018380 7.001510 0.000000 0.000000 0.000000
-0.022061 60.000000 3.347860 8.425213 0.428789 6.177920 8.425213 0.428789 6.177920 0.000000 0.000000 0.000000 9.522616 20.121400 23.675027 5.000000 0.000000 0.000000 22.014966 2.964748 7.547840 6.091366 5.337364 0.306400 0.000000 0.000000 0.000000 0.000000 0.000000 0.000000 -13.481972 2.000772 7.286342 31.567613 5.417518 3.330123 0.000000 0.000000 0.000000 0.000000 0.000000 0.000000 0.608704 -0.316764 2.765972 14.509774 1.860822 16.006749 0.000000 0.000000 0.000000 -27.957948 3.044645 -4.417537 -2.938005 0.790980 3.898358 0.000000 0.000000 0.000000
-7.072552 60.000000 6.478977 7.696967 0.494936 6.493876 7.696967 0.494936 6.493876 0.000000 0.000000 0.000000 16.101355 22.241809 29.313533 5.000000 0.000000 0.000000 3.425230 -4.347330 13.465083 -39.136228 6.113835 9.252818 0.000000 0.000000 0.000000 0.000000 0.000000 0.000000 -28.483449 7.741605 7.272300 66.548461 6.278854 8.861773 0.000000 0.000000 0.000000 0.000000 0.000000 0.000000 1.774491 -0.551630 4.673900 14.871578 2.036832 14.833308 0.000000 0.000000 0.000000 -27.857268 2.998952 -5.121110 -5.688054 0.367065 0.293143 0.000000 0.000000 0.000000
-14.777551 60.000000 9.130175 6.068389 0.492081 5.645590 6.068389 0.492081 5.645590 0.000000 0.000000 0.000000 23.554260 21.174983 31.235793 5.000000 0.000000 0.000000 -27.868968 -11.109034 14.187937 -73.168788 6.387065 16.334066 0.000000 0.000000 0.000000 0.000000 0.000000 0.000000 -30.343528 7.948860 7.445386 95.608000 5.294802 13.182864 0.000000 0.000000 0.000000 0.000000 0.000000 0.000000 4.700687 -0.962000 7.526313 15.062456 2.431755 11.742135 0.000000 0.000000 0.000000 -27.111383 2.866419 -6.096605 -9.017121 -0.402644 -4.076384 0.000000 0.000000 0.000000
-16.385379 60.000000 12.374773 2.505477 0.472568 3.643206 2.505477 0.472568 3.643206 0.000000 0.000000 0.000000 9.617862 10.142962 12.388241 5.000000 0.000000 0.000000 3.162767 -3.531083 8.284746 33.985507 -0.173500 -3.545122 0.000000 0.000000 0.000000 0.000000 0.000000 0.000000 12.036068 -11.742250 9.130363 31.852793 0.276575 1.984705 0.000000 0.000000 0.000000 0.000000 0.000000 0.000000 10.420526 -1.139014 8.364363 15.863517 2.986920 8.014682 0.000000 0.000000 0.000000 -31.122763 3.449999 -3.302733 -14.144661 -0.970145 -7.065389 0.000000 0.000000 0.000000
-13.304625 60.000000 17.930447 3.344843 0.136448 0.971795 3.344843 0.136448 0.971795 0.000000 0.000000 0.000000 1.867188 -4.345235 -4.799733 5.000000 0.000000 0.000000 7.866015 2.105797 0.938514 28.111003 -2.583543 -2.951658 0.000000 0.000000 0.000000 0.000000 0.000000 0.000000 26.948500 -30.281640 19.862918 19.219206 -5.112307 0.611232 0.000000 0.000000 0.000000 0.000000 0.000000 0.000000 13.445987 -1.162019 8.315050 15.631759 3.271337 5.499958 0.000000 0.000000 0.000000 -32.156787 3.736727 -1.827156 -13.715091 -1.487634 -9.054709 0.000000 0.000000 0.000000
-9.505884 60.000000 21.836631 5.387851 -0.228139 -1.632183 5.387851 -0.228139 -1.632183 0.000000 0.000000 0.000000 -0.187781 -9.851657 -9.943219 5.000000 0.000000 0.000000 8.423379 3.021525 -0.320625 22.716458 -4.635563 -2.344865 0.000000 0.000000 0.000000 0.000000 0.000000 0.000000 32.168387 -47.026989 33.344249 7.066369 -5.979302 0.410058 0.000000 0.000000 0.000000 0.000000 0.000000 0.000000 16.468505 -1.113513 8.011815 16.298486 3.620693 3.695643 0.000000 0.000000 0.000000 -31.922001 3.727702 -1.709794 -13.997580 -1.879266 -10.517843 0.000000 0.000000 0.000000
-6.528014 60.000000 20.255610 2.901882 -0.293251 -2.086736 2.901882 -0.293251 -2.086736 0.000000 0.000000 0.000000 0.997136 -18.338061 -18.863478 5.000000 0.000000 0.000000 2.203281 3.642800 -4.710121 27.029219 -5.471848 -2.895450 0.000000 0.000000 0.000000 0.000000 0.000000 0.000000 25.530513 -36.008041 28.520940 14.384298 -5.428436 0.476334 0.000000 0.000000 0.000000 0.000000 0.000000 0.000000 16.745866 -0.884037 7.157226 14.186455 3.293914 2.264946 0.000000 0.000000 0.000000 -29.558806 3.472325 -2.242974 -17.256023 -1.649785 -9.655984 0.000000 0.000000 0.000000
-4.085311 60.000000 12.122390 1.171821 -0.275481 -1.830289 1.171821 -0.275481 -1.830289 0.000000 0.000000 0.000000 -1.394549 -15.805337 -15.719251 5.000000 0.000000 0.000000 2.650755 3.655948 -4.380423 21.595397 -4.658376 -2.160866 0.000000 0.000000 0.000000 0.000000 0.000000 0.000000 18.159843 -23.771690 19.913597 14.305211 -3.457325 0.578516 0.000000 0.000000 0.000000 0.000000 0.000000 0.000000 16.353635 -0.608483 6.119091 10.512020 2.603994 0.565414 0.000000 0.000000 0.000000 -23.463815 2.775018 -5.078801 -21.232711 0.110546 -3.855697 0.000000 0.000000 0.000000
-2.695452 60.000000 7.280877 2.054886 -0.251163 -1.686804 2.054886 -0.251163 -1.686804 0.000000 0.000000 0.000000 -7.109780 -4.474987 -2.485038 5.000000 0.000000 0.000000 -1.884356 1.367871 -3.622388 19.668912 -2.935485 -1.917697 0.000000 0.000000 0.000000 0.000000 0.000000 0.000000 3.636108 -6.167250 8.976950 11.716585 -2.572044 0.589864 0.000000 0.000000 0.000000 0.000000 0.000000 0.000000 15.402938 0.017978 3.695893 10.134225 2.555416 0.000825 0.000000 0.000000 0.000000 -17.693935 2.131049 -10.171595 -20.240170 2.930361 5.325184 0.000000 0.000000 0.000000
