HIERARCHY
ROOT Hips
{
  OFFSET 0.000000 0.000000 0.000000
  CHANNELS 6 Xposition Yposition Zposition Xrotation Yrotation Zrotation
  JOINT Spine
  {
    OFFSET 0.211591 24.227834 -3.764787
    CHANNELS 3 Xrotation Yrotation Zrotation
    JOINT Chest
    {
      OFFSET 0.211591 24.227834 -3.764787
      CHANNELS 3 Xrotation Yrotation Zrotation
      JOINT Neck
      {
        OFFSET -1.100772 8.441563 -3.430650
        CHANNELS 3 Xrotation Yrotation Zrotation
        JOINT Head
        {
          OFFSET -1.192129 7.757112 -7.601908
          CHANNELS 3 Xrotation Yrotation Zrotation
          End Site
          {
            OFFSET -0.357639 2.327134 -2.280572
          }
        }
      }
      JOINT LeftShoulder
      {
        OFFSET 17.192089 0.613400 -1.554494
        CHANNELS 3 Xrotation Yrotation Zrotation
        JOINT LeftArm
        {
          OFFSET 6.822346 -20.001605 -11.416031
          CHANNELS 3 Xrotation Yrotation Zrotation
          JOINT LeftForeArm
          {
            OFFSET -10.811707 -3.287858 -20.004664
            CHANNELS 3 Xrotation Yrotation Zrotation
            JOINT LeftHand
            {
              OFFSET -2.972239 -0.032078 -2.791873
              CHANNELS 3 Xrotation Yrotation Zrotation
              End Site
              {
                OFFSET -0.891672 -0.009623 -0.837562
              }
            }
          }
        }
      }
      JOINT RightShoulder
      {
        OFFSET -17.192089 -0.613400 1.554494
        CHANNELS 3 Xrotation Yrotation Zrotation
        JOINT RightArm
        {
          OFFSET -7.078612 -20.128798 -9.457155
          CHANNELS 3 Xrotation Yrotation Zrotation
          JOINT RightForeArm
          {
            OFFSET 6.068787 -1.370308 -22.325569
            CHANNELS 3 Xrotation Yrotation Zrotation
            JOINT RightHand
            {
              OFFSET 2.627653 0.279547 -3.282648
              CHANNELS 3 Xrotation Yrotation Zrotation
              End Site
              {
                OFFSET 0.788296 0.083864 -0.984794
              }
            }
          }
        }
      }
    }
  }
  JOINT LeftUpLeg
  {
    OFFSET 11.367086 0.027478 -2.758015
    CHANNELS 3 Xrotation Yrotation Zrotation
    JOINT LeftLeg
    {
      OFFSET 2.451199 -39.057141 -4.768226
      CHANNELS 3 Xrotation Yrotation Zrotation
      JOINT LeftFoot
      {
        OFFSET 10.058204 -39.973237 0.774249
        CHANNELS 3 Xrotation Yrotation Zrotation
        End Site
        {
          OFFSET 3.017461 -11.991971 0.232275
        }
      }
    }
  }
  JOINT RightUpLeg
  {
    OFFSET -11.367086 -0.027478 2.758015
    CHANNELS 3 Xrotation Yrotation Zrotation
    JOINT RightLeg
    {
      OFFSET -4.668361 -37.080477 -5.635053
      CHANNELS 3 Xrotation Yrotation Zrotation
      JOINT RightFoot
      {
        OFFSET -2.542494 -41.040053 5.594103
        CHANNELS 3 Xrotation Yrotation Zrotation
        End Site
        {
          OFFSET -0.762748 -12.312016 1.678231
        }
      }
    }
  }
}
MOTION
Frames: 96
Frame Time: 0.083333
0.000000 60.000000 0.000000 -0.947731 0.087041 0.456756 -9.780712 0.001355 -0.029465 -10.780343 0.147590 1.246813 -1.096270 -1.012926 -0.823959 5.000000 0.000000 0.000000 1.736840 0.323090 0.456205 7.645937 -0.590864 -0.773710 0.000000 0.000000 0.000000 0.000000 0.000000 0.000000 0.794111 -0.282190 0.002214 2.851025 -0.309081 0.159378 0.000000 0.000000 0.000000 0.000000 0.000000 0.000000 -0.842009 -0.037869 -0.138902 -2.162051 -0.530442 0.239047 0.000000 0.000000 0.000000 -3.345043 0.413070 0.052553 -1.598660 -0.038923 -0.839532 0.000000 0.000000 0.000000
0.404420 60.000000 1.105835 -0.697435 0.072172 0.388394 -9.530299 -0.005007 -0.099379 -10.588175 0.134774 1.160875 -0.987918 -1.328574 -1.138276 5.000000 0.000000 0.000000 1.727130 0.300571 0.481776 6.827943 -0.554870 -0.692341 0.000000 0.000000 0.000000 0.000000 0.000000 0.000000 1.046602 -0.311869 -0.114333 2.632807 -0.255006 0.145843 -11.576345 -1.605359 -7.606294 0.000000 0.000000 0.000000 -0.709012 -0.056665 0.112734 -2.064574 -0.498257 0.307541 0.000000 0.000000 0.000000 -2.846786 0.362367 -0.073015 -1.383120 -0.023124 -0.661185 0.000000 0.000000 0.000000
1.336399 60.000000 4.095054 -1.297711 0.155968 0.863712 -10.131267 0.034330 0.383304 -11.303043 0.088614 0.697450 -2.605943 -5.095475 -4.483274 5.000000 0.000000 0.000000 4.794206 0.739373 1.475076 17.060041 -1.466984 -1.734552 0.000000 0.000000 0.000000 0.000000 0.000000 0.000000 3.649363 -0.860225 -0.830601 6.692520 -0.622859 0.367945 -51.881578 -7.194719 -34.089047 0.000000 0.000000 0.000000 -1.570358 -0.224632 1.142407 -5.471480 -1.254193 1.622955 0.000000 0.000000 0.000000 -6.760352 0.902334 -0.652536 -3.438087 -0.020021 -1.404408 0.000000 0.000000 0.000000
2.260113 60.000000 8.201629 -0.519397 0.102127 0.610902 -9.352527 0.010036 0.124940 -10.952231 -0.067097 -0.543623 -3.217530 -10.855344 -9.817617 5.000000 0.000000 0.000000 6.650384 0.772036 2.415794 19.823885 -1.949415 -2.029175 0.000000 0.000000 0.000000 0.000000 0.000000 0.000000 6.869982 -0.923422 -2.827398 7.819136 -0.812956 0.423600 -73.021498 -14.201750 -64.523741 0.000000 0.000000 0.000000 -0.705970 -0.494326 3.725709 -6.932659 -1.367476 4.759228 0.000000 0.000000 0.000000 -7.149568 1.098971 -2.443550 -4.258186 0.063515 -1.145718 0.000000 0.000000 0.000000
2.612822 60.000000 12.603205 -0.718360 0.012630 0.045279 -9.550717 -0.038369 -0.447656 -11.103780 -0.222342 -1.832236 -2.402600 -14.846150 -13.926081 5.000000 0.000000 0.000000 6.906099 0.839514 2.429007 21.794850 -2.389009 -2.254487 0.000000 0.000000 0.000000 0.000000 0.000000 0.000000 8.444821 -0.206886 -5.047744 7.566195 -1.362591 0.409243 56.096240 -10.485649 -37.289464 0.000000 0.000000 0.000000 3.115328 -0.724711 5.772499 -6.885126 -1.091831 7.955547 0.000000 0.000000 0.000000 -8.259432 1.418493 -5.261918 -6.466915 -0.010914 -1.915712 0.000000 0.000000 0.000000
2.479909 60.000000 14.737109 -1.198781 -0.064741 -0.445162 -10.030445 -0.084115 -0.943987 -10.909875 -0.319131 -2.660187 1.251121 -15.792565 -16.353463 5.000000 0.000000 0.000000 6.640249 2.103659 0.252094 26.258675 -3.192661 -2.782663 0.000000 0.000000 0.000000 0.000000 0.000000 0.000000 10.116491 -1.092803 -4.455325 8.775586 -1.955291 0.451782 92.487065 -17.287913 -61.479932 0.000000 0.000000 0.000000 11.847397 -0.963644 7.416176 -7.172093 -1.300231 5.896885 0.000000 0.000000 0.000000 -10.119182 1.787477 -8.973350 -11.057097 -0.380296 -4.037288 0.000000 0.000000 0.000000
2.522454 60.000000 14.161507 -1.489170 -0.150913 -0.991462 -10.320043 -0.131870 -1.496908 -10.931245 -0.429670 -3.600373 3.515864 -17.786326 -19.355368 5.000000 0.000000 0.000000 3.164406 3.742121 -4.304008 30.540228 -3.536743 -3.317923 0.000000 0.000000 0.000000 0.000000 0.000000 0.000000 8.782881 -4.120402 1.484853 9.664541 -2.945604 0.448680 0.000000 0.000000 0.000000 0.000000 0.000000 0.000000 20.083977 -1.055040 7.726355 -5.898344 -1.112674 5.089765 0.000000 0.000000 0.000000 -12.441394 1.987287 -10.559612 -17.849107 -0.803467 -6.518230 0.000000 0.000000 0.000000
2.893939 60.000000 12.618531 -0.299446 -0.319277 -2.100094 -9.128792 -0.199083 -2.618526 -10.326988 -0.489371 -4.336539 2.993038 -18.534848 -19.904714 5.000000 0.000000 0.000000 1.443481 3.957523 -5.782604 30.051932 -3.625038 -3.260207 0.000000 0.000000 0.000000 0.000000 0.000000 0.000000 8.859856 -6.508281 5.521737 12.337781 -3.689567 0.512384 0.000000 0.000000 0.000000 0.000000 0.000000 0.000000 18.215656 -0.974286 7.517417 -6.618010 -1.229478 5.420348 0.000000 0.000000 0.000000 -10.089956 2.094382 -12.661558 -18.737108 -0.269157 -4.751810 0.000000 0.000000 0.000000
3.489879 60.000000 10.741720 1.170971 -0.590453 -4.032429 -7.655912 -0.301686 -4.569233 -9.613251 -0.516213 -4.883825 0.164344 -16.437940 -16.524355 5.000000 0.000000 0.000000 2.178274 2.950089 -3.731381 27.858346 -2.740411 -2.959877 0.000000 0.000000 0.000000 0.000000 0.000000 0.000000 8.176562 -3.857581 1.459816 9.275641 -2.984115 0.450510 0.000000 0.000000 0.000000 0.000000 0.000000 0.000000 11.668509 -1.049636 7.899457 -8.920120 -1.587033 6.570979 0.000000 0.000000 0.000000 -4.456746 2.251241 -15.175668 -16.257052 0.261025 -2.778114 0.000000 0.000000 0.000000
4.577485 60.000000 9.958374 3.075227 -0.573399 -4.252678 -5.751941 -0.242621 -4.783192 -8.564515 -0.410588 -4.341757 -2.529700 -13.868366 -12.935600 5.000000 0.000000 0.000000 5.772406 2.054348 -0.074071 27.694708 -2.009439 -2.933814 0.000000 0.000000 0.000000 0.000000 0.000000 0.000000 6.351122 -1.550275 -1.395541 6.307643 -1.835459 0.345853 0.000000 0.000000 0.000000 0.000000 0.000000 0.000000 7.841894 -1.016975 7.895752 -9.457374 -1.484287 8.506120 0.000000 0.000000 0.000000 -2.118380 2.387536 -16.169495 -11.221846 -0.264200 -4.072054 0.000000 0.000000 0.000000
5.349533 60.000000 9.013909 4.269310 -0.398046 -3.003444 -4.559554 -0.148369 -3.520555 -7.747816 -0.246290 -2.751829 -4.163107 -10.327235 -8.963954 5.000000 0.000000 0.000000 7.537666 1.490067 1.780019 16.622453 -2.165815 -1.625163 0.000000 0.000000 0.000000 0.000000 0.000000 0.000000 4.461518 -0.244529 -2.517546 1.313863 -0.909080 0.098354 0.000000 0.000000 0.000000 0.000000 0.000000 0.000000 5.891999 -1.045114 8.143767 -11.004678 -1.647465 9.461485 0.000000 0.000000 0.000000 -3.223186 2.435768 -16.806832 -12.235222 -0.708214 -5.992626 0.000000 0.000000 0.000000
5.097302 60.000000 9.444477 5.036631 -0.074175 -0.119812 -3.795159 -0.037677 -0.620141 -6.977310 0.031500 0.648541 -3.130146 -1.401267 -0.725571 5.000000 0.000000 0.000000 5.951921 0.836215 1.920840 4.307634 -2.050859 -0.215977 10.942319 1.523579 -8.557540 0.000000 0.000000 0.000000 -0.593117 0.368912 0.029958 -3.431706 0.026802 -0.177270 -11.316899 -2.108646 -6.939797 0.000000 0.000000 0.000000 4.035230 -1.102835 8.630411 -11.698118 -1.654122 10.504427 0.000000 0.000000 0.000000 -4.445926 2.584382 -18.303564 -13.763613 -0.470323 -5.044139 0.000000 0.000000 0.000000
4.261646 60.000000 10.446084 5.949925 0.250010 2.811759 -2.884684 0.071536 2.327830 -6.372469 0.289539 4.050980 -1.586563 6.552677 6.836958 5.000000 0.000000 0.000000 1.156619 0.130551 0.373912 -0.514215 -0.575698 0.143314 49.040071 6.828207 -38.352231 0.000000 0.000000 0.000000 -8.336421 1.153602 4.468227 -1.354332 0.733935 -0.125489 -50.718822 -9.450295 -31.102011 0.000000 0.000000 0.000000 2.527051 -1.248667 9.820015 -9.155760 -1.048091 12.864234 0.000000 0.000000 0.000000 -2.723054 2.802780 -19.554760 -11.522319 0.338432 -1.292377 0.000000 0.000000 0.000000
3.534028 60.000000 10.882226 4.632673 0.508172 4.775034 -4.204013 0.160549 4.305207 -7.153960 0.432488 5.505890 -1.100980 7.423060 7.732127 5.000000 0.000000 0.000000 -1.446140 0.174275 -1.232245 -1.724372 0.534361 0.094782 80.853407 11.257810 -63.232140 0.000000 0.000000 0.000000 -8.208275 0.745946 5.423149 -1.999710 0.881243 -0.171278 -95.160045 -17.292848 -58.778798 0.000000 0.000000 0.000000 1.993499 -1.604662 12.424068 -4.016780 -0.192924 15.150357 0.000000 0.000000 0.000000 -0.937023 2.808696 -17.838128 -7.636645 1.275957 3.810306 0.000000 0.000000 0.000000
1.694793 60.000000 6.881416 4.028759 0.674007 5.855052 -4.809170 0.234795 5.397141 -7.896843 0.511715 5.848504 -4.647758 5.300989 5.843555 5.000000 0.000000 0.000000 1.729898 0.139515 0.679290 1.384108 1.332537 -0.368361 0.000000 0.000000 0.000000 0.000000 0.000000 0.000000 -4.222959 0.060304 3.330921 1.616528 1.597610 0.024108 -51.713513 -7.672406 -33.613794 0.000000 0.000000 0.000000 2.248696 -1.683828 12.870164 1.352609 0.488153 15.141719 0.000000 0.000000 0.000000 -7.442080 2.353681 -11.759409 -6.748213 1.962670 7.579492 0.000000 0.000000 0.000000
-0.754579 60.000000 2.424182 2.710277 0.909266 7.093574 -6.129329 0.356901 6.655664 -9.524901 0.683996 6.530456 -10.946869 4.086590 5.017011 5.000000 0.000000 0.000000 5.116815 -0.615575 3.810668 5.558629 1.119178 -0.740507 0.000000 0.000000 0.000000 0.000000 0.000000 0.000000 -0.076953 -1.032322 2.245684 8.705399 2.036192 0.494672 -85.261169 -12.649659 -55.419777 0.000000 0.000000 0.000000 2.473231 -1.057011 7.991711 5.167370 0.986424 11.444418 0.000000 0.000000 0.000000 -15.745496 1.983584 -3.304432 -3.894168 1.074928 4.867772 0.000000 0.000000 0.000000
-1.246800 60.000000 2.237534 1.692727 0.990808 7.177184 -7.147341 0.418926 6.750267 -10.258762 0.795231 7.041893 -11.852554 6.604679 7.273306 5.000000 0.000000 0.000000 6.671773 -0.791479 4.860953 7.446419 1.687836 -1.003903 0.000000 0.000000 0.000000 0.000000 0.000000 0.000000 -1.008999 -1.004879 3.100397 10.264691 2.501085 0.591908 0.000000 0.000000 0.000000 0.000000 0.000000 0.000000 0.674557 -0.040458 0.541989 5.508996 1.190353 6.558359 0.000000 0.000000 0.000000 -15.391403 1.941274 -1.914583 -2.036828 0.872536 4.846116 0.000000 0.000000 0.000000
-0.919997 60.000000 5.143549 0.454378 0.980542 6.481984 -8.385468 0.446786 6.061160 -10.902936 0.873260 7.289327 -10.246326 10.979746 11.190079 5.000000 0.000000 0.000000 7.661655 0.076139 3.959349 7.511945 2.203282 -1.079642 0.000000 0.000000 0.000000 0.000000 0.000000 0.000000 -4.900225 -1.169513 7.217621 4.515678 3.447540 0.138180 0.000000 0.000000 0.000000 0.000000 0.000000 0.000000 -0.072910 0.256677 -2.149501 6.112938 1.372607 4.339096 0.000000 0.000000 0.000000 -17.090836 2.135022 -2.665990 -3.132778 0.836865 3.954965 0.000000 0.000000 0.000000
-0.580082 60.000000 7.274651 1.010199 0.812725 5.598326 -7.828544 0.354553 5.162372 -10.086356 0.786525 7.103148 -6.167859 14.513437 14.484277 5.000000 0.000000 0.000000 5.573148 0.926583 1.534566 9.049833 2.480076 -1.265748 0.000000 0.000000 0.000000 0.000000 0.000000 0.000000 -8.997218 -1.644303 12.319432 3.429691 4.765310 0.026385 0.000000 0.000000 0.000000 0.000000 0.000000 0.000000 0.130177 0.209669 -1.646817 6.663561 1.389792 6.341519 0.000000 0.000000 0.000000 -20.024722 2.423593 -2.070702 -5.236733 1.092442 4.115650 0.000000 0.000000 0.000000
-0.959493 60.000000 8.350624 1.025901 0.669701 4.709360 -7.811803 0.280549 4.262211 -10.231849 0.727622 6.539571 -6.046615 13.526717 13.549946 5.000000 0.000000 0.000000 1.811921 1.420221 -1.350211 11.831084 1.443898 -1.389943 0.000000 0.000000 0.000000 0.000000 0.000000 0.000000 -6.187715 -1.910733 9.829515 7.254642 4.445657 0.382027 0.000000 0.000000 0.000000 0.000000 0.000000 0.000000 0.623398 0.220443 -1.452439 7.624304 1.421692 10.228824 0.000000 0.000000 0.000000 -18.556939 2.242981 -0.984628 -4.758410 1.611276 7.329336 0.000000 0.000000 0.000000
-1.173546 60.000000 9.339029 -0.440570 0.432516 2.892102 -9.276336 0.165065 2.430410 -11.314525 0.643095 5.360721 -5.570972 13.423040 13.490792 5.000000 0.000000 0.000000 0.197209 2.422536 -4.038347 13.068163 1.594713 -1.513335 0.000000 0.000000 0.000000 0.000000 0.000000 0.000000 -4.600826 -1.180211 6.473005 6.922160 4.208857 0.351185 11.873340 -1.836212 -9.485583 0.000000 0.000000 0.000000 -0.741609 0.241822 -2.732435 5.821247 1.012505 12.789486 0.000000 0.000000 0.000000 -16.357898 1.945106 4.742171 -0.329610 1.306085 9.086063 0.000000 0.000000 0.000000
-3.913416 60.000000 7.863888 -2.489472 0.017493 -0.070781 -11.321724 -0.047381 -0.560709 -12.994136 0.461375 3.196467 -6.179192 14.586644 14.560102 5.000000 0.000000 0.000000 -0.126920 4.663767 -8.058371 16.890864 2.222981 -1.930484 0.000000 0.000000 0.000000 0.000000 0.000000 0.000000 -4.681401 0.539600 2.557079 8.489321 3.881044 0.488027 63.786654 -11.539603 -34.811587 0.000000 0.000000 0.000000 -2.359020 0.605130 -7.282560 3.989561 0.914498 8.638993 0.000000 0.000000 0.000000 -13.810949 1.426770 9.712928 6.253490 0.409162 10.261494 0.000000 0.000000 0.000000
-5.135888 60.000000 7.551823 -1.330120 -0.296174 -1.841647 -10.159680 -0.209497 -2.359139 -12.231180 0.243933 1.819056 -7.355868 14.190537 14.091115 5.000000 0.000000 0.000000 -1.149040 4.373180 -8.303410 12.685239 2.806704 -1.612113 0.000000 0.000000 0.000000 0.000000 0.000000 0.000000 -5.009212 1.527623 0.456506 7.986218 3.832062 0.445430 135.122312 -28.403488 -35.581181 0.000000 0.000000 0.000000 -1.702539 1.524638 -14.366399 6.077947 1.721489 -0.533384 0.000000 0.000000 0.000000 -11.563786 0.972820 9.598947 7.356802 0.488245 13.259036 0.000000 0.000000 0.000000
-4.907559 60.000000 10.027497 0.476350 -0.292078 -1.902310 -8.353328 -0.177136 -2.418037 -10.940289 0.219535 1.839507 -8.124396 13.952596 13.813430 5.000000 0.000000 0.000000 -4.594919 2.830769 -8.223850 7.568908 3.459171 -1.266901 0.000000 0.000000 0.000000 0.000000 0.000000 0.000000 -5.919862 2.419361 -1.037153 5.284628 3.786502 0.215454 78.132134 -24.459798 56.894614 0.000000 0.000000 0.000000 0.280044 2.622606 -20.490036 9.761216 2.987953 -7.338621 0.000000 0.000000 0.000000 -10.944000 0.998117 6.906562 6.854319 0.363464 10.229076 0.000000 0.000000 0.000000
-3.726013 60.000000 13.381772 2.897724 -0.258498 -1.808218 -5.932372 -0.119202 -2.319507 -9.261145 0.194955 1.920456 -5.890148 14.008434 14.044571 5.000000 0.000000 0.000000 -6.789505 2.557989 -9.439541 4.089049 4.124646 -1.079724 0.000000 0.000000 0.000000 0.000000 0.000000 0.000000 -7.377252 3.368334 -2.230162 3.863376 3.965422 0.093425 10.491701 -3.252387 7.533904 0.000000 0.000000 0.000000 -0.189260 2.893241 -23.500741 8.629554 2.689257 -7.905289 0.000000 0.000000 0.000000 -10.047809 1.049876 3.513953 7.246692 0.321935 10.395803 0.000000 0.000000 0.000000
-3.137661 60.000000 13.978132 2.005097 -0.246354 -1.669035 -6.825068 -0.129459 -2.180789 -10.082114 0.214674 1.943563 -6.351184 12.482286 12.543216 5.000000 0.000000 0.000000 -4.919784 5.313352 -13.014002 9.975282 4.022778 -1.539885 0.000000 0.000000 0.000000 0.000000 0.000000 0.000000 -6.151135 2.691635 -1.462959 7.152119 3.822281 0.373144 47.020544 -14.576185 33.764614 0.000000 0.000000 0.000000 -0.814122 2.734112 -23.543023 7.302671 2.049831 -4.286905 0.000000 0.000000 0.000000 -9.129648 1.074513 0.903613 6.118040 0.603182 11.821277 0.000000 0.000000 0.000000
-1.671894 60.000000 13.383883 3.084269 -0.248318 -1.755403 -5.745928 -0.110699 -2.265291 -9.052746 0.192209 1.940450 -4.975984 12.434416 12.598145 5.000000 0.000000 0.000000 -3.152473 7.248244 -14.868860 17.641408 3.312712 -2.058783 0.000000 0.000000 0.000000 0.000000 0.000000 0.000000 -4.969145 2.303883 -1.447915 10.307875 3.549604 0.629777 77.523771 -24.032067 55.668438 0.000000 0.000000 0.000000 -1.431853 2.268479 -20.950972 6.685846 1.820297 -3.155119 0.000000 0.000000 0.000000 -9.161161 0.985882 2.269180 6.336332 0.562638 11.770099 0.000000 0.000000 0.000000
-0.154759 60.000000 11.181359 5.100274 -0.267207 -2.025652 -3.729847 -0.082448 -2.533183 -7.543894 0.164121 1.987365 -4.347778 13.363290 13.530701 5.000000 0.000000 0.000000 -0.462837 8.195702 -14.116321 19.923390 3.041263 -2.231542 0.000000 0.000000 0.000000 0.000000 0.000000 0.000000 -2.623567 1.600927 -1.572670 14.302631 3.135430 0.936703 0.000000 0.000000 0.000000 0.000000 0.000000 0.000000 -2.245531 1.718827 -17.864615 6.429949 1.690301 -1.805271 0.000000 0.000000 0.000000 -9.761589 0.943790 4.217132 6.571512 0.513454 11.659778 0.000000 0.000000 0.000000
0.525824 60.000000 8.612143 5.117613 -0.240236 -1.801662 -3.712744 -0.072581 -2.307664 -7.984395 0.192604 2.189256 -6.952797 12.782123 12.842767 5.000000 0.000000 0.000000 -0.058932 7.654248 -12.918317 19.935263 2.719742 -2.215285 0.000000 0.000000 0.000000 0.000000 0.000000 0.000000 -3.152463 1.754745 -1.523837 18.415358 2.858710 1.249909 0.000000 0.000000 0.000000 0.000000 0.000000 0.000000 -2.188318 1.446636 -15.284103 6.453130 1.684159 -1.593673 0.000000 0.000000 0.000000 -10.927677 1.119752 4.460024 5.808251 0.589752 11.144393 0.000000 0.000000 0.000000
-0.193704 60.000000 7.439628 4.458244 -0.071300 -0.410274 -4.373559 -0.019831 -0.907575 -8.748276 0.264934 2.709041 -9.507176 9.962023 10.219096 5.000000 0.000000 0.000000 0.989392 7.104738 -11.185047 17.978016 2.377056 -2.020471 0.000000 0.000000 0.000000 0.000000 0.000000 0.000000 -4.383780 1.734729 -0.535658 14.858993 2.457194 0.967781 0.000000 0.000000 0.000000 0.000000 0.000000 0.000000 -1.361917 1.224960 -11.918808 6.627990 1.679108 -0.630344 0.000000 0.000000 0.000000 -12.317468 1.326329 4.846386 3.352029 0.903235 10.376270 0.000000 0.000000 0.000000
-1.362989 60.000000 7.565621 2.584966 0.204755 1.622726 -6.249121 0.074683 1.141844 -10.157740 0.382807 3.409239 -11.463742 6.223534 6.852422 5.000000 0.000000 0.000000 1.469751 6.706258 -10.175288 15.037898 1.565162 -1.711503 0.000000 0.000000 0.000000 0.000000 0.000000 0.000000 -5.589079 1.828165 0.221486 8.701157 1.986013 0.489346 10.794457 -3.560641 6.187547 0.000000 0.000000 0.000000 -0.044670 1.189545 -9.732394 7.333882 1.725077 2.483010 0.000000 0.000000 0.000000 -14.429784 1.682788 4.566494 0.758611 1.206588 9.690607 0.000000 0.000000 0.000000
-2.317662 60.000000 4.968249 0.833055 0.361509 2.485894 -8.002261 0.141983 2.017582 -10.862359 0.441891 3.700916 -8.559966 4.947945 5.615456 5.000000 0.000000 0.000000 2.106996 7.653199 -11.189508 16.322357 1.264949 -1.808696 0.000000 0.000000 0.000000 0.000000 0.000000 0.000000 -5.679657 0.442082 3.679411 8.777771 2.390602 0.499676 48.377400 -15.957686 27.730661 0.000000 0.000000 0.000000 0.579263 1.181477 -8.947569 7.326045 1.787595 1.090971 0.000000 0.000000 0.000000 -16.185910 1.975869 3.867980 -1.484975 1.418407 8.784360 0.000000 0.000000 0.000000
-3.876615 60.000000 -1.609550 1.203857 0.247062 1.747538 -7.630532 0.089425 1.270593 -10.337889 0.366624 3.224909 -5.878579 4.998825 5.514834 5.000000 0.000000 0.000000 1.683490 7.919867 -11.937787 17.813941 1.934575 -1.988926 0.000000 0.000000 0.000000 0.000000 0.000000 0.000000 -5.955219 -1.257045 7.996106 9.715374 2.954362 0.575884 79.760849 -26.309777 45.720130 0.000000 0.000000 0.000000 0.780797 1.030563 -7.566247 6.987178 1.808670 -1.143981 0.000000 0.000000 0.000000 -16.875234 2.090075 2.473382 -3.340149 1.888429 9.990644 0.000000 0.000000 0.000000
-5.692145 60.000000 -7.761059 2.062536 0.071170 0.637963 -6.770430 0.010445 0.147637 -9.854725 0.309126 2.858387 -6.255971 5.908792 6.385675 5.000000 0.000000 0.000000 2.695902 7.410990 -10.394818 20.697455 2.025080 -2.262310 0.000000 0.000000 0.000000 0.000000 0.000000 0.000000 -6.102882 -2.679401 11.489974 11.520928 3.135787 0.713676 12.198712 -1.986892 -9.003537 0.000000 0.000000 0.000000 0.796437 0.977940 -7.147058 6.669799 1.782103 -2.450056 0.000000 0.000000 0.000000 -16.496188 2.040423 0.777184 -3.521138 2.349803 12.538349 0.000000 0.000000 0.000000
-6.098111 60.000000 -7.761780 1.857857 0.108825 0.786361 -6.975372 0.034099 0.300453 -10.216291 0.352614 3.071630 -7.468682 5.271717 5.874003 5.000000 0.000000 0.000000 4.420909 6.471323 -7.653574 22.726902 1.295593 -2.420072 0.000000 0.000000 0.000000 0.000000 0.000000 0.000000 -6.117562 -2.750462 11.683453 13.378019 2.623373 0.844049 54.670836 -8.904633 -40.351052 0.000000 0.000000 0.000000 1.064818 1.030522 -7.274956 6.802013 1.813186 -2.688130 0.000000 0.000000 0.000000 -15.877270 1.955146 1.570919 -2.330259 2.167556 12.596665 0.000000 0.000000 0.000000
-5.902852 60.000000 -3.774336 -1.240227 0.399552 2.132013 -10.075586 0.181140 1.674836 -12.564602 0.548697 3.862507 -9.267493 4.106392 4.953492 5.000000 0.000000 0.000000 4.001165 4.840237 -5.391765 18.920314 0.294228 -2.014806 0.000000 0.000000 0.000000 0.000000 0.000000 0.000000 -7.032091 -3.294288 13.956727 12.444932 2.625286 0.773704 90.136971 -14.681257 -66.527638 0.000000 0.000000 0.000000 3.382452 1.320604 -7.312422 8.836691 2.185066 -0.688921 0.000000 0.000000 0.000000 -16.512422 2.040301 2.663997 0.766823 1.338579 10.530741 0.000000 0.000000 0.000000
-6.014742 60.000000 -0.539573 -4.186852 0.796324 3.931110 -13.025060 0.401520 3.514931 -14.533786 0.777337 4.858977 -10.701286 3.164295 4.230612 5.000000 0.000000 0.000000 2.398648 2.816428 -3.272556 13.444834 0.240937 -1.450094 0.000000 0.000000 0.000000 0.000000 0.000000 0.000000 -6.953978 -4.429403 16.474349 14.660278 2.381310 0.925952 11.651643 -2.578557 -9.396990 0.000000 0.000000 0.000000 8.175306 1.638339 -5.822271 12.999198 2.871926 3.890339 0.000000 0.000000 0.000000 -18.380980 2.316299 3.219676 1.107697 0.773807 6.763589 0.000000 0.000000 0.000000
-5.900577 60.000000 0.556473 -3.883788 0.820003 4.120010 -12.722170 0.414451 3.704942 -14.168423 0.771087 4.932373 -10.155332 3.388434 4.372769 5.000000 0.000000 0.000000 2.426046 2.110942 -2.099976 15.240066 0.040312 -1.626435 0.000000 0.000000 0.000000 0.000000 0.000000 0.000000 -4.954906 -4.857031 15.135179 17.509547 2.157883 1.115994 52.219042 -11.556291 -42.114387 0.000000 0.000000 0.000000 9.500538 0.996713 -1.705221 13.082281 2.481521 8.481143 0.000000 0.000000 0.000000 -20.370520 2.598719 2.726321 -0.296272 0.375472 2.800600 0.000000 0.000000 0.000000
-5.573832 60.000000 0.660840 -2.704177 0.686569 3.664981 -11.541716 0.330933 3.233804 -13.425564 0.639820 4.292897 -9.694747 2.328001 3.407260 5.000000 0.000000 0.000000 2.288986 1.819692 -1.705500 18.690546 -0.489525 -1.961056 0.000000 0.000000 0.000000 0.000000 0.000000 0.000000 -2.822968 -4.521449 12.165691 20.048158 1.848336 1.273833 86.094645 -19.053103 -69.434886 0.000000 0.000000 0.000000 7.512217 -0.098033 3.181014 10.224072 1.757603 10.842925 0.000000 0.000000 0.000000 -21.359314 2.658246 0.469054 -2.719672 0.140294 -0.134234 0.000000 0.000000 0.000000
-5.635792 60.000000 0.138916 -1.089551 0.471713 2.777843 -9.925600 0.204964 2.323071 -12.379348 0.415616 3.036538 -8.759816 0.298957 1.534117 5.000000 0.000000 0.000000 2.344200 2.461812 -2.728468 20.896321 -0.865292 -2.181566 0.000000 0.000000 0.000000 0.000000 0.000000 0.000000 -0.216652 -3.889807 8.298152 18.181824 1.635999 1.124197 0.000000 0.000000 0.000000 0.000000 0.000000 0.000000 5.201734 -0.586695 5.440605 7.693959 1.449110 9.150789 0.000000 0.000000 0.000000 -21.895417 2.538691 -3.809528 -4.379220 -0.123877 -2.065882 0.000000 0.000000 0.000000
-6.438594 60.000000 -0.807987 -0.531297 0.208794 1.261900 -9.365309 0.066292 0.784618 -11.835325 0.220225 1.666434 -7.329731 -0.068653 1.006418 5.000000 0.000000 0.000000 1.830815 3.714221 -5.119036 22.928205 -0.582684 -2.411771 0.000000 0.000000 0.000000 0.000000 0.000000 0.000000 1.074195 -2.740306 4.821737 18.064976 1.480834 1.105420 0.000000 0.000000 0.000000 0.000000 0.000000 0.000000 3.811345 -0.500247 4.753307 6.605076 1.389877 6.606458 0.000000 0.000000 0.000000 -23.291939 2.550801 -5.981120 -6.823418 -0.684400 -5.502953 0.000000 0.000000 0.000000
-6.436149 60.000000 -3.271960 0.148308 0.044390 0.277606 -8.684342 -0.013301 -0.213253 -11.069013 0.089931 0.736068 -5.902734 -0.851141 0.111709 5.000000 0.000000 0.000000 0.960746 4.420802 -6.858702 24.258610 -0.759855 -2.553974 0.000000 0.000000 0.000000 0.000000 0.000000 0.000000 1.167215 -2.234582 3.720398 15.285013 1.296928 0.911651 0.000000 0.000000 0.000000 0.000000 0.000000 0.000000 3.889059 -0.187717 2.772681 7.077443 1.515488 5.809489 0.000000 0.000000 0.000000 -24.605652 2.655107 -5.636445 -9.049032 -0.654540 -5.494758 0.000000 0.000000 0.000000
-5.947944 60.000000 -6.228177 0.952984 -0.105401 -0.665565 -7.878404 -0.079778 -1.168042 -10.893116 0.007047 0.058278 -7.782757 -2.066816 -0.674080 5.000000 0.000000 0.000000 0.875520 4.793649 -7.526742 24.927521 -1.308269 -2.620422 0.000000 0.000000 0.000000 0.000000 0.000000 0.000000 0.285918 -1.809216 3.573049 13.088802 0.930834 0.751561 0.000000 0.000000 0.000000 0.000000 0.000000 0.000000 4.661027 0.064439 1.449586 7.622611 1.696057 4.562169 0.000000 0.000000 0.000000 -21.394247 2.459836 -3.998671 -7.228002 0.088561 -1.574153 0.000000 0.000000 0.000000
-4.799951 60.000000 -6.067721 1.653345 -0.062466 -0.361982 -7.178439 -0.051193 -0.861264 -10.771729 0.019420 0.161660 -9.105453 -3.471815 -1.690713 5.000000 0.000000 0.000000 0.813577 3.366386 -5.250134 23.525770 -1.940659 -2.457566 0.000000 0.000000 0.000000 0.000000 0.000000 0.000000 0.088742 -1.922401 3.955751 12.055777 0.578204 0.674994 0.000000 0.000000 0.000000 0.000000 0.000000 0.000000 7.418111 0.325339 0.756762 9.620147 2.218614 3.139543 0.000000 0.000000 0.000000 -17.214335 2.155539 -1.066648 -4.377559 0.369104 0.480866 0.000000 0.000000 0.000000
-2.741512 60.000000 -2.275212 0.872686 0.110212 0.785009 -7.960545 0.022687 0.298319 -11.002918 0.073930 0.607591 -8.700231 -4.222774 -2.411751 5.000000 0.000000 0.000000 2.060760 2.423702 -2.863421 22.455942 -2.023291 -2.329448 -9.731849 3.404665 8.501485 0.000000 0.000000 0.000000 2.266251 -2.890519 4.116417 11.591929 0.031236 0.632398 0.000000 0.000000 0.000000 0.000000 0.000000 0.000000 11.434901 0.377928 1.484327 12.592153 2.868106 3.247880 0.000000 0.000000 0.000000 -18.457635 2.333515 3.102884 -3.608761 -0.119073 -2.037176 0.000000 0.000000 0.000000
0.345771 60.000000 2.695100 0.310903 0.297669 1.966978 -8.523880 0.111543 1.494997 -11.362319 0.125068 1.003164 -9.223911 -6.151642 -3.971800 5.000000 0.000000 0.000000 2.866403 1.553519 -0.932197 22.024668 -2.810640 -2.266760 -43.615120 15.258652 38.101014 0.000000 0.000000 0.000000 5.557830 -4.321689 4.269062 10.831500 -0.719638 0.564008 0.000000 0.000000 0.000000 0.000000 0.000000 0.000000 13.301646 -0.119903 3.963944 11.316788 2.388450 6.005354 0.000000 0.000000 0.000000 -19.228631 2.460917 3.812700 -4.430373 -0.223427 -2.900478 0.000000 0.000000 0.000000
3.618738 60.000000 7.142935 -0.589795 0.252063 1.556701 -9.424140 0.086000 1.082571 -11.750210 0.068136 0.516079 -9.174112 -8.169333 -5.748151 5.000000 0.000000 0.000000 4.598756 -0.111336 1.998213 23.771108 -3.490118 -2.473798 -71.909176 25.157263 62.817952 0.000000 0.000000 0.000000 7.586991 -4.871840 3.789487 11.966845 -1.657514 0.577887 0.000000 0.000000 0.000000 0.000000 0.000000 0.000000 14.402241 -0.804489 6.829428 7.729788 1.474691 9.700566 0.000000 0.000000 0.000000 -18.676882 2.365912 1.108199 -7.937272 0.144839 -2.030504 0.000000 0.000000 0.000000
5.982004 60.000000 13.377580 -1.198022 -0.039903 -0.208053 -10.029777 -0.077672 -0.705818 -11.431116 -0.153874 -1.254602 -6.824365 -11.680126 -9.549259 5.000000 0.000000 0.000000 14.017815 -6.998567 14.408549 25.499059 -4.879887 -2.670716 0.000000 0.000000 0.000000 0.000000 0.000000 0.000000 13.355194 -6.230927 1.914333 12.741484 -3.111469 0.570179 11.022418 -3.356665 -9.543935 0.000000 0.000000 0.000000 17.146904 -1.075460 7.803544 2.785817 0.632721 10.635609 0.000000 0.000000 0.000000 -17.580824 2.183321 -4.856250 -15.142575 0.938181 -0.078147 0.000000 0.000000 0.000000
6.360846 60.000000 18.258120 -2.444008 -0.518044 -2.995596 -11.271301 -0.357005 -3.533078 -11.124730 -0.476980 -3.957615 -2.941290 -16.539593 -15.414026 5.000000 0.000000 0.000000 27.492183 -17.076446 30.766261 24.391074 -6.332087 -2.499652 0.000000 0.000000 0.000000 0.000000 0.000000 0.000000 19.855172 -9.528988 2.325804 9.503021 -4.445086 0.462923 49.399050 -15.043531 -42.772950 0.000000 0.000000 0.000000 23.492033 -1.255102 8.173038 0.520035 0.277734 10.333493 0.000000 0.000000 0.000000 -17.746949 2.156368 -8.353185 -22.281853 1.082870 -0.505950 0.000000 0.000000 0.000000
4.930019 60.000000 19.197261 -2.954556 -0.782488 -4.441157 -11.779188 -0.516679 -5.001723 -10.708805 -0.631301 -5.373421 1.565003 -19.787074 -20.383830 5.000000 0.000000 0.000000 25.953268 -12.273298 22.808763 27.975285 -5.702110 -2.934605 0.000000 0.000000 0.000000 0.000000 0.000000 0.000000 20.316532 -14.205616 8.681896 6.161498 -5.478651 0.389895 81.445265 -24.802589 -70.520673 0.000000 0.000000 0.000000 28.780589 -1.389298 8.408453 0.003650 0.208241 10.244641 0.000000 0.000000 0.000000 -20.142571 2.275698 -8.078571 -28.827832 0.117230 -4.331422 0.000000 0.000000 0.000000
3.747599 60.000000 14.963378 -1.830934 -0.717199 -4.255290 -10.656319 -0.450845 -4.808728 -10.747330 -0.588880 -4.959027 0.655131 -20.781401 -20.969242 5.000000 0.000000 0.000000 5.461069 -1.867217 5.649665 34.039037 -4.127469 -3.760059 0.000000 0.000000 0.000000 0.000000 0.000000 0.000000 12.385127 -12.433741 11.753806 8.218318 -5.308465 0.404683 0.000000 0.000000 0.000000 0.000000 0.000000 0.000000 23.834815 -1.097437 7.713143 -2.020477 -0.027467 12.290458 0.000000 0.000000 0.000000 -18.585362 2.175556 -9.615930 -28.652447 0.662227 -2.884753 0.000000 0.000000 0.000000
2.581564 60.000000 8.651485 -0.081919 -0.582312 -3.656926 -8.908756 -0.339160 -4.196741 -9.872658 -0.389304 -3.414662 -0.462871 -12.458542 -12.441952 5.000000 0.000000 0.000000 1.874017 5.289769 -7.625477 24.569883 -4.344304 -2.630321 0.000000 0.000000 0.000000 0.000000 0.000000 0.000000 7.764084 -6.297241 5.342894 7.588979 -2.724409 0.433661 0.000000 0.000000 0.000000 0.000000 0.000000 0.000000 12.822153 -0.840722 6.706723 -5.785141 -0.523489 13.457889 0.000000 0.000000 0.000000 -18.896513 2.147104 -12.640526 -25.233691 1.724249 0.265620 0.000000 0.000000 0.000000
1.711049 60.000000 3.909007 2.948123 -0.322663 -2.119991 -5.881318 -0.158626 -2.637245 -8.165573 -0.070670 -0.539109 -2.013173 0.189126 0.579649 5.000000 0.000000 0.000000 2.161892 5.500052 -7.810414 19.484395 -1.247157 -2.002327 -12.466164 3.345775 -9.642838 0.000000 0.000000 0.000000 1.898398 0.147144 -1.673741 9.871862 0.519648 0.561097 0.000000 0.000000 0.000000 0.000000 0.000000 0.000000 4.264393 -0.320671 3.258011 -6.455503 -0.643006 13.420450 0.000000 0.000000 0.000000 -21.330187 2.242076 -11.908404 -20.443623 1.691454 1.156198 0.000000 0.000000 0.000000
2.164120 60.000000 3.211013 4.797937 0.083146 1.192624 -4.035200 0.014981 0.700312 -7.081401 0.273078 3.696837 -0.748926 8.766827 9.232294 5.000000 0.000000 0.000000 4.548146 4.278535 -4.486860 23.451911 0.145633 -2.460147 -43.506278 17.312095 -52.740456 0.000000 0.000000 0.000000 -2.763693 1.231644 -0.339415 12.401206 2.152166 0.740428 0.000000 0.000000 0.000000 0.000000 0.000000 0.000000 1.216001 0.416545 -2.952051 -2.242642 0.071137 16.979436 0.000000 0.000000 0.000000 -25.129200 2.401832 -9.765454 -15.054942 1.343118 1.445793 0.000000 0.000000 0.000000
3.084404 60.000000 4.385714 5.424934 0.407265 4.263119 -3.410986 0.109652 3.785195 -6.426453 0.473932 6.794696 2.449150 13.801292 14.621705 5.000000 0.000000 0.000000 11.593012 3.084850 1.668155 27.555756 1.833409 -2.877138 -24.154088 37.366818 -123.585929 0.000000 0.000000 0.000000 -7.691342 0.783151 4.762380 10.947301 3.539440 0.687036 0.000000 0.000000 0.000000 0.000000 0.000000 0.000000 -2.065010 0.426268 -5.345599 -0.179221 0.365908 21.090789 0.000000 0.000000 0.000000 -23.325206 2.418099 -8.600419 -12.711097 1.317569 2.018304 0.000000 0.000000 0.000000
2.495143 60.000000 4.770275 5.237523 0.481351 4.851784 -3.598984 0.135730 4.378195 -6.482392 0.527598 7.499745 3.548997 15.364695 16.460128 5.000000 0.000000 0.000000 17.420421 5.598867 1.209815 27.370475 3.637290 -2.846207 147.602496 27.247149 -113.622246 0.000000 0.000000 0.000000 -9.019121 0.631275 6.349685 11.789141 3.622251 0.758100 10.428583 -3.207756 7.432007 0.000000 0.000000 0.000000 -1.915991 0.294629 -3.986700 3.083607 0.593750 22.265369 0.000000 0.000000 0.000000 -24.729725 2.584079 -7.455976 -11.270711 0.956660 1.040375 0.000000 0.000000 0.000000
0.686243 60.000000 8.894072 2.913490 0.513329 4.282214 -5.923137 0.181557 3.817350 -7.896337 0.502006 6.095080 2.807819 11.225523 12.150186 5.000000 0.000000 0.000000 14.778910 5.011676 0.618126 23.967455 3.389489 -2.558499 92.740843 16.691595 -71.302220 0.000000 0.000000 0.000000 -5.330276 -1.171827 7.148758 11.141425 3.184585 0.720880 46.737669 -14.376163 33.307943 0.000000 0.000000 0.000000 -0.277959 -0.234399 1.066281 6.125992 0.797439 19.379910 0.000000 0.000000 0.000000 -27.926092 2.883189 -5.952612 -12.311375 0.603478 -0.578944 0.000000 0.000000 0.000000
-0.307804 60.000000 16.485582 0.875549 0.268486 2.326839 -7.958931 0.061514 1.847331 -9.559120 0.174118 2.594075 -0.843172 0.179120 1.230563 5.000000 0.000000 0.000000 7.245546 2.762215 -0.755077 18.273323 1.485079 -2.038254 0.000000 0.000000 0.000000 0.000000 0.000000 0.000000 -1.936726 -0.489068 2.832305 5.969386 1.052490 0.509129 77.057388 -23.702286 54.915514 0.000000 0.000000 0.000000 5.988078 -1.228206 8.156012 4.517696 0.829812 14.599768 0.000000 0.000000 0.000000 -27.516598 2.941305 -5.119385 -16.375437 -0.049318 -3.209991 0.000000 0.000000 0.000000
-1.647584 60.000000 26.723478 -2.450363 -0.298319 -1.844109 -11.279706 -0.225959 -2.361266 -12.228930 -0.448727 -3.333926 -4.484051 -16.564120 -15.021702 5.000000 0.000000 0.000000 0.567274 4.888143 -7.777160 22.614162 -2.608585 -2.397241 0.000000 0.000000 0.000000 0.000000 0.000000 0.000000 3.839857 -0.775152 -3.626452 -2.873189 -4.171467 0.315312 11.978268 -2.814194 -8.517924 0.000000 0.000000 0.000000 19.402827 -2.142167 11.078823 4.402577 0.826662 11.316155 0.000000 0.000000 0.000000 -28.348305 3.114382 -3.966697 -24.897563 -1.861318 -8.762024 0.000000 0.000000 0.000000
-3.001787 60.000000 33.742923 -1.632841 -0.877560 -5.686265 -10.456588 -0.497294 -6.246366 -11.398504 -0.963689 -7.897855 0.384307 -25.913472 -25.757211 5.000000 0.000000 0.000000 4.406610 7.814142 -9.721681 33.754839 -4.427340 -3.787363 0.000000 0.000000 0.000000 0.000000 0.000000 0.000000 14.340002 -18.329395 13.214539 -0.166217 -9.829547 0.529056 53.682873 -12.612345 -38.174686 0.000000 0.000000 0.000000 26.534806 -2.883514 12.555249 0.837843 0.303310 8.794328 0.000000 0.000000 0.000000 -25.422944 2.861084 -4.124845 -32.251729 -4.475409 -14.732545 0.000000 0.000000 0.000000
-1.961476 60.000000 33.870952 1.928685 -1.312972 -9.413005 -6.890825 -0.596819 -9.996608 -8.873715 -0.907269 -9.341668 2.536304 -25.050098 -26.158615 5.000000 0.000000 0.000000 6.753973 8.219203 -8.599838 39.286571 -5.280453 -4.541138 0.000000 0.000000 0.000000 0.000000 0.000000 0.000000 19.908199 -44.990775 43.881195 15.728143 -10.413236 0.106667 88.508094 -20.794241 -62.939416 0.000000 0.000000 0.000000 24.507004 -2.619791 12.025129 0.507839 0.229023 6.844280 0.000000 0.000000 0.000000 -20.212228 2.363946 -5.129902 -32.657650 -5.503495 -16.967260 0.000000 0.000000 0.000000
1.920813 60.000000 24.166027 2.636704 -1.294207 -9.633760 -6.183120 -0.551481 -10.211301 -8.336981 -0.828450 -9.050406 1.040629 -23.067461 -23.465736 5.000000 0.000000 0.000000 6.336537 8.018731 -8.557893 32.867651 -4.979783 -3.648845 0.000000 0.000000 0.000000 0.000000 0.000000 0.000000 22.514978 -35.357528 30.511469 19.973353 -5.885133 0.266748 0.000000 0.000000 0.000000 0.000000 0.000000 0.000000 16.968159 -1.965894 11.024293 0.415432 0.185040 6.034714 0.000000 0.000000 0.000000 -18.273530 2.218126 -6.535338 -24.290588 -3.325067 -12.857671 0.000000 0.000000 0.000000
5.283338 60.000000 12.406824 3.142433 -1.032692 -7.648505 -5.680060 -0.437901 -8.208423 -7.941532 -0.601042 -6.652693 -2.070657 -16.393690 -15.727858 5.000000 0.000000 0.000000 3.223648 4.807221 -5.940905 22.826183 -4.985753 -2.329546 0.000000 0.000000 0.000000 0.000000 0.000000 0.000000 17.639067 -17.907254 13.403673 14.353069 -1.394700 0.689449 0.000000 0.000000 0.000000 0.000000 0.000000 0.000000 13.502441 -1.504032 9.583753 -4.311518 -0.700469 6.418564 0.000000 0.000000 0.000000 -15.041997 2.064750 -7.982979 -17.960587 -0.261259 -2.874072 0.000000 0.000000 0.000000
8.395340 60.000000 4.233851 6.544765 -0.596681 -5.256472 -2.282399 -0.143156 -5.773111 -6.248323 -0.270808 -3.513791 -5.297663 -4.348130 -3.242863 5.000000 0.000000 0.000000 4.159525 2.411159 -1.523160 21.123007 -3.477267 -2.159640 0.000000 0.000000 0.000000 0.000000 0.000000 0.000000 12.159004 1.711645 -10.122803 10.875959 -0.426377 0.585343 0.000000 0.000000 0.000000 0.000000 0.000000 0.000000 9.611469 -0.967912 7.291696 -5.853674 -0.794865 10.762120 0.000000 0.000000 0.000000 -12.310981 1.984943 -6.779521 -8.339638 2.036394 6.965535 0.000000 0.000000 0.000000
11.092587 60.000000 2.534222 8.678978 -0.240428 -2.197606 -0.151551 0.003743 -2.691549 -5.046951 0.051888 1.002730 -5.978768 6.611474 7.364791 5.000000 0.000000 0.000000 4.169709 3.029118 -2.464282 17.515669 -1.431516 -1.851192 0.000000 0.000000 0.000000 0.000000 0.000000 0.000000 -0.150003 2.944185 -5.756023 12.497626 1.094809 0.678918 0.000000 0.000000 0.000000 0.000000 0.000000 0.000000 5.352651 -0.433171 4.516506 -2.438041 0.078562 18.294044 0.000000 0.000000 0.000000 -20.126556 2.453802 -2.262379 -4.891171 1.214493 5.211961 0.000000 0.000000 0.000000
11.326974 60.000000 4.124539 7.870745 0.017316 0.915099 -0.961970 0.010519 0.421979 -5.327853 0.254269 4.380055 -4.571492 13.796796 14.082633 5.000000 0.000000 0.000000 5.009252 4.405795 -4.127318 12.835049 1.413575 -1.486954 0.000000 0.000000 0.000000 0.000000 0.000000 0.000000 -6.141851 1.825281 0.674146 8.031993 2.411520 0.442967 0.000000 0.000000 0.000000 0.000000 0.000000 0.000000 5.045230 -0.278407 3.638934 1.774339 0.506859 22.580916 0.000000 0.000000 0.000000 -23.924597 2.883951 -1.238724 -8.929034 1.196830 3.049053 0.000000 0.000000 0.000000
8.869173 60.000000 6.769645 5.914165 0.222008 2.582171 -2.920208 0.060956 2.097702 -7.144401 0.319459 4.368792 -7.970474 7.917492 8.524445 5.000000 0.000000 0.000000 3.145442 3.956309 -4.615312 12.932119 0.191120 -1.421077 0.000000 0.000000 0.000000 0.000000 0.000000 0.000000 -3.695443 0.123799 2.542495 8.298196 1.344407 0.449313 12.489596 -2.722204 -7.828593 0.000000 0.000000 0.000000 10.202476 -0.073504 3.298894 7.957242 0.865525 21.854696 0.000000 0.000000 0.000000 -25.172242 3.016711 -1.362034 -12.729695 1.111141 1.279323 0.000000 0.000000 0.000000
5.390034 60.000000 7.258096 1.496495 0.389733 2.875584 -7.339072 0.148766 2.408413 -10.349470 0.289901 2.747231 -10.067354 -4.045056 -2.217521 5.000000 0.000000 0.000000 1.206808 3.116451 -4.516811 17.606764 -2.285536 -1.801748 0.000000 0.000000 0.000000 0.000000 0.000000 0.000000 2.384032 -2.656948 3.535134 9.547802 -0.454165 0.506749 55.974487 -12.200070 -35.085321 0.000000 0.000000 0.000000 15.380629 -0.106006 4.158256 8.921102 1.075420 18.866401 0.000000 0.000000 0.000000 -25.508522 3.059752 -1.299619 -16.056981 0.934319 -0.212931 0.000000 0.000000 0.000000
1.993641 60.000000 5.722727 -2.136033 0.433223 2.386877 -10.971770 0.183313 1.931472 -12.451795 0.090610 0.770990 -8.804227 -15.113274 -11.636901 5.000000 0.000000 0.000000 -1.520650 2.079573 -4.640073 25.746674 -4.494843 -2.693262 0.000000 0.000000 0.000000 0.000000 0.000000 0.000000 4.300736 -3.910543 4.478383 9.743043 -2.328406 0.487635 92.286327 -20.114515 -57.845915 0.000000 0.000000 0.000000 17.576649 -0.229799 4.832897 8.090892 1.196957 15.236605 0.000000 0.000000 0.000000 -26.522913 3.180986 -1.215008 -18.725427 0.470560 -2.394570 0.000000 0.000000 0.000000
-0.476510 60.000000 0.795260 -2.360743 0.312466 1.595782 -11.195498 0.120842 1.131886 -13.295168 -0.071161 -0.461749 -12.397661 -16.347389 -11.396757 5.000000 0.000000 0.000000 -1.834624 2.870681 -6.257535 33.239353 -3.666158 -3.662953 0.000000 0.000000 0.000000 0.000000 0.000000 0.000000 3.870272 -3.471509 3.995443 8.756553 -3.793176 0.433152 9.937447 -2.880562 6.863271 0.000000 0.000000 0.000000 18.526414 -0.193950 4.747891 7.171789 1.229316 12.504862 0.000000 0.000000 0.000000 -25.461721 3.035375 -1.813487 -16.543197 -0.005816 -3.511736 0.000000 0.000000 0.000000
-1.847693 60.000000 -4.858904 1.019359 0.095852 0.608307 -7.813767 0.024024 0.123665 -10.695313 -0.039994 -0.079792 -10.680095 -7.327044 -4.025380 5.000000 0.000000 0.000000 -1.576708 4.069059 -8.154428 30.013248 -2.761617 -3.274556 0.000000 0.000000 0.000000 0.000000 0.000000 0.000000 3.381642 -2.871044 3.091754 6.903322 -2.389342 0.395905 44.536547 -12.909785 30.759047 0.000000 0.000000 0.000000 13.856623 -0.143588 3.939729 7.414800 1.323258 11.105953 0.000000 0.000000 0.000000 -22.387696 2.629269 -3.448581 -12.460576 0.767694 0.352588 0.000000 0.000000 0.000000
0.638235 60.000000 -5.074268 6.376838 -0.040437 0.156127 -2.455328 -0.007925 -0.339500 -6.467912 0.090760 1.779112 -4.460745 7.924244 9.131160 5.000000 0.000000 0.000000 2.339953 5.284249 -7.146960 21.967381 -0.198404 -2.378508 11.901924 2.460963 -9.222623 0.000000 0.000000 0.000000 -0.644343 -0.278544 0.692214 8.749627 1.153468 0.519075 84.152534 -24.424032 59.215319 0.000000 0.000000 0.000000 7.234634 0.108739 1.551942 7.999764 1.332486 12.218470 0.000000 0.000000 0.000000 -21.346269 2.469289 -4.753280 -7.916474 1.663963 5.613001 0.000000 0.000000 0.000000
6.622989 60.000000 2.771928 9.487525 -0.026914 1.059687 0.655124 -0.023819 0.562253 -3.720589 0.144980 4.742519 5.064838 19.697943 22.449239 5.000000 0.000000 0.000000 11.720039 11.251929 -8.215547 18.900013 4.438924 -2.186723 41.468489 13.463324 -31.882430 0.000000 0.000000 0.000000 -8.754036 3.488204 -1.513664 14.751535 3.206754 1.035878 48.062448 -14.069793 38.104323 0.000000 0.000000 0.000000 2.579358 0.510719 -2.862911 9.396384 1.385985 14.818546 0.000000 0.000000 0.000000 -21.325712 2.474756 -1.162683 -2.554655 1.010159 6.549607 0.000000 0.000000 0.000000
10.373117 60.000000 10.860785 10.900660 0.154374 4.298266 2.066634 -0.074253 3.794391 -1.016153 0.072111 7.986938 18.044344 23.896686 31.735839 5.000000 0.000000 0.000000 24.051999 25.399102 -16.373286 24.826002 9.265121 -2.104627 34.736319 29.092870 -25.792289 0.000000 0.000000 0.000000 -14.731753 5.122723 -1.392433 22.751684 5.378056 1.954909 79.241580 -23.197167 62.823407 0.000000 0.000000 0.000000 -0.161703 1.167822 -10.258304 9.831601 1.654115 11.779183 0.000000 0.000000 0.000000 -17.887704 1.970630 5.102791 4.198441 0.081044 9.735505 0.000000 0.000000 0.000000
9.180204 60.000000 12.717360 11.029631 0.279461 6.457149 2.194509 -0.114226 5.947272 0.201695 -0.021682 9.864202 28.072738 25.735786 39.174349 5.000000 0.000000 0.000000 17.427225 36.711829 -33.922576 41.502540 14.420780 -0.940270 -87.724613 17.985372 69.830249 0.000000 0.000000 0.000000 -20.260147 7.336882 -3.140024 31.651887 7.018996 3.046320 11.797873 -1.474237 -9.683305 0.000000 0.000000 0.000000 -1.034630 1.896032 -17.353423 10.951358 2.300898 4.613357 0.000000 0.000000 0.000000 -15.126389 1.474869 8.673298 12.544227 -0.640130 13.730746 0.000000 0.000000 0.000000
6.200551 60.000000 10.351611 9.947169 0.253303 5.347682 1.112317 -0.068933 4.843732 -0.250232 0.006009 9.687570 30.156214 26.339000 41.537077 5.000000 0.000000 0.000000 4.090845 30.079074 -40.026166 54.805435 14.883174 0.562186 0.000000 0.000000 0.000000 0.000000 0.000000 0.000000 -13.384730 5.249142 -2.361586 29.998647 6.644863 2.823507 52.874398 -6.607070 -43.397564 0.000000 0.000000 0.000000 0.604938 0.850641 -7.051182 14.177674 2.299676 11.377994 0.000000 0.000000 0.000000 -21.275292 2.585103 -0.423278 6.282688 -0.576990 -0.401389 0.000000 0.000000 0.000000
-0.422688 60.000000 6.353406 7.575045 0.007251 1.690102 -1.257560 -0.063125 1.187463 -2.000831 0.044246 6.099704 24.865906 21.725404 31.891213 5.000000 0.000000 0.000000 11.252758 22.935939 -25.927830 31.504398 10.810347 -1.868760 0.000000 0.000000 0.000000 0.000000 0.000000 0.000000 -8.786427 4.965078 -5.131301 18.204508 5.204097 1.397028 75.044786 -14.372296 -73.871517 0.000000 0.000000 0.000000 5.174189 0.291021 -0.282115 16.807217 2.750041 10.901223 0.000000 0.000000 0.000000 -26.244147 3.069343 -2.043429 -5.718535 -0.366136 -3.555411 0.000000 0.000000 0.000000
-8.209852 60.000000 9.508504 2.281419 -0.290988 -1.873542 -6.548322 -0.154839 -2.387009 -5.583598 0.001285 1.010755 16.601972 9.393740 12.068454 5.000000 0.000000 0.000000 23.385042 14.802323 -5.520420 23.051716 2.902390 -2.742730 10.338092 3.792396 -8.721473 0.000000 0.000000 0.000000 1.744044 0.553316 -6.629694 7.814294 1.504035 0.148371 -54.364492 -15.592155 -10.402136 0.000000 0.000000 0.000000 12.900619 -0.274341 4.392302 12.542034 2.407034 8.136744 0.000000 0.000000 0.000000 -28.023399 3.127748 -3.420655 -16.315096 -0.650250 -5.302858 0.000000 0.000000 0.000000
-11.058887 60.000000 17.140202 -1.100092 -0.507175 -3.299355 -9.927661 -0.304783 -3.831393 -8.016750 -0.187945 -2.507336 9.160970 -6.397884 -9.177368 5.000000 0.000000 0.000000 16.781150 6.506681 -0.260497 31.496533 -2.851866 -3.372244 46.332112 16.996339 -39.086930 0.000000 0.000000 0.000000 29.521853 -21.518184 3.940083 14.118884 -6.729908 0.524679 -77.216010 -27.146284 -26.128894 0.000000 0.000000 0.000000 25.230117 -0.289067 5.450220 5.692796 1.130947 8.542966 0.000000 0.000000 0.000000 -27.953215 3.041805 -4.521217 -27.037583 -1.734127 -8.834017 0.000000 0.000000 0.000000
-7.812127 60.000000 23.056146 2.372657 -0.696022 -5.073607 -6.453287 -0.310860 -5.613692 -5.992645 -0.311413 -4.769644 9.073157 -12.443129 -16.131958 5.000000 0.000000 0.000000 16.126505 6.057667 -0.135109 28.993692 -5.298827 -3.155101 76.388739 28.022225 -64.443452 0.000000 0.000000 0.000000 37.985177 -52.739392 34.146034 10.545561 -10.566569 0.272380 55.644131 -6.449898 -40.239616 0.000000 0.000000 0.000000 25.264574 -0.620119 6.396143 0.762860 0.271570 7.539534 0.000000 0.000000 0.000000 -22.277509 2.520082 -5.415148 -31.050172 -2.782546 -11.198212 0.000000 0.000000 0.000000
-4.032198 60.000000 21.177180 4.035728 -0.734136 -5.842465 -4.789988 -0.267690 -6.377615 -5.525953 -0.309501 -5.147031 6.100528 -12.476627 -14.797832 5.000000 0.000000 0.000000 12.238623 7.466437 -4.316266 32.775689 -5.197366 -3.656002 0.000000 0.000000 0.000000 0.000000 0.000000 0.000000 20.394244 -46.188906 44.281033 15.243019 -8.827911 0.182487 91.741662 -10.634085 -66.343911 0.000000 0.000000 0.000000 21.584627 -0.682503 6.473939 -1.445740 -0.142389 6.858536 0.000000 0.000000 0.000000 -18.112441 2.210492 -6.686994 -30.633956 -2.765349 -11.042510 0.000000 0.000000 0.000000
-1.280637 60.000000 21.780488 5.296805 -0.640754 -5.506508 -3.529930 -0.183935 -6.029740 -5.541077 -0.321440 -5.345187 3.943247 -15.678587 -17.370824 5.000000 0.000000 0.000000 5.363478 6.472423 -7.100479 32.768194 -4.125188 -3.623441 0.000000 0.000000 0.000000 0.000000 0.000000 0.000000 22.440885 -31.300662 26.344931 16.925122 -5.711324 0.468002 0.000000 0.000000 0.000000 0.000000 0.000000 0.000000 14.917863 -0.606590 6.072470 -1.362865 -0.112654 7.502799 0.000000 0.000000 0.000000 -12.570581 1.971094 -8.681807 -25.307369 -0.822745 -5.825977 0.000000 0.000000 0.000000
-0.281893 60.000000 17.956910 5.248519 -0.583008 -4.909378 -3.578732 -0.173120 -5.430748 -6.026424 -0.298316 -4.477498 2.197321 -12.852116 -13.729998 5.000000 0.000000 0.000000 8.363340 5.280233 -3.351479 29.505229 -3.498788 -3.186477 0.000000 0.000000 0.000000 0.000000 0.000000 0.000000 18.057365 -15.344599 10.724749 18.093404 -3.858992 0.572453 -10.868098 -2.357405 -6.175933 0.000000 0.000000 0.000000 11.910921 -0.578923 5.822288 0.101114 0.176870 8.711300 0.000000 0.000000 0.000000 -7.131797 1.866345 -11.348584 -16.307549 1.284460 2.033643 0.000000 0.000000 0.000000
-0.903749 60.000000 6.718010 7.052034 -0.465328 -4.149518 -1.776394 -0.091020 -4.658266 -5.402851 -0.181266 -2.825463 1.271833 -5.588743 -6.112355 5.000000 0.000000 0.000000 9.134573 3.733155 -0.670010 27.614751 -2.778971 -2.959873 0.000000 0.000000 0.000000 0.000000 0.000000 0.000000 13.233914 -0.819257 -6.909936 11.563260 -1.533730 0.641263 -48.707438 -10.565158 -27.678611 0.000000 0.000000 0.000000 8.618032 -0.504884 5.008055 1.381186 0.398352 10.483627 0.000000 0.000000 0.000000 -4.683064 1.699155 -9.319233 -7.224863 2.025079 7.725665 0.000000 0.000000 0.000000
-2.149014 60.000000 -4.787488 8.940456 -0.180650 -1.436347 0.109406 0.008045 -1.929411 -4.496685 0.016815 0.609217 -0.263609 2.588351 2.941986 5.000000 0.000000 0.000000 9.849272 2.341926 1.726862 23.606514 -0.615714 -2.529821 0.000000 0.000000 0.000000 0.000000 0.000000 0.000000 0.972987 2.474701 -5.702667 16.770915 1.323349 1.013506 -80.304989 -17.419001 -45.634314 0.000000 0.000000 0.000000 4.280898 -0.007059 1.377923 2.908728 0.604003 13.789108 0.000000 0.000000 0.000000 -12.599901 1.855318 -6.239974 -5.594823 1.818120 7.682747 0.000000 0.000000 0.000000
-1.260058 60.000000 -4.505762 8.443837 0.147567 2.496764 -0.390014 0.025838 2.006294 -4.018446 0.230965 5.107014 3.221506 11.116921 12.043826 5.000000 0.000000 0.000000 12.145628 2.268258 3.067196 19.100006 2.398910 -2.147310 -11.929979 2.486509 9.493393 0.000000 0.000000 0.000000 -4.186662 1.503161 0.180516 18.441464 2.668878 1.203328 0.000000 0.000000 0.000000 0.000000 0.000000 0.000000 1.591435 0.478267 -2.884851 4.881255 0.738551 18.388150 0.000000 0.000000 0.000000 -19.434525 2.329855 -4.625541 -1.662704 1.142803 6.863760 0.000000 0.000000 0.000000
1.368160 60.000000 0.092885 7.564458 0.394821 5.252366 -1.271480 0.048582 4.764940 -4.168185 0.373893 8.265604 7.427116 17.619605 19.728263 5.000000 0.000000 0.000000 18.239946 5.064093 1.965842 18.273336 4.531810 -2.178339 -53.466456 11.143762 42.546433 0.000000 0.000000 0.000000 -8.282434 0.471056 6.098933 16.347456 4.258230 1.203392 0.000000 0.000000 0.000000 0.000000 0.000000 0.000000 0.832369 0.564377 -4.009147 8.787366 0.948205 21.073880 0.000000 0.000000 0.000000 -24.191939 2.764401 -3.685098 -4.084062 1.309687 6.200417 0.000000 0.000000 0.000000
-0.022061 60.000000 3.347860 8.425213 0.428789 6.177920 -0.411063 0.022156 5.686678 -3.744525 0.383977 9.359495 9.522616 20.121400 23.675027 5.000000 0.000000 0.000000 22.014966 2.964748 7.547840 6.091366 5.337364 0.306400 -88.151283 18.372957 70.147210 0.000000 0.000000 0.000000 -13.481972 2.000772 7.286342 31.567613 5.417518 3.330123 0.000000 0.000000 0.000000 0.000000 0.000000 0.000000 2.697002 0.553279 -2.659663 14.360973 1.333875 20.728586 0.000000 0.000000 0.000000 -27.122617 3.025943 -3.785420 -6.656246 1.183590 3.932662 0.000000 0.000000 0.000000
-7.072552 60.000000 6.478977 7.696967 0.494936 6.493876 -1.139822 0.054272 6.007574 -4.000873 0.431812 9.946583 16.101355 22.241809 29.313533 5.000000 0.000000 0.000000 3.425230 -4.347330 13.465083 -39.136228 6.113835 9.252818 0.000000 0.000000 0.000000 0.000000 0.000000 0.000000 -28.483449 7.741605 7.272300 66.548461 6.278854 8.861773 0.000000 0.000000 0.000000 0.000000 0.000000 0.000000 4.490745 0.319773 -0.468286 14.611773 1.522448 19.126006 0.000000 0.000000 0.000000 -27.708711 2.992845 -5.035091 -8.188115 0.609653 0.481172 0.000000 0.000000 0.000000
-14.777551 60.000000 9.130175 6.068389 0.492081 5.645590 -2.768257 0.095978 5.166701 -4.744520 0.466596 9.625691 23.554260 21.174983 31.235793 5.000000 0.000000 0.000000 -27.868968 -11.109034 14.187937 -73.168788 6.387065 16.334066 0.000000 0.000000 0.000000 0.000000 0.000000 0.000000 -30.343528 7.948860 7.445386 95.608000 5.294802 13.182864 0.000000 0.000000 0.000000 0.000000 0.000000 0.000000 9.011407 -0.055549 2.771137 14.137454 1.910306 15.070227 0.000000 0.000000 0.000000 -27.243153 2.857541 -6.244537 -10.080308 -0.480966 -4.338747 0.000000 0.000000 0.000000
-16.385379 60.000000 12.374773 2.505477 0.472568 3.643206 -6.330775 0.185026 3.179326 -7.336196 0.523662 6.555571 9.617862 10.142962 12.388241 5.000000 0.000000 0.000000 3.162767 -3.531083 8.284746 33.985507 -0.173500 -3.545122 0.000000 0.000000 0.000000 0.000000 0.000000 0.000000 12.036068 -11.742250 9.130363 31.852793 0.276575 1.984705 -10.363651 -1.976427 -6.123308 0.000000 0.000000 0.000000 17.155997 -0.141016 4.452453 13.346156 2.302429 10.181305 0.000000 0.000000 0.000000 -31.326492 3.432617 -3.588013 -16.676232 -1.301216 -8.220436 0.000000 0.000000 0.000000
-13.304625 60.000000 17.930447 3.344843 0.136448 0.971795 -5.488660 0.066568 0.489436 -6.770771 0.152985 1.439228 1.867188 -4.345235 -4.799733 5.000000 0.000000 0.000000 7.866015 2.105797 0.938514 28.111003 -2.583543 -2.951658 0.000000 0.000000 0.000000 0.000000 0.000000 0.000000 26.948500 -30.281640 19.862918 19.219206 -5.112307 0.611232 -46.446662 -8.857730 -27.442762 0.000000 0.000000 0.000000 21.043096 -0.211900 5.030135 12.160715 2.403369 7.137485 0.000000 0.000000 0.000000 -32.101801 3.741542 -1.745987 -16.022591 -2.164925 -11.314875 0.000000 0.000000 0.000000
-9.505884 60.000000 21.836631 5.387851 -0.228139 -1.632183 -3.442623 -0.070125 -2.137542 -4.771254 -0.114693 -1.717974 -0.187781 -9.851657 -9.943219 5.000000 0.000000 0.000000 8.423379 3.021525 -0.320625 22.716458 -4.635563 -2.344865 10.620900 3.853819 -8.885211 0.000000 0.000000 0.000000 32.168387 -47.026989 33.344249 7.066369 -5.979302 0.410058 -76.577600 -14.603928 -45.245466 0.000000 0.000000 0.000000 25.828171 0.046266 4.561622 11.353209 2.410453 5.130888 0.000000 0.000000 0.000000 -31.881622 3.733745 -1.632562 -15.986111 -2.752338 -13.372227 0.000000 0.000000 0.000000
-6.528014 60.000000 20.255610 2.901882 -0.293251 -2.086736 -5.927900 -0.132366 -2.599864 -7.035757 -0.267067 -3.527862 0.997136 -18.338061 -18.863478 5.000000 0.000000 0.000000 2.203281 3.642800 -4.710121 27.029219 -5.471848 -2.895450 59.551328 19.523548 -49.076139 0.000000 0.000000 0.000000 25.530513 -36.008041 28.520940 14.384298 -5.428436 0.476334 0.000000 0.000000 0.000000 0.000000 0.000000 0.000000 25.563728 0.380954 3.603676 8.822787 1.958177 3.646620 0.000000 0.000000 0.000000 -29.878950 3.509760 -1.907780 -18.864366 -2.690248 -12.726837 0.000000 0.000000 0.000000
-4.085311 60.000000 12.122390 1.171821 -0.275481 -1.830289 -7.658041 -0.156999 -2.344746 -8.948112 -0.286308 -3.029834 -1.394549 -15.805337 -15.719251 5.000000 0.000000 0.000000 2.650755 3.655948 -4.380423 21.595397 -4.658376 -2.160866 132.042485 38.568529 -107.133077 0.000000 0.000000 0.000000 18.159843 -23.771690 19.913597 14.305211 -3.457325 0.578516 0.000000 0.000000 0.000000 0.000000 0.000000 0.000000 23.960891 0.611300 2.743514 5.154800 1.254385 1.768518 0.000000 0.000000 0.000000 -25.558259 2.928200 -3.688883 -20.649499 -1.069111 -6.875504 0.000000 0.000000 0.000000
-2.695452 60.000000 7.280877 2.054886 -0.251163 -1.686804 -6.775236 -0.132301 -2.198033 -9.886962 -0.192890 -1.600316 -7.109780 -4.474987 -2.485038 5.000000 0.000000 0.000000 -1.884356 1.367871 -3.622388 19.668912 -2.935485 -1.917697 76.914013 14.491998 -59.561841 0.000000 0.000000 0.000000 3.636108 -6.167250 8.976950 11.716585 -2.572044 0.589864 0.000000 0.000000 0.000000 0.000000 0.000000 0.000000 19.264097 0.665952 1.856227 7.453428 1.845030 0.585899 0.000000 0.000000 0.000000 -22.443879 2.496679 -5.891963 -16.007965 1.242984 0.967557 0.000000 0.000000 0.000000
