HIERARCHY
ROOT Hips
{
  OFFSET 0.000000 0.000000 0.000000
  CHANNELS 6 Xposition Yposition Zposition Zrotation Xrotation Yrotation
  JOINT Spine
  {
    OFFSET 0.000000 10.000000 0.000000
    CHANNELS 3 Zrotation Xrotation Yrotation
    JOINT Chest
    {
      OFFSET 0.000000 15.000000 0.000000
      CHANNELS 3 Zrotation Xrotation Yrotation
      JOINT Neck
      {
        OFFSET 0.000000 15.000000 0.000000
        CHANNELS 3 Zrotation Xrotation Yrotation
        JOINT Head
        {
          OFFSET 0.000000 10.000000 0.000000
          CHANNELS 3 Zrotation Xrotation Yrotation
          End Site
          {
            OFFSET 0.0 0.0 0.0
          }
        }
      }
      JOINT LeftShoulder
      {
        OFFSET 20.000000 15.000000 0.000000
        CHANNELS 3 Zrotation Xrotation Yrotation
        JOINT LeftArm
        {
          OFFSET 15.000000 0.000000 0.000000
          CHANNELS 3 Zrotation Xrotation Yrotation
          JOINT LeftForeArm
          {
            OFFSET 25.000000 0.000000 0.000000
            CHANNELS 3 Zrotation Xrotation Yrotation
            JOINT LeftHand
            {
              OFFSET 20.000000 0.000000 0.000000
              CHANNELS 3 Zrotation Xrotation Yrotation
              End Site
              {
                OFFSET 0.0 0.0 0.0
              }
            }
          }
        }
      }
      JOINT RightShoulder
      {
        OFFSET -20.000000 15.000000 0.000000
        CHANNELS 3 Zrotation Xrotation Yrotation
        JOINT RightArm
        {
          OFFSET -15.000000 0.000000 0.000000
          CHANNELS 3 Zrotation Xrotation Yrotation
          JOINT RightForeArm
          {
            OFFSET -25.000000 0.000000 0.000000
            CHANNELS 3 Zrotation Xrotation Yrotation
            JOINT RightHand
            {
              OFFSET -20.000000 0.000000 0.000000
              CHANNELS 3 Zrotation Xrotation Yrotation
              End Site
              {
                OFFSET 0.0 0.0 0.0
              }
            }
          }
        }
      }
    }
  }
  JOINT LeftUpLeg
  {
    OFFSET 10.000000 -10.000000 0.000000
    CHANNELS 3 Zrotation Xrotation Yrotation
    JOINT LeftLeg
    {
      OFFSET 0.000000 -45.000000 0.000000
      CHANNELS 3 Zrotation Xrotation Yrotation
      JOINT LeftFoot
      {
        OFFSET 0.000000 -45.000000 0.000000
        CHANNELS 3 Zrotation Xrotation Yrotation
        JOINT LeftToeBase
        {
          OFFSET 0.000000 0.000000 10.000000
          CHANNELS 3 Zrotation Xrotation Yrotation
          End Site
          {
            OFFSET 0.0 0.0 0.0
          }
        }
      }
    }
  }
  JOINT RightUpLeg
  {
    OFFSET -10.000000 -10.000000 0.000000
    CHANNELS 3 Zrotation Xrotation Yrotation
    JOINT RightLeg
    {
      OFFSET 0.000000 -45.000000 0.000000
      CHANNELS 3 Zrotation Xrotation Yrotation
      JOINT RightFoot
      {
        OFFSET 0.000000 -45.000000 0.000000
        CHANNELS 3 Zrotation Xrotation Yrotation
        JOINT RightToeBase
        {
          OFFSET 0.000000 0.000000 10.000000
          CHANNELS 3 Zrotation Xrotation Yrotation
          End Site
          {
            OFFSET 0.0 0.0 0.0
          }
        }
      }
    }
  }
}
MOTION
Frames: 43
Frame Time: 0.033333
18.761795 0.954011 6.587237 0.000000 0.000000 0.000000 0.000000 0.000000 0.000000 0.000000 0.000000 0.000000 0.000000 0.000000 0.000000 0.000000 0.000000 0.000000 -61.953133 -12.525957 20.720698 42.382120 32.710379 74.247929 118.029011 60.143950 38.346628 118.029011 60.143950 38.346628 105.593545 -38.485410 -29.683561 -139.001223 84.691865 -37.632686 -148.423037 105.462281 -40.768817 -148.423037 105.462281 -40.768817 6.020892 -37.676915 2.055861 -24.155067 -38.335109 -8.507297 30.475455 120.772959 17.602492 30.475455 120.772959 17.602492 4.006975 -6.466874 0.226462 -0.258177 -40.414699 -0.095028 -4.950465 114.946980 -3.158181 -4.950465 114.946980 -3.158181
18.765116 1.064650 6.466374 0.000000 0.000000 0.000000 0.000000 0.000000 0.000000 0.000000 0.000000 0.000000 0.000000 0.000000 0.000000 0.000000 0.000000 0.000000 -54.635801 -12.272373 23.514615 -69.954407 -63.770825 83.286493 172.704098 161.371893 42.485218 172.704098 161.371893 42.485218 105.968286 -37.059819 -28.365503 -138.683730 79.552629 -34.850881 -148.139513 103.114871 -39.554305 -148.139513 103.114871 -39.554305 3.539450 -35.320276 1.127192 -25.938892 -35.613648 -8.461340 23.842305 117.572501 14.580192 23.842305 117.572501 14.580192 4.026516 -5.114391 0.179903 -0.255619 -39.440189 -0.091626 -4.747761 116.169848 -2.957991 -4.747761 116.169848 -2.957991
18.765810 1.222253 6.465177 0.000000 0.000000 0.000000 0.000000 0.000000 0.000000 0.000000 0.000000 0.000000 0.000000 0.000000 0.000000 0.000000 0.000000 0.000000 -57.112042 -14.630909 26.545833 -34.540270 -32.202647 85.752518 162.753070 145.580589 52.174922 162.753070 145.580589 52.174922 105.990732 -38.279349 -29.316886 -137.853158 83.059382 -37.686649 -147.049761 103.211845 -40.932334 -147.049761 103.211845 -40.932334 1.101441 -36.861441 0.367067 -27.540084 -36.572460 -9.259825 19.621180 114.258534 12.751784 19.621180 114.258534 12.751784 3.871883 -5.173911 0.175004 -0.198812 -40.014128 -0.072389 -4.372218 115.624608 -2.752828 -4.372218 115.624608 -2.752828
18.773800 1.376159 6.457668 0.000000 0.000000 0.000000 0.000000 0.000000 0.000000 0.000000 0.000000 0.000000 0.000000 0.000000 0.000000 0.000000 0.000000 0.000000 -56.752926 -13.447373 24.623620 -90.350332 -84.257490 83.909023 179.385076 178.676733 49.847177 179.385076 178.676733 49.847177 104.790111 -35.925734 -28.041721 -137.021667 78.267107 -35.523422 -146.581854 100.827228 -39.905778 -146.581854 100.827228 -39.905778 1.974033 -36.675879 0.654357 -27.563549 -36.417913 -9.226235 16.281293 115.149722 10.384090 16.281293 115.149722 10.384090 3.600538 -4.649211 0.146209 -0.551107 -40.454822 -0.203069 -5.431012 115.153829 -3.451237 -5.431012 115.153829 -3.451237
18.794261 1.511498 6.460337 0.000000 0.000000 0.000000 0.000000 0.000000 0.000000 0.000000 0.000000 0.000000 0.000000 0.000000 0.000000 0.000000 0.000000 0.000000 -56.831677 -13.247248 24.226241 -81.741198 -75.877065 84.030221 176.847069 173.568545 52.195369 176.847069 173.568545 52.195369 101.819638 -34.312058 -28.158183 -137.538632 79.027114 -35.531065 -147.061313 100.703620 -39.267296 -147.061313 100.703620 -39.267296 3.709881 -35.828476 1.199653 -25.343572 -35.448181 -8.220479 31.408727 118.774493 18.891306 31.408727 118.774493 18.891306 3.054171 -3.556943 0.094855 -0.850210 -40.600843 -0.314514 -6.020410 114.641812 -3.864025 -6.020410 114.641812 -3.864025
18.782334 1.562071 6.459215 0.000000 0.000000 0.000000 0.000000 0.000000 0.000000 0.000000 0.000000 0.000000 0.000000 0.000000 0.000000 0.000000 0.000000 0.000000 -57.165252 -12.262629 22.307665 -121.313095 -117.255917 85.351871 177.189366 172.294459 40.031150 177.189366 172.294459 40.031150 97.995855 -32.194340 -28.167219 -140.137944 83.842117 -36.069443 -148.399430 102.335455 -38.737898 -148.399430 102.335455 -38.737898 6.326342 -35.723444 2.040544 -22.185852 -36.924555 -7.490315 38.576957 118.414182 23.562005 38.576957 118.414182 23.562005 2.647412 -4.072625 0.094146 -2.167501 -40.509792 -0.799926 -9.468459 114.847643 -6.057943 -9.468459 114.847643 -6.057943
18.781549 1.632741 6.277394 0.000000 0.000000 0.000000 0.000000 0.000000 0.000000 0.000000 0.000000 0.000000 0.000000 0.000000 0.000000 0.000000 0.000000 0.000000 -53.146500 -12.000290 23.734748 -97.357086 -82.545114 75.310234 -148.617833 -110.891378 44.382216 -148.617833 -110.891378 44.382216 93.894848 -30.382124 -28.467824 -142.453180 91.999753 -38.782667 -153.604900 113.945746 -39.671647 -153.604900 113.945746 -39.671647 9.708951 -33.245230 2.904871 -18.883103 -32.488112 -5.547805 44.916915 130.009605 21.815816 44.916915 130.009605 21.815816 1.624479 -10.043079 0.142748 -4.307792 -39.289173 -1.538346 -11.650405 116.599917 -7.210811 -11.650405 116.599917 -7.210811
18.803104 1.633099 6.249442 0.000000 0.000000 0.000000 0.000000 0.000000 0.000000 0.000000 0.000000 0.000000 0.000000 0.000000 0.000000 0.000000 0.000000 0.000000 -52.667759 -11.341824 22.688245 -55.132390 -39.818825 69.504633 -154.207793 -141.778248 66.912535 -154.207793 -141.778248 66.912535 91.826341 -28.859336 -27.989912 -146.600889 104.226724 -42.169292 -155.954008 121.147202 -41.369542 -155.954008 121.147202 -41.369542 12.951675 -31.270251 3.639023 -15.551503 -35.010527 -4.932229 51.061535 127.557667 26.475675 51.061535 127.557667 26.475675 0.077783 -9.405714 0.006399 -3.645818 -39.163232 -1.297282 -9.877595 115.812819 -6.203983 -9.877595 115.812819 -6.203983
18.805974 1.630814 6.100436 0.000000 0.000000 0.000000 0.000000 0.000000 0.000000 0.000000 0.000000 0.000000 0.000000 0.000000 0.000000 0.000000 0.000000 0.000000 -50.404283 -10.619425 22.342564 -45.289893 -30.665240 66.627760 -173.238158 -171.725557 78.478633 -173.238158 -171.725557 78.478633 86.854636 -23.409845 -24.692084 -156.320315 131.574033 -49.988011 -162.133787 136.404208 -42.913579 -162.133787 136.404208 -42.913579 14.850855 -29.559590 3.938696 -14.600823 -31.344444 -4.117011 60.127412 136.379225 26.083813 60.127412 136.379225 26.083813 -0.460064 -10.245522 -0.041244 -3.915438 -39.260489 -1.397029 -9.552445 116.306314 -5.942035 -9.552445 116.306314 -5.942035
18.806883 1.644373 5.992470 0.000000 0.000000 0.000000 0.000000 0.000000 0.000000 0.000000 0.000000 0.000000 0.000000 0.000000 0.000000 0.000000 0.000000 0.000000 -48.379921 -10.326717 22.747609 -48.577326 -34.797886 69.550946 175.567797 174.444708 77.152224 175.567797 174.444708 77.152224 88.205039 -24.805318 -25.569283 -154.649741 127.505644 -49.036988 -161.495490 135.338770 -43.265496 -161.495490 135.338770 -43.265496 14.462315 -27.897641 3.610141 -15.213707 -29.947393 -4.091353 70.218308 140.824029 28.091782 70.218308 140.824029 28.091782 -0.713546 -10.872365 -0.067906 -3.646434 -39.963602 -1.326271 -8.367390 115.577552 -5.277171 -8.367390 115.577552 -5.277171
18.834865 1.641373 5.989876 0.000000 0.000000 0.000000 0.000000 0.000000 0.000000 0.000000 0.000000 0.000000 0.000000 0.000000 0.000000 0.000000 0.000000 0.000000 -49.281351 -10.580216 22.824961 -45.997985 -32.874037 69.602720 167.924074 164.774283 76.715181 167.924074 164.774283 76.715181 88.799705 -25.198024 -25.713953 -152.691832 122.983353 -48.193831 -159.103988 129.736879 -42.918511 -159.103988 129.736879 -42.918511 14.324504 -28.225695 3.619155 -15.507852 -30.635967 -4.271844 66.072389 140.709850 26.138348 66.072389 140.709850 26.138348 -0.843723 -11.113105 -0.082083 -3.676151 -39.736247 -1.328832 -8.567086 115.764457 -5.383903 -8.567086 115.764457 -5.383903
18.817433 1.614031 5.650993 0.000000 0.000000 0.000000 0.000000 0.000000 0.000000 0.000000 0.000000 0.000000 0.000000 0.000000 0.000000 0.000000 0.000000 0.000000 -11.953917 -0.918007 8.751310 3.409201 0.476468 15.907636 31.685581 4.046917 14.193736 31.685581 4.046917 14.193736 84.783897 -24.635024 -26.904470 -162.002955 149.726308 -60.689736 -162.084940 140.588296 -47.507347 -162.084940 140.588296 -47.507347 14.246673 -28.747329 3.668618 -16.170644 -31.830922 -4.639364 57.053224 141.065649 21.751786 57.053224 141.065649 21.751786 -2.698813 -11.080545 -0.261829 -6.353963 -38.958933 -2.249511 -11.916951 115.135049 -7.588509 -11.916951 115.135049 -7.588509
18.824398 1.500764 5.539652 0.000000 0.000000 0.000000 0.000000 0.000000 0.000000 0.000000 0.000000 0.000000 0.000000 0.000000 0.000000 0.000000 0.000000 0.000000 -5.145728 -0.118036 2.626359 7.167219 1.036899 16.443275 35.885823 5.148707 15.809610 35.885823 5.148707 15.809610 84.221667 -24.339575 -26.837587 -159.114134 143.348073 -58.187762 -159.197526 132.324021 -45.119167 -159.197526 132.324021 -45.119167 12.646899 -29.578907 3.351632 -17.376544 -31.805866 -4.985951 72.522734 143.219875 27.410788 72.522734 143.219875 27.410788 -3.502696 -11.580182 -0.355288 -8.622405 -39.638952 -3.112680 -15.539757 112.941444 -10.332459 -15.539757 112.941444 -10.332459
18.874792 1.417110 5.654285 0.000000 0.000000 0.000000 0.000000 0.000000 0.000000 0.000000 0.000000 0.000000 0.000000 0.000000 0.000000 0.000000 0.000000 0.000000 -11.871373 -0.076983 0.740432 10.149705 2.427376 26.836173 41.859030 8.564933 22.156228 41.859030 8.564933 22.156228 84.348606 -23.947026 -26.350839 -155.725648 137.109898 -57.401526 -156.641844 124.875927 -43.210822 -156.641844 124.875927 -43.210822 9.263577 -34.606992 2.891592 -18.717722 -36.300499 -6.185216 79.452109 140.172979 33.507142 79.452109 140.172979 33.507142 -5.354954 -12.251390 -0.575122 -10.152245 -41.548947 -3.859949 -17.003073 109.263406 -12.113341 -17.003073 109.263406 -12.113341
18.951101 1.349970 5.655436 0.000000 0.000000 0.000000 0.000000 0.000000 0.000000 0.000000 0.000000 0.000000 0.000000 0.000000 0.000000 0.000000 0.000000 0.000000 -19.774680 -0.460821 2.643382 10.275487 3.421975 36.755954 48.856697 17.996641 38.440350 48.856697 17.996641 38.440350 85.173549 -24.353021 -26.423708 -152.502386 131.205005 -56.689170 -156.740557 126.032247 -44.017937 -156.740557 126.032247 -44.017937 5.743612 -35.227919 1.824896 -21.721527 -36.520543 -7.244429 72.702990 137.130861 32.231292 72.702990 137.130861 32.231292 -7.298742 -12.969991 -0.830760 -10.968618 -42.485504 -4.274951 -20.176753 107.635701 -14.828593 -20.176753 107.635701 -14.828593
18.946344 1.318490 6.127894 0.000000 0.000000 0.000000 0.000000 0.000000 0.000000 0.000000 0.000000 0.000000 0.000000 0.000000 0.000000 0.000000 0.000000 0.000000 -27.332266 -1.195519 4.914007 19.396031 11.195789 59.670587 95.380814 54.218638 49.968984 95.380814 54.218638 49.968984 85.402960 -24.772960 -26.772956 -147.371247 117.815130 -51.778992 -149.525080 108.671896 -41.571692 -149.525080 108.671896 -41.571692 3.862784 -36.700678 1.281692 -22.542998 -38.358435 -7.931189 69.341936 132.405530 33.926439 69.341936 132.405530 33.926439 -9.629207 -12.799772 -1.082586 -10.538428 -42.562302 -4.114610 -21.156673 110.893669 -14.656879 -21.156673 110.893669 -14.656879
18.906975 1.235083 6.561783 0.000000 0.000000 0.000000 0.000000 0.000000 0.000000 0.000000 0.000000 0.000000 0.000000 0.000000 0.000000 0.000000 0.000000 0.000000 -52.910742 -1.264855 2.541550 1.186401 0.602302 53.830025 84.404274 33.578009 36.805917 84.404274 33.578009 36.805917 85.620802 -20.115970 -21.678820 -146.300182 84.438222 -30.732106 -147.647577 91.085269 -32.937874 -147.647577 91.085269 -32.937874 2.866441 -35.549215 0.919084 -24.734420 -36.454228 -8.259801 59.261737 127.452856 31.368220 59.261737 127.452856 31.368220 -10.478050 -6.868893 -0.630585 -11.316446 -40.752188 -4.214990 -26.014618 110.720548 -18.135243 -26.014618 110.720548 -18.135243
18.783453 1.066309 7.294849 0.000000 0.000000 0.000000 0.000000 0.000000 0.000000 0.000000 0.000000 0.000000 0.000000 0.000000 0.000000 0.000000 0.000000 0.000000 -66.073445 -5.488617 8.431095 20.545724 17.089483 79.317529 126.713657 33.808226 17.338145 126.713657 33.808226 17.338145 88.821184 -20.492279 -20.908989 -146.192484 79.946213 -28.584752 -147.502984 92.109544 -33.648349 -147.502984 92.109544 -33.648349 3.718167 -33.742812 1.127998 -25.229686 -34.219523 -7.881891 52.046238 126.987635 27.369241 52.046238 126.987635 27.369241 -11.213608 -6.946070 -0.682729 -12.639571 -42.464756 -4.927758 -31.713782 112.631453 -21.440865 -31.713782 112.631453 -21.440865
18.722682 0.931385 7.779856 0.000000 0.000000 0.000000 0.000000 0.000000 0.000000 0.000000 0.000000 0.000000 0.000000 0.000000 0.000000 0.000000 0.000000 0.000000 -61.449129 -6.773978 11.373346 -94.847522 -62.163195 57.959083 -154.615539 -62.151574 15.459037 -154.615539 -62.151574 15.459037 97.815056 -16.099739 -14.063065 -146.472283 -15.102728 4.573485 -149.896646 79.097715 -25.040200 -149.896646 79.097715 -25.040200 6.928546 -31.353063 1.946650 -23.866541 -30.980453 -6.704064 46.751777 122.609171 26.622687 46.751777 122.609171 26.622687 -10.826148 -7.943144 -0.753874 -13.958395 -42.886065 -5.505370 -31.985123 108.803172 -23.189710 -31.985123 108.803172 -23.189710
18.657284 0.838429 8.264316 0.000000 0.000000 0.000000 0.000000 0.000000 0.000000 0.000000 0.000000 0.000000 0.000000 0.000000 0.000000 0.000000 0.000000 0.000000 -59.063276 -8.635347 15.182728 -110.100058 -82.682504 63.174467 -168.265410 -127.187806 23.385663 -168.265410 -127.187806 23.385663 113.895939 -23.610148 -15.489234 -140.126594 -11.569864 4.209042 -147.256393 76.650461 -26.147528 -147.256393 76.650461 -26.147528 7.452375 -30.499144 2.034346 -23.013953 -30.620645 -6.379859 45.781335 118.807587 28.036376 45.781335 118.807587 28.036376 -10.494766 -12.006678 -1.106724 -14.565015 -43.007555 -5.764656 -32.812219 109.444424 -23.532705 -32.812219 109.444424 -23.532705
18.298369 0.754785 8.627738 0.000000 0.000000 0.000000 0.000000 0.000000 0.000000 0.000000 0.000000 0.000000 0.000000 0.000000 0.000000 0.000000 0.000000 0.000000 -65.301722 -13.669806 21.190028 -104.902337 -78.660315 64.408305 179.612077 175.909738 10.831003 179.612077 175.909738 10.831003 142.808479 -18.550110 -6.290044 -141.813450 -76.196008 30.368250 -149.244714 77.027278 -24.691579 -149.244714 77.027278 -24.691579 7.358852 -29.174289 1.917532 -24.203615 -30.059957 -6.590040 43.684793 116.326488 27.951802 43.684793 116.326488 27.951802 -10.386662 -15.708651 -1.436692 -13.905464 -42.077427 -5.371063 -34.896037 109.096596 -25.228722 -34.896037 109.096596 -25.228722
18.071115 0.472923 8.946862 0.000000 0.000000 0.000000 0.000000 0.000000 0.000000 0.000000 0.000000 0.000000 0.000000 0.000000 0.000000 0.000000 0.000000 0.000000 -89.106608 -25.971667 26.365675 -9.535102 -8.173927 81.174649 138.178106 24.630295 9.536364 138.178106 24.630295 9.536364 155.341247 -69.952002 -17.387475 -159.099211 -116.837831 33.401727 -164.105907 106.220236 -21.072787 -164.105907 106.220236 -21.072787 6.951817 -34.610792 2.168370 -22.590357 -38.294962 -7.934095 35.879053 104.250688 28.267084 35.879053 104.250688 28.267084 -8.430205 -19.193178 -1.427849 -14.042450 -40.800478 -5.245041 -40.012766 112.977464 -27.109879 -40.012766 112.977464 -27.109879
16.812037 0.467420 10.815452 0.000000 0.000000 0.000000 0.000000 0.000000 0.000000 0.000000 0.000000 0.000000 0.000000 0.000000 0.000000 0.000000 0.000000 0.000000 -80.198120 -8.617456 10.226002 50.638052 30.515606 59.932909 111.817784 -8.444980 -5.721381 111.817784 -8.444980 -5.721381 161.610587 -87.558991 -17.634496 -161.132223 -103.497024 23.802678 -163.671799 119.022679 -27.387868 -163.671799 119.022679 -27.387868 5.039075 -33.774195 1.530644 -28.533289 -37.366984 -9.829132 40.777191 106.906079 30.805030 40.777191 106.906079 30.805030 -7.946954 -17.454898 -1.221865 -14.353190 -41.185781 -5.417319 -42.069538 112.595739 -28.771428 -42.069538 112.595739 -28.771428
16.253397 0.497888 11.450288 0.000000 0.000000 0.000000 0.000000 0.000000 0.000000 0.000000 0.000000 0.000000 0.000000 0.000000 0.000000 0.000000 0.000000 0.000000 -79.408808 -9.651589 11.611238 74.057373 36.157700 46.801290 116.124624 26.943099 16.986182 116.124624 26.943099 16.986182 164.118208 -99.830756 -18.821181 -160.357088 -105.422037 25.615588 -165.435918 119.088825 -24.521729 -165.435918 119.088825 -24.521729 3.299149 -30.369291 0.895639 -33.204846 -35.482250 -10.897975 40.100811 97.608240 35.432991 40.100811 97.608240 35.432991 -7.245977 -17.937180 -1.145067 -15.136245 -41.577448 -5.775072 -39.838741 113.339299 -26.808536 -39.838741 113.339299 -26.808536
15.937497 0.495403 11.790287 0.000000 0.000000 0.000000 0.000000 0.000000 0.000000 0.000000 0.000000 0.000000 0.000000 0.000000 0.000000 0.000000 0.000000 0.000000 -79.072385 -12.422892 15.023363 77.693769 41.224098 50.066094 115.264860 13.883291 8.825404 115.264860 13.883291 8.825404 164.354015 -94.589524 -16.934060 -160.133979 -91.053236 20.227064 -163.371452 120.893467 -28.905703 -163.371452 120.893467 -28.905703 3.261100 -32.377670 0.946982 -33.064021 -38.089345 -11.700529 44.154276 99.293956 38.029316 44.154276 99.293956 38.029316 -6.412135 -17.934541 -1.012859 -15.895016 -41.909862 -6.120699 -40.508615 113.613592 -27.143924 -40.508615 113.613592 -27.143924
15.670100 0.494090 12.266474 0.000000 0.000000 0.000000 0.000000 0.000000 0.000000 0.000000 0.000000 0.000000 0.000000 0.000000 0.000000 0.000000 0.000000 0.000000 -81.135189 -8.026681 9.370041 81.521963 37.974249 43.520353 120.976153 -8.419164 -4.771481 120.976153 -8.419164 -4.771481 163.614585 -91.458700 -16.802018 -161.236471 -87.090519 17.849455 -163.055351 121.398064 -29.730291 -163.055351 121.398064 -29.730291 3.055786 -32.644449 0.895055 -33.267892 -38.597926 -11.944837 44.106640 94.194556 41.261360 44.106640 94.194556 41.261360 -6.247683 -16.436596 -0.903218 -16.011636 -42.544314 -6.268342 -37.419419 111.991441 -25.739257 -37.419419 111.991441 -25.739257
15.662906 0.500343 12.181873 0.000000 0.000000 0.000000 0.000000 0.000000 0.000000 0.000000 0.000000 0.000000 0.000000 0.000000 0.000000 0.000000 0.000000 0.000000 -80.743203 -10.198050 11.982610 79.972083 42.719205 49.999724 120.766504 1.666860 0.947598 120.766504 1.666860 0.947598 163.724731 -93.721752 -17.352223 -160.246906 -78.846433 16.290914 -163.370735 122.986454 -30.121919 -163.370735 122.986454 -30.121919 3.087974 -32.032370 0.886603 -34.351208 -37.273420 -11.901945 45.543608 100.848674 38.270882 45.543608 100.848674 38.270882 -6.354163 -15.844144 -0.885098 -15.864167 -42.827077 -6.255257 -36.888115 111.814206 -25.441787 -36.888115 111.814206 -25.441787
16.564284 0.350662 11.767475 0.000000 0.000000 0.000000 0.000000 0.000000 0.000000 0.000000 0.000000 0.000000 0.000000 0.000000 0.000000 0.000000 0.000000 0.000000 -85.903323 -13.429969 14.416138 -46.449259 -35.358803 73.210293 142.453858 42.416960 15.027620 142.453858 42.416960 15.027620 136.795509 -47.591011 -19.808898 -161.830404 -17.342637 2.793936 -164.707849 130.112577 -32.199848 -164.707849 130.112577 -32.199848 3.163708 -38.206405 1.095975 -31.411471 -40.299337 -11.781794 50.897103 113.826377 34.453369 50.897103 113.826377 34.453369 -7.840306 -15.262002 -1.052051 -14.182350 -42.246129 -5.502987 -35.064010 113.628984 -23.347642 -35.064010 113.628984 -23.347642
17.313648 0.348665 11.258990 0.000000 0.000000 0.000000 0.000000 0.000000 0.000000 0.000000 0.000000 0.000000 0.000000 0.000000 0.000000 0.000000 0.000000 0.000000 -72.274652 -13.695303 18.677897 -105.611300 -91.488523 75.827344 168.145205 135.995353 28.819911 168.145205 135.995353 28.819911 114.754313 -32.268724 -20.981051 -156.297403 20.075161 -4.254359 -159.876871 118.716358 -33.348775 -159.876871 118.716358 -33.348775 4.154223 -41.227112 1.563179 -30.623920 -40.380434 -11.498705 46.971448 113.200224 31.975009 46.971448 113.200224 31.975009 -9.266039 -12.629976 -1.027647 -14.073024 -40.423383 -5.203751 -29.781696 114.359601 -19.462995 -29.781696 114.359601 -19.462995
17.681628 0.349791 10.632927 0.000000 0.000000 0.000000 0.000000 0.000000 0.000000 0.000000 0.000000 0.000000 0.000000 0.000000 0.000000 0.000000 0.000000 0.000000 -56.281735 -12.798992 23.686097 95.458173 86.708309 81.273979 129.463050 58.495905 29.612110 129.463050 58.495905 29.612110 98.510729 -26.421067 -22.865274 -163.756223 76.657237 -12.874014 -164.966343 129.789001 -31.456088 -164.966343 129.789001 -31.456088 4.548533 -43.519738 1.816391 -25.308520 -43.179593 -10.154557 52.038721 118.514083 32.380050 52.038721 118.514083 32.380050 -9.421871 -11.648219 -0.963193 -13.512276 -39.751331 -4.904656 -31.751584 114.754475 -20.634420 -31.751584 114.754475 -20.634420
18.434974 0.350507 10.161769 0.000000 0.000000 0.000000 0.000000 0.000000 0.000000 0.000000 0.000000 0.000000 0.000000 0.000000 0.000000 0.000000 0.000000 0.000000 -47.024126 -8.708954 19.855211 21.816701 14.822313 68.034121 88.229038 50.473307 51.852914 88.229038 50.473307 51.852914 89.150015 -23.019395 -23.354065 -168.203010 146.726391 -38.145301 -168.468122 148.969260 -39.975463 -168.468122 148.969260 -39.975463 2.374715 -43.028033 0.936210 -24.526964 -44.423889 -10.144446 51.867948 118.799532 32.090870 51.867948 118.799532 32.090870 -10.829595 -7.674887 -0.728570 -11.757460 -40.174190 -4.312731 -28.279256 113.172469 -18.872185 -28.279256 113.172469 -18.872185
19.028076 0.350825 9.328310 0.000000 0.000000 0.000000 0.000000 0.000000 0.000000 0.000000 0.000000 0.000000 0.000000 0.000000 0.000000 0.000000 0.000000 0.000000 -29.639773 -5.713057 21.359747 9.255691 4.642485 53.200160 44.772188 19.356439 44.984087 44.772188 19.356439 44.984087 83.394825 -21.856810 -24.457424 -166.541426 151.621552 -50.033716 -165.496318 145.263444 -44.276953 -165.496318 145.263444 -44.276953 -0.010993 -43.440277 -0.004379 -24.488236 -46.344041 -10.613590 56.165659 129.277340 28.386572 56.165659 129.277340 28.386572 -11.244623 -5.717258 -0.563293 -11.780072 -38.704379 -4.150193 -22.672296 113.775412 -14.898320 -22.672296 113.775412 -14.898320
19.034869 0.355666 8.545900 0.000000 0.000000 0.000000 0.000000 0.000000 0.000000 0.000000 0.000000 0.000000 0.000000 0.000000 0.000000 0.000000 0.000000 0.000000 -11.135335 -0.905028 9.264088 1.693426 0.330485 22.084272 30.717445 4.828055 17.451816 30.717445 4.828055 17.451816 78.313508 -22.928269 -27.969092 -174.203243 169.711848 -58.707249 -165.175438 147.101150 -47.558709 -165.175438 147.101150 -47.558709 -2.095619 -43.070098 -0.827045 -26.524321 -43.910150 -10.854892 56.409057 129.666020 28.286465 56.409057 129.666020 28.286465 -11.349774 -3.106073 -0.308727 -12.268060 -37.472742 -4.175314 -20.656909 113.034918 -13.747080 -20.656909 113.034918 -13.747080
19.002959 0.355306 8.131337 0.000000 0.000000 0.000000 0.000000 0.000000 0.000000 0.000000 0.000000 0.000000 0.000000 0.000000 0.000000 0.000000 0.000000 0.000000 -2.771432 -0.003983 0.164652 9.512878 0.223169 2.681618 37.717152 0.721729 2.112772 37.717152 0.721729 2.112772 78.290730 -24.949964 -30.410417 -175.694853 172.635905 -60.576951 -164.639422 146.068445 -47.694214 -164.639422 146.068445 -47.694214 -3.820732 -44.157338 -1.550261 -26.932694 -44.439340 -11.173430 62.177979 127.233397 33.303967 62.177979 127.233397 33.303967 -11.966072 -1.727610 -0.181076 -12.402733 -37.947869 -4.279033 -18.666423 109.936891 -13.144722 -18.666423 109.936891 -13.144722
18.992386 0.295545 7.827743 0.000000 0.000000 0.000000 0.000000 0.000000 0.000000 0.000000 0.000000 0.000000 0.000000 0.000000 0.000000 0.000000 0.000000 0.000000 -8.449967 0.004651 -0.062961 11.678385 0.883631 8.624248 41.469198 3.286684 8.667909 41.469198 3.286684 8.667909 77.600149 -24.821925 -30.614467 -174.726168 170.408774 -57.530322 -164.372036 145.983883 -48.325688 -164.372036 145.983883 -48.325688 -5.017987 -43.760968 -2.016314 -28.743099 -43.916357 -11.796037 57.747207 124.637980 32.267504 57.747207 124.637980 32.267504 -13.160587 -1.845717 -0.212932 -13.015310 -38.702354 -4.588256 -19.533966 109.471204 -13.879693 -19.533966 109.471204 -13.879693
19.159699 0.292880 7.823970 0.000000 0.000000 0.000000 0.000000 0.000000 0.000000 0.000000 0.000000 0.000000 0.000000 0.000000 0.000000 0.000000 0.000000 0.000000 -18.716794 -1.012731 6.139377 11.560053 4.812241 45.087929 55.013207 19.842555 37.134985 55.013207 19.842555 37.134985 79.990265 -25.434891 -30.112425 -162.724022 148.974646 -57.385017 -161.658843 140.259227 -48.139487 -161.658843 140.259227 -48.139487 -6.324685 -43.970025 -2.555586 -28.668599 -45.645939 -12.275698 53.104866 118.555230 33.080625 53.104866 118.555230 33.080625 -14.793457 -2.127426 -0.276212 -13.484555 -39.224304 -4.824306 -21.224300 110.763822 -14.739599 -21.224300 110.763822 -14.739599
19.145579 0.295584 7.844710 0.000000 0.000000 0.000000 0.000000 0.000000 0.000000 0.000000 0.000000 0.000000 0.000000 0.000000 0.000000 0.000000 0.000000 0.000000 -29.781736 -2.420087 9.083475 3.441851 2.176574 64.607930 107.338785 77.180266 60.813206 107.338785 77.180266 60.813206 80.742961 -23.745209 -27.778197 -158.867926 140.190620 -54.511037 -161.670728 137.287759 -44.841973 -161.670728 137.287759 -44.841973 -8.592840 -42.452831 -3.342823 -30.204756 -43.818740 -12.388859 56.460591 118.214680 35.616157 56.460591 118.214680 35.616157 -15.858599 -2.254735 -0.314085 -13.945014 -39.192712 -4.986101 -23.959506 111.348876 -16.487653 -23.959506 111.348876 -16.487653
19.024010 0.297541 8.158661 0.000000 0.000000 0.000000 0.000000 0.000000 0.000000 0.000000 0.000000 0.000000 0.000000 0.000000 0.000000 0.000000 0.000000 0.000000 -48.017165 -6.384242 14.274025 13.625265 9.922934 72.008542 105.824062 66.642161 52.852345 105.824062 66.642161 52.852345 82.147226 -24.232773 -27.675456 -160.244664 141.698765 -53.259636 -152.412668 115.370058 -42.425260 -152.412668 115.370058 -42.425260 -9.233943 -40.705852 -3.431847 -31.290137 -42.194845 -12.333659 54.261846 116.752804 35.023673 54.261846 116.752804 35.023673 -16.364704 -2.789753 -0.401210 -15.966122 -40.199133 -5.875583 -30.481659 110.788137 -21.294517 -30.481659 110.788137 -21.294517
18.565878 0.301382 8.746859 0.000000 0.000000 0.000000 0.000000 0.000000 0.000000 0.000000 0.000000 0.000000 0.000000 0.000000 0.000000 0.000000 0.000000 0.000000 -62.586695 -8.823016 14.466513 59.363020 42.340123 68.390019 109.385900 46.611504 33.933248 109.385900 46.611504 33.933248 83.014986 -26.848762 -30.188318 -151.785461 123.164339 -49.825637 -148.532705 103.826840 -39.543529 -148.532705 103.826840 -39.543529 -7.956994 -38.288341 -2.766138 -31.633940 -40.551351 -11.949191 54.739719 122.609718 31.641896 54.739719 122.609718 31.641896 -16.408951 -3.650961 -0.526577 -18.158239 -39.737274 -6.610090 -36.924738 111.241558 -25.733996 -36.924738 111.241558 -25.733996
17.967025 0.216296 10.191942 0.000000 0.000000 0.000000 0.000000 0.000000 0.000000 0.000000 0.000000 0.000000 0.000000 0.000000 0.000000 0.000000 0.000000 0.000000 -73.964266 -11.975702 15.858730 58.059140 52.291330 82.985559 128.277404 64.311849 33.895753 128.277404 64.311849 33.895753 91.149605 -26.425531 -25.918459 -148.895341 76.326192 -24.674562 -151.019930 92.465975 -30.197917 -151.019930 92.465975 -30.197917 -5.356276 -34.808625 -1.680101 -30.071551 -40.359106 -11.276346 54.757109 122.255191 31.874187 54.757109 122.255191 31.874187 -16.744862 -6.594135 -0.971545 -18.556483 -39.250380 -6.667777 -41.007485 113.681696 -27.460313 -41.007485 113.681696 -27.460313
17.150323 -0.090441 11.820499 0.000000 0.000000 0.000000 0.000000 0.000000 0.000000 0.000000 0.000000 0.000000 0.000000 0.000000 0.000000 0.000000 0.000000 0.000000 -72.352680 -14.390855 19.590650 -81.138268 -77.186984 85.979412 145.495982 76.100710 27.323384 145.495982 76.100710 27.323384 107.520849 -15.302919 -11.247183 -146.291575 -54.512477 17.741352 -150.142246 81.421606 -25.841978 -150.142246 81.421606 -25.841978 -5.012542 -32.618421 -1.467501 -31.103640 -33.784547 -9.661477 56.385703 114.635006 37.955874 56.385703 114.635006 37.955874 -15.809054 -6.478543 -0.900435 -21.986525 -38.592515 -7.781850 -51.835402 114.062116 -34.990638 -51.835402 114.062116 -34.990638
16.614386 -0.295127 12.801712 0.000000 0.000000 0.000000 0.000000 0.000000 0.000000 0.000000 0.000000 0.000000 0.000000 0.000000 0.000000 0.000000 0.000000 0.000000 -79.551754 -16.326624 19.554362 -63.389687 -55.056814 80.332770 143.094265 75.417895 28.931629 143.094265 75.417895 28.931629 107.537385 -11.079752 -8.130178 -149.499058 -84.204131 27.680343 -154.391569 82.302990 -22.467971 -154.391569 82.302990 -22.467971 -5.196046 -30.367620 -1.411054 -32.169660 -31.881294 -9.416439 53.436290 109.795254 38.966292 53.436290 109.795254 38.966292 -14.323666 -7.398833 -0.930957 -24.042322 -38.649532 -8.541248 -55.578362 114.423829 -37.501878 -55.578362 114.423829 -37.501878
16.205107 -0.370344 13.496033 0.000000 0.000000 0.000000 0.000000 0.000000 0.000000 0.000000 0.000000 0.000000 0.000000 0.000000 0.000000 0.000000 0.000000 0.000000 -74.308793 -15.323733 20.133321 -18.583363 -15.916295 81.025212 131.397261 68.221999 34.012098 131.397261 68.221999 34.012098 107.458613 -16.514512 -12.156900 -149.394569 -4.019073 1.100116 -155.206471 101.758240 -30.247854 -155.206471 101.758240 -30.247854 -5.626364 -30.365601 -1.527973 -32.056874 -33.192518 -9.787714 55.368627 112.071304 38.928298 55.368627 112.071304 38.928298 -13.623910 -7.720535 -0.923630 -25.404014 -37.657039 -8.789822 -55.197306 115.439983 -36.548337 -55.197306 115.439983 -36.548337
