HIERARCHY
ROOT mixamorig:Hips
{
  OFFSET 0.000000 0.000000 0.000000
  CHANNELS 6 Xposition Yposition Zposition Xrotation Yrotation Zrotation
  JOINT mixamorig:Spine
  {
    OFFSET 1.277922 23.685776 -1.473739
    CHANNELS 3 Xrotation Yrotation Zrotation
    JOINT mixamorig:Spine2
    {
      OFFSET 1.277922 23.685776 -1.473739
      CHANNELS 3 Xrotation Yrotation Zrotation
      JOINT mixamorig:Neck
      {
        OFFSET 0.000000 4.227248 0.000000
        CHANNELS 3 Xrotation Yrotation Zrotation
        JOINT mixamorig:Head
        {
          OFFSET 0.000000 3.735021 0.000000
          CHANNELS 3 Xrotation Yrotation Zrotation
          End Site
          {
            OFFSET 0.000000 1.120506 0.000000
          }
        }
      }
      JOINT mixamorig:LeftShoulder
      {
        OFFSET 15.589172 3.940868 -1.613959
        CHANNELS 3 Xrotation Yrotation Zrotation
        JOINT mixamorig:LeftArm
        {
          OFFSET 1.009262 -19.267075 -10.059340
          CHANNELS 3 Xrotation Yrotation Zrotation
          JOINT mixamorig:LeftForeArm
          {
            OFFSET -7.551586 9.126048 -14.273645
            CHANNELS 3 Xrotation Yrotation Zrotation
            JOINT mixamorig:LeftHand
            {
              OFFSET -2.601524 3.809930 -1.584078
              CHANNELS 3 Xrotation Yrotation Zrotation
              End Site
              {
                OFFSET -0.780457 1.142979 -0.475223
              }
            }
          }
        }
      }
      JOINT mixamorig:RightShoulder
      {
        OFFSET -15.589172 3.940868 1.613959
        CHANNELS 3 Xrotation Yrotation Zrotation
        JOINT mixamorig:RightArm
        {
          OFFSET 0.369772 -24.896812 -13.866074
          CHANNELS 3 Xrotation Yrotation Zrotation
          JOINT mixamorig:RightForeArm
          {
            OFFSET 7.064691 11.192793 -19.148022
            CHANNELS 3 Xrotation Yrotation Zrotation
            JOINT mixamorig:RightHand
            {
              OFFSET 3.786626 5.224959 -4.202100
              CHANNELS 3 Xrotation Yrotation Zrotation
              End Site
              {
                OFFSET 1.135988 1.567488 -1.260630
              }
            }
          }
        }
      }
    }
  }
  JOINT mixamorig:LeftUpLeg
  {
    OFFSET 9.460444 -0.159481 1.370640
    CHANNELS 3 Xrotation Yrotation Zrotation
    JOINT mixamorig:LeftLeg
    {
      OFFSET 11.476000 -40.598035 -6.922701
      CHANNELS 3 Xrotation Yrotation Zrotation
      JOINT mixamorig:LeftFoot
      {
        OFFSET 10.790807 -36.194235 11.674022
        CHANNELS 3 Xrotation Yrotation Zrotation
        JOINT mixamorig:LeftToeBase
        {
          OFFSET -0.217554 -6.343681 -6.642804
          CHANNELS 3 Xrotation Yrotation Zrotation
          End Site
          {
            OFFSET -0.065266 -1.903104 -1.992841
          }
        }
      }
    }
  }
  JOINT mixamorig:RightUpLeg
  {
    OFFSET -9.460444 0.159481 -1.370640
    CHANNELS 3 Xrotation Yrotation Zrotation
    JOINT mixamorig:RightLeg
    {
      OFFSET -1.472079 -34.936613 11.400775
      CHANNELS 3 Xrotation Yrotation Zrotation
      JOINT mixamorig:RightFoot
      {
        OFFSET -9.570470 -38.467240 26.014859
        CHANNELS 3 Xrotation Yrotation Zrotation
        JOINT mixamorig:RightToeBase
        {
          OFFSET -7.756088 -3.724676 -6.009160
          CHANNELS 3 Xrotation Yrotation Zrotation
          End Site
          {
            OFFSET -2.326826 -1.117403 -1.802748
          }
        }
      }
    }
  }
}
MOTION
Frames: 96
Frame Time: 0.083333
0.094380 0.150834 0.145625 1.148959 -0.051734 0.242188 -0.000000 0.000000 0.000000 -3.230657 6.105554 -0.021023 23.379426 1.187145 -3.361554 23.259294 2.615448 -3.165128 1.797460 -5.418129 -1.277260 1.710946 -1.524847 -0.082203 0.032438 1.131342 -0.740806 0.000000 0.000000 0.000000 2.296126 -6.145291 0.204906 0.490397 -0.157587 -0.081565 0.079733 0.044242 0.333865 0.000000 0.000000 0.000000 -1.467570 0.074800 -0.851120 -1.659065 -0.767434 0.282900 -3.696238 0.221348 1.150250 0.000000 0.000000 0.000000 0.846872 -0.136657 -0.583745 -2.471214 -0.136232 -0.237019 1.075021 1.388948 -0.911916 0.000000 0.000000 0.000000
0.094386 0.150602 0.146551 0.963882 -0.042585 0.220511 -0.000000 0.000000 0.000000 -3.232301 6.074550 0.018943 23.476187 1.131392 -3.367398 23.360143 2.563747 -3.193900 2.041802 -5.429732 -1.201759 1.611030 -1.441124 -0.098908 -0.138739 0.989031 -0.609623 0.000000 0.000000 0.000000 2.472576 -6.146671 0.241511 0.371641 -0.016230 -0.094815 0.087314 -0.022461 0.268353 0.000000 0.000000 0.000000 -1.217104 0.083177 -0.830485 -1.382449 -0.693415 0.250670 -2.939999 0.128066 1.120747 0.000000 0.000000 0.000000 0.743301 -0.143764 -0.598325 -2.151048 -0.168758 -0.226247 1.077808 1.389882 -0.926094 0.000000 0.000000 0.000000
0.094528 0.150266 0.148853 2.278424 -0.099008 0.562728 -0.000000 0.000000 0.000000 -3.218302 6.338738 -0.451573 22.830427 1.088705 -3.209867 22.723383 2.416555 -3.035850 0.719557 -4.603270 -3.137379 4.214438 -3.818946 -0.427015 -0.958440 2.390718 -1.332625 0.000000 0.000000 0.000000 1.636324 -6.695109 0.942533 0.688957 0.493815 -0.384883 0.219779 -0.248346 0.611220 0.000000 0.000000 0.000000 -2.837134 0.264958 -2.343756 -3.197786 -1.828848 0.569958 -6.350812 0.091831 3.287332 0.000000 0.000000 0.000000 1.926551 -0.453520 -1.829052 -5.378142 -0.597123 -0.568024 3.003079 3.906180 -2.483128 0.000000 0.000000 0.000000
0.094851 0.150414 0.151294 2.446807 -0.104529 0.670697 0.000000 0.000000 0.000000 -3.213216 6.434336 -0.576557 22.790450 0.538292 -3.146326 22.724906 1.798034 -3.180792 1.976785 -4.286496 -3.521649 4.806260 -4.685260 -1.317911 -2.696659 2.494233 -0.971692 0.000000 0.000000 0.000000 2.251201 -7.473853 2.240594 0.162395 2.165835 -0.950422 0.127653 -0.755421 0.624974 0.000000 0.000000 0.000000 -2.970352 0.457878 -3.476757 -3.156022 -2.503120 0.402240 -5.155023 -0.517304 5.476308 0.000000 0.000000 0.000000 2.662617 -0.819340 -3.161752 -6.542309 -1.183708 -0.518629 4.066250 5.319970 -2.836990 0.000000 0.000000 0.000000
0.095329 0.150904 0.153762 2.922830 -0.132758 0.675592 0.000000 0.000000 -0.000000 -3.214992 6.404687 -0.631044 22.583365 0.203720 -3.181379 22.538307 1.440013 -3.346424 4.436573 -4.759030 -1.812907 2.859205 -3.880266 -3.168550 -3.513438 2.260501 -0.472212 0.000000 0.000000 0.000000 3.081475 -8.237421 3.773504 -0.192378 3.703000 -1.613296 -0.384250 -0.913198 0.836155 0.000000 0.000000 0.000000 -3.633106 0.569952 -4.282116 -3.376220 -3.244507 -0.010615 -5.444837 -0.974222 7.865990 0.000000 0.000000 0.000000 3.885308 -1.181847 -4.474159 -8.047439 -1.559479 0.142953 3.914862 4.875716 -1.560739 0.000000 0.000000 0.000000
0.095797 0.151486 0.154230 2.669891 -0.117911 0.669818 0.000000 0.000000 -0.000000 -3.260478 5.566805 -0.618437 22.705248 0.966772 -3.276942 22.598283 2.306482 -3.149174 6.988245 -5.281450 0.987246 -0.389718 -2.487272 -5.296009 -3.247144 2.074529 -0.136545 0.000000 0.000000 0.000000 4.295289 -7.758134 4.364116 -0.313606 4.245565 -1.749858 -0.844794 -0.951554 0.843417 0.000000 0.000000 0.000000 -3.442635 0.635187 -4.892853 -2.870784 -3.411354 0.025435 -4.647095 -1.509185 9.000008 0.000000 0.000000 0.000000 5.031601 -1.466038 -5.453910 -8.743414 -1.552099 1.152042 4.137133 4.255389 -1.583184 0.000000 0.000000 0.000000
0.096232 0.151794 0.153129 1.311860 -0.038590 0.636941 0.000000 0.000000 -0.000000 -3.332697 4.232420 -0.527910 23.390997 2.200605 -3.284121 23.167475 3.684906 -2.657348 8.966863 -4.695610 2.050194 -2.114876 -2.272408 -6.115526 -2.463529 2.343485 -0.630545 0.000000 0.000000 0.000000 6.212365 -6.643350 4.526651 -0.277510 4.114342 -1.896112 -1.374738 -0.528696 0.944432 0.000000 0.000000 0.000000 -2.031118 0.574903 -4.974188 -1.410247 -2.748965 0.327573 -4.348959 -1.977951 8.463439 0.000000 0.000000 0.000000 6.760454 -1.634530 -5.707583 -9.952479 -0.944621 2.229585 4.266817 4.597818 -2.133459 0.000000 0.000000 0.000000
0.097005 0.151809 0.152102 -1.093917 0.101779 0.594518 0.000000 0.000000 0.000000 -3.397743 3.027590 -0.356133 24.622888 3.019924 -3.027758 24.323654 4.545101 -2.031513 10.854154 -3.225686 1.113689 -1.938114 -3.584517 -5.711847 -2.066028 2.738568 -1.631746 0.000000 0.000000 0.000000 8.255424 -5.528594 4.340922 0.157988 3.698212 -2.001719 -1.578298 -0.239069 0.929706 0.000000 0.000000 0.000000 0.794501 0.492935 -4.666313 1.519335 -1.374658 0.267921 -3.624232 -3.541735 8.121381 0.000000 0.000000 0.000000 8.206353 -1.719756 -5.376249 -9.942624 -0.427424 2.433702 4.242338 5.566879 -2.444162 0.000000 0.000000 0.000000
0.097758 0.151422 0.153428 -1.073860 0.099998 0.586400 0.000000 0.000000 0.000000 -3.352777 3.859938 -0.286668 24.579515 2.404053 -2.079156 24.406406 3.482088 -1.261603 8.670864 -3.345094 -0.360558 1.754319 -4.657162 -5.373823 -2.799279 2.702039 -2.561531 0.000000 0.000000 0.000000 7.004077 -6.347846 4.353516 0.834908 3.384453 -2.418814 -1.032573 -0.244308 1.057565 0.000000 0.000000 0.000000 1.494212 0.611387 -4.069650 2.518093 -0.718418 0.097766 -3.937282 -3.683745 6.966432 0.000000 0.000000 0.000000 6.623637 -1.608415 -5.024838 -8.599704 0.223133 2.810169 3.334122 6.672605 -2.937692 0.000000 0.000000 0.000000
0.098337 0.150717 0.155668 -0.914885 0.105903 0.810642 -0.000000 0.000000 0.000000 -3.301077 4.822294 -0.458498 24.473708 1.828023 -1.360940 24.385985 2.555316 -0.723273 7.244483 -3.880650 -1.274912 2.957588 -5.690320 -4.813497 -2.820099 2.615994 -3.617876 0.000000 0.000000 0.000000 5.574249 -7.451860 4.619261 2.154284 2.953947 -3.052063 -0.691221 -0.133702 1.298586 0.000000 0.000000 0.000000 2.201633 0.645709 -3.131208 1.098339 -0.524664 0.618542 -3.980468 0.905921 0.488886 0.000000 0.000000 0.000000 4.602577 -1.533409 -4.979263 -6.344745 1.029233 3.582490 2.000521 6.870226 -3.373569 0.000000 0.000000 0.000000
0.098557 0.150057 0.157106 -0.333935 0.093666 1.169983 -0.000000 0.000000 0.000000 -3.238193 5.990341 -0.805752 24.148780 1.510969 -1.155137 24.086005 2.117019 -0.634483 6.654986 -4.932613 -1.350856 2.995436 -6.188856 -4.951541 -2.882811 2.199287 -5.040305 0.000000 0.000000 0.000000 4.775118 -8.779339 4.970760 2.891755 3.010219 -3.284893 -0.778034 -0.076335 1.530270 0.000000 0.000000 0.000000 2.527983 0.651116 -2.104460 -0.646947 -0.070046 1.891477 -4.597633 4.324822 -5.930311 0.000000 0.000000 0.000000 2.719530 -1.553416 -5.471379 -4.770698 1.544955 4.323798 0.896513 7.325738 -3.519153 0.000000 0.000000 0.000000
0.098764 0.149400 0.156749 0.584216 0.047169 1.371421 -0.000000 0.000000 0.000000 -3.191910 6.843256 -1.054865 23.685033 1.041100 -1.126781 23.648184 1.581593 -0.803068 6.268311 -5.617809 -1.364190 2.544558 -7.122031 -5.412531 -2.937228 2.407090 -5.847328 0.000000 0.000000 0.000000 3.324678 -9.627696 5.066552 3.809036 2.848990 -3.390713 -1.245384 0.129848 1.460052 0.000000 0.000000 0.000000 2.176538 0.694731 -1.445949 -0.314847 0.765107 2.914259 -5.217901 0.639107 -4.855917 0.000000 0.000000 0.000000 1.749075 -1.700340 -6.357232 -5.996526 1.950453 5.145780 0.184273 10.058085 -3.447985 0.000000 0.000000 0.000000
0.098856 0.148782 0.156639 0.510118 0.071886 1.719929 0.000000 0.000000 0.000000 -3.242456 5.934778 -1.430869 23.785000 1.153066 -1.660396 23.723084 1.918867 -1.335350 6.338656 -5.047092 -0.868945 2.459701 -6.196417 -5.483050 -2.612211 2.786293 -4.553085 0.000000 0.000000 0.000000 3.831918 -8.768889 5.142477 3.625356 2.760593 -3.460582 -1.348262 0.306093 1.593302 0.000000 0.000000 0.000000 2.144523 0.627124 -1.791768 0.473503 0.797295 2.311658 -5.155271 -2.625447 -1.005043 0.000000 0.000000 0.000000 2.353574 -2.136249 -8.003186 -7.866797 1.977093 6.080340 0.426071 12.350942 -3.633977 0.000000 0.000000 0.000000
0.098287 0.149720 0.157262 0.603037 0.090091 2.155222 0.000000 0.000000 -0.000000 -3.309852 4.721788 -1.918196 23.810068 1.387324 -2.536886 23.699914 2.520877 -2.197373 7.508989 -6.347173 3.399965 -0.074810 -0.064723 -6.214490 -0.847032 1.872961 -1.908403 0.000000 0.000000 0.000000 5.045443 -7.600545 5.252707 2.588658 2.472127 -3.628643 -1.360719 0.636308 1.855293 0.000000 0.000000 0.000000 1.992360 0.609566 -2.371502 -0.100844 0.296792 1.382872 -5.862738 -3.834236 1.906668 0.000000 0.000000 0.000000 3.131573 -2.588406 -9.825402 -9.815414 1.454943 6.554426 1.761060 13.751471 -4.127675 0.000000 0.000000 0.000000
0.096635 0.151946 0.158481 0.203577 0.130839 2.314654 -0.000000 0.000000 -0.000000 -3.306525 4.816338 -2.010316 24.087440 0.462901 -3.116358 23.984316 1.754651 -3.236067 12.250340 -12.741752 13.848071 -4.614952 14.316635 -9.057582 1.856172 -1.015187 2.925474 0.000000 0.000000 0.000000 7.483572 -7.137603 4.350565 -0.292752 1.309644 -3.181524 -1.042221 0.849411 1.538323 0.000000 0.000000 0.000000 2.257132 0.583072 -2.897294 -0.639503 -0.375133 0.312139 -10.062162 -6.614168 7.255640 0.000000 0.000000 0.000000 3.979944 -3.019490 -11.231267 -9.909549 1.320096 7.637831 2.059440 13.932550 -4.906145 0.000000 0.000000 0.000000
0.094669 0.153974 0.159172 -2.802064 0.360211 2.399717 -0.000000 0.000000 -0.000000 -3.212270 6.652715 -1.663159 25.772495 -2.569098 -3.047856 25.753494 -1.506651 -4.475848 20.888707 -21.802716 24.948773 -6.944941 29.655599 -12.382686 3.050346 -3.401180 11.513690 0.000000 0.000000 0.000000 11.915252 -7.969744 2.553067 -4.296776 0.206207 -1.934129 -0.110387 0.197458 0.257129 0.000000 0.000000 0.000000 4.940495 0.294945 -3.713397 -1.654331 -1.138700 0.223850 -10.205589 -7.283950 9.780541 0.000000 0.000000 0.000000 7.396327 -3.817800 -12.879057 -8.770581 1.836289 10.038910 0.924706 14.340822 -6.814341 0.000000 0.000000 0.000000
0.093369 0.155004 0.159862 -3.644210 0.420881 2.374097 -0.000000 0.000000 -0.000000 -3.058389 9.502537 -1.203572 26.410553 -4.982487 -2.660889 26.299544 -4.323964 -5.156801 22.697396 -26.798224 28.766071 -4.042998 37.145272 -12.266034 4.257270 -6.291543 15.103732 0.000000 0.000000 0.000000 12.128850 -9.293615 0.101287 -6.394411 0.360911 0.733767 0.932365 -2.460503 -2.169029 0.000000 0.000000 0.000000 5.264004 0.185073 -4.285688 -3.649932 -2.038327 0.582911 -9.140762 -6.955327 10.992988 0.000000 0.000000 0.000000 9.565981 -4.229353 -14.091571 -7.990661 1.985070 11.957212 0.340500 12.548922 -7.797119 0.000000 0.000000 0.000000
0.093069 0.154277 0.168996 -4.410257 0.465736 2.238524 0.000000 0.000000 -0.000000 -2.953544 11.413373 -0.713501 26.973414 -6.373298 -2.471508 26.719753 -5.943716 -5.629101 21.219574 -30.123602 31.826882 -1.053112 38.421982 -13.248162 3.947667 -8.399949 12.183803 0.000000 0.000000 0.000000 10.591871 -9.816315 -2.903292 -8.770726 1.349312 2.901189 3.356379 -4.694714 -2.634240 0.000000 0.000000 0.000000 5.699975 0.098231 -4.470235 -4.068508 -2.265701 0.943391 -7.848520 -6.700861 10.891115 0.000000 0.000000 0.000000 11.109206 -4.412317 -14.511663 -8.233068 2.027268 12.865971 0.380651 11.338435 -7.887643 0.000000 0.000000 0.000000
0.099480 0.151563 0.182450 -4.012004 0.416561 1.965938 -0.000000 0.000000 0.000000 -2.866169 12.921653 -0.394306 26.844120 -6.833071 -2.344040 26.509273 -6.505754 -5.687155 25.675267 -35.217527 37.374567 -19.102945 36.850017 -2.311569 4.955051 -7.738353 7.724280 0.000000 0.000000 0.000000 4.843456 -10.164355 -6.647175 -11.119963 5.470052 5.069823 5.860791 -7.506584 -2.288350 0.000000 0.000000 0.000000 6.089917 0.293781 -3.712527 -3.592703 -2.113327 -0.079509 -5.135232 -7.300203 11.066320 0.000000 0.000000 0.000000 10.915971 -4.349635 -14.447175 -8.883813 2.089357 13.228747 1.086439 10.398126 -7.769265 0.000000 0.000000 0.000000
0.108623 0.148247 0.193971 -1.010051 0.136962 1.142567 -0.000000 0.000000 0.000000 -2.844553 13.104131 -0.211597 25.207538 -5.887750 -2.263298 24.904496 -5.501168 -5.008961 34.993410 -38.560513 40.859153 -56.441687 23.035498 21.435871 2.910178 -1.468920 6.573800 0.000000 0.000000 0.000000 -2.823614 -9.649873 -9.015077 -14.137772 9.724589 5.367616 6.592659 -9.131322 -2.226852 0.000000 0.000000 0.000000 5.628812 1.112725 -1.347269 -3.910370 -2.152456 -3.262640 -1.833976 -8.148887 12.217652 0.000000 0.000000 0.000000 8.695153 -3.990725 -14.562845 -10.696853 2.048744 14.350542 0.874348 10.154937 -6.505175 0.000000 0.000000 0.000000
0.113877 0.150528 0.192359 -0.690887 -0.028163 -0.647568 0.000000 0.000000 0.000000 -3.126431 8.090082 1.097137 24.546529 -2.182896 -3.654425 24.498212 -0.847835 -4.870778 35.034599 -32.513014 36.119218 -58.976775 5.125497 21.470916 -7.725011 5.067526 12.148534 0.000000 0.000000 0.000000 -1.072331 -3.814172 -9.297991 -21.030602 8.018901 3.321733 7.822352 -9.043513 -3.087589 0.000000 0.000000 0.000000 8.214467 1.854611 2.570508 -7.368652 -2.871674 -6.983825 -0.619243 -8.579856 14.678676 0.000000 0.000000 0.000000 10.696383 -3.757036 -14.944797 -13.915071 1.062928 16.078528 0.186218 6.478746 -1.272784 0.000000 0.000000 0.000000
0.113080 0.160195 0.185122 -2.297563 -0.128763 -3.079349 0.000000 0.000000 0.000000 -3.442336 2.537086 3.332600 25.399768 1.944897 -4.707065 24.884455 4.123120 -4.235464 25.682476 -29.542920 38.681267 -37.554833 29.543773 2.338816 -1.598288 6.439017 14.004793 0.000000 0.000000 0.000000 2.073880 3.374448 -11.812970 -27.557112 3.647140 1.503448 12.454679 -8.635726 -2.132732 0.000000 0.000000 0.000000 10.772319 2.190331 6.879628 -11.139712 -3.051528 -8.991058 0.170979 -9.937560 17.550802 0.000000 0.000000 0.000000 15.578996 -3.008547 -14.093616 -15.532463 -2.416989 13.979535 1.163571 -9.468549 13.232662 0.000000 0.000000 0.000000
0.113531 0.171114 0.165842 -1.697855 -0.240522 -4.398771 0.000000 0.000000 0.000000 -3.844009 -4.535318 4.016055 27.125996 8.755507 -6.361796 23.060140 12.164958 -1.741306 16.193805 -18.841360 36.346369 -14.069568 32.179543 -15.175527 2.391988 -0.216478 7.848920 0.000000 0.000000 0.000000 6.532731 12.218181 -13.816933 -30.957378 -3.475126 -0.041215 16.899421 -8.928684 -3.652959 0.000000 0.000000 0.000000 12.415057 2.774072 9.797484 -16.124235 -3.392474 -10.942883 0.737268 -15.671611 25.872970 0.000000 0.000000 0.000000 17.789805 -2.086912 -12.665399 -13.961854 -7.607178 7.069491 2.431071 -34.317478 38.006906 0.000000 0.000000 0.000000
0.115153 0.180623 0.141949 0.259436 -0.303834 -4.945465 0.000000 0.000000 0.000000 -5.079088 -20.277291 2.961438 34.969106 20.108497 -13.985540 17.886401 28.934196 1.121028 -0.633378 6.812485 25.539989 -7.509242 3.287956 -20.657384 9.771717 13.475890 -2.817719 0.000000 0.000000 0.000000 7.465443 27.890172 -13.766030 -16.324580 -17.065867 -1.746347 13.106587 -3.412850 -2.774010 0.000000 0.000000 0.000000 10.831327 2.412200 12.510607 -14.671294 -2.179896 -13.367217 -6.241565 -26.875165 41.890722 0.000000 0.000000 0.000000 15.139683 -1.620643 -9.321908 -13.537671 -11.133392 -1.687412 -3.444819 -41.784141 70.025918 0.000000 0.000000 0.000000
0.120878 0.190911 0.109086 2.533222 -0.310336 -4.282664 0.000000 0.000000 0.000000 -20.664831 -45.097748 -13.718698 53.992892 24.421848 -28.180879 17.831362 46.219037 -4.284107 -29.862241 34.027929 24.674047 -15.655227 -12.326339 11.835410 51.165606 20.482539 -59.690048 0.000000 0.000000 0.000000 7.087313 47.984551 -0.988598 13.720506 -35.860124 2.737918 -11.154049 1.145790 12.499888 0.000000 0.000000 0.000000 1.447962 0.019139 13.893586 -4.327068 -0.388115 -14.153985 -24.179084 -38.449643 65.723211 0.000000 0.000000 0.000000 11.641837 -1.579696 -7.209075 -12.690487 -14.834308 -10.715166 -12.008620 -43.305787 104.381994 0.000000 0.000000 0.000000
0.121379 0.205753 0.086975 2.729272 -0.202221 -1.433911 0.000000 0.000000 0.000000 -81.417911 -69.848250 -78.290651 76.325590 12.438711 -39.294848 43.335393 49.391514 -32.645781 -81.371727 45.973439 63.565780 22.675769 0.861091 60.165223 105.231454 -8.508871 -130.184590 0.000000 0.000000 0.000000 5.235784 67.300414 32.327364 26.377031 -48.041836 28.124535 -44.431591 -23.296314 44.488807 0.000000 0.000000 0.000000 -9.852074 -3.105995 14.382096 6.775600 0.640403 -15.127941 -45.479329 -43.811684 92.554763 0.000000 0.000000 0.000000 10.086644 -3.034237 -12.961317 -9.736570 -17.370003 -11.912734 -18.973126 -51.487683 139.400638 0.000000 0.000000 0.000000
0.110114 0.220701 0.081554 2.685199 -0.166479 -0.615918 0.000000 0.000000 0.000000 -175.795371 -67.532099 -173.793803 82.924092 -2.201571 -31.998470 81.185127 27.558927 -61.497354 -105.085677 39.100462 100.350156 135.973371 -3.021349 35.916340 36.016428 -43.283651 -35.569425 0.000000 0.000000 0.000000 -2.207868 74.542563 68.868480 -6.307880 -61.354575 51.488500 -51.194897 -52.705365 56.628470 0.000000 0.000000 0.000000 -18.026123 -4.669037 17.466401 10.067360 -0.204957 -17.735570 -54.628701 -36.875885 104.489154 0.000000 0.000000 0.000000 11.195865 -3.601732 -16.267767 -9.847792 -19.378533 -11.620707 -20.284380 -52.966374 151.078674 0.000000 0.000000 0.000000
0.095974 0.232812 0.083406 2.312176 -0.139165 -0.403651 -0.000000 0.000000 -0.000000 -177.657844 -62.234318 -176.052999 83.234841 -5.382238 -20.761586 82.184610 10.500619 -44.166708 -95.580308 28.912021 97.982484 40.458702 26.330622 -80.341599 -14.439458 -10.987169 33.387422 0.000000 0.000000 0.000000 -34.474763 77.386517 108.527748 -24.345973 -52.902028 -45.345584 -54.320769 -45.965011 55.150656 0.000000 0.000000 0.000000 -20.045937 -4.961428 18.559464 10.449353 -0.674279 -18.633774 -54.166752 -33.037929 102.209515 0.000000 0.000000 0.000000 13.012355 -3.706522 -17.629886 -11.009290 -19.668123 -9.886294 -22.091188 -49.136988 143.528009 0.000000 0.000000 0.000000
0.105720 0.244264 0.063287 3.123760 -0.211592 -1.293559 -0.000000 0.000000 -0.000000 -175.106205 -64.351575 -172.988422 83.247062 -3.200238 -14.872210 82.516760 8.804348 -30.983508 -55.077495 12.977681 61.347029 -77.164737 19.866506 -2.665575 21.716110 8.050936 -58.269829 0.000000 0.000000 0.000000 -75.464128 72.931483 152.521519 -74.964130 -58.299802 98.894451 -67.764442 -64.170859 44.940497 0.000000 0.000000 0.000000 -18.597929 -4.867323 19.389663 9.411144 -0.486252 -19.244085 -52.654982 -31.182931 93.769085 0.000000 0.000000 0.000000 12.664807 -3.420931 -16.878833 -11.220264 -18.933606 -8.656164 -28.461839 -40.076677 125.565951 0.000000 0.000000 0.000000
0.133501 0.253120 0.042366 3.204638 -0.286156 -3.330228 -0.000000 0.000000 -0.000000 -152.976918 -72.879842 -150.293610 84.501809 3.052653 -17.453527 78.185881 21.524459 -25.155508 0.000000 0.000000 0.000000 0.000000 0.000000 0.000000 79.563423 -2.866774 -56.869769 0.000000 0.000000 0.000000 -74.055735 61.308668 140.785954 -128.015957 -54.378131 8.518581 -77.171134 -79.206837 34.017355 0.000000 0.000000 0.000000 -13.497404 -4.437900 20.378115 7.875214 -0.325600 -20.452723 -48.243492 -32.393822 82.149634 0.000000 0.000000 0.000000 11.921786 -2.850419 -13.935765 -10.463881 -17.682664 -8.631140 -28.738804 -36.465577 116.200935 0.000000 0.000000 0.000000
0.147306 0.252712 0.049971 2.579612 -0.376512 -6.207777 0.000000 0.000000 0.000000 -87.814448 -71.203657 -82.400915 80.403558 13.623276 -28.991733 52.086317 44.685458 -18.670736 0.000000 0.000000 0.000000 0.000000 0.000000 0.000000 8.456739 20.118242 -12.344110 0.000000 0.000000 0.000000 -49.834778 54.576170 79.550619 -64.711748 -49.994679 -33.403250 -41.232799 -64.502224 56.842652 0.000000 0.000000 0.000000 -7.585181 -3.071339 19.558203 3.541440 -0.890461 -19.599449 -36.786845 -32.499626 71.910042 0.000000 0.000000 0.000000 12.452596 -2.051291 -10.694907 -10.204998 -15.843120 -6.727883 -15.805267 -39.780890 101.566184 0.000000 0.000000 0.000000
0.137048 0.238092 0.082795 1.857945 -0.557658 -9.942570 0.000000 0.000000 0.000000 -7.103501 -43.139023 3.624952 62.477165 25.473641 -30.918118 10.747124 53.373099 6.280074 1.017838 -1.487532 3.663556 2.050944 2.218236 -3.833328 16.616238 39.133637 -18.135295 0.000000 0.000000 0.000000 -16.867174 41.524733 12.866646 59.786656 -36.966478 -44.355951 -7.878292 -31.588166 45.763615 0.000000 0.000000 0.000000 0.165943 -0.081905 17.114121 -4.078936 -1.871812 -13.552285 -11.695453 -35.596113 55.543397 0.000000 0.000000 0.000000 13.711768 -0.886346 -7.524331 -10.606382 -12.014914 -0.769574 0.842666 -38.851750 66.745700 0.000000 0.000000 0.000000
0.125265 0.222310 0.111281 -0.672656 -0.612206 -9.521591 0.000000 0.000000 0.000000 -4.678216 -17.679848 7.359943 34.905293 25.202718 -13.025860 15.420087 32.570373 5.479668 5.672641 -8.339214 19.556852 10.337315 12.365335 -20.223971 7.430242 15.156255 7.377049 0.000000 0.000000 0.000000 4.959298 25.844220 -14.795983 -7.870316 -28.687400 1.784821 13.340529 7.844644 -9.735945 0.000000 0.000000 0.000000 7.714653 3.084453 13.391219 -13.124290 -4.001670 -9.884140 -6.772776 -31.201508 49.760706 0.000000 0.000000 0.000000 16.492235 -0.433522 -8.018871 -14.961719 -8.996477 5.239168 7.190446 -30.434906 37.863363 0.000000 0.000000 0.000000
0.125550 0.205710 0.132042 -0.458661 -0.484474 -7.622295 0.000000 0.000000 0.000000 -4.063641 -7.852865 6.912045 27.453633 18.087176 -6.630173 20.320335 22.196835 2.422839 13.323237 -19.486577 43.129672 20.047302 28.011102 -44.230075 1.588544 -1.458920 6.495826 0.000000 0.000000 0.000000 6.327144 15.331948 -13.410550 -11.043659 -22.340940 1.361613 10.884799 4.161851 -7.229866 0.000000 0.000000 0.000000 6.570908 2.717770 9.879170 -10.538689 -3.882551 -7.979066 -18.123900 -29.837529 53.103144 0.000000 0.000000 0.000000 15.658939 -1.025830 -8.594747 -17.629546 -5.405419 9.512766 9.103033 -14.250348 11.224497 0.000000 0.000000 0.000000
0.131140 0.187990 0.148582 0.170491 -0.327055 -5.161085 0.000000 0.000000 0.000000 -3.788757 -3.668088 4.919440 25.066673 12.158686 -3.730618 22.392858 14.665518 1.387822 12.021072 -17.527784 33.700440 7.943149 21.690677 -34.645134 -0.392721 -0.823685 0.967431 0.000000 0.000000 0.000000 6.569660 8.947386 -9.125007 -8.113750 -16.547635 0.284067 4.973564 3.483733 -4.264790 0.000000 0.000000 0.000000 2.411239 1.153581 6.109271 -4.566319 -2.674927 -5.765563 -34.679940 -28.172270 58.264630 0.000000 0.000000 0.000000 13.819046 -1.910982 -10.022127 -16.774536 -2.600983 12.016760 8.342060 -12.782102 5.475735 0.000000 0.000000 0.000000
0.134924 0.168438 0.159456 0.943636 -0.234656 -3.298901 0.000000 0.000000 0.000000 -3.686952 -2.151315 3.195982 24.195629 9.889724 -2.379458 22.677734 11.644386 1.578770 6.777687 -10.709585 22.629467 1.047501 7.499102 -26.899228 -5.269554 1.671404 1.990523 0.000000 0.000000 0.000000 5.806463 4.754499 -4.405505 -4.492857 -11.082659 -1.415626 0.929057 3.954473 -0.819000 0.000000 0.000000 0.000000 0.057032 0.422560 4.004583 -2.809837 -1.741670 -3.914266 -33.677893 -26.819272 53.303239 0.000000 0.000000 0.000000 10.393569 -2.440841 -9.691939 -13.654040 0.161272 12.604599 7.599314 -12.078035 0.751839 0.000000 0.000000 0.000000
0.132878 0.155408 0.161961 1.772041 -0.178908 -1.809138 0.000000 0.000000 0.000000 -3.667813 -1.957923 1.747924 23.751676 10.792555 -2.243857 22.025298 12.502968 2.057130 1.657989 -6.173124 15.793616 5.708620 3.450313 -20.743842 -5.049122 0.113380 0.131459 0.000000 0.000000 0.000000 4.754007 2.445631 -0.739326 -0.993957 -7.170039 -2.870898 1.168977 4.398544 3.117862 0.000000 0.000000 0.000000 -1.424916 0.101735 2.578805 -3.530680 -1.046084 -1.264647 -14.331013 -25.535014 36.262209 0.000000 0.000000 0.000000 7.925260 -1.995067 -7.113330 -11.215954 1.087345 9.475263 6.941873 -10.874362 -1.547768 0.000000 0.000000 0.000000
0.126348 0.147764 0.160485 1.485473 -0.100178 -0.461504 0.000000 0.000000 0.000000 -3.675192 -2.118712 0.388773 23.927653 11.189414 -3.356880 21.844428 13.358662 1.090578 1.797257 -2.149716 8.367761 2.827680 0.031557 -12.233583 -1.162720 2.222007 -2.009504 0.000000 0.000000 0.000000 4.497562 1.727077 0.762959 0.041937 -5.332645 -3.566920 0.855942 4.020738 3.443867 0.000000 0.000000 0.000000 -1.457306 -0.071713 1.455179 -3.717382 -0.504908 0.075280 0.161094 -19.673456 20.181363 0.000000 0.000000 0.000000 5.915541 -1.276241 -4.026527 -7.645757 1.252843 5.337634 6.237530 -8.728655 -3.677614 0.000000 0.000000 0.000000
0.120805 0.144276 0.157165 0.873634 0.011457 0.981316 0.000000 0.000000 0.000000 -3.583697 -0.401886 -0.979420 23.962014 9.981180 -3.945156 22.080443 12.299874 -0.053289 2.474268 -1.940064 4.626491 0.156135 -3.782257 -8.538868 0.600512 4.366674 -2.354803 0.000000 0.000000 0.000000 5.137917 -0.487150 1.661446 -0.370374 -3.932288 -3.895009 0.727692 3.673469 3.357788 0.000000 0.000000 0.000000 -1.349803 -0.259541 -0.186841 -3.051385 -0.880023 -1.145713 6.971729 -11.323426 11.420526 0.000000 0.000000 0.000000 5.119430 -0.630125 -2.080555 -4.980749 1.088841 2.550072 4.410265 -7.174647 -4.627457 0.000000 0.000000 0.000000
0.116217 0.142665 0.153246 -0.139230 0.141978 2.088966 -0.000000 0.000000 0.000000 -3.450625 2.138492 -1.951005 24.128001 7.557268 -3.677806 22.952910 9.646393 -0.819579 4.820122 -4.114732 3.852244 -2.207569 -5.933746 -8.294864 1.077063 5.697291 -2.761464 0.000000 0.000000 0.000000 7.309300 -3.949470 3.228107 -3.097292 -0.598835 -4.307463 1.783094 2.455325 3.267266 0.000000 0.000000 0.000000 -0.617933 -0.439492 -1.432622 -1.717693 -1.104245 -2.653599 6.659070 -13.899964 15.649925 0.000000 0.000000 0.000000 4.462234 -0.301976 -1.510033 -3.536051 1.117814 1.358371 3.467018 -5.381564 -4.944336 0.000000 0.000000 0.000000
0.111387 0.143134 0.150948 -0.550932 0.211543 2.709226 -0.000000 0.000000 0.000000 -3.406874 3.019073 -2.502440 24.269161 6.702725 -3.466075 23.319520 8.666454 -0.949285 6.327258 -4.387655 2.740655 -2.427059 -6.174882 -7.325511 1.168347 5.533831 -3.542060 0.000000 0.000000 0.000000 8.242325 -5.644546 4.593145 -3.763878 1.623673 -4.824249 2.191145 1.784690 3.526140 0.000000 0.000000 0.000000 -0.185715 -0.508166 -2.073962 -0.435234 -0.390618 -1.737713 5.464585 -11.359675 11.563389 0.000000 0.000000 0.000000 3.177280 -0.028192 -1.224680 -2.734067 0.949329 0.249920 2.644500 -2.649097 -4.129847 0.000000 0.000000 0.000000
0.106862 0.144204 0.152284 -0.209027 0.197071 2.910004 -0.000000 0.000000 0.000000 -3.418241 2.816195 -2.738557 24.130564 6.694794 -3.841241 23.130138 8.792058 -1.361864 5.441356 -3.606823 1.656774 -0.757027 -6.175196 -6.539104 0.935553 5.281455 -3.769618 0.000000 0.000000 0.000000 7.089962 -5.519541 4.742111 -2.480748 1.508917 -5.015102 1.703679 1.741337 3.192141 0.000000 0.000000 0.000000 -0.519992 -0.465226 -2.316242 -2.236570 -0.304601 0.138284 1.916030 -4.974148 4.587014 0.000000 0.000000 0.000000 3.425122 -0.149973 -1.694105 -3.383390 0.825555 0.167876 1.854307 -2.676678 -2.549927 0.000000 0.000000 0.000000
0.104436 0.144646 0.157114 0.729613 0.142533 3.275863 -0.000000 0.000000 -0.000000 -3.371330 3.675772 -3.115588 23.670404 5.143693 -4.110081 22.938519 7.190337 -2.335595 3.515190 -4.549519 1.862795 1.160176 -4.362972 -6.257441 0.918336 4.623463 -3.112779 0.000000 0.000000 0.000000 5.451038 -5.772474 3.897673 -1.703103 -0.116246 -4.759112 1.560225 1.452483 2.105109 0.000000 0.000000 0.000000 -1.691169 -0.352852 -3.002878 -4.180417 -0.674157 1.255102 0.294915 0.180444 -0.692261 0.000000 0.000000 0.000000 4.237524 -0.372019 -2.469211 -5.196536 0.315720 -0.472388 1.772462 -3.126492 -0.604294 0.000000 0.000000 0.000000
0.103570 0.143966 0.162185 1.952778 0.062206 3.705977 -0.000000 0.000000 -0.000000 -3.309648 4.777451 -3.622438 23.128812 3.378337 -3.849396 22.652893 5.151396 -2.778017 2.583202 -6.056882 2.887004 1.262284 -1.903840 -6.154064 0.859209 3.596358 -2.008875 0.000000 0.000000 0.000000 4.041695 -6.621713 3.684906 -1.841691 0.104113 -4.442926 1.535264 1.181304 1.791881 0.000000 0.000000 0.000000 -3.090415 -0.066691 -4.417819 -6.114051 -1.906016 1.280234 -3.159077 4.083214 -2.406751 0.000000 0.000000 0.000000 4.335444 -0.537153 -3.459211 -6.996615 -0.227199 -1.081711 2.360169 -1.596165 -0.110088 0.000000 0.000000 0.000000
0.103964 0.142875 0.163302 3.795307 -0.096694 3.723860 -0.000000 0.000000 -0.000000 -3.180409 7.030771 -3.761400 22.294704 0.340826 -3.356013 22.235001 1.639053 -3.475080 2.165752 -8.505115 3.790154 0.843703 1.415607 -5.367439 -0.087480 1.494206 -0.624895 0.000000 0.000000 0.000000 1.855572 -8.601014 3.550265 -2.279264 1.754705 -3.542523 2.135032 0.174618 1.768663 0.000000 0.000000 0.000000 -5.102558 0.480663 -6.396247 -6.614869 -3.621288 0.774501 -5.449207 3.618991 2.034686 0.000000 0.000000 0.000000 4.210689 -0.683187 -4.463375 -9.140984 -0.494853 -0.828091 3.584242 3.815658 -3.620868 0.000000 0.000000 0.000000
0.104166 0.142194 0.161454 4.109700 -0.123655 3.734131 0.000000 0.000000 0.000000 -3.129982 7.935847 -3.814748 22.161627 -0.220825 -3.117542 22.143471 0.938573 -3.430947 3.445535 -9.455627 4.214454 1.058770 4.249124 -4.555079 -1.759041 -0.725018 0.196436 0.000000 0.000000 0.000000 0.852972 -9.853278 4.164383 -1.099671 3.638459 -3.213020 2.187027 -0.427889 2.420545 0.000000 0.000000 0.000000 -5.680535 0.824862 -8.712088 -5.743149 -4.564213 1.598959 -5.544301 1.415450 6.561318 0.000000 0.000000 0.000000 5.707297 -1.120698 -5.717740 -10.556120 0.187324 1.428293 2.535444 7.129285 -6.530947 0.000000 0.000000 0.000000
0.102544 0.142356 0.160650 3.632378 -0.087618 3.561488 0.000000 0.000000 0.000000 -3.102012 8.476119 -3.587518 22.390441 -0.388700 -3.108101 22.378087 0.765414 -3.491983 5.704981 -10.303226 5.024522 -0.197198 5.217884 -4.833035 -1.990331 -0.632014 1.464281 0.000000 0.000000 0.000000 0.733182 -10.399699 4.053466 -0.157054 3.923117 -2.847386 1.819279 -0.776878 2.117610 0.000000 0.000000 0.000000 -5.558542 0.835481 -9.750460 -4.893918 -4.617046 2.649826 -6.503638 1.222132 6.855031 0.000000 0.000000 0.000000 7.693025 -1.142188 -4.781655 -11.272336 2.577931 4.528095 0.509613 4.187787 -8.557157 0.000000 0.000000 0.000000
0.098148 0.143325 0.162320 3.016961 -0.038585 3.445176 -0.000000 0.000000 -0.000000 -3.057343 9.314683 -3.369444 22.823687 -1.566857 -3.130926 22.801094 -0.486253 -4.000072 6.862130 -11.435915 5.623970 -1.382532 5.193108 -5.109800 -1.728902 -0.507664 1.471870 0.000000 0.000000 0.000000 1.246617 -10.804081 3.196078 -0.075264 3.195687 -2.095553 1.456655 -0.803949 1.606122 0.000000 0.000000 0.000000 -5.609864 0.598648 -9.925193 -5.497657 -4.966006 3.007845 -7.165866 3.418667 4.844336 0.000000 0.000000 0.000000 10.048806 -0.833128 -2.124471 -10.996027 5.557008 7.255545 -2.424708 -4.110477 -9.429397 0.000000 0.000000 0.000000
0.090789 0.145179 0.171168 1.828405 0.082825 3.764481 -0.000000 0.000000 -0.000000 -2.915580 11.954939 -3.390233 23.907909 -4.536805 -2.436921 23.680658 -3.978850 -4.540595 7.750285 -14.681234 6.683500 -2.727771 6.941913 -4.180782 -0.973940 -1.831337 1.167420 0.000000 0.000000 0.000000 2.908884 -12.315879 1.131820 -1.110279 1.078668 -0.600470 1.273948 -0.589790 0.786088 0.000000 0.000000 0.000000 -5.396627 0.173933 -10.334278 -5.389514 -4.617045 3.839634 -5.217007 6.996371 -0.346071 0.000000 0.000000 0.000000 10.633499 -0.408216 0.501563 -8.384368 5.668507 5.634475 -4.499222 -7.107810 -9.418673 0.000000 0.000000 0.000000
0.082381 0.144437 0.192889 0.047796 0.336166 5.192901 -0.000000 0.000000 -0.000000 -2.691366 16.381214 -4.199284 25.759328 -8.569546 -1.134981 24.999557 -8.927038 -5.019740 7.608978 -21.099628 9.974194 -6.860792 12.472343 -2.095972 2.315713 -4.853045 2.039548 0.000000 0.000000 0.000000 5.405614 -15.542050 -1.151921 -3.046268 -0.524965 1.103371 1.782781 -0.676532 0.160967 0.000000 0.000000 0.000000 -3.466494 -0.141541 -11.748432 -7.609205 -4.147586 6.589812 -5.638138 10.122478 -8.275897 0.000000 0.000000 0.000000 11.534864 -0.822531 -0.194403 -5.458939 5.132242 5.827558 -7.632147 -6.402633 -8.971906 0.000000 0.000000 0.000000
0.078208 0.128811 0.226078 -1.159985 0.644015 8.009065 0.000000 0.000000 0.000000 -2.632119 18.380859 -6.450343 27.169159 -9.912174 -0.901046 26.074842 -10.548422 -5.573426 2.859364 -26.414176 16.010837 -11.451037 23.956590 -0.251982 7.087314 -11.439802 6.824088 0.000000 0.000000 0.000000 6.943088 -16.201370 -3.874019 -3.771511 -1.774594 3.341834 2.321084 -1.364962 -0.759522 0.000000 0.000000 0.000000 4.187513 0.972976 -15.106148 -19.893681 -5.012687 12.483455 -8.698844 11.423237 -19.772934 0.000000 0.000000 0.000000 13.061408 -2.084589 -3.297167 -1.552985 3.791321 7.178358 -11.990517 -3.363493 -9.947781 0.000000 0.000000 0.000000
0.083942 0.102944 0.250635 -0.170493 0.688709 11.114355 0.000000 0.000000 0.000000 -2.708126 17.456491 -9.800167 27.041330 -9.652111 -2.253916 26.237592 -9.668470 -6.891620 -8.680045 -26.947505 21.763054 -7.090623 35.806298 -2.725146 10.409742 -20.425536 13.290458 0.000000 0.000000 0.000000 6.337205 -13.625935 -6.586214 -3.074838 -5.485985 4.472137 3.152438 -0.922317 -1.375679 0.000000 0.000000 0.000000 21.919722 5.396603 -19.447637 -47.070818 -8.320962 16.754565 -16.678485 10.456305 -27.883502 0.000000 0.000000 0.000000 15.589898 -3.739666 -7.277567 1.040404 2.256475 9.179715 -13.806117 -2.845866 -15.315730 0.000000 0.000000 0.000000
0.092239 0.084925 0.259232 3.423824 0.235336 13.315574 0.000000 0.000000 -0.000000 -2.529503 18.472421 -12.921749 25.883818 -10.580203 -2.883588 25.034655 -10.388957 -7.805935 -21.268966 -26.968574 25.056681 3.669281 38.254473 -10.012338 14.822828 -24.429051 15.112174 0.000000 0.000000 0.000000 4.787609 -14.031786 -5.796336 -3.695313 -6.407907 3.625419 3.887638 -1.024283 -1.486206 0.000000 0.000000 0.000000 39.325116 11.468446 -22.777558 -68.971738 -10.114514 14.088125 -34.062037 11.712040 -26.865016 0.000000 0.000000 0.000000 15.073497 -4.205827 -10.752508 1.830770 1.246701 10.445177 -13.389116 -1.597139 -20.183434 0.000000 0.000000 0.000000
0.095699 0.090053 0.253495 5.163223 -0.034374 14.324122 -0.000000 0.000000 -0.000000 -2.466856 17.945817 -14.423085 24.854703 -9.742710 -3.847108 24.358883 -9.043662 -8.291977 -18.942819 -27.124110 25.619686 -11.094496 35.513966 -5.404482 21.796590 -19.414952 12.345453 0.000000 0.000000 0.000000 3.201907 -14.583573 -3.268243 -3.384764 -4.861383 1.308661 3.894260 -0.532265 -0.570857 0.000000 0.000000 0.000000 41.432685 12.450291 -23.586728 -65.504286 -11.192343 12.752287 -34.387007 10.483715 -20.297952 0.000000 0.000000 0.000000 14.475870 -4.304991 -12.879399 1.300101 1.330810 11.669665 -14.321663 0.396951 -20.423537 0.000000 0.000000 0.000000
0.092525 0.116031 0.240070 3.759002 0.184058 13.709375 -0.000000 0.000000 -0.000000 -2.542521 17.885911 -13.377155 25.635139 -10.303549 -3.559417 24.908098 -9.815426 -8.398339 -13.054168 -28.118395 25.063752 -14.073478 28.675944 -5.597770 20.378997 -11.901244 9.570500 0.000000 0.000000 0.000000 2.056554 -15.610811 -2.800508 -2.776952 -2.881876 0.266085 4.658482 -0.699086 -0.077440 0.000000 0.000000 0.000000 35.972600 8.020152 -18.257544 -54.798256 -10.206054 7.146305 -21.710035 5.453431 -18.469905 0.000000 0.000000 0.000000 16.459472 -4.903584 -12.529657 -1.641251 2.253030 12.079551 -12.245008 0.345489 -20.981833 0.000000 0.000000 0.000000
0.091259 0.142388 0.211211 1.225795 0.520318 10.832935 -0.000000 0.000000 -0.000000 -2.669880 17.882276 -9.827790 26.868961 -11.286940 -2.424617 25.690081 -11.403896 -7.859548 -4.645994 -29.081456 23.318331 -8.510008 20.049729 -10.783242 13.168948 -3.995469 6.694044 0.000000 0.000000 0.000000 0.432804 -16.004460 -4.450426 -1.404645 -2.536777 0.551598 5.023545 -0.336914 0.029940 0.000000 0.000000 0.000000 18.863307 2.740379 -12.542123 -28.575138 -7.169556 4.147613 -14.982133 4.149535 -9.653746 0.000000 0.000000 0.000000 17.407157 -4.480403 -8.749411 -4.939364 3.577387 10.527628 -10.085597 1.687264 -18.511028 0.000000 0.000000 0.000000
0.098624 0.148188 0.176144 2.553495 0.118788 5.365764 0.000000 0.000000 0.000000 -2.842461 13.505973 -4.989418 24.531052 -8.112755 -2.515006 23.902007 -7.858372 -6.212955 -1.478821 -23.062035 19.040516 0.400384 13.277784 -14.793476 3.979409 -0.404066 6.578182 0.000000 0.000000 0.000000 -2.112450 -10.804515 -5.772847 -5.634741 -4.347862 0.570384 5.744587 0.413723 -1.204302 0.000000 0.000000 0.000000 -2.374878 -0.066116 -5.137541 -4.738091 -2.229488 -2.532669 -6.192383 -4.214152 9.848059 0.000000 0.000000 0.000000 14.452051 -1.797066 -2.563807 -10.866168 4.906843 7.073180 -7.090467 -0.425204 -10.393283 0.000000 0.000000 0.000000
0.114260 0.138468 0.125580 4.489224 -0.230978 0.279695 0.000000 0.000000 0.000000 -3.244202 5.761814 -0.404359 22.607015 -1.617289 -3.699331 22.078487 -0.326627 -4.421704 0.687459 -12.895747 14.159330 0.763291 7.459946 -14.013896 -0.686255 1.715101 5.481981 0.000000 0.000000 0.000000 -6.952146 -1.755267 -8.532808 -17.810489 -9.011421 -3.711080 13.010001 2.717055 -3.602407 0.000000 0.000000 0.000000 -6.346032 -0.221553 -0.276194 -2.203608 -3.812328 -8.343606 -1.820140 -16.923005 32.641523 0.000000 0.000000 0.000000 13.178811 -0.304841 -0.011748 -19.663181 3.199714 4.254187 -3.788896 -6.664655 4.890678 0.000000 0.000000 0.000000
0.145503 0.124484 0.077244 4.748005 -0.335425 -5.612549 0.000000 0.000000 0.000000 -3.896908 -6.264050 5.304389 25.566605 8.566403 -5.592156 21.126503 11.679102 -0.729166 0.122275 -0.404916 13.552749 4.433655 0.991495 -17.497178 -4.629899 3.435552 5.587774 0.000000 0.000000 0.000000 -12.429772 12.583388 -14.849005 -47.247920 -16.411228 -16.602487 31.762106 7.106138 -7.514523 0.000000 0.000000 0.000000 -5.686085 -0.611786 4.989921 -1.240771 -4.908187 -12.073386 -5.009467 -25.721376 50.924738 0.000000 0.000000 0.000000 16.360535 0.468232 -0.639134 -35.536454 -6.387549 -2.150854 -6.143207 -7.065002 37.241627 0.000000 0.000000 0.000000
0.212435 0.113685 0.038481 5.699997 -0.489700 -13.575497 0.000000 0.000000 0.000000 -5.522210 -28.770409 10.443118 37.400348 21.875320 -12.394912 19.417101 31.352688 4.624587 -1.855950 19.877388 19.657841 14.776796 -7.225636 -28.227199 -8.790300 8.573011 10.396333 0.000000 0.000000 0.000000 -17.928680 35.258402 -14.591429 -80.396869 -15.080642 -41.568687 48.073306 11.593668 -0.967969 0.000000 0.000000 0.000000 -8.833616 -1.804599 6.489003 10.916349 -4.694916 -14.857477 -3.365687 -39.937711 55.300833 0.000000 0.000000 0.000000 17.423668 2.835008 3.008658 -44.512832 -22.137912 -11.624296 -20.062137 20.265491 54.625523 0.000000 0.000000 0.000000
0.259306 0.104265 0.034085 5.178568 -0.655174 -21.665900 -0.000000 0.000000 0.000000 -8.265668 -51.866409 10.071294 58.214401 26.422230 -24.036343 18.225615 48.296898 7.722945 3.712927 40.497854 26.408714 23.339089 -13.135684 -36.985259 -11.948263 12.397605 9.805783 0.000000 0.000000 0.000000 -21.123053 55.417493 -1.653594 -90.466518 3.186818 -65.219064 34.698928 16.909589 32.577570 0.000000 0.000000 0.000000 -10.866302 -2.110660 -4.644527 32.877650 -9.019244 -20.673201 29.481763 -47.166472 4.759113 0.000000 0.000000 0.000000 17.076082 6.513668 16.010224 -35.410105 -26.840809 -15.643841 -50.078245 31.485733 59.781146 0.000000 0.000000 0.000000
0.267618 0.096189 0.049454 4.937767 -0.798531 -27.952484 -0.000000 0.000000 0.000000 -10.499817 -65.860690 8.004234 70.290526 25.125023 -32.210222 18.550609 56.632575 5.406716 12.834067 54.126462 24.691069 21.031695 -14.248702 -35.102089 -9.581009 14.561902 0.512206 0.000000 0.000000 0.000000 -21.367284 67.358626 9.451704 -95.917430 11.593896 -79.980934 17.975681 23.468394 53.191797 0.000000 0.000000 0.000000 -12.652712 -1.465824 -19.920679 48.984231 -12.728545 -16.268382 71.489203 -48.986451 -49.309535 0.000000 0.000000 0.000000 14.631492 8.641093 23.748676 -2.140356 -20.923605 -7.576135 -79.772923 -2.072333 98.497121 0.000000 0.000000 0.000000
0.254959 0.085545 0.073670 5.523129 -0.734354 -30.812253 -0.000000 0.000000 0.000000 -7.779128 -56.966488 16.685070 58.635865 26.027341 -23.266321 21.425479 46.843573 7.489911 11.966642 47.932256 12.921996 27.488140 -15.262312 -25.913658 -14.650916 8.888083 3.708932 0.000000 0.000000 0.000000 -5.450783 61.189075 -10.231784 -90.451860 -10.290822 -61.323890 49.691472 6.816142 0.128817 0.000000 0.000000 0.000000 -9.003883 -2.370518 10.315911 5.898239 0.444110 19.004006 -44.301877 -34.555561 72.113073 0.000000 0.000000 0.000000 19.282752 5.598340 -16.320447 1.844560 -43.100049 12.766711 -45.256332 18.876781 68.115416 0.000000 0.000000 0.000000
0.246747 0.080956 0.086482 7.144416 -0.389705 -29.213503 0.000000 0.000000 0.000000 -6.327149 -49.933285 20.590868 48.747882 24.644029 -17.467959 23.347569 39.315630 5.448547 8.828644 41.687712 8.708218 21.872737 -16.854843 -20.951619 -12.775550 5.346952 -0.162579 0.000000 0.000000 0.000000 -4.423749 55.155052 -17.098456 -73.715335 -43.321433 -32.582552 56.270767 2.718992 -36.289176 0.000000 0.000000 0.000000 -7.419489 -2.833062 23.219903 5.747502 -0.501933 -1.252372 -26.380854 -38.846851 60.953512 0.000000 0.000000 0.000000 15.890111 2.103662 -14.746046 -4.624294 -27.071540 14.405972 -10.030372 -11.515865 72.860688 0.000000 0.000000 0.000000
0.219370 0.084991 0.091174 8.066026 -0.211104 -25.728137 0.000000 0.000000 -0.000000 -5.393436 -42.090064 21.484652 41.157018 22.927673 -10.664540 25.120530 32.232605 6.567257 8.554435 35.703605 4.304327 8.421811 -20.367402 -16.055724 -7.086399 5.563698 -6.553120 0.000000 0.000000 0.000000 -4.713300 48.303573 -19.405325 -38.757309 -59.835320 -5.080260 40.451829 10.246160 -47.843767 0.000000 0.000000 0.000000 -7.204101 -2.827593 23.860436 0.043816 -2.538065 -5.696751 -18.208224 -35.618332 58.582572 0.000000 0.000000 0.000000 13.498597 1.014440 -6.732502 -11.383444 -18.067949 11.529788 -8.219840 -25.004333 66.313172 0.000000 0.000000 0.000000
0.198366 0.092007 0.092473 7.794636 -0.279178 -23.043976 0.000000 0.000000 -0.000000 -5.084568 -36.075556 20.570237 36.144860 21.037347 -6.166862 26.055191 27.060282 7.168766 6.176222 32.274138 0.838578 3.665664 -23.878245 -11.133720 -0.180402 12.371431 -14.302609 0.000000 0.000000 0.000000 -2.921607 43.473899 -20.184296 -0.110822 -49.198114 13.827947 20.632685 14.801818 -29.465781 0.000000 0.000000 0.000000 -6.326631 -2.269455 23.997821 -6.515531 -4.068124 -7.560009 -9.910748 -30.489805 52.375555 0.000000 0.000000 0.000000 11.800111 1.310347 2.965933 -16.737290 -10.355970 7.608598 -7.936890 -33.546714 53.613614 0.000000 0.000000 0.000000
0.190196 0.102428 0.094904 7.827256 -0.284586 -20.712281 0.000000 0.000000 -0.000000 -4.904001 -32.216206 19.201431 34.113821 20.906151 -6.400414 24.461315 26.540659 6.188794 4.823850 30.952409 -3.383582 4.174941 -26.233375 -7.670627 4.117715 16.339727 -21.984938 0.000000 0.000000 0.000000 1.166512 40.031801 -19.594888 11.912342 -28.418989 13.716035 4.465459 8.735475 -5.446653 0.000000 0.000000 0.000000 -6.055390 -2.080295 23.355389 -8.605211 -2.955893 -5.920725 -9.051727 -30.208737 47.073341 0.000000 0.000000 0.000000 10.452255 1.913875 10.841379 -21.121088 -5.019109 3.449696 -11.202589 -50.462243 58.129575 0.000000 0.000000 0.000000
0.181307 0.122130 0.096950 7.276871 -0.342418 -16.058674 0.000000 0.000000 0.000000 -4.755236 -26.623905 15.486425 31.542145 20.932691 -5.933266 22.622725 25.776446 5.839941 -0.350388 26.173980 -2.020417 5.204255 -24.154352 -7.309451 5.481050 15.787109 -22.883316 0.000000 0.000000 0.000000 3.235821 32.302147 -13.699263 7.260678 -21.437414 6.675607 0.751447 6.829426 -1.157263 0.000000 0.000000 0.000000 -6.185662 -1.603589 18.378991 -8.830912 -2.635865 -3.809864 -7.260343 -31.726319 45.096153 0.000000 0.000000 0.000000 9.757509 1.954725 13.080849 -19.655018 -1.543069 -0.225875 -14.494638 -56.362259 53.726050 0.000000 0.000000 0.000000
0.167404 0.149967 0.104163 5.380090 -0.361356 -10.038691 0.000000 0.000000 0.000000 -4.615413 -20.765606 9.782505 29.654214 20.803560 -4.590758 21.692347 24.715825 6.516463 -0.916909 18.979354 2.785972 0.600088 -18.702176 -10.824667 6.282537 14.431433 -17.968948 0.000000 0.000000 0.000000 3.175219 23.464821 -6.375590 2.170738 -15.071699 -0.394010 0.622972 5.724745 0.159459 0.000000 0.000000 0.000000 -6.048151 -1.012839 9.703518 -9.851262 -8.772217 -10.612838 -2.015022 -21.822817 47.058885 0.000000 0.000000 0.000000 11.041478 1.906165 12.311696 -15.984819 -0.532391 -4.009633 -14.927723 -56.489682 45.782057 0.000000 0.000000 0.000000
0.150515 0.171770 0.137091 0.642954 -0.277621 -5.477462 0.000000 0.000000 0.000000 -4.264531 -12.699612 4.818452 28.157841 18.303823 -2.092026 22.908383 20.901140 7.017281 3.547158 9.096010 6.898116 -3.934243 -12.602667 -13.735345 7.286128 13.235792 -13.308957 0.000000 0.000000 0.000000 5.290263 13.866765 -2.555261 -1.781858 -12.455435 -4.786092 1.534433 6.158263 0.438799 0.000000 0.000000 0.000000 -3.889849 -0.472541 0.483405 -12.608650 -18.866702 -16.051794 -13.554820 -1.513770 44.432278 0.000000 0.000000 0.000000 15.738507 2.281798 12.825935 -12.033103 -0.002496 -7.087533 -17.395686 -51.029577 36.422590 0.000000 0.000000 0.000000
0.138375 0.176870 0.187007 -4.165545 -0.029310 -2.647107 0.000000 0.000000 0.000000 -3.891634 -5.807661 1.868019 27.798937 14.476663 -1.096389 24.764976 16.428383 5.832957 5.959408 0.206041 11.068661 -3.896618 -6.909664 -15.414600 7.067345 11.766859 -6.436778 0.000000 0.000000 0.000000 7.426597 6.638383 -1.645410 -3.598818 -10.634010 -5.429384 1.713599 5.704754 -0.545215 0.000000 0.000000 0.000000 -3.245447 -0.999956 -9.270013 -16.334503 -27.790982 -8.216598 -32.027477 11.134491 34.571082 0.000000 0.000000 0.000000 20.863794 1.855108 11.746813 -8.966126 2.028594 -3.771897 -18.769067 -43.409092 18.404574 0.000000 0.000000 0.000000
0.131988 0.169626 0.226879 -5.139813 0.208469 -0.631431 0.000000 0.000000 -0.000000 -3.721124 -2.813642 0.230846 27.330735 11.323795 -2.835303 25.103954 13.709129 2.266699 5.552118 -4.462950 14.356883 -3.473489 -2.860334 -16.540096 6.676650 10.551762 -0.787801 0.000000 0.000000 0.000000 7.648946 2.836562 -0.409488 -4.661272 -4.335706 -3.814171 1.852274 2.334118 -1.321459 0.000000 0.000000 0.000000 -2.809864 -0.934163 -14.763740 -20.949419 -32.882508 -1.341414 -34.048689 16.372335 30.144241 0.000000 0.000000 0.000000 22.792470 0.990544 10.782506 -9.570802 5.012170 -0.241161 -16.096888 -35.666410 3.767120 0.000000 0.000000 0.000000
0.124920 0.168418 0.246359 -5.184732 0.593141 2.545296 0.000000 0.000000 -0.000000 -3.720295 -1.986541 -2.761668 27.212860 9.459714 -5.405670 25.018559 12.776937 -1.449870 5.481255 -8.526304 20.575643 -2.693380 5.512041 -18.793126 8.159325 7.140494 2.074438 0.000000 0.000000 0.000000 7.637726 0.271698 2.368971 -1.976907 0.506369 -3.914311 3.541521 1.326031 2.378766 0.000000 0.000000 0.000000 -2.742657 -1.229963 -18.892287 -21.908692 -33.257548 0.882574 -33.450579 13.421098 39.801536 0.000000 0.000000 0.000000 22.903671 -0.518010 8.898100 -10.983682 6.436101 -0.229697 -16.698784 -31.868581 4.418954 0.000000 0.000000 0.000000
0.112928 0.165394 0.267476 -7.018868 1.347693 7.619515 0.000000 0.000000 -0.000000 -3.789069 0.514686 -7.425890 27.802447 6.506352 -6.231376 26.377644 10.048303 -3.776680 7.251865 -14.237548 26.134740 -1.257829 15.346007 -19.024671 9.062084 1.752110 5.300442 0.000000 0.000000 0.000000 11.877418 -5.118133 6.595895 -1.024024 6.941779 -5.099623 4.085281 -0.456360 5.145771 0.000000 0.000000 0.000000 2.192669 -2.133509 -19.372441 -28.912893 -32.494723 -3.275967 -28.593606 16.640424 34.696158 0.000000 0.000000 0.000000 24.118050 -3.201338 4.727126 -11.404692 6.604966 -0.650980 -17.319019 -28.286128 6.892463 0.000000 0.000000 0.000000
0.103209 0.139720 0.285078 -7.001094 2.129163 14.311716 0.000000 0.000000 0.000000 -4.223694 0.108938 -14.174008 27.930908 7.398813 -8.570644 25.710958 12.005547 -5.813255 6.149758 -15.634980 30.126358 -8.920617 19.079876 -14.648755 12.394294 3.311253 11.397104 0.000000 0.000000 0.000000 13.422476 -7.506711 10.887040 0.507230 10.460259 -8.254398 3.102675 0.017325 6.628804 0.000000 0.000000 0.000000 9.814302 -4.851869 -11.867441 -43.865657 -23.454399 -12.023424 -23.326966 17.988544 35.410240 0.000000 0.000000 0.000000 23.016613 -6.183642 -0.280458 -9.188975 4.621140 -2.783177 -17.353981 -26.254498 7.293546 0.000000 0.000000 0.000000
0.100312 0.107354 0.287510 -4.827131 2.409726 20.677054 0.000000 0.000000 0.000000 -4.674075 -1.274544 -20.877684 26.959131 9.704381 -11.802794 23.268784 15.603363 -8.108613 -2.315930 -13.509037 33.167640 -32.687299 14.846763 0.311851 24.044846 10.089732 11.331132 0.000000 0.000000 0.000000 10.660794 -7.560943 13.861335 3.373548 9.668640 -12.159982 0.629247 3.540595 8.554116 0.000000 0.000000 0.000000 14.229436 -11.942295 4.394996 -58.544251 2.876230 -10.971929 -30.425615 14.898956 40.257034 0.000000 0.000000 0.000000 20.107151 -8.167072 -6.409221 -6.529757 3.556646 -2.000182 -14.169319 -19.021792 -1.323599 0.000000 0.000000 0.000000
0.096578 0.103612 0.270837 -2.283672 2.297785 25.766958 0.000000 0.000000 0.000000 -4.806642 -1.269250 -25.915320 25.675897 10.396611 -13.616442 21.196307 16.645071 -9.716343 -15.030531 -11.141569 35.645735 -50.118692 6.714082 15.536994 37.369625 12.781279 4.242881 0.000000 0.000000 0.000000 7.293888 -7.271483 14.292219 6.711828 1.776150 -15.465099 -3.416224 8.570387 9.334940 0.000000 0.000000 0.000000 17.905293 -20.954806 17.042580 -53.152127 37.282113 3.771976 -49.428195 -4.558751 51.295969 0.000000 0.000000 0.000000 17.096468 -8.961460 -11.856953 -4.342925 3.169876 -0.298672 -13.861754 -16.633943 -7.011099 0.000000 0.000000 0.000000
0.088103 0.121867 0.254731 -1.287947 2.205540 28.141291 0.000000 0.000000 -0.000000 -4.979261 -4.625409 -28.538532 25.012854 13.622891 -13.774975 18.802586 19.691498 -8.144641 -20.457652 -7.026180 36.417354 -51.065064 2.034501 16.108443 38.857006 8.124335 -5.295259 0.000000 0.000000 0.000000 4.165541 -5.656443 17.480110 10.187726 2.187214 -18.199487 -5.970329 9.738122 9.699017 0.000000 0.000000 0.000000 22.986478 -28.404208 22.877732 -29.072710 58.724269 10.916018 -81.849714 -29.930090 -5.874135 0.000000 0.000000 0.000000 15.792921 -9.215499 -14.939638 -3.238299 4.056241 2.748590 -13.568455 -16.298153 -12.597411 0.000000 0.000000 0.000000
0.075029 0.139712 0.244403 -0.338178 2.027997 29.859233 0.000000 0.000000 -0.000000 -4.952027 -6.390496 -30.247959 24.497165 16.385107 -13.360343 16.881874 22.077199 -6.254617 -21.780221 -5.544323 36.981163 -46.343426 -1.507485 8.661308 37.127031 9.537764 -9.610736 0.000000 0.000000 0.000000 -0.431423 -5.458417 21.486339 15.523316 3.704465 -20.379481 -6.589118 9.375997 9.888884 0.000000 0.000000 0.000000 20.564470 -27.763246 20.255209 -12.543370 55.529390 6.730927 -84.310887 -36.370927 -99.197375 0.000000 0.000000 0.000000 14.500645 -8.923480 -17.074011 -2.339548 4.020212 3.683687 -15.880465 -17.309471 -11.416712 0.000000 0.000000 0.000000
0.053258 0.141514 0.232452 1.486731 1.529648 31.375359 0.000000 0.000000 -0.000000 -4.505880 -5.733341 -31.539890 23.410453 16.244423 -12.738176 16.242134 21.447397 -5.945295 -20.804528 -6.475120 36.385614 -42.047279 -1.751801 2.430716 30.508299 13.408458 -7.545979 0.000000 0.000000 0.000000 -5.646376 -6.686699 24.881540 19.878216 5.604817 -21.900361 -4.356513 7.770733 10.808157 0.000000 0.000000 0.000000 14.283515 -20.808297 10.940417 -18.579992 45.090153 7.910071 -36.958126 -28.439257 -11.720854 0.000000 0.000000 0.000000 12.443506 -7.701694 -19.249939 -1.943489 3.469767 3.183248 -18.827277 -17.331931 -6.330534 0.000000 0.000000 0.000000
0.026431 0.143411 0.217774 4.357799 0.571852 30.815487 0.000000 0.000000 -0.000000 -3.590250 -3.326066 -30.727049 21.831758 14.709327 -12.463413 15.751890 19.450369 -6.752756 -20.360342 -8.189349 34.113893 -38.815494 0.115576 -0.089041 28.390640 13.483905 -4.623721 0.000000 0.000000 0.000000 -8.818000 -7.788296 24.175006 18.374313 8.015911 -21.089364 -1.130933 5.907777 11.585324 0.000000 0.000000 0.000000 6.671857 -11.548343 1.802266 -17.886298 30.867164 6.254348 -21.938929 -29.345510 -16.085475 0.000000 0.000000 0.000000 10.368291 -5.514561 -20.151854 -3.402362 3.903817 3.329531 -18.474810 -19.596782 -4.031325 0.000000 0.000000 0.000000
0.003849 0.158379 0.204480 6.627614 -0.247632 27.925548 0.000000 0.000000 0.000000 -2.802899 0.404431 -27.758162 20.704994 10.903694 -12.308659 16.729601 15.398676 -8.693195 -17.797732 -10.627614 29.709939 -34.614952 2.990340 -1.148552 30.204559 11.642953 -1.745748 0.000000 0.000000 0.000000 -9.977696 -9.308126 21.190611 14.533688 10.282441 -18.786508 2.190997 4.212915 12.183486 0.000000 0.000000 0.000000 -0.507609 -3.289418 -5.088091 -12.463140 15.807123 1.363035 -13.620042 -13.783355 -8.048962 0.000000 0.000000 0.000000 9.769696 -4.109488 -19.752214 -7.556870 6.090753 5.700851 -16.384619 -18.994884 -3.899761 0.000000 0.000000 0.000000
-0.007044 0.183824 0.197113 5.321539 0.055128 24.897793 0.000000 0.000000 0.000000 -2.991059 2.821303 -24.759954 21.713529 7.793611 -12.618315 18.799536 12.583202 -10.336814 -12.100430 -12.373570 25.593540 -26.155759 5.796287 -5.112533 29.328704 10.537340 3.167722 0.000000 0.000000 0.000000 -8.209278 -10.661635 18.662518 11.108762 11.807847 -17.160105 4.955092 2.687230 12.144266 0.000000 0.000000 0.000000 -2.842933 -1.065756 -9.826762 -10.501084 7.394618 -1.858343 -17.564993 -9.732010 5.616921 0.000000 0.000000 0.000000 11.928708 -5.214636 -18.496309 -13.700312 8.804675 7.412313 -12.500517 -14.575041 -3.041895 0.000000 0.000000 0.000000
-0.008217 0.194976 0.192901 1.709958 0.881419 20.832224 -0.000000 0.000000 -0.000000 -3.496982 5.150658 -20.647819 23.957462 3.556907 -12.009555 22.602201 8.602812 -11.472781 -1.948421 -14.252213 20.299511 -16.982833 10.289961 -6.931759 19.423646 6.679330 9.018841 0.000000 0.000000 0.000000 -5.113628 -12.569857 16.611324 6.961861 13.269577 -16.820201 8.287379 1.736223 12.084192 0.000000 0.000000 0.000000 -2.314110 -1.464017 -13.342335 -10.072822 1.146093 -3.322405 -2.385204 0.569439 -2.097152 0.000000 0.000000 0.000000 15.494631 -6.539879 -14.453290 -16.039485 9.425207 7.272434 -8.863904 -15.486985 -4.166245 0.000000 0.000000 0.000000
-0.000991 0.191041 0.192004 -0.135975 0.976805 15.842042 -0.000000 0.000000 -0.000000 -3.560493 4.636163 -15.541667 24.712030 2.837877 -11.157435 23.653154 7.659444 -10.900603 2.716981 -12.214583 15.284686 -11.244684 11.313054 -5.370173 12.837813 2.977510 9.288338 0.000000 0.000000 0.000000 -2.511692 -11.061417 13.187426 3.099060 13.051693 -13.336766 9.771650 0.418743 11.506776 0.000000 0.000000 0.000000 -2.501125 -1.345067 -13.095502 -8.682378 -1.961788 -2.780440 7.254617 -2.051414 5.424893 0.000000 0.000000 0.000000 17.549421 -5.813748 -10.086324 -17.195843 8.688537 6.265170 -5.386677 -15.831005 -4.218925 0.000000 0.000000 0.000000
0.010522 0.179790 0.190256 -2.183186 0.955211 10.335956 -0.000000 0.000000 -0.000000 -3.532159 4.246585 -9.904432 25.521788 2.477505 -9.739338 24.703753 6.853731 -9.558973 5.837142 -9.520053 9.597370 -6.072980 11.375204 -1.723421 9.286736 -1.172670 5.050002 0.000000 0.000000 0.000000 2.230659 -9.775561 9.953547 -0.932120 13.542198 -8.995977 10.641526 -2.176925 10.500000 0.000000 0.000000 0.000000 -1.553152 -1.648568 -10.269845 -7.640150 -3.786916 -3.036767 7.867953 -2.414009 10.137741 0.000000 0.000000 0.000000 18.460536 -4.315909 -5.574163 -16.997322 6.409204 3.534297 -0.841988 -13.896506 -3.005776 0.000000 0.000000 0.000000
0.021584 0.167517 0.186040 -2.254380 0.590742 5.474664 0.000000 0.000000 0.000000 -3.398642 4.233718 -5.056797 25.337930 2.132532 -8.335090 24.732393 5.876036 -8.185877 4.758113 -6.759715 4.212400 -0.348688 8.865932 1.026746 4.233204 -3.754808 -0.469649 0.000000 0.000000 0.000000 4.302719 -8.249281 6.844102 -4.675751 12.331598 -5.573000 10.099081 -3.597619 8.001968 0.000000 0.000000 0.000000 -1.257379 -1.213525 -7.157503 -6.341470 -4.976722 -3.937046 4.686667 -1.995472 13.733103 0.000000 0.000000 0.000000 16.770812 -2.490061 -3.498519 -15.012645 3.820825 2.853354 0.572585 -10.109872 -1.431545 0.000000 0.000000 0.000000
0.031189 0.158758 0.180829 -0.709313 0.229428 2.497207 0.000000 0.000000 0.000000 -3.291753 5.245886 -2.144422 24.411043 1.844009 -6.786183 23.997189 4.803501 -6.610979 2.949082 -6.350821 1.833591 1.757155 7.082523 1.945719 1.293395 -4.717357 -3.024737 0.000000 0.000000 0.000000 3.930893 -7.547968 3.969092 -7.129292 8.974503 -3.472497 8.567665 -3.372143 4.756080 0.000000 0.000000 0.000000 -2.344252 -0.434221 -6.507415 -5.404543 -5.572942 -2.532617 3.753694 0.068712 12.434496 0.000000 0.000000 0.000000 14.763196 -2.030389 -5.010877 -14.072963 1.473780 4.432444 2.096095 -6.520081 -1.643034 0.000000 0.000000 0.000000
0.039528 0.155049 0.177142 0.768256 -0.009755 0.579650 0.000000 0.000000 0.000000 -3.236836 5.993391 -0.321187 23.536850 1.990370 -5.584833 23.199299 4.370330 -5.236349 3.641759 -6.257616 0.793310 0.292085 3.848548 0.956278 0.507604 -3.017004 -3.715707 0.000000 0.000000 0.000000 3.311822 -7.302161 2.478848 -6.131937 5.451790 -2.258348 5.824010 -2.783930 1.945083 0.000000 0.000000 0.000000 -3.700042 0.118214 -6.786504 -3.807817 -5.336512 -0.179069 2.299204 0.400593 11.225908 0.000000 0.000000 0.000000 11.483975 -1.525862 -4.869252 -12.263255 0.139027 4.001410 3.941258 -1.487550 -3.395726 0.000000 0.000000 0.000000
0.046582 0.156024 0.175690 0.190324 0.003417 0.233262 0.000000 0.000000 0.000000 -3.275738 5.273555 0.044108 23.793378 3.055092 -5.040167 23.339274 5.325969 -4.207979 3.720151 -5.437661 0.435541 1.555957 0.364931 -1.397101 0.839987 -0.377721 -4.777603 0.000000 0.000000 0.000000 5.571774 -6.613642 2.592856 -4.568325 3.491987 -1.991572 3.383103 -1.591695 1.395562 0.000000 0.000000 0.000000 -3.528749 -0.001534 -6.814383 -3.069041 -4.961844 0.470532 2.026555 1.710805 9.318961 0.000000 0.000000 0.000000 10.225948 -1.603694 -5.193134 -10.220503 -0.202826 3.991304 5.146827 -3.936619 -2.667882 0.000000 0.000000 0.000000
0.052006 0.156490 0.174117 -0.362990 0.012165 -0.118490 0.000000 0.000000 0.000000 -3.347542 3.944935 0.349934 24.128205 4.226463 -4.469063 23.510452 6.392673 -3.080422 3.694528 -3.947154 -0.040277 3.046741 -3.090051 -3.622114 0.524811 2.104093 -5.493591 0.000000 0.000000 0.000000 6.349191 -5.590453 3.036245 -2.375824 2.282697 -2.401410 1.943691 -0.441094 1.757456 0.000000 0.000000 0.000000 -3.166227 -0.191167 -5.801025 -2.610997 -4.312902 0.431105 2.161104 0.169032 9.849825 0.000000 0.000000 0.000000 9.525635 -1.379601 -4.131341 -8.307560 0.400428 4.219146 4.867213 -6.465877 -3.034244 0.000000 0.000000 0.000000
0.056529 0.155323 0.172384 -0.966884 0.063406 0.196626 0.000000 0.000000 0.000000 -3.473151 1.624337 -0.060702 24.586453 6.629768 -4.217024 23.526133 8.917165 -1.763419 4.151064 -1.758462 0.121664 4.324740 -5.283489 -5.864056 -0.089172 3.797391 -5.970566 0.000000 0.000000 0.000000 6.422957 -4.147836 4.387908 -0.606945 2.363124 -3.946952 1.586806 0.260737 2.387691 0.000000 0.000000 0.000000 -2.505199 -0.366713 -4.954673 -2.678685 -3.754829 0.060037 2.172700 -1.847534 10.738983 0.000000 0.000000 0.000000 8.752321 -1.234503 -3.479707 -6.897537 1.108100 4.307707 4.528680 -6.650664 -4.211196 0.000000 0.000000 0.000000
0.059830 0.154759 0.170913 0.190453 0.039288 0.872273 0.000000 0.000000 0.000000 -3.530595 0.566304 -0.833829 24.115117 8.331361 -4.008697 22.709525 10.601858 -0.838038 2.695570 -1.213200 1.213444 4.570562 -4.218614 -6.612634 -0.216981 3.713696 -4.753669 0.000000 0.000000 0.000000 4.690344 -3.721684 5.586546 0.499742 2.990284 -5.107061 1.584264 0.381832 2.769742 0.000000 0.000000 0.000000 -3.509129 -0.353314 -4.864646 -2.360554 -3.124056 0.059246 2.223026 -3.360735 10.927165 0.000000 0.000000 0.000000 6.841533 -1.148452 -3.654368 -6.338508 1.461100 4.321205 4.247761 -6.374696 -4.622121 0.000000 0.000000 0.000000
0.061244 0.154896 0.169993 1.314766 0.002958 1.427100 0.000000 0.000000 0.000000 -3.527731 0.636313 -1.397277 23.561129 8.195679 -3.625130 22.262621 10.242031 -0.547942 1.708643 -1.591798 1.962617 4.408763 -3.876358 -7.381036 -0.783492 3.553371 -3.802491 0.000000 0.000000 0.000000 3.725458 -3.640888 5.440039 0.411026 1.726644 -5.595027 1.175992 1.030222 2.453549 0.000000 0.000000 0.000000 -4.442542 -0.271364 -4.971364 -2.397721 -2.571322 0.799438 0.913146 -1.561968 7.462543 0.000000 0.000000 0.000000 4.941203 -1.019149 -3.811094 -5.170274 1.416148 4.018129 3.590743 -5.164242 -5.080359 0.000000 0.000000 0.000000
0.062337 0.155133 0.167724 0.162557 0.106967 1.871444 0.000000 0.000000 0.000000 -3.473184 1.693178 -1.752737 24.041771 6.992793 -2.789660 23.115693 8.679191 -0.135537 3.707245 -2.711235 1.993216 3.529915 -4.874611 -8.043194 -1.095961 4.097697 -3.699843 0.000000 0.000000 0.000000 5.451184 -4.948816 5.722348 0.034573 2.308765 -5.539233 1.337109 0.486291 2.265217 0.000000 0.000000 0.000000 -2.976211 -0.345527 -5.047231 -2.375919 -1.778044 2.235452 -0.127923 3.395156 -0.203226 0.000000 0.000000 0.000000 4.822130 -1.064873 -3.980264 -3.300095 1.062060 3.423573 3.382553 -3.993891 -5.653646 0.000000 0.000000 0.000000
0.062688 0.155137 0.166177 -2.319963 0.302437 2.116487 0.000000 0.000000 0.000000 -3.401874 3.108107 -1.746269 25.226968 4.506249 -2.697788 24.734894 6.053844 -1.038578 6.603095 -3.762692 0.972505 3.532304 -7.015726 -8.252615 -2.125979 4.399227 -4.129804 0.000000 0.000000 0.000000 7.651121 -6.770349 6.137665 0.110917 3.794618 -5.278595 1.613748 -0.137605 2.447770 0.000000 0.000000 0.000000 0.210073 -0.527114 -4.597284 -2.591988 -1.097883 3.113069 0.460740 9.090094 -8.651373 0.000000 0.000000 0.000000 6.654344 -1.350585 -4.238877 -3.321773 0.942682 3.045311 3.752208 -2.953584 -5.351909 0.000000 0.000000 0.000000
