HIERARCHY
ROOT Hips
{
  OFFSET 0.000000 0.000000 0.000000
  CHANNELS 6 Xposition Yposition Zposition Xrotation Yrotation Zrotation
  JOINT Spine
  {
    OFFSET 0.881470 21.810334 -9.076147
    CHANNELS 3 Xrotation Yrotation Zrotation
    JOINT Chest
    {
      OFFSET 0.881470 21.810334 -9.076147
      CHANNELS 3 Xrotation Yrotation Zrotation
      JOINT Neck
      {
        OFFSET 0.000000 4.674388 0.000000
        CHANNELS 3 Xrotation Yrotation Zrotation
        JOINT Head
        {
          OFFSET 0.000000 4.678088 0.000000
          CHANNELS 3 Xrotation Yrotation Zrotation
          End Site
          {
            OFFSET 0.000000 1.403426 0.000000
          }
        }
      }
      JOINT LeftCollar
      {
        OFFSET 3.000000 4.000000 0.000000
        CHANNELS 3 Xrotation Yrotation Zrotation
        JOINT LeftShoulder
        {
          OFFSET 15.792676 -2.209392 -1.224738
          CHANNELS 3 Xrotation Yrotation Zrotation
          JOINT LeftArm
          {
            OFFSET 3.082085 -20.340128 -8.765461
            CHANNELS 3 Xrotation Yrotation Zrotation
            JOINT LeftForeArm
            {
              OFFSET -6.633304 3.932203 -15.582597
              CHANNELS 3 Xrotation Yrotation Zrotation
              JOINT LeftHand
              {
                OFFSET -2.474855 3.119097 -1.955211
                CHANNELS 3 Xrotation Yrotation Zrotation
                End Site
                {
                  OFFSET -0.742457 0.935729 -0.586563
                }
              }
            }
          }
        }
      }
      JOINT RightCollar
      {
        OFFSET -3.000000 4.000000 0.000000
        CHANNELS 3 Xrotation Yrotation Zrotation
        JOINT RightShoulder
        {
          OFFSET -15.792676 2.209392 1.224738
          CHANNELS 3 Xrotation Yrotation Zrotation
          JOINT RightArm
          {
            OFFSET -2.495612 -27.698627 -14.139695
            CHANNELS 3 Xrotation Yrotation Zrotation
            JOINT RightForeArm
            {
              OFFSET 9.302673 7.642058 -20.278665
              CHANNELS 3 Xrotation Yrotation Zrotation
              JOINT RightHand
              {
                OFFSET 4.807220 4.843324 -4.521461
                CHANNELS 3 Xrotation Yrotation Zrotation
                End Site
                {
                  OFFSET 1.442166 1.452997 -1.356438
                }
              }
            }
          }
        }
      }
    }
  }
  JOINT LeftUpLeg
  {
    OFFSET 10.328032 0.296165 2.790499
    CHANNELS 3 Xrotation Yrotation Zrotation
    JOINT LeftLeg
    {
      OFFSET 12.238276 -41.735834 -6.323935
      CHANNELS 3 Xrotation Yrotation Zrotation
      JOINT LeftFoot
      {
        OFFSET 10.938167 -37.656560 14.235581
        CHANNELS 3 Xrotation Yrotation Zrotation
        End Site
        {
          OFFSET 3.281450 -11.296968 4.270674
        }
      }
    }
  }
  JOINT RightUpLeg
  {
    OFFSET -10.328032 -0.296165 -2.790499
    CHANNELS 3 Xrotation Yrotation Zrotation
    JOINT RightLeg
    {
      OFFSET -6.716455 -33.878452 3.035436
      CHANNELS 3 Xrotation Yrotation Zrotation
      JOINT RightFoot
      {
        OFFSET -13.584754 -38.742798 13.536227
        CHANNELS 3 Xrotation Yrotation Zrotation
        End Site
        {
          OFFSET -4.075426 -11.622839 4.060868
        }
      }
    }
  }
}
MOTION
Frames: 96
Frame Time: 0.083333
0.071091 0.194967 0.137445 0.038606 -0.009514 -0.019150 0.000000 0.000000 0.000000 -22.328588 7.080534 -5.653991 -47.276641 -10.693731 -3.857317 0.000000 0.000000 0.000000 22.942393 -4.391871 7.963984 0.150235 -0.022191 0.174494 1.104642 0.429804 -0.615231 -0.072287 -0.062614 -0.583014 0.000000 0.000000 0.000000 22.942393 -4.391871 7.963984 0.198285 0.001690 0.022297 0.340493 0.333987 0.331062 -0.325476 -0.166530 -0.000113 0.000000 0.000000 0.000000 6.762411 2.204738 -0.763113 -8.756686 -2.346278 1.696396 0.000000 0.000000 0.000000 11.061639 -2.179166 0.373934 -26.725378 6.927036 -1.147796 0.000000 0.000000 0.000000
0.070501 0.196794 0.132334 0.037925 -0.011474 -0.023953 0.000000 0.000000 0.000000 -22.328953 7.071142 -5.656916 -47.301938 -10.713354 -3.875542 0.000000 0.000000 0.000000 22.941887 -4.391871 7.963999 0.165809 -0.006725 0.173747 1.144593 0.399086 -0.639848 -0.162009 -0.038653 -0.511349 0.000000 0.000000 0.000000 22.941887 -4.391871 7.963999 0.226482 0.007027 0.033321 0.506345 0.319715 0.407470 -0.409730 -0.146441 0.025960 0.000000 0.000000 0.000000 6.790556 2.215925 -0.738280 -8.761535 -2.350299 1.662770 0.000000 0.000000 0.000000 11.059689 -2.175738 0.369855 -26.731908 6.938363 -1.116024 0.000000 0.000000 0.000000
0.069763 0.201392 0.122975 0.136587 -0.045619 -0.096955 0.000000 0.000000 0.000000 -22.335173 6.909684 -5.702578 -48.140512 -10.941657 -4.133815 0.000000 0.000000 0.000000 22.825160 -4.391895 7.964439 0.633273 0.095217 0.556318 3.336776 0.947130 -1.977220 -0.801779 0.014751 -1.231053 0.000000 0.000000 0.000000 22.825160 -4.391895 7.964439 0.824800 0.027228 0.287574 2.085169 1.087007 1.437723 -1.598240 -0.482167 0.029452 0.000000 0.000000 0.000000 2.698872 0.929635 -0.115782 -1.508513 -0.107074 1.312593 0.000000 0.000000 0.000000 10.886827 -2.110500 0.156525 -26.551139 6.857599 -0.674810 0.000000 0.000000 0.000000
0.069741 0.206685 0.115927 0.337700 -0.109089 -0.231994 0.000000 0.000000 0.000000 -22.349531 6.539368 -6.002727 -49.516190 -11.270258 -4.066674 0.000000 0.000000 0.000000 22.589584 -4.392062 7.966799 1.556973 0.574866 1.101593 4.914057 0.697042 -3.404153 -2.094230 0.390186 -1.338915 0.000000 0.000000 0.000000 22.589584 -4.392062 7.966799 1.886333 -0.043869 1.393596 4.819271 2.677365 2.731720 -3.745576 -1.187073 -0.380192 0.000000 0.000000 0.000000 0.256483 0.234100 0.551612 3.077748 1.317492 0.894295 0.000000 0.000000 0.000000 10.594298 -2.002143 -0.031049 -26.516268 6.891838 -0.060617 0.000000 0.000000 0.000000
0.070030 0.210804 0.111649 0.690755 -0.180227 -0.372658 0.000000 0.000000 0.000000 -22.370329 6.002788 -6.731347 -51.583373 -11.637388 -3.382765 0.000000 0.000000 0.000000 22.201125 -4.392612 7.973021 2.929082 1.453333 1.888344 5.173251 -0.387516 -4.623829 -3.303223 0.823460 -1.589794 0.000000 0.000000 0.000000 22.201125 -4.392612 7.973021 3.431497 -0.492137 3.953258 7.160107 5.939571 3.242177 -6.273174 -2.644960 -1.692493 0.000000 0.000000 0.000000 0.001365 0.291080 0.959722 3.787822 1.570763 0.767146 0.000000 0.000000 0.000000 10.161533 -1.890402 -0.096114 -26.534560 6.934078 0.322634 0.000000 0.000000 0.000000
0.070463 0.213480 0.109347 0.960635 -0.202476 -0.403181 0.000000 0.000000 0.000000 -22.381814 5.702793 -7.589041 -53.735076 -12.303159 -3.042401 0.000000 0.000000 0.000000 21.933865 -4.393692 7.981441 3.939723 2.206490 2.540166 5.772716 -1.280140 -5.569858 -4.381727 0.801492 -2.376006 0.000000 0.000000 0.000000 21.933865 -4.393692 7.981441 5.030170 -1.275738 6.768226 8.421508 9.123953 2.910888 -8.039685 -3.569382 -2.577419 0.000000 0.000000 0.000000 -0.200047 0.294034 1.228785 4.847772 1.903037 0.683658 0.000000 0.000000 0.000000 9.843059 -1.855688 -0.053963 -26.326047 6.882322 0.307391 0.000000 0.000000 0.000000
0.070643 0.215301 0.107834 1.162085 -0.211874 -0.408444 0.000000 0.000000 0.000000 -22.382822 5.677071 -8.453015 -55.361065 -13.005804 -2.730397 0.000000 0.000000 0.000000 21.762051 -4.395398 7.988868 4.850698 2.782948 3.160868 6.784475 -2.097764 -6.526391 -5.621182 0.838284 -2.909550 0.000000 0.000000 0.000000 21.762051 -4.395398 7.988868 6.296899 -1.741155 8.695839 8.548521 10.744134 2.435858 -8.772389 -3.501546 -2.639817 0.000000 0.000000 0.000000 -0.164558 0.331889 1.479559 5.849794 2.264947 0.786258 0.000000 0.000000 0.000000 9.607895 -1.840931 0.003053 -26.223684 6.840416 0.180310 0.000000 0.000000 0.000000
0.070360 0.216296 0.106548 1.101027 -0.205752 -0.398791 0.000000 0.000000 0.000000 -22.372606 5.946654 -9.056242 -56.625771 -13.497811 -2.611911 0.000000 0.000000 0.000000 21.866157 -4.397560 7.991545 5.757215 3.109519 3.534559 7.602088 -2.915830 -7.270118 -6.576539 1.196425 -3.166308 0.000000 0.000000 0.000000 21.866157 -4.397560 7.991545 7.001416 -2.333270 10.270700 8.337077 11.442900 1.518855 -8.575814 -2.895040 -1.743997 0.000000 0.000000 0.000000 0.646360 0.513569 1.654902 5.807926 2.385349 1.064638 0.000000 0.000000 0.000000 9.655037 -1.845580 -0.014381 -26.100785 6.807489 0.206175 0.000000 0.000000 0.000000
0.069686 0.216701 0.105252 0.596869 -0.185457 -0.393791 0.000000 0.000000 0.000000 -22.357615 6.342824 -9.343460 -57.838578 -13.542938 -2.477301 0.000000 0.000000 0.000000 22.406322 -4.399857 7.990767 6.880732 3.320691 3.702432 7.824849 -3.419115 -7.743702 -6.871318 1.823600 -3.391595 0.000000 0.000000 0.000000 22.406322 -4.399857 7.990767 7.379392 -2.960497 11.474080 7.913188 11.788937 0.464875 -7.875084 -2.431259 -0.603163 0.000000 0.000000 0.000000 2.208111 0.783007 1.759819 4.562928 2.156057 1.236202 0.000000 0.000000 0.000000 9.775465 -1.792233 -0.153299 -24.907495 6.505276 0.484431 0.000000 0.000000 0.000000
0.068929 0.216800 0.104345 -0.124272 -0.147816 -0.366557 0.000000 0.000000 0.000000 -22.337521 6.870705 -9.380256 -58.297155 -13.376663 -2.479917 0.000000 0.000000 0.000000 23.157204 -4.402481 7.986541 7.740762 3.351676 3.604667 8.048550 -3.775118 -7.918459 -7.104228 2.100112 -3.831745 0.000000 0.000000 0.000000 23.157204 -4.402481 7.986541 7.551677 -3.484254 12.040337 7.510176 12.119667 0.018630 -7.232955 -2.614973 0.009907 0.000000 0.000000 0.000000 2.951011 0.704204 2.016221 5.202726 2.249664 0.709670 0.000000 0.000000 0.000000 9.378858 -1.631069 -0.254535 -21.132706 5.444121 0.557282 0.000000 0.000000 0.000000
0.068116 0.216603 0.103998 -0.466573 -0.074587 -0.223050 0.000000 0.000000 0.000000 -22.310245 7.585126 -9.266977 -59.006606 -12.827020 -2.584788 0.000000 0.000000 0.000000 23.537125 -4.405629 7.977292 7.964170 2.870956 3.452076 8.504526 -3.241503 -7.681708 -7.214255 1.477097 -4.507102 0.000000 0.000000 0.000000 23.537125 -4.405629 7.977292 7.313581 -4.162048 12.226722 7.292831 12.084135 -0.257254 -6.628467 -2.691666 0.547956 0.000000 0.000000 0.000000 3.533561 0.629943 2.204134 6.050262 2.364443 0.060359 0.000000 0.000000 0.000000 9.568501 -1.724798 0.078186 -18.608697 4.276025 -0.954485 0.000000 0.000000 0.000000
0.067320 0.216976 0.103603 -0.721457 0.105398 0.181015 0.000000 0.000000 0.000000 -22.292803 8.066238 -9.069353 -59.569716 -11.549825 -2.355439 0.000000 0.000000 0.000000 23.844566 -4.405790 7.968872 9.035125 1.564764 4.585709 6.636993 -0.110697 -7.786894 -5.989432 0.742639 -3.285190 0.000000 0.000000 0.000000 23.844566 -4.405790 7.968872 7.188726 -4.668335 11.647505 6.786315 11.815462 -0.234769 -6.143312 -2.870043 0.743694 0.000000 0.000000 0.000000 5.069825 0.731717 1.999478 4.820191 1.980276 -0.493232 0.000000 0.000000 0.000000 14.326456 -2.820493 -0.270254 -27.830813 5.617640 -2.362460 0.000000 0.000000 0.000000
0.065913 0.218747 0.103563 -0.401616 0.382506 0.876625 0.000000 0.000000 0.000000 -22.309280 7.779026 -8.329074 -60.566921 -8.064405 -0.814825 0.000000 0.000000 0.000000 23.596020 -4.401838 7.970244 13.254896 -2.060269 9.118403 0.920481 9.609824 -10.090823 -2.456746 -0.439157 2.772946 0.000000 0.000000 0.000000 23.596020 -4.401838 7.970244 7.110819 -4.533542 9.024467 5.958488 10.935953 0.731684 -6.128764 -3.574344 -0.212990 0.000000 0.000000 0.000000 7.629826 1.164598 1.338979 0.512684 0.854547 -0.918951 0.000000 0.000000 0.000000 14.154746 -3.197411 -3.642035 -26.829390 5.054437 2.438435 0.000000 0.000000 0.000000
0.064829 0.220570 0.114812 1.026633 0.638883 1.720703 0.000000 0.000000 0.000000 -22.333710 7.538231 -5.863937 -62.838994 -1.761921 0.857948 0.000000 0.000000 0.000000 22.321438 -4.416420 7.988630 21.987585 -10.469025 16.859545 -8.770890 28.963273 -12.869436 2.457979 -3.623095 13.127415 0.000000 0.000000 0.000000 22.321438 -4.416420 7.988630 7.375177 -4.588942 3.215815 3.585243 8.757862 2.810877 -6.151304 -3.699036 -1.301286 0.000000 0.000000 0.000000 8.165070 1.443487 0.202644 -2.918279 -0.042302 -0.748092 0.000000 0.000000 0.000000 12.526952 -3.504759 -5.867839 -24.715825 4.215657 4.671066 0.000000 0.000000 0.000000
0.064803 0.220752 0.141916 5.374947 0.845156 3.033368 0.000000 0.000000 0.000000 -22.342967 8.010786 -2.821243 -67.594599 5.164978 1.175487 0.000000 0.000000 0.000000 18.396910 -4.485549 8.048299 33.599880 -19.426804 20.118983 -27.314791 40.173921 -7.974787 1.831849 -5.302114 19.560514 0.000000 0.000000 0.000000 18.396910 -4.485549 8.048299 7.631612 -6.303445 -2.471306 0.634136 9.220070 4.110435 -6.752202 -3.018872 -1.927630 0.000000 0.000000 0.000000 3.692224 1.317061 -1.250413 -3.139741 -0.172917 -0.806258 0.000000 0.000000 0.000000 10.123094 -4.022904 -9.572631 -25.351935 3.448525 9.001253 0.000000 0.000000 0.000000
0.064335 0.220020 0.171492 12.036247 0.844895 4.450074 0.000000 0.000000 0.000000 -22.330754 9.060473 -2.058050 -72.922457 8.287707 0.462118 0.000000 0.000000 0.000000 12.315122 -4.590008 8.152456 42.659056 -20.836369 16.382539 -53.668205 28.378905 3.497383 -4.043472 0.812195 17.928491 0.000000 0.000000 0.000000 12.315122 -4.590008 8.152456 6.438168 -7.740436 -5.126014 -1.144609 11.639670 3.874412 -6.770642 -2.113679 -1.318092 0.000000 0.000000 0.000000 -3.114190 1.582920 -2.509177 -3.931315 -0.378425 -1.410777 0.000000 0.000000 0.000000 9.421375 -4.802507 -14.006755 -38.328058 4.530588 14.096682 0.000000 0.000000 0.000000
0.062640 0.219635 0.185335 13.444404 1.019293 5.395669 0.000000 0.000000 0.000000 -22.262348 11.575910 -2.534119 -72.566240 9.084007 -0.594112 0.000000 0.000000 0.000000 11.606681 -4.647574 8.324920 35.801961 -17.522115 12.249943 -44.304259 17.336228 -2.256683 -3.697027 3.575937 16.387987 0.000000 0.000000 0.000000 11.606681 -4.647574 8.324920 2.615184 -9.528088 -4.766331 0.545293 13.983618 3.094477 -5.057518 -3.455329 0.311625 0.000000 0.000000 0.000000 -4.790427 1.464172 -3.251527 -5.164074 -0.576798 -1.599017 0.000000 0.000000 0.000000 7.883219 -4.758577 -17.390420 -37.821042 3.940407 18.416884 0.000000 0.000000 0.000000
0.061044 0.216431 0.182665 9.042279 1.397943 5.398748 0.000000 0.000000 0.000000 -22.253755 12.465852 -2.156358 -68.909783 8.029342 -2.522583 0.000000 0.000000 0.000000 16.224268 -4.644398 8.448710 18.871215 -17.704542 11.193398 -16.165484 23.137354 -11.057323 -0.594765 -0.915219 13.054074 0.000000 0.000000 0.000000 16.224268 -4.644398 8.448710 -2.801282 -9.562531 -4.405990 2.433301 15.956398 1.529969 0.099220 -6.848521 4.242805 0.000000 0.000000 0.000000 -0.134111 0.516496 -2.089791 -6.158289 -0.580691 -3.119860 0.000000 0.000000 0.000000 11.773934 -5.267267 -18.432834 -37.137380 3.692604 20.627142 0.000000 0.000000 0.000000
0.062085 0.210958 0.173125 3.514688 1.559879 4.437348 0.000000 0.000000 0.000000 -22.304379 11.012250 -2.423715 -64.150789 2.476732 -5.878232 0.000000 0.000000 0.000000 21.292271 -4.580224 8.459184 9.631939 -13.885889 9.909850 1.542473 18.042978 -15.642801 -3.030568 -3.136529 6.628226 0.000000 0.000000 0.000000 21.292271 -4.580224 8.459184 -4.589640 -6.843917 -4.630645 -1.646654 15.429917 0.088873 5.819049 -9.203740 6.466619 0.000000 0.000000 0.000000 7.856823 -0.332606 1.869256 -6.516190 -0.107749 -7.731161 0.000000 0.000000 0.000000 15.872985 -5.619196 -15.376859 -35.367709 3.713074 16.472717 0.000000 0.000000 0.000000
0.074276 0.205195 0.154804 6.120120 0.748532 2.414652 0.000000 0.000000 0.000000 -22.583339 1.481023 -6.704574 -61.556092 -8.520530 -5.291140 0.000000 0.000000 0.000000 17.102944 -4.390033 8.210783 5.762518 -2.373542 12.061801 12.728819 8.904947 -20.298749 -8.212130 -0.932679 3.147116 0.000000 0.000000 0.000000 17.102944 -4.390033 8.210783 -0.004674 5.811903 -5.916539 -7.824747 6.125507 1.312698 7.930477 -7.011170 3.489661 0.000000 0.000000 0.000000 10.064336 0.633900 7.216645 -8.094396 0.570735 -13.267883 0.000000 0.000000 0.000000 9.589438 -4.012437 -10.515555 -29.825201 2.712253 8.361555 0.000000 0.000000 0.000000
0.105280 0.215771 0.106371 16.133163 -0.638825 -0.948907 0.000000 0.000000 0.000000 -23.216265 -17.108566 -10.662401 -58.291606 -15.155556 0.579063 0.000000 0.000000 0.000000 7.303850 -3.805664 7.458830 -2.433352 16.481102 16.845464 22.212098 -6.263750 -25.627980 -13.341735 5.560452 0.637639 0.000000 0.000000 0.000000 7.303850 -3.805664 7.458830 2.095948 24.727910 -3.308944 -8.206818 -15.202159 -8.427307 1.898914 -1.102508 4.066636 0.000000 0.000000 0.000000 0.434066 1.221909 13.747928 -10.261569 0.574441 -19.789103 0.000000 0.000000 0.000000 -2.987669 -2.430991 -0.328193 -28.122368 1.063351 -9.304471 0.000000 0.000000 0.000000
0.132700 0.239553 0.058199 26.255111 -1.866782 -5.476587 0.000000 0.000000 0.000000 -24.600695 -42.938728 -13.055990 -54.373856 -10.633662 15.661239 0.000000 0.000000 0.000000 2.862710 -1.016220 -1.701660 -19.765574 28.864127 31.177304 40.121323 -16.909721 -31.972198 -22.264909 8.084413 -4.473890 0.000000 0.000000 0.000000 2.862710 -1.016220 -1.701660 -3.978148 32.107797 29.459843 -2.160023 -37.673562 -58.205843 -22.044155 -4.487253 24.687191 0.000000 0.000000 0.000000 -14.036999 0.101711 20.776009 -4.378642 1.087317 -23.226755 0.000000 0.000000 0.000000 -15.881531 -1.883311 8.979574 -25.176938 -2.306142 -24.532971 0.000000 0.000000 0.000000
0.143279 0.263007 0.043184 27.763566 -2.414567 -8.979898 0.000000 0.000000 0.000000 -28.792948 -66.936429 -21.721366 -50.362195 -6.022938 36.467506 0.000000 0.000000 0.000000 11.575461 5.620282 -34.586681 -40.254372 2.898013 40.900356 89.897203 -12.792808 -47.372438 -38.819120 -9.317979 -14.026874 0.000000 0.000000 0.000000 11.575461 5.620282 -34.586681 -21.567701 11.713182 73.578752 -7.124133 -46.295017 -139.808188 -54.734674 -20.607796 60.708052 0.000000 0.000000 0.000000 -17.609415 -1.307457 25.252521 0.252925 1.635794 -22.580947 0.000000 0.000000 0.000000 -19.355937 -2.285541 10.438935 -22.804919 -5.577826 -26.870349 0.000000 0.000000 0.000000
0.142016 0.271175 0.052607 27.022520 -2.822767 -11.333317 0.000000 0.000000 0.000000 -36.905560 -80.356732 -34.342197 -48.626988 -10.330996 53.973715 0.000000 0.000000 0.000000 19.414411 12.541205 -81.617481 -22.703646 -59.689809 0.968955 158.366492 6.432686 -83.880012 -49.353896 -48.808847 -26.234075 0.000000 0.000000 0.000000 19.414411 12.541205 -81.617481 -33.591834 -18.762913 32.425428 -14.465997 -37.573863 -145.930970 -58.501099 -11.257752 55.987243 0.000000 0.000000 0.000000 -19.905351 -3.008573 29.750710 4.513085 1.744912 -24.466748 0.000000 0.000000 0.000000 -18.092070 -2.610602 9.518904 -25.251762 -6.715655 -24.067372 0.000000 0.000000 0.000000
0.135738 0.270632 0.048445 25.610295 -3.030943 -12.024722 0.000000 0.000000 0.000000 -40.406864 -79.138349 -40.683018 -46.216111 -13.535881 55.389695 0.000000 0.000000 0.000000 20.560699 14.268511 -86.714580 10.676630 -44.251662 -60.679874 139.920749 -5.283358 -112.745930 -46.102834 -67.955666 -10.521507 0.000000 0.000000 0.000000 20.560699 14.268511 -86.714580 -28.621290 -24.598592 -43.947274 -19.417533 -37.699812 -155.141018 -59.885327 -16.902797 60.065420 0.000000 0.000000 0.000000 -17.492981 -2.378925 30.545174 1.614402 1.851929 -24.388187 0.000000 0.000000 0.000000 -17.776380 -2.371778 9.887572 -24.847268 -6.989944 -23.871056 0.000000 0.000000 0.000000
0.144430 0.264115 0.039004 24.344881 -3.140288 -12.111205 0.000000 0.000000 0.000000 -26.748485 -66.007600 -29.209836 -45.871779 -21.442401 49.448574 0.000000 0.000000 0.000000 16.848004 12.365249 -39.046692 -65.406330 6.381705 48.012846 99.046257 -6.266516 -86.311711 -55.838856 -54.213336 10.120448 0.000000 0.000000 0.000000 16.848004 12.365249 -39.046692 -30.633646 1.570932 124.873565 -19.258300 -37.770981 -149.380318 -56.863491 -14.076651 58.053532 0.000000 0.000000 0.000000 -11.959728 -0.135472 29.583205 -8.447570 2.013504 -23.310561 0.000000 0.000000 0.000000 -17.722838 -2.053777 10.961655 -23.321063 -6.266764 -23.846878 0.000000 0.000000 0.000000
0.174284 0.253767 0.033687 24.255362 -3.262314 -12.750321 0.000000 0.000000 0.000000 -25.190545 -55.682075 -26.579007 -44.625511 -23.514595 39.011606 0.000000 0.000000 0.000000 14.380932 9.041447 -19.174927 -37.488837 13.013850 27.400466 58.188200 0.530897 -46.304220 -26.975059 -24.238812 8.331458 0.000000 0.000000 0.000000 14.380932 9.041447 -19.174927 -26.845068 11.108314 99.979910 -12.879736 -46.784389 -136.363415 -53.978955 -15.431771 55.389718 0.000000 0.000000 0.000000 -6.459974 2.354599 28.815993 -19.620172 1.780046 -22.140355 0.000000 0.000000 0.000000 -17.654116 -2.148007 11.210007 -21.481608 -6.077712 -22.609404 0.000000 0.000000 0.000000
0.191426 0.238989 0.054127 24.155889 -3.292149 -13.047558 0.000000 0.000000 0.000000 -24.250131 -44.388402 -22.916764 -48.306024 -27.786912 32.087693 0.000000 0.000000 0.000000 11.741776 5.097980 -5.807847 0.000000 0.000000 0.000000 0.000000 0.000000 0.000000 -7.223516 22.894284 -8.240367 0.000000 0.000000 0.000000 11.741776 5.097980 -5.807847 -21.114085 18.831092 70.372304 1.178226 -45.730226 -90.579969 -43.303629 -1.878574 44.948090 0.000000 0.000000 0.000000 -5.719822 3.199258 27.233989 -20.222652 0.936865 -20.138539 0.000000 0.000000 0.000000 -19.557391 -2.433359 10.286019 -15.957250 -5.801771 -19.625674 0.000000 0.000000 0.000000
0.171150 0.221635 0.089107 19.333880 -3.127502 -11.437043 0.000000 0.000000 0.000000 -23.610390 -28.320136 -19.100236 -52.204129 -30.090498 18.968311 0.000000 0.000000 0.000000 12.193949 0.951886 1.793049 0.412726 -0.493320 2.857900 1.272208 1.132120 -2.580626 1.866447 5.009752 -2.372503 0.000000 0.000000 0.000000 12.193949 0.951886 1.793049 -9.677276 21.923345 37.751672 10.585867 -25.893903 -24.229453 -22.242507 11.101402 18.612837 0.000000 0.000000 0.000000 -1.221978 4.611030 22.522008 -18.469781 -0.149477 -16.630531 0.000000 0.000000 0.000000 -19.178716 -1.805652 5.219153 -8.554104 -4.710205 -11.307272 0.000000 0.000000 0.000000
0.142495 0.210080 0.113494 5.685055 -2.707555 -7.351944 0.000000 0.000000 0.000000 -22.949299 -3.368808 -14.288481 -56.389459 -28.525227 1.819566 0.000000 0.000000 0.000000 19.202543 -3.547869 7.858050 3.026195 -3.687386 15.617210 6.989640 8.167261 -14.630467 3.621387 6.806606 -4.142263 0.000000 0.000000 0.000000 19.202543 -3.547869 7.858050 7.784190 12.379786 13.307138 -3.318581 -4.575324 -1.826183 -4.511578 2.891637 -1.680833 0.000000 0.000000 0.000000 9.843394 6.227365 14.693409 -15.109923 -1.183956 -11.866485 0.000000 0.000000 0.000000 -6.919226 0.793433 -1.024417 -8.318398 -1.512891 -1.200032 0.000000 0.000000 0.000000
0.122267 0.203917 0.133344 -1.522589 -1.738665 -4.060325 0.000000 0.000000 0.000000 -22.546211 5.460047 -5.622960 -61.596641 -12.064147 -0.705538 0.000000 0.000000 0.000000 24.464264 -4.391363 8.042067 10.956741 -12.166207 35.200407 11.253562 24.252306 -32.528414 1.988653 -3.939452 3.548466 0.000000 0.000000 0.000000 24.464264 -4.391363 8.042067 9.576693 2.868756 3.468205 -1.143388 -0.496180 2.053149 -5.776575 -0.549984 -3.147946 0.000000 0.000000 0.000000 13.767684 4.947006 9.219957 -13.205587 -1.588175 -7.789398 0.000000 0.000000 0.000000 4.244575 0.924708 -4.090409 -14.126933 1.345803 3.963034 0.000000 0.000000 0.000000
0.102429 0.200545 0.157968 3.643144 -0.805566 -1.514865 0.000000 0.000000 0.000000 -22.418412 5.976583 0.698593 -69.433697 4.152824 2.162556 0.000000 0.000000 0.000000 19.423722 -4.496815 8.053799 24.381603 -20.162316 27.940719 -13.269449 33.801502 -21.201264 2.148016 -1.218391 18.545838 0.000000 0.000000 0.000000 19.423722 -4.496815 8.053799 8.669251 -1.624989 -6.004625 -3.156523 2.708779 4.645512 -4.827215 -2.697249 -3.019524 0.000000 0.000000 0.000000 6.658003 2.984624 6.580633 -10.837630 -0.867958 -5.647309 0.000000 0.000000 0.000000 5.574991 -0.786357 -6.848135 -25.454892 3.424258 7.357691 0.000000 0.000000 0.000000
0.081347 0.202419 0.178234 9.932231 0.208016 1.982746 0.000000 0.000000 0.000000 -22.251084 10.291474 2.613472 -73.307270 14.404471 2.138040 0.000000 0.000000 0.000000 14.670919 -4.732742 8.490681 39.471075 -19.056397 13.866501 -56.041928 25.986697 3.222158 -1.663353 -1.226506 18.097579 0.000000 0.000000 0.000000 14.670919 -4.732742 8.490681 5.951015 -8.333207 -9.157729 -5.602247 9.407658 4.037497 -4.074357 -3.612837 -1.287366 0.000000 0.000000 0.000000 -3.432645 1.035532 2.569210 -4.273787 0.708811 -2.779286 0.000000 0.000000 0.000000 0.116427 -2.111856 -11.747445 -21.276210 3.499783 12.763398 0.000000 0.000000 0.000000
0.066212 0.215654 0.183671 12.585441 1.243006 6.164808 0.000000 0.000000 0.000000 -22.026007 18.229574 0.037726 -70.840868 16.619867 -2.661868 0.000000 0.000000 0.000000 14.761392 -5.062279 9.558325 41.693261 -15.492777 7.234615 -56.127676 29.639890 2.108644 3.586401 -11.857678 22.287372 0.000000 0.000000 0.000000 14.761392 -5.062279 9.558325 -0.931571 -15.719780 -8.003653 -2.348241 17.253087 3.182548 -4.238811 -4.891585 0.195570 0.000000 0.000000 0.000000 -8.971722 0.230447 -2.263586 0.704880 1.865008 -0.889865 0.000000 0.000000 0.000000 -2.919351 -2.765547 -17.425654 -13.489567 2.457552 16.866935 0.000000 0.000000 0.000000
0.059055 0.233205 0.182842 17.119903 1.648278 9.203609 0.000000 0.000000 0.000000 -21.876752 23.700686 -1.855441 -70.809642 17.995363 -5.941107 0.000000 0.000000 0.000000 12.721646 -5.395771 10.596000 26.325197 -25.194198 8.879941 -32.677014 40.891677 -1.343981 5.633632 -14.287373 25.461326 0.000000 0.000000 0.000000 12.721646 -5.395771 10.596000 -7.643604 -18.697926 -10.484667 2.681339 19.282212 3.474689 -5.714154 -3.892934 0.444572 0.000000 0.000000 0.000000 -14.039792 0.945008 -5.870220 1.608789 2.077044 0.065870 0.000000 0.000000 0.000000 -6.911811 -2.579302 -21.303914 -13.016527 2.087860 18.012762 0.000000 0.000000 0.000000
0.055856 0.246181 0.172014 17.833819 1.725166 9.854799 0.000000 0.000000 0.000000 -21.931741 22.494661 -2.818627 -69.638136 17.630452 -3.713850 0.000000 0.000000 0.000000 11.854253 -5.351567 10.265089 15.742561 -27.319869 9.473484 -11.804811 48.416297 -8.093929 3.137057 -17.671893 23.154891 0.000000 0.000000 0.000000 11.854253 -5.351567 10.265089 -8.718731 -17.310748 -9.546154 7.452378 19.733175 3.756665 -5.305504 -5.689999 1.616399 0.000000 0.000000 0.000000 -15.094265 1.135726 -6.640850 1.272232 2.155672 0.667232 0.000000 0.000000 0.000000 -7.005127 -2.619985 -22.729869 -14.477200 2.328967 19.764789 0.000000 0.000000 0.000000
0.052892 0.251659 0.162510 16.236938 1.699845 9.004855 0.000000 0.000000 0.000000 -22.077271 18.803265 -2.730174 -69.127819 15.918361 -1.340290 0.000000 0.000000 0.000000 11.945968 -5.135252 9.436390 12.965426 -23.334424 8.349128 -8.412545 41.350115 -9.717867 3.035994 -13.317215 20.816530 0.000000 0.000000 0.000000 11.945968 -5.135252 9.436390 -6.643204 -14.894804 -7.222672 8.928476 19.719227 3.640907 -5.167327 -6.359462 2.113666 0.000000 0.000000 0.000000 -13.605118 0.646226 -5.510085 0.875447 2.203416 0.603440 0.000000 0.000000 0.000000 -4.989325 -3.033621 -21.494924 -15.960632 2.787836 19.979615 0.000000 0.000000 0.000000
0.050230 0.252650 0.156544 11.494704 1.963736 8.035431 0.000000 0.000000 0.000000 -22.219822 15.963112 -3.115477 -66.869997 12.196321 -1.528437 0.000000 0.000000 0.000000 15.468702 -4.879257 8.923248 9.574357 -18.855380 6.933713 -4.383923 31.901461 -9.914676 1.017197 -9.747108 15.353760 0.000000 0.000000 0.000000 15.468702 -4.879257 8.923248 -4.799583 -13.440165 -4.070676 8.753777 19.294716 2.514309 -3.349809 -6.980226 4.087438 0.000000 0.000000 0.000000 -8.938769 -0.585105 -3.836703 0.875921 2.227398 -0.326899 0.000000 0.000000 0.000000 -0.240237 -4.012226 -19.202514 -17.113479 3.312812 18.652364 0.000000 0.000000 0.000000
0.047412 0.251367 0.146247 3.399020 2.454423 6.816136 0.000000 0.000000 0.000000 -22.388170 12.826399 -4.635499 -60.033762 6.684594 -0.575831 0.000000 0.000000 0.000000 22.231042 -4.571048 8.450140 6.794330 -13.155617 5.988807 1.217217 21.629155 -9.418284 -1.532913 -7.409398 7.080263 0.000000 0.000000 0.000000 22.231042 -4.571048 8.450140 -1.030650 -12.424200 1.553968 6.843678 19.206757 0.290276 -1.390744 -7.454531 5.776556 0.000000 0.000000 0.000000 -0.977993 -2.495754 -1.241578 1.513221 2.306622 -2.244613 0.000000 0.000000 0.000000 8.297388 -5.614177 -15.306433 -19.797488 4.114635 15.110621 0.000000 0.000000 0.000000
0.045558 0.249615 0.130546 0.237216 2.253386 5.456898 0.000000 0.000000 0.000000 -22.450147 9.614305 -7.139578 -56.526704 1.648117 1.801566 0.000000 0.000000 0.000000 24.163983 -4.428615 8.083711 7.713598 -6.420888 4.333277 5.322568 13.507021 -8.499996 -4.114083 -5.548314 0.559220 0.000000 0.000000 0.000000 24.163983 -4.428615 8.083711 3.371970 -9.832942 6.453260 6.413475 17.185412 -1.200085 -1.902316 -5.943643 5.350942 0.000000 0.000000 0.000000 2.156781 -2.839972 1.246916 3.068281 2.497480 -3.726292 0.000000 0.000000 0.000000 14.230603 -6.112074 -12.136780 -27.602376 5.387190 12.102125 0.000000 0.000000 0.000000
0.046040 0.248202 0.115540 0.295509 1.732149 4.196138 0.000000 0.000000 0.000000 -22.449071 7.503006 -9.265253 -57.703516 -6.383639 -1.995714 0.000000 0.000000 0.000000 23.403343 -4.394718 7.974471 9.659240 -1.194114 3.079685 6.071807 4.180241 -9.017218 -5.629505 -0.787548 -2.682149 0.000000 0.000000 0.000000 23.403343 -4.394718 7.974471 6.318257 -8.217275 10.938690 6.586763 16.374143 -3.646097 -1.964416 -4.423009 6.129086 0.000000 0.000000 0.000000 2.276105 -2.314438 2.783001 5.309864 2.735993 -4.304533 0.000000 0.000000 0.000000 18.574823 -6.212372 -10.258236 -40.404104 7.574233 10.788375 0.000000 0.000000 0.000000
0.047554 0.247004 0.105679 1.462840 0.990676 2.589537 0.000000 0.000000 0.000000 -22.392652 6.742510 -9.767399 -59.328050 -12.995313 -6.470615 0.000000 0.000000 0.000000 21.861097 -4.394438 7.966906 9.470514 1.222773 2.878631 6.845582 -4.118561 -10.528127 -6.413624 6.042468 -1.376949 0.000000 0.000000 0.000000 21.861097 -4.394438 7.966906 7.851512 -7.223798 13.044891 6.475063 13.831113 -4.759540 -3.503939 -2.289593 4.627129 0.000000 0.000000 0.000000 1.437450 -1.419806 4.350158 5.099505 2.515045 -4.991053 0.000000 0.000000 0.000000 17.333682 -4.988344 -8.115519 -40.383880 7.477484 8.639480 0.000000 0.000000 0.000000
0.048923 0.246053 0.097435 2.935537 0.387693 1.298199 0.000000 0.000000 0.000000 -22.346596 7.045639 -10.311803 -61.083529 -17.433913 -9.110057 0.000000 0.000000 0.000000 20.318493 -4.398270 7.977293 8.087658 1.254740 5.108540 7.884032 -9.678413 -13.092287 -6.001980 11.530954 -1.877888 0.000000 0.000000 0.000000 20.318493 -4.398270 7.977293 8.738991 -7.087634 15.162733 5.664398 11.895911 -5.957779 -4.129188 -0.672500 3.859860 0.000000 0.000000 0.000000 0.393605 -0.581297 5.180170 4.471497 2.081987 -5.640695 0.000000 0.000000 0.000000 15.154041 -3.865563 -7.164363 -37.341652 6.467159 8.052937 0.000000 0.000000 0.000000
0.049976 0.245397 0.090276 3.235427 -0.189431 -0.144327 0.000000 0.000000 0.000000 -22.391512 5.576507 -11.233357 -61.705383 -20.191411 -8.172683 0.000000 0.000000 0.000000 19.883535 -4.394552 8.015806 7.511850 3.476342 6.584258 9.888500 -12.589509 -14.920129 -7.733932 12.195632 -3.400298 0.000000 0.000000 0.000000 19.883535 -4.394552 8.015806 9.675144 -5.013786 16.861586 4.964447 11.984361 -6.436625 -4.281077 -0.589253 3.404976 0.000000 0.000000 0.000000 0.652516 0.306185 5.764237 3.335240 1.494164 -5.857667 0.000000 0.000000 0.000000 13.304239 -2.701181 -5.753212 -30.315373 4.483724 6.670845 0.000000 0.000000 0.000000
0.053450 0.244657 0.086557 2.257525 -0.695367 -1.528146 0.000000 0.000000 0.000000 -22.472646 3.767290 -12.173618 -60.995506 -22.270798 -6.043047 0.000000 0.000000 0.000000 20.854327 -4.372002 8.075498 7.239908 6.225252 7.973891 12.082620 -12.959572 -16.226335 -9.711032 10.699369 -4.047690 0.000000 0.000000 0.000000 20.854327 -4.372002 8.075498 9.919103 -2.096908 17.966463 4.946939 11.694525 -6.429539 -4.435837 -0.913196 2.855322 0.000000 0.000000 0.000000 2.123299 1.180239 6.091820 1.054996 0.762419 -5.339846 0.000000 0.000000 0.000000 13.607047 -1.778545 -3.950195 -26.095593 3.028646 4.324708 0.000000 0.000000 0.000000
0.059787 0.242865 0.087517 0.653566 -1.041249 -2.469002 0.000000 0.000000 0.000000 -22.517087 3.250268 -12.751972 -60.070713 -24.248205 -5.411684 0.000000 0.000000 0.000000 22.593440 -4.340763 8.112383 6.181204 7.645848 8.964614 13.237706 -12.842868 -16.151256 -9.374233 10.553978 -5.205126 0.000000 0.000000 0.000000 22.593440 -4.340763 8.112383 9.908427 0.005742 18.096158 5.157856 9.872349 -5.737578 -5.088175 -0.576602 2.151007 0.000000 0.000000 0.000000 3.868130 1.799148 6.358749 -2.028584 -0.076610 -5.056702 0.000000 0.000000 0.000000 19.016812 -1.637216 -2.957144 -36.186583 3.815460 2.232985 0.000000 0.000000 0.000000
0.066511 0.239561 0.090440 -2.332295 -1.062733 -2.638064 0.000000 0.000000 0.000000 -22.527646 3.292499 -13.207955 -57.411585 -23.920238 -3.573281 0.000000 0.000000 0.000000 25.705699 -4.317496 8.134729 5.370023 8.460583 9.437805 13.835053 -11.139244 -15.445525 -8.496520 9.835499 -5.707946 0.000000 0.000000 0.000000 25.705699 -4.317496 8.134729 9.242217 1.463930 17.882153 7.037400 9.021472 -4.525690 -6.323005 -0.844733 1.217221 0.000000 0.000000 0.000000 7.052468 2.009209 6.484811 -2.345709 -0.096178 -4.975877 0.000000 0.000000 0.000000 21.820483 -1.346656 -3.986529 -36.263011 3.673307 4.109188 0.000000 0.000000 0.000000
0.071686 0.236298 0.093912 -3.253820 -0.856680 -2.197269 0.000000 0.000000 0.000000 -22.458198 4.766388 -12.214785 -56.825687 -21.695873 -3.718495 0.000000 0.000000 0.000000 26.524158 -4.352967 8.095069 5.764652 6.260778 9.777384 12.131553 -8.444487 -14.760064 -7.220350 8.528433 -4.830146 0.000000 0.000000 0.000000 26.524158 -4.352967 8.095069 8.350828 0.419723 16.469214 8.357275 8.308486 -3.038277 -6.841860 -1.124743 0.828215 0.000000 0.000000 0.000000 8.058080 1.824925 5.972928 -2.149791 -0.023849 -4.771199 0.000000 0.000000 0.000000 22.735197 -1.591926 -5.244267 -36.553856 3.666229 5.814895 0.000000 0.000000 0.000000
0.074155 0.235060 0.097923 -2.248447 -0.567029 -1.486747 0.000000 0.000000 0.000000 -22.410350 5.595519 -10.103428 -58.824441 -16.660329 -2.957146 0.000000 0.000000 0.000000 25.321604 -4.386242 8.040172 8.079413 2.244923 11.273708 5.861539 -1.750404 -14.259103 -3.384013 7.038758 -0.783593 0.000000 0.000000 0.000000 25.321604 -4.386242 8.040172 7.606433 -0.080964 11.496337 7.140972 6.864681 -0.078467 -6.696819 -1.760284 -0.184182 0.000000 0.000000 0.000000 7.070660 1.444990 5.191429 -1.472302 0.188743 -4.363000 0.000000 0.000000 0.000000 21.789690 -2.140521 -5.976085 -36.592872 3.802624 6.529517 0.000000 0.000000 0.000000
0.073747 0.236832 0.112143 -0.580862 0.085237 0.262383 0.000000 0.000000 0.000000 -22.374012 6.389929 -7.108135 -60.622279 -6.615208 0.530173 0.000000 0.000000 0.000000 23.737659 -4.418658 8.020026 12.849936 -5.462744 15.422030 -2.275719 16.143198 -14.983035 2.750157 2.507596 9.502504 0.000000 0.000000 0.000000 23.737659 -4.418658 8.020026 7.729764 -0.425565 2.459847 3.870212 5.591534 5.088470 -6.535578 -3.019291 -1.638126 0.000000 0.000000 0.000000 5.304724 0.665949 3.384324 0.046439 0.611811 -3.856459 0.000000 0.000000 0.000000 20.238064 -3.299179 -7.963778 -36.398578 3.820460 7.952440 0.000000 0.000000 0.000000
0.071929 0.237683 0.145632 4.830550 0.829557 3.120271 0.000000 0.000000 0.000000 -22.325069 8.649872 -3.821764 -63.441819 4.443940 2.385538 0.000000 0.000000 0.000000 19.209889 -4.530347 8.158066 20.284036 -15.809552 18.660965 -8.367082 35.069266 -17.235466 3.823331 -5.254884 18.405456 0.000000 0.000000 0.000000 19.209889 -4.530347 8.158066 7.195815 -4.464536 -4.530141 1.009719 7.687021 7.173761 -6.185882 -3.953427 -1.586054 0.000000 0.000000 0.000000 -0.426924 0.080681 0.374613 1.341329 1.018480 -3.142858 0.000000 0.000000 0.000000 15.104629 -4.544600 -11.707222 -36.103171 3.555080 10.306740 0.000000 0.000000 0.000000
0.070386 0.236889 0.179462 15.126237 0.982425 5.970358 0.000000 0.000000 0.000000 -22.191067 13.455390 -2.415043 -71.006216 10.635906 -0.249865 0.000000 0.000000 0.000000 10.609594 -4.757121 8.539820 30.522242 -21.059889 16.333604 -24.194319 32.181248 -14.886680 -3.674226 -7.159348 19.122418 0.000000 0.000000 0.000000 10.609594 -4.757121 8.539820 5.519733 -10.386763 -8.048217 -1.954631 12.282786 6.914468 -5.799144 -4.325314 -0.728609 0.000000 0.000000 0.000000 -11.218803 0.825942 -2.733616 2.123055 1.389835 -2.043416 0.000000 0.000000 0.000000 5.323778 -4.569609 -15.925424 -36.039505 3.201042 12.816150 0.000000 0.000000 0.000000
0.067981 0.236799 0.192902 22.552170 0.587610 7.173378 0.000000 0.000000 0.000000 -22.028519 17.216728 -4.114411 -75.192770 12.490635 0.201175 0.000000 0.000000 0.000000 4.352757 -4.867791 8.893574 42.007147 -12.563697 5.595856 -56.162807 5.797796 -0.553697 -10.782539 -1.481533 14.901105 0.000000 0.000000 0.000000 4.352757 -4.867791 8.893574 3.529682 -13.490099 -7.383861 -3.010457 17.733512 6.095299 -5.042363 -4.799302 1.043900 0.000000 0.000000 0.000000 -19.343741 2.222186 -4.062937 4.128474 2.225049 -0.240379 0.000000 0.000000 0.000000 -1.615409 -3.437657 -18.789955 -35.607883 2.742172 15.582309 0.000000 0.000000 0.000000
0.063616 0.238599 0.191298 20.984794 0.863061 7.729904 0.000000 0.000000 0.000000 -21.984138 18.979062 -4.978304 -70.560945 12.096379 0.713728 0.000000 0.000000 0.000000 6.544321 -4.857449 9.121776 33.932932 -12.416961 3.974989 -41.482389 12.240388 -2.528127 -8.058486 -6.357365 14.161714 0.000000 0.000000 0.000000 6.544321 -4.857449 9.121776 0.230391 -14.723770 -6.619172 0.777017 19.778342 6.552851 -4.469915 -7.267851 1.792835 0.000000 0.000000 0.000000 -19.159338 1.851230 -5.164087 7.585917 3.240553 1.477945 0.000000 0.000000 0.000000 -0.217948 -3.650306 -21.376792 -34.072172 1.905677 19.037261 0.000000 0.000000 0.000000
0.058868 0.237846 0.185344 15.149626 1.399926 7.505693 0.000000 0.000000 0.000000 -22.129497 16.463332 -4.375968 -67.618993 9.751410 -1.014746 0.000000 0.000000 0.000000 11.677959 -4.771318 8.858969 20.113464 -15.749326 5.527390 -18.736656 23.936590 -5.472952 -1.307480 -6.664835 14.983470 0.000000 0.000000 0.000000 11.677959 -4.771318 8.858969 -3.648237 -12.222879 -5.874820 4.985538 20.292693 5.292766 -2.232913 -9.715372 3.472132 0.000000 0.000000 0.000000 -13.111078 0.566876 -4.721404 6.899080 3.156563 1.145747 0.000000 0.000000 0.000000 4.792507 -4.576366 -21.997754 -33.416408 1.579712 20.415333 0.000000 0.000000 0.000000
0.057806 0.233359 0.173539 5.207651 2.033596 6.153553 0.000000 0.000000 0.000000 -22.408231 10.557655 -3.797491 -61.034117 3.797279 -3.837596 0.000000 0.000000 0.000000 19.980167 -4.633300 8.560744 10.218043 -13.586179 9.391753 -2.105105 21.769273 -13.559030 -3.013820 -5.949849 9.335971 0.000000 0.000000 0.000000 19.980167 -4.633300 8.560744 -4.299014 -6.858804 -4.560419 2.006148 18.865266 2.127085 3.384028 -11.203433 6.362761 0.000000 0.000000 0.000000 -1.101546 -1.583007 -1.120464 5.055601 2.434261 -3.353379 0.000000 0.000000 0.000000 12.478183 -5.926003 -19.039002 -30.885106 1.612218 17.286052 0.000000 0.000000 0.000000
0.067955 0.226007 0.150640 6.153338 1.262483 3.916604 0.000000 0.000000 0.000000 -22.763928 -1.558287 -8.424165 -57.632287 -6.655819 -3.022547 0.000000 0.000000 0.000000 16.543604 -4.381785 8.377489 4.442941 -0.035507 12.627503 11.976012 6.148348 -22.366462 -9.522008 1.211422 6.138856 0.000000 0.000000 0.000000 16.543604 -4.381785 8.377489 -0.156116 7.077541 -3.359416 -2.344330 9.946225 1.008074 5.925658 -8.277349 4.820292 0.000000 0.000000 0.000000 1.509036 -0.879609 3.454969 2.446365 1.593627 -8.079710 0.000000 0.000000 0.000000 7.370047 -4.300707 -13.724550 -24.886029 1.055136 9.050607 0.000000 0.000000 0.000000
0.096040 0.230812 0.100862 14.751935 -0.298887 0.371103 0.000000 0.000000 0.000000 -23.438389 -21.448169 -13.496611 -53.336190 -13.095543 2.114157 0.000000 0.000000 0.000000 7.319032 -3.838617 7.990862 -1.229718 21.322423 16.378883 20.780389 -9.634028 -28.057683 -13.933709 8.009589 2.489125 0.000000 0.000000 0.000000 7.319032 -3.838617 7.990862 1.894815 26.840398 1.368410 -3.475731 -11.746800 -12.080550 -0.377759 -2.660185 6.469497 0.000000 0.000000 0.000000 -7.221039 0.425917 7.745940 3.389808 1.332068 -10.752501 0.000000 0.000000 0.000000 -3.353256 -2.216783 -4.366345 -24.031733 -0.596995 -6.493129 0.000000 0.000000 0.000000
0.124871 0.250757 0.052566 21.804104 -1.787180 -4.999464 0.000000 0.000000 0.000000 -35.944789 -43.673925 -27.130216 -50.169889 -5.682080 13.340717 0.000000 0.000000 0.000000 6.519283 -1.260911 -8.973108 -1.265341 37.308958 13.496310 12.683687 -14.020086 -25.484934 -22.445795 10.683207 -8.949189 0.000000 0.000000 0.000000 6.519283 -1.260911 -8.973108 3.059161 27.596742 19.752878 -8.516782 -38.508825 -50.989275 -25.393383 -8.325707 30.735763 0.000000 0.000000 0.000000 -15.903202 0.141814 13.997506 5.701963 1.564465 -11.706428 0.000000 0.000000 0.000000 -13.032474 -1.308410 8.732091 -22.231038 -3.067923 -25.498006 0.000000 0.000000 0.000000
0.141406 0.273935 0.039097 25.261203 -2.572832 -9.380711 0.000000 0.000000 0.000000 -62.576346 -67.728187 -55.489633 -49.480449 10.740595 24.305609 0.000000 0.000000 0.000000 15.248677 5.443538 -51.850514 29.777462 37.470342 -17.745609 -44.141563 4.711320 -15.040467 -40.599918 14.277020 -32.536915 0.000000 0.000000 0.000000 15.248677 5.443538 -51.850514 18.542355 0.663681 17.099444 -35.675372 -50.272212 -48.318877 -55.665830 -46.319559 74.698557 0.000000 0.000000 0.000000 -20.814027 -1.455451 19.017365 8.825331 2.016425 -11.601657 0.000000 0.000000 0.000000 -18.143628 -1.817589 10.869394 -20.009131 -5.558143 -26.073224 0.000000 0.000000 0.000000
0.142822 0.283907 0.062593 26.770924 -2.915079 -11.827451 0.000000 0.000000 0.000000 -30.754282 -81.024747 -26.653095 -55.698677 24.695441 34.447116 0.000000 0.000000 0.000000 26.563465 14.173855 -49.099968 112.756534 34.677869 -97.806899 -136.945568 46.640845 1.915620 -61.475656 13.130057 -62.111573 0.000000 0.000000 0.000000 26.563465 14.173855 -49.099968 63.747376 -21.607610 -47.581333 -62.832101 -45.226651 83.257238 -50.724884 -57.231075 78.785528 0.000000 0.000000 0.000000 -24.048879 -3.489283 23.855254 10.660039 1.765285 -15.315614 0.000000 0.000000 0.000000 -18.059631 -2.642246 7.608377 -21.280120 -6.324772 -18.666506 0.000000 0.000000 0.000000
0.119992 0.276584 0.066956 26.820977 -3.159337 -13.338642 0.000000 0.000000 0.000000 148.323394 -73.181372 151.316865 -58.007382 27.216712 36.267411 0.000000 0.000000 0.000000 30.790741 16.867648 101.968360 130.459674 70.810503 -115.664331 -119.178210 41.156492 -9.959494 -53.798495 4.605916 -36.403634 0.000000 0.000000 0.000000 30.790741 16.867648 101.968360 69.862788 10.891809 -23.179647 -45.045877 -44.432188 30.459702 -41.242912 -37.343661 65.440611 0.000000 0.000000 0.000000 -24.689154 -4.429035 26.898421 11.204377 1.254314 -18.525709 0.000000 0.000000 0.000000 -17.473343 -2.897737 6.549249 -20.635326 -6.947042 -15.641499 0.000000 0.000000 0.000000
0.129779 0.259880 0.046596 26.450835 -3.566100 -15.619979 0.000000 0.000000 0.000000 81.570160 -71.106492 84.408133 -51.729845 19.473863 30.306099 0.000000 0.000000 0.000000 29.018583 15.085496 41.183625 91.332267 45.439144 -83.483050 -75.550211 23.179860 -9.607229 -45.325058 7.492339 -11.399059 0.000000 0.000000 0.000000 29.018583 15.085496 41.183625 25.406536 6.751806 24.964065 -35.346879 -51.510458 -19.828132 -19.260726 -22.965860 65.482464 0.000000 0.000000 0.000000 -23.329064 -4.553067 29.618498 13.688087 1.716415 -18.265612 0.000000 0.000000 0.000000 -18.274172 -3.303746 8.417504 -17.502106 -7.109334 -15.332360 0.000000 0.000000 0.000000
0.204682 0.245624 0.023304 26.164866 -3.973209 -17.842226 0.000000 0.000000 0.000000 -26.778249 -67.180294 -22.057413 -36.951861 -4.042717 27.205346 0.000000 0.000000 0.000000 21.546375 9.475144 -38.573258 0.000000 0.000000 0.000000 0.000000 0.000000 0.000000 -29.413097 12.635935 9.394231 0.000000 0.000000 0.000000 21.546375 9.475144 -38.573258 -52.557644 -0.099559 110.494148 -84.056940 -71.782259 52.082447 -2.157687 -69.646708 125.419118 0.000000 0.000000 0.000000 -22.088755 -4.134181 29.907337 13.838732 2.012797 -16.073682 0.000000 0.000000 0.000000 -19.834315 -3.864814 10.451466 -14.139243 -6.734407 -14.440485 0.000000 0.000000 0.000000
0.266219 0.240801 0.037523 24.333988 -4.160215 -17.831300 0.000000 0.000000 0.000000 -24.842176 -53.204575 -17.766320 -36.078477 -10.099430 18.251017 0.000000 0.000000 0.000000 17.953504 5.142396 -12.671811 0.000000 0.000000 0.000000 0.000000 0.000000 0.000000 0.000000 0.000000 0.000000 0.000000 0.000000 0.000000 17.953504 5.142396 -12.671811 -46.694291 16.222155 77.018722 -58.680841 -68.264375 -27.161090 -25.933144 -63.460963 90.771518 0.000000 0.000000 0.000000 -18.996292 -1.940787 26.306179 11.105102 1.666705 -12.519724 0.000000 0.000000 0.000000 -19.895044 -3.580168 8.765916 -10.539772 -5.965728 -10.289012 0.000000 0.000000 0.000000
0.240512 0.225464 0.074698 19.090397 -4.176275 -15.591215 0.000000 0.000000 0.000000 -24.120186 -34.963147 -14.512707 -39.879354 -21.949229 10.814283 0.000000 0.000000 0.000000 15.964718 0.417292 0.146295 0.000000 0.000000 0.000000 0.000000 0.000000 0.000000 1.117903 0.785301 -1.572130 0.000000 0.000000 0.000000 15.964718 0.417292 0.146295 -28.719415 23.840506 40.064867 72.713855 -41.073529 -33.654650 -20.578404 -35.407542 50.829111 0.000000 0.000000 0.000000 -9.959242 3.020431 19.994849 0.952603 -0.701102 -10.452770 0.000000 0.000000 0.000000 -18.203423 -2.129797 6.778213 -3.677957 -4.384998 -6.934554 0.000000 0.000000 0.000000
0.184616 0.191936 0.108638 8.850600 -4.074170 -11.635262 0.000000 0.000000 0.000000 -23.439504 -8.883128 -13.066212 -44.705825 -35.140156 -3.132052 0.000000 0.000000 0.000000 17.619685 -3.268819 7.654109 0.719941 0.325549 1.140126 0.716423 -0.815292 -1.385683 4.108416 4.074963 -7.135193 0.000000 0.000000 0.000000 17.619685 -3.268819 7.654109 1.499687 21.277617 9.304018 -1.673631 -13.812096 1.850103 -1.222805 3.268277 -3.454930 0.000000 0.000000 0.000000 4.975957 8.757880 14.441878 -11.357015 -4.266334 -11.321922 0.000000 0.000000 0.000000 -8.994371 1.442402 5.171673 -5.880779 -1.286307 -1.607602 0.000000 0.000000 0.000000
0.151226 0.153751 0.122746 3.020529 -3.332133 -8.419750 0.000000 0.000000 0.000000 -22.900423 3.270467 -10.479900 -48.779750 -34.073577 -12.315191 0.000000 0.000000 0.000000 20.641775 -4.221101 8.105995 3.881353 1.509096 6.055517 4.041991 -3.695105 -7.091399 3.559089 8.253654 -12.445203 0.000000 0.000000 0.000000 20.641775 -4.221101 8.105995 6.170303 11.488395 5.205929 -2.107779 -9.700298 4.462807 -2.637591 0.356181 -4.750596 0.000000 0.000000 0.000000 10.622705 8.710661 9.624544 -11.786394 -4.860953 -9.515952 0.000000 0.000000 0.000000 -3.788172 2.393233 3.786519 -8.861729 2.500665 3.766005 0.000000 0.000000 0.000000
0.129843 0.129126 0.126691 -0.181414 -2.639485 -6.375978 0.000000 0.000000 0.000000 -22.558364 8.934942 -8.663151 -55.689388 -26.191556 -8.775621 0.000000 0.000000 0.000000 22.911761 -4.451155 8.015861 8.849402 2.943966 13.048315 9.704769 -5.903854 -14.361851 -10.126868 3.537822 -3.140657 0.000000 0.000000 0.000000 22.911761 -4.451155 8.015861 6.164634 4.602516 6.052990 -0.479377 -3.224636 5.206460 -4.763563 -1.595134 -4.838952 0.000000 0.000000 0.000000 13.356933 7.803026 7.105682 -11.209339 -4.627599 -8.025769 0.000000 0.000000 0.000000 -0.935491 2.430995 4.663790 -11.377891 5.152549 3.473937 0.000000 0.000000 0.000000
0.113864 0.119480 0.122908 -1.681442 -1.823855 -4.363700 0.000000 0.000000 0.000000 -22.351961 10.844740 -8.413010 -55.901460 -17.777253 -2.648743 0.000000 0.000000 0.000000 24.282193 -4.489953 7.961247 8.017096 1.960587 8.840481 9.921591 1.523276 -7.162726 -7.569389 -2.473420 -6.143882 0.000000 0.000000 0.000000 24.282193 -4.489953 7.961247 5.448937 0.808268 7.321533 1.336807 1.209415 4.544337 -4.735763 -2.106132 -2.897066 0.000000 0.000000 0.000000 14.118652 6.275718 5.383295 -8.614272 -3.217093 -5.930064 0.000000 0.000000 0.000000 2.645306 1.983252 5.716641 -16.843220 7.065923 -0.035380 0.000000 0.000000 0.000000
0.100676 0.121146 0.118540 -1.451921 -0.776763 -1.961205 0.000000 0.000000 0.000000 -22.255519 10.436409 -9.401605 -55.202361 -12.889812 0.912595 0.000000 0.000000 0.000000 24.421448 -4.456755 7.960076 7.121008 3.097427 3.559198 8.965517 5.060062 -0.740229 -6.057484 -5.337900 -6.595155 0.000000 0.000000 0.000000 24.421448 -4.456755 7.960076 5.035629 -1.064718 8.126455 3.103810 5.023175 3.744353 -3.527242 -2.771518 0.084179 0.000000 0.000000 0.000000 12.828823 4.132713 3.622687 -3.593516 -0.986336 -3.379477 0.000000 0.000000 0.000000 0.584054 1.287324 5.498150 -13.337975 6.544054 -1.805557 0.000000 0.000000 0.000000
0.089846 0.130705 0.112982 -1.880049 0.410060 0.785117 0.000000 0.000000 0.000000 -22.185788 11.424211 -9.843720 -54.562459 -10.766601 -0.482959 0.000000 0.000000 0.000000 25.232657 -4.444499 7.943240 6.235938 0.964914 1.719107 8.843998 7.397500 0.708109 -5.269116 -5.939078 -5.274205 0.000000 0.000000 0.000000 25.232657 -4.444499 7.943240 4.764488 -4.636255 9.372600 4.720483 9.317231 2.312704 -3.961321 -3.877288 0.722477 0.000000 0.000000 0.000000 13.432786 2.375823 1.192608 -1.102830 -0.007163 -2.005486 0.000000 0.000000 0.000000 1.089516 0.320114 5.196795 -9.743308 5.485071 -3.421109 0.000000 0.000000 0.000000
0.083836 0.141348 0.109199 -1.019649 1.245959 2.825324 0.000000 0.000000 0.000000 -22.239777 11.040938 -9.496339 -55.254334 -8.332459 -1.708501 0.000000 0.000000 0.000000 24.764425 -4.408261 7.963783 6.284250 -1.337021 1.677077 7.089814 9.161616 -0.854984 -4.745230 -6.349625 -3.633556 0.000000 0.000000 0.000000 24.764425 -4.408261 7.963783 3.619050 -6.843696 9.041976 7.475731 11.678413 1.296942 -4.922577 -4.077817 1.015286 0.000000 0.000000 0.000000 13.000303 1.258635 -0.740556 -1.114166 0.003100 -1.692285 0.000000 0.000000 0.000000 0.117085 -0.124676 6.357141 -5.802616 3.712523 -6.159790 0.000000 0.000000 0.000000
0.081879 0.150912 0.104777 -0.291309 1.491575 3.528686 0.000000 0.000000 0.000000 -22.278119 10.803372 -8.347124 -56.503559 -5.738699 -1.915639 0.000000 0.000000 0.000000 24.194673 -4.393968 7.991298 8.038721 -2.359094 1.096683 3.221145 8.534946 -1.678697 -4.603489 -5.721842 -1.430421 0.000000 0.000000 0.000000 24.194673 -4.393968 7.991298 3.172200 -8.008998 7.886344 8.253901 13.414784 1.252628 -5.211526 -4.615518 1.217848 0.000000 0.000000 0.000000 11.374746 0.649824 -1.267445 -0.587156 0.259645 -1.544976 0.000000 0.000000 0.000000 -2.514086 0.758514 8.795213 -2.598367 1.843541 -9.161164 0.000000 0.000000 0.000000
0.081808 0.158406 0.101118 0.371397 1.536488 3.756778 0.000000 0.000000 0.000000 -22.287819 10.781752 -7.656585 -56.424313 -3.545079 -0.638847 0.000000 0.000000 0.000000 23.616107 -4.392534 8.015169 9.951647 -2.518898 0.364679 1.452223 7.955671 -1.950621 -6.275447 -5.572062 0.406408 0.000000 0.000000 0.000000 23.616107 -4.392534 8.015169 3.619611 -8.569522 6.967597 7.654154 15.670086 1.975875 -5.078613 -6.004355 1.355006 0.000000 0.000000 0.000000 9.990773 0.391139 -1.361076 -0.019925 0.537239 -1.357865 0.000000 0.000000 0.000000 -5.684156 2.029093 10.517929 -0.031377 -0.713290 -12.666573 0.000000 0.000000 0.000000
0.081006 0.162961 0.096599 -0.106044 1.517615 3.623266 0.000000 0.000000 0.000000 -22.247968 11.688172 -6.957339 -55.285066 -3.345568 -1.032286 0.000000 0.000000 0.000000 24.160810 -4.392819 8.040324 10.370284 -3.132466 -0.076218 1.240046 6.603602 -1.911404 -6.489748 -4.549906 0.948087 0.000000 0.000000 0.000000 24.160810 -4.392819 8.040324 3.453175 -9.645036 7.021745 7.345805 17.251947 2.148731 -4.668793 -7.372122 1.431830 0.000000 0.000000 0.000000 9.969411 0.294565 -1.232366 0.816527 0.734755 -1.340967 0.000000 0.000000 0.000000 -3.504089 1.326220 10.303464 -5.298566 2.188508 -12.929105 0.000000 0.000000 0.000000
0.078285 0.167892 0.094021 -1.045547 1.472181 3.349871 0.000000 0.000000 0.000000 -22.242644 11.564016 -6.639125 -53.821200 -3.835413 -1.140435 0.000000 0.000000 0.000000 25.012860 -4.392720 8.035573 10.237659 -2.574028 -0.813854 2.820754 5.716579 -1.844321 -6.901477 -3.811060 0.781492 0.000000 0.000000 0.000000 25.012860 -4.392720 8.035573 3.851083 -9.501399 7.021626 7.083515 16.635981 2.140999 -4.722466 -7.355364 1.132489 0.000000 0.000000 0.000000 9.956944 0.141381 -1.045519 3.111528 1.158309 -1.602564 0.000000 0.000000 0.000000 3.052628 -1.208432 8.387347 -17.112369 9.771903 -10.539409 0.000000 0.000000 0.000000
0.075066 0.173829 0.091965 -2.879688 1.479827 3.052096 0.000000 0.000000 0.000000 -22.256060 11.029767 -6.568712 -51.440070 -5.049586 -1.435359 0.000000 0.000000 0.000000 26.705311 -4.392677 8.015759 9.802162 -1.723110 -1.088331 5.321339 5.436824 -2.196700 -7.566179 -3.105083 0.845575 0.000000 0.000000 0.000000 26.705311 -4.392677 8.015759 4.676382 -9.100103 7.662455 7.326216 15.471689 1.753908 -5.241085 -6.645830 0.696215 0.000000 0.000000 0.000000 10.812446 -0.065872 -0.969204 5.087432 1.435513 -1.952736 0.000000 0.000000 0.000000 4.608546 -1.367384 6.814192 -16.986407 9.610352 -7.993041 0.000000 0.000000 0.000000
0.072679 0.179136 0.088138 -3.557607 1.429001 2.826885 0.000000 0.000000 0.000000 -22.272866 10.385439 -7.326602 -49.726184 -6.676495 -1.259450 0.000000 0.000000 0.000000 27.249365 -4.392632 7.984025 9.650601 -1.024835 0.155037 7.617955 6.115410 -3.508959 -8.377683 -2.766597 1.270747 0.000000 0.000000 0.000000 27.249365 -4.392632 7.984025 5.600631 -8.215993 8.563652 7.698918 13.874784 1.462432 -5.697156 -6.040776 0.259998 0.000000 0.000000 0.000000 12.347344 0.362003 -1.425120 4.834024 1.035811 -2.084917 0.000000 0.000000 0.000000 3.393284 -0.898051 5.129966 -12.266909 7.004359 -6.047016 0.000000 0.000000 0.000000
0.071691 0.184469 0.084031 -2.791249 1.232955 2.508624 0.000000 0.000000 0.000000 -22.268444 10.077888 -7.757010 -49.742886 -8.915318 -2.785015 0.000000 0.000000 0.000000 26.389587 -4.393853 7.973622 8.862499 -1.673816 2.520851 9.594197 5.743987 -6.573072 -9.594441 -1.837211 2.340870 0.000000 0.000000 0.000000 26.389587 -4.393853 7.973622 5.581791 -7.520056 8.844649 7.751002 12.024983 0.960026 -5.863314 -4.818201 0.151145 0.000000 0.000000 0.000000 11.403348 0.854108 -2.393567 3.312612 0.212368 -1.756253 0.000000 0.000000 0.000000 0.209863 -0.147611 2.384991 -2.980054 2.237383 -2.585863 0.000000 0.000000 0.000000
0.071921 0.194643 0.081584 -2.210591 0.879351 1.786725 0.000000 0.000000 0.000000 -22.271120 9.480554 -7.969714 -50.555625 -13.071773 -6.733860 0.000000 0.000000 0.000000 25.645124 -4.396239 7.969310 8.177580 -1.647619 4.462929 11.080133 2.508855 -10.057578 -10.048902 0.522265 1.736338 0.000000 0.000000 0.000000 25.645124 -4.396239 7.969310 6.024226 -6.578731 9.291861 6.530997 9.770380 -0.277647 -5.314528 -3.292366 0.539039 0.000000 0.000000 0.000000 7.965084 1.058903 -4.201171 2.888688 -0.399949 0.055146 0.000000 0.000000 0.000000 1.686994 -0.526964 1.383440 -2.591500 1.534242 -1.432645 0.000000 0.000000 0.000000
0.073161 0.207753 0.080409 -1.623252 0.125604 0.135706 0.000000 0.000000 0.000000 -22.305681 8.284335 -8.499670 -51.319452 -17.059435 -8.262062 0.000000 0.000000 0.000000 24.780397 -4.402101 7.972399 7.095303 0.371249 5.498043 12.473487 -3.301024 -12.390367 -9.781546 4.558269 0.319143 0.000000 0.000000 0.000000 24.780397 -4.402101 7.972399 6.453326 -4.531769 10.747579 5.186548 7.827300 -1.846606 -4.556291 -1.806351 1.066848 0.000000 0.000000 0.000000 5.443784 2.043767 -5.650383 3.308294 -0.455093 3.587433 0.000000 0.000000 0.000000 1.888412 -0.028774 1.736381 -2.475699 1.326235 -0.394622 0.000000 0.000000 0.000000
0.076428 0.221488 0.077279 -1.916086 -1.024288 -2.494918 0.000000 0.000000 0.000000 -22.382927 7.632430 -8.889850 -52.047963 -20.702154 -7.555534 0.000000 0.000000 0.000000 24.892541 -4.403434 8.005573 5.860016 3.394977 5.900644 14.560938 -7.801401 -12.153589 -9.585959 7.139215 -2.504491 0.000000 0.000000 0.000000 24.892541 -4.403434 8.005573 6.867289 -1.866950 12.527663 3.803650 7.050948 -1.938078 -4.166059 -1.655958 0.682128 0.000000 0.000000 0.000000 4.928547 3.474052 -4.616269 5.417050 0.347763 5.272234 0.000000 0.000000 0.000000 1.907563 1.190049 3.320548 -1.440512 0.969626 0.524877 0.000000 0.000000 0.000000
0.081690 0.229249 0.075367 -3.627141 -2.098161 -4.907164 0.000000 0.000000 0.000000 -22.544378 7.396197 -9.676002 -53.466762 -24.374096 -6.360972 0.000000 0.000000 0.000000 26.730607 -4.377781 8.061388 3.457726 6.411132 6.271283 16.576183 -10.528047 -10.084750 -8.350997 8.633681 -6.020630 0.000000 0.000000 0.000000 26.730607 -4.377781 8.061388 6.226570 1.188390 14.369188 3.540713 6.567222 -1.322704 -4.249226 -2.055684 -0.247817 0.000000 0.000000 0.000000 5.114361 4.429622 -3.415187 7.023841 1.279949 6.715002 0.000000 0.000000 0.000000 3.073427 2.412397 4.295354 -0.336248 0.834193 2.132761 0.000000 0.000000 0.000000
0.088896 0.231006 0.075803 -6.226753 -2.855426 -6.466470 0.000000 0.000000 0.000000 -22.689446 8.177858 -10.682364 -54.444976 -27.394327 -5.378256 0.000000 0.000000 0.000000 29.632865 -4.332141 8.105432 0.810530 8.287504 6.841188 18.398316 -11.321923 -7.478193 -7.043309 8.955036 -8.634377 0.000000 0.000000 0.000000 29.632865 -4.332141 8.105432 5.137134 3.387815 16.144175 4.661740 5.729840 -0.324442 -4.849329 -2.391228 -1.157828 0.000000 0.000000 0.000000 4.970520 4.651247 -3.554248 9.450906 2.852485 9.323879 0.000000 0.000000 0.000000 4.988793 3.360637 3.648373 1.069928 0.581112 4.003535 0.000000 0.000000 0.000000
0.096115 0.228682 0.079585 -7.789257 -3.063882 -6.807217 0.000000 0.000000 0.000000 -22.715094 9.344402 -11.306515 -54.402891 -28.795634 -5.402062 0.000000 0.000000 0.000000 31.344484 -4.314547 8.112959 0.663255 8.648602 7.656324 18.516336 -11.259463 -6.821365 -7.036629 7.752847 -10.027482 0.000000 0.000000 0.000000 31.344484 -4.314547 8.112959 5.090670 3.594239 17.455272 5.939046 5.412306 0.264283 -5.798201 -2.490541 -1.756045 0.000000 0.000000 0.000000 8.637176 6.075087 -3.005919 6.326924 1.018388 8.294886 0.000000 0.000000 0.000000 6.455675 3.624331 2.329238 1.869425 0.085100 4.202662 0.000000 0.000000 0.000000
0.102037 0.224191 0.082305 -7.567513 -3.047856 -6.784682 0.000000 0.000000 0.000000 -22.731524 8.758135 -11.067967 -55.708743 -28.719093 -5.775366 0.000000 0.000000 0.000000 31.113336 -4.306442 8.115389 0.996010 9.072435 7.107407 17.450764 -12.673359 -6.776765 -6.138802 8.155803 -12.024543 0.000000 0.000000 0.000000 31.113336 -4.306442 8.115389 5.278680 3.388818 17.710160 7.006492 5.620560 -0.127379 -6.441142 -2.161767 -1.644264 0.000000 0.000000 0.000000 11.069423 6.941695 -1.216009 1.480863 -1.527186 4.831083 0.000000 0.000000 0.000000 6.726732 3.531004 1.980577 2.314524 -0.469987 3.372446 0.000000 0.000000 0.000000
0.105187 0.214954 0.084595 -6.253203 -2.776012 -6.300001 0.000000 0.000000 0.000000 -22.685995 7.747921 -10.872375 -57.603190 -27.361643 -5.601090 0.000000 0.000000 0.000000 29.701123 -4.321884 8.111344 1.403435 8.959958 6.473980 16.333158 -13.485092 -7.083384 -5.936269 7.878088 -12.557372 0.000000 0.000000 0.000000 29.701123 -4.321884 8.111344 5.830198 2.853816 17.406272 7.312180 6.090293 -0.691305 -6.401367 -1.848463 -0.909538 0.000000 0.000000 0.000000 12.369405 6.908738 1.849285 -3.735110 -3.940057 -1.328137 0.000000 0.000000 0.000000 7.434528 2.941828 1.393945 -1.125010 0.027816 3.455906 0.000000 0.000000 0.000000
0.106041 0.205207 0.086870 -4.573412 -2.467949 -5.730215 0.000000 0.000000 0.000000 -22.660799 6.135803 -10.984983 -59.564840 -25.438196 -4.350487 0.000000 0.000000 0.000000 27.997891 -4.316166 8.115948 1.372050 9.376641 5.439268 14.526209 -14.123699 -6.345184 -5.488314 8.064251 -11.331417 0.000000 0.000000 0.000000 27.997891 -4.316166 8.115948 6.529579 3.232136 16.216321 7.663534 6.965467 0.014759 -6.689204 -1.829078 -0.349918 0.000000 0.000000 0.000000 10.798932 5.697862 4.351175 -5.224283 -3.895486 -4.995835 0.000000 0.000000 0.000000 10.783971 2.047139 0.736869 -10.711688 1.286777 2.403830 0.000000 0.000000 0.000000
0.104698 0.199421 0.090850 -4.118405 -2.017551 -4.764861 0.000000 0.000000 0.000000 -22.579472 5.835482 -11.639062 -60.363772 -23.280640 -2.799411 0.000000 0.000000 0.000000 27.545237 -4.322363 8.111924 1.692995 9.230198 5.244135 14.334727 -13.676167 -6.627893 -6.411347 8.005266 -9.055041 0.000000 0.000000 0.000000 27.545237 -4.322363 8.111924 6.345408 3.271278 15.487277 9.703278 7.335437 1.559446 -8.117883 -1.505429 -0.507604 0.000000 0.000000 0.000000 10.378744 4.518807 5.586281 -5.482233 -2.865605 -5.904993 0.000000 0.000000 0.000000 13.593972 1.275559 1.904629 -20.984626 3.300769 -0.540533 0.000000 0.000000 0.000000
0.101895 0.196982 0.094134 -3.596518 -1.515517 -3.660254 0.000000 0.000000 0.000000 -22.486651 6.084326 -11.171272 -62.134409 -19.485330 -1.734138 0.000000 0.000000 0.000000 26.849224 -4.359797 8.082655 2.168951 8.081805 3.983053 12.839974 -10.778688 -5.211116 -5.517488 5.771617 -8.902297 0.000000 0.000000 0.000000 26.849224 -4.359797 8.082655 6.180247 2.520029 13.384668 10.060464 7.985566 3.145867 -8.350328 -2.014128 -0.630711 0.000000 0.000000 0.000000 11.343560 4.180534 5.065122 -6.720557 -2.051738 -3.885337 0.000000 0.000000 0.000000 9.238546 1.016132 4.102288 -14.412795 3.192877 -3.132377 0.000000 0.000000 0.000000
0.099410 0.197077 0.095455 -2.795239 -1.046861 -2.608437 0.000000 0.000000 0.000000 -22.387732 7.078480 -10.099978 -63.614420 -14.771974 -0.739940 0.000000 0.000000 0.000000 25.847388 -4.400478 8.031819 3.368771 6.243618 2.450977 10.491823 -7.166102 -3.325037 -5.430118 2.713662 -7.007500 0.000000 0.000000 0.000000 25.847388 -4.400478 8.031819 5.814838 0.784284 11.294716 9.042690 9.477620 4.149263 -7.298876 -3.889583 -0.742418 0.000000 0.000000 0.000000 10.496639 3.357602 4.476956 -6.107345 -1.481443 -3.349445 0.000000 0.000000 0.000000 7.321916 0.640432 5.617626 -13.394648 3.504700 -5.543729 0.000000 0.000000 0.000000
0.097351 0.200045 0.094794 -2.704145 -0.674099 -1.772596 0.000000 0.000000 0.000000 -22.334349 7.685544 -9.071258 -62.931192 -11.616226 -0.225159 0.000000 0.000000 0.000000 25.675864 -4.409960 7.997584 4.880415 5.041927 1.256674 8.042218 -4.861825 -2.316130 -5.188022 1.235412 -5.470631 0.000000 0.000000 0.000000 25.675864 -4.409960 7.997584 5.573492 -0.826135 10.103044 9.132591 11.382663 4.687647 -7.016480 -5.418470 -0.849096 0.000000 0.000000 0.000000 10.280201 2.687982 4.114853 -5.589046 -1.259025 -3.796279 0.000000 0.000000 0.000000 6.958898 0.273568 6.327353 -12.963810 3.553138 -7.183880 0.000000 0.000000 0.000000
0.095777 0.204256 0.093476 -3.373668 -0.265285 -0.902233 0.000000 0.000000 0.000000 -22.284474 8.513786 -8.829625 -61.298844 -10.152897 -0.275889 0.000000 0.000000 0.000000 26.394603 -4.413704 7.976191 5.753668 3.725835 1.405104 7.312023 -3.984276 -2.956031 -5.011903 1.216211 -5.109399 0.000000 0.000000 0.000000 26.394603 -4.413704 7.976191 5.408823 -2.444645 10.311071 9.748645 12.697851 4.398333 -7.330107 -5.725781 -0.909643 0.000000 0.000000 0.000000 10.856594 2.079664 3.411381 -4.412218 -1.041349 -4.121831 0.000000 0.000000 0.000000 9.830117 -0.726566 4.858497 -17.826570 5.214515 -5.766072 0.000000 0.000000 0.000000
0.094367 0.207851 0.094155 -4.099040 0.135442 -0.072166 0.000000 0.000000 0.000000 -22.287030 8.249094 -9.319176 -59.651411 -10.695656 -0.953111 0.000000 0.000000 0.000000 27.211146 -4.409069 7.978540 5.841288 3.332970 1.977289 8.399144 -4.368567 -4.873315 -5.404451 2.208704 -5.202931 0.000000 0.000000 0.000000 27.211146 -4.409069 7.978540 5.468411 -3.058826 11.146730 10.312922 12.952166 2.998202 -7.395036 -5.226191 -0.586218 0.000000 0.000000 0.000000 11.723752 1.535648 2.788405 -2.561619 -0.574122 -4.276142 0.000000 0.000000 0.000000 14.126630 -2.094301 2.296005 -26.827460 8.201282 -2.677523 0.000000 0.000000 0.000000
0.093915 0.209362 0.094905 -3.908048 0.425114 0.586538 0.000000 0.000000 0.000000 -22.349919 6.651541 -10.680482 -57.664678 -12.070223 -0.611350 0.000000 0.000000 0.000000 27.058985 -4.400227 8.006372 7.203580 3.894332 4.195934 8.844481 -4.268029 -8.789939 -6.446515 3.990534 -3.456804 0.000000 0.000000 0.000000 27.058985 -4.400227 8.006372 6.262071 -1.983258 11.617860 9.799763 13.021925 1.886507 -7.158696 -5.750328 -0.913404 0.000000 0.000000 0.000000 12.467430 1.180082 2.988834 -2.119237 -0.355295 -5.512664 0.000000 0.000000 0.000000 14.028979 -2.552829 0.826184 -26.763849 7.685290 -1.908121 0.000000 0.000000 0.000000
