HIERARCHY
ROOT Hips
{
	OFFSET 0.000000 0.000000 0.000000
	CHANNELS 6 Xposition Yposition Zposition Zrotation Xrotation Yrotation
	JOINT Spine
	{
		OFFSET 0.000000 0.000000 0.100000
		CHANNELS 3 Zrotation Xrotation Yrotation
		JOINT Chest
		{
			OFFSET 0.000000 0.000000 0.150000
			CHANNELS 3 Zrotation Xrotation Yrotation
			JOINT Neck
			{
				OFFSET 0.000000 0.000000 0.100000
				CHANNELS 3 Zrotation Xrotation Yrotation
				JOINT Head
				{
					OFFSET 0.000000 0.000000 0.100000
					CHANNELS 3 Zrotation Xrotation Yrotation
					End Site
					{
						OFFSET 0.0 0.0 0.0
					}
				}
			}
			JOINT LeftShoulder
			{
				OFFSET -0.150000 0.000000 0.000000
				CHANNELS 3 Zrotation Xrotation Yrotation
				JOINT LeftArm
				{
					OFFSET -0.180000 0.000000 0.000000
					CHANNELS 3 Zrotation Xrotation Yrotation
					JOINT LeftForeArm
					{
						OFFSET -0.250000 0.000000 0.000000
						CHANNELS 3 Zrotation Xrotation Yrotation
						JOINT LeftHand
						{
							OFFSET -0.100000 0.000000 0.000000
							CHANNELS 3 Zrotation Xrotation Yrotation
							End Site
							{
								OFFSET 0.0 0.0 0.0
							}
						}
					}
				}
			}
			JOINT RightShoulder
			{
				OFFSET 0.150000 0.000000 0.000000
				CHANNELS 3 Zrotation Xrotation Yrotation
				JOINT RightArm
				{
					OFFSET 0.180000 0.000000 0.000000
					CHANNELS 3 Zrotation Xrotation Yrotation
					JOINT RightForeArm
					{
						OFFSET 0.250000 0.000000 0.000000
						CHANNELS 3 Zrotation Xrotation Yrotation
						JOINT RightHand
						{
							OFFSET 0.100000 0.000000 0.000000
							CHANNELS 3 Zrotation Xrotation Yrotation
							End Site
							{
								OFFSET 0.0 0.0 0.0
							}
						}
					}
				}
			}
		}
	}
	JOINT LeftUpLeg
	{
		OFFSET -0.100000 0.000000 -0.050000
		CHANNELS 3 Zrotation Xrotation Yrotation
		JOINT LeftLeg
		{
			OFFSET 0.000000 0.000000 -0.400000
			CHANNELS 3 Zrotation Xrotation Yrotation
			JOINT LeftFoot
			{
				OFFSET 0.000000 0.050000 -0.400000
				CHANNELS 3 Zrotation Xrotation Yrotation
				JOINT LeftToeBase
				{
					OFFSET 0.000000 0.100000 0.000000
					CHANNELS 3 Zrotation Xrotation Yrotation
					End Site
					{
						OFFSET 0.0 0.0 0.0
					}
				}
			}
		}
	}
	JOINT RightUpLeg
	{
		OFFSET 0.100000 0.000000 -0.050000
		CHANNELS 3 Zrotation Xrotation Yrotation
		JOINT RightLeg
		{
			OFFSET 0.000000 0.000000 -0.400000
			CHANNELS 3 Zrotation Xrotation Yrotation
			JOINT RightFoot
			{
				OFFSET 0.000000 0.050000 -0.400000
				CHANNELS 3 Zrotation Xrotation Yrotation
				JOINT RightToeBase
				{
					OFFSET 0.000000 0.100000 0.000000
					CHANNELS 3 Zrotation Xrotation Yrotation
					End Site
					{
						OFFSET 0.0 0.0 0.0
					}
				}
			}
		}
	}
}
MOTION
Frames: 74
Frame Time: 0.033333
0.090684 0.004494 0.002159 0.000000 0.000000 0.000000 0.000000 -29.541566 1.843963 0.000000 49.628820 -47.268493 0.000000 -55.963019 25.641814 0.000000 0.000000 0.000000 64.967665 0.000000 -38.400514 19.620952 0.000000 -86.940695 -0.451298 0.000000 -105.263226 0.000000 0.000000 0.000000 8.211002 0.000000 -81.053007 -49.016822 0.000000 -53.114116 -62.705693 0.000000 -26.563109 0.000000 0.000000 0.000000 8.494609 113.009933 0.000000 17.564985 -111.639128 0.000000 -22.758210 85.951648 0.000000 0.000000 0.000000 0.000000 -11.259078 -113.469232 0.000000 -9.987278 -100.715346 0.000000 -34.708375 75.667807 0.000000 0.000000 0.000000 0.000000
0.090633 0.004910 0.002526 0.000000 0.000000 0.000000 0.000000 -34.083601 1.767916 0.000000 57.270849 -53.490678 0.000000 -64.206279 29.907224 0.000000 0.000000 0.000000 61.433275 0.000000 -44.397632 9.594962 0.000000 -98.949568 -14.593762 0.000000 -121.104468 0.000000 0.000000 0.000000 22.886880 0.000000 -93.291717 -41.761604 0.000000 -61.859216 -58.263894 0.000000 -31.095399 0.000000 0.000000 0.000000 9.823067 129.358964 0.000000 20.697373 -128.219626 0.000000 -25.837331 98.529803 0.000000 0.000000 0.000000 0.000000 -13.060626 -129.819584 0.000000 -11.340795 -115.512786 0.000000 -38.771983 87.143563 0.000000 0.000000 0.000000 0.000000
0.090514 0.005623 0.002923 0.000000 0.000000 0.000000 0.000000 -37.724000 1.509539 0.000000 64.043964 -58.153040 0.000000 -70.809562 34.087313 0.000000 0.000000 0.000000 58.369235 0.000000 -49.591497 0.299474 0.000000 -109.269270 -26.732585 0.000000 -134.081431 0.000000 0.000000 0.000000 35.058819 0.000000 -102.827726 -36.082726 0.000000 -69.869802 -54.751831 0.000000 -35.339128 0.000000 0.000000 0.000000 11.001743 142.995357 0.000000 23.527128 -141.956435 0.000000 -28.002954 109.062947 0.000000 0.000000 0.000000 0.000000 -14.781526 -144.034522 0.000000 -12.003426 -128.205847 0.000000 -42.307439 97.534530 0.000000 0.000000 0.000000 0.000000
0.089893 0.007199 0.003351 0.000000 0.000000 0.000000 0.000000 -40.371597 1.098452 0.000000 69.745380 -60.976236 0.000000 -75.398282 38.643422 0.000000 0.000000 0.000000 55.811345 0.000000 -54.400957 -7.972275 0.000000 -119.164274 -36.663000 0.000000 -115.307608 0.000000 0.000000 0.000000 44.480337 0.000000 -109.280508 -32.014920 0.000000 -77.091736 -52.719940 0.000000 -38.775256 0.000000 0.000000 0.000000 11.961754 153.616819 0.000000 26.075621 -152.655790 0.000000 -29.790977 117.688900 0.000000 0.000000 0.000000 0.000000 -16.310504 -155.338973 0.000000 -11.740140 -138.327624 0.000000 -45.434100 106.736403 0.000000 0.000000 0.000000 0.000000
0.088411 0.010136 0.003849 0.000000 0.000000 0.000000 0.000000 -43.750961 0.587366 0.000000 77.683507 -64.482904 0.000000 -81.363774 45.356798 0.000000 0.000000 0.000000 52.333193 0.000000 -60.790534 -19.300323 0.000000 -134.769937 -49.666787 0.000000 -114.183447 0.000000 0.000000 0.000000 57.438836 0.000000 -117.818237 -26.936394 0.000000 -87.051366 -50.222691 0.000000 -43.652312 0.000000 0.000000 0.000000 13.117919 167.973777 0.000000 29.623690 -168.005902 0.000000 -32.382226 130.060240 0.000000 0.000000 0.000000 0.000000 -18.129478 -170.344844 0.000000 -11.339073 -152.456322 0.000000 -50.738002 120.764084 0.000000 0.000000 0.000000 0.000000
0.086075 0.014292 0.004249 0.000000 0.000000 0.000000 0.000000 -43.198055 -0.189252 0.000000 79.544642 -61.243146 0.000000 -79.747797 49.838083 0.000000 0.000000 0.000000 52.009142 0.000000 -62.396732 -21.558945 0.000000 -141.122724 -50.789225 0.000000 -102.494081 0.000000 0.000000 0.000000 58.006714 0.000000 -116.216574 -27.324261 0.000000 -90.399223 -51.341953 0.000000 -45.493847 0.000000 0.000000 0.000000 12.970685 167.747022 0.000000 31.032416 -169.682143 0.000000 -33.189035 131.662866 0.000000 0.000000 0.000000 0.000000 -18.357194 -170.730860 0.000000 -9.392925 -153.970641 0.000000 -52.615397 126.265251 0.000000 0.000000 0.000000 0.000000
0.083114 0.019380 0.004484 0.000000 0.000000 0.000000 0.000000 -42.392156 -0.741920 0.000000 81.300988 -58.139749 0.000000 -78.128326 54.418284 0.000000 0.000000 0.000000 51.714970 0.000000 -63.699978 -23.355010 0.000000 -148.315672 -50.802767 0.000000 -99.977835 0.000000 0.000000 0.000000 58.388596 0.000000 -114.519231 -28.424274 0.000000 -93.600886 -52.789720 0.000000 -47.218089 0.000000 0.000000 0.000000 12.596150 167.552138 0.000000 32.011853 -171.347685 0.000000 -35.357821 133.651717 0.000000 0.000000 0.000000 0.000000 -18.378618 -170.904361 0.000000 -7.544369 -155.464688 0.000000 -55.618616 132.251563 0.000000 0.000000 0.000000 0.000000
0.079983 0.024552 0.004561 0.000000 0.000000 0.000000 0.000000 -41.691649 -0.966022 0.000000 82.856183 -55.409134 0.000000 -77.030342 58.279583 0.000000 0.000000 0.000000 51.379328 0.000000 -64.118106 -22.448389 0.000000 -154.792356 -49.018690 0.000000 -108.309908 0.000000 0.000000 0.000000 58.323067 0.000000 -114.168062 -29.114621 0.000000 -95.869282 -53.263048 0.000000 -48.787782 0.000000 0.000000 0.000000 12.020056 167.122665 0.000000 32.541475 -173.317950 0.000000 -37.950357 135.135860 0.000000 0.000000 0.000000 0.000000 -18.219965 -170.907057 0.000000 -6.133418 -156.822313 0.000000 -58.996392 137.503592 0.000000 0.000000 0.000000 0.000000
0.077159 0.029132 0.004548 0.000000 0.000000 0.000000 0.000000 -41.493464 -0.734733 0.000000 83.946425 -53.891600 0.000000 -76.921660 60.620587 0.000000 0.000000 0.000000 51.224049 0.000000 -63.505539 -19.003431 0.000000 -158.896425 -45.715456 0.000000 -123.091080 0.000000 0.000000 0.000000 58.013800 0.000000 -115.082572 -28.364267 0.000000 -97.213558 -52.612929 0.000000 -50.284929 0.000000 0.000000 0.000000 11.428724 166.635266 0.000000 32.592697 -174.884224 0.000000 -39.802330 135.772311 0.000000 0.000000 0.000000 0.000000 -17.795107 -170.631907 0.000000 -5.320315 -157.837485 0.000000 -61.780707 140.859074 0.000000 0.000000 0.000000 0.000000
0.075092 0.032267 0.004516 0.000000 0.000000 0.000000 0.000000 -41.695356 -0.115013 0.000000 84.451350 -53.842857 0.000000 -77.903828 61.081254 0.000000 0.000000 0.000000 51.211094 0.000000 -61.265796 -13.326916 0.000000 -159.545417 -41.749401 0.000000 -139.160873 0.000000 0.000000 0.000000 57.724940 0.000000 -117.346759 -25.956216 0.000000 -97.249796 -51.027850 0.000000 -51.564527 0.000000 0.000000 0.000000 11.079427 166.131552 0.000000 32.137534 -175.868638 0.000000 -40.002919 136.072438 0.000000 0.000000 0.000000 0.000000 -17.150085 -170.043511 0.000000 -5.302407 -158.196818 0.000000 -63.461692 142.313372 0.000000 0.000000 0.000000 0.000000
0.074467 0.033028 0.004458 0.000000 0.000000 0.000000 0.000000 -42.297494 0.754648 0.000000 84.420797 -55.652862 0.000000 -79.741986 59.000768 0.000000 0.000000 0.000000 51.248816 0.000000 -57.847870 -7.312525 0.000000 -155.304667 -38.112088 0.000000 -165.160882 0.000000 0.000000 0.000000 57.340979 0.000000 -119.767078 -23.223192 0.000000 -96.167530 -48.696870 0.000000 -52.140024 0.000000 0.000000 0.000000 11.028384 165.585011 0.000000 31.200120 -175.643635 0.000000 -37.963250 135.680616 0.000000 0.000000 0.000000 0.000000 -16.494399 -169.958675 0.000000 -5.796600 -158.107008 0.000000 -63.761928 141.140724 0.000000 0.000000 0.000000 0.000000
0.075097 0.031405 0.004394 0.000000 0.000000 0.000000 0.000000 -43.068715 1.678235 0.000000 83.601384 -58.773229 0.000000 -81.570208 55.104500 0.000000 0.000000 0.000000 50.880151 0.000000 -54.847494 -4.042593 0.000000 -148.531226 -36.196922 0.000000 -160.336558 0.000000 0.000000 0.000000 56.804572 0.000000 -120.430075 -21.139329 0.000000 -93.034625 -46.759087 0.000000 -51.394934 0.000000 0.000000 0.000000 11.417705 165.496118 0.000000 29.849128 -174.329822 0.000000 -34.060132 134.787269 0.000000 0.000000 0.000000 0.000000 -15.962350 -170.316519 0.000000 -6.272091 -157.571841 0.000000 -62.839249 137.695236 0.000000 0.000000 0.000000 0.000000
0.076678 0.026600 0.004291 0.000000 0.000000 0.000000 0.000000 -43.756486 2.460755 0.000000 80.267875 -62.985774 0.000000 -82.936883 49.171611 0.000000 0.000000 0.000000 50.020996 0.000000 -52.693283 -4.933785 0.000000 -140.576943 -36.957667 0.000000 -156.002274 0.000000 0.000000 0.000000 55.806513 0.000000 -117.631950 -20.711914 0.000000 -88.291624 -45.718582 0.000000 -49.477281 0.000000 0.000000 0.000000 12.032142 165.473194 0.000000 28.403661 -172.981990 0.000000 -28.555604 133.882863 0.000000 0.000000 0.000000 0.000000 -15.263878 -170.356324 0.000000 -6.810094 -156.664342 0.000000 -61.154877 133.400223 0.000000 0.000000 0.000000 0.000000
0.078906 0.018883 0.004173 0.000000 0.000000 0.000000 0.000000 -44.153742 2.826663 0.000000 73.945939 -66.810306 0.000000 -83.265626 42.081226 0.000000 0.000000 0.000000 48.544800 0.000000 -51.823257 -9.932669 0.000000 -132.030689 -40.716592 0.000000 -153.317001 0.000000 0.000000 0.000000 54.531099 0.000000 -111.773805 -22.049015 0.000000 -81.857934 -45.904410 0.000000 -45.727144 0.000000 0.000000 0.000000 12.712832 165.704878 0.000000 27.062653 -171.682545 0.000000 -23.029094 133.665566 0.000000 0.000000 0.000000 0.000000 -14.464442 -170.434639 0.000000 -7.525759 -155.116224 0.000000 -58.889576 129.084141 0.000000 0.000000 0.000000 0.000000
0.081467 0.009351 0.004042 0.000000 0.000000 0.000000 0.000000 -44.282841 2.650242 0.000000 65.590575 -69.890954 0.000000 -82.803888 34.788640 0.000000 0.000000 0.000000 46.540127 0.000000 -52.455276 -18.625810 0.000000 -123.026279 -46.841388 0.000000 -151.829400 0.000000 0.000000 0.000000 52.948907 0.000000 -102.953890 -25.034304 0.000000 -74.899089 -47.442225 0.000000 -41.227863 0.000000 0.000000 0.000000 13.325221 166.280454 0.000000 25.741979 -170.373226 0.000000 -18.637304 134.102521 0.000000 0.000000 0.000000 0.000000 -13.654729 -170.511300 0.000000 -8.497211 -153.066832 0.000000 -56.078295 124.988288 0.000000 0.000000 0.000000 0.000000
0.084241 -0.000660 0.003911 0.000000 0.000000 0.000000 0.000000 -44.122905 2.027008 0.000000 56.548518 -71.858173 0.000000 -81.855394 28.880496 0.000000 0.000000 0.000000 44.707136 0.000000 -53.612555 -25.601690 0.000000 -114.818119 -51.494119 0.000000 -150.423975 0.000000 0.000000 0.000000 51.393395 0.000000 -93.979989 -29.130816 0.000000 -68.738831 -49.392181 0.000000 -36.424556 0.000000 0.000000 0.000000 13.688374 166.891814 0.000000 24.577066 -169.410162 0.000000 -16.114360 134.850996 0.000000 0.000000 0.000000 0.000000 -13.158760 -170.639463 0.000000 -9.699654 -150.758303 0.000000 -52.655184 121.784279 0.000000 0.000000 0.000000 0.000000
0.086867 -0.009464 0.003794 0.000000 0.000000 0.000000 0.000000 -43.929985 1.222732 0.000000 48.774405 -72.981373 0.000000 -81.042499 24.505843 0.000000 0.000000 0.000000 43.729440 0.000000 -55.138536 -30.370032 0.000000 -108.145930 -54.509209 0.000000 -149.027829 0.000000 0.000000 0.000000 50.314419 0.000000 -87.101765 -32.576679 0.000000 -63.971864 -51.333437 0.000000 -33.153715 0.000000 0.000000 0.000000 13.775130 167.534252 0.000000 23.756389 -168.302697 0.000000 -15.408004 135.938343 0.000000 0.000000 0.000000 0.000000 -13.013143 -170.905614 0.000000 -10.945629 -148.777316 0.000000 -49.176764 119.272432 0.000000 0.000000 0.000000 0.000000
0.088978 -0.015084 0.003711 0.000000 0.000000 0.000000 0.000000 -43.760367 0.522368 0.000000 44.810302 -73.038727 0.000000 -80.401840 23.183769 0.000000 0.000000 0.000000 43.520909 0.000000 -57.277005 -32.060873 0.000000 -105.866327 -55.023224 0.000000 -149.283983 0.000000 0.000000 0.000000 49.986666 0.000000 -84.633770 -34.450331 0.000000 -61.578188 -52.453212 0.000000 -31.472530 0.000000 0.000000 0.000000 13.565936 168.176385 0.000000 23.419559 -167.244717 0.000000 -16.372341 137.403198 0.000000 0.000000 0.000000 0.000000 -13.999555 -171.696889 0.000000 -11.727118 -147.919549 0.000000 -46.007821 118.224531 0.000000 0.000000 0.000000 0.000000
0.081627 -0.015200 0.004153 0.000000 0.000000 0.000000 0.000000 -43.655313 -1.047644 0.000000 45.582686 -62.299812 0.000000 -75.409417 20.603877 0.000000 0.000000 0.000000 44.658623 0.000000 -39.197204 -30.283137 0.000000 -89.290542 -54.248248 0.000000 -132.236590 0.000000 0.000000 0.000000 50.924507 0.000000 -81.625636 -35.218409 0.000000 -67.494092 -54.955574 0.000000 -33.233408 0.000000 0.000000 0.000000 14.089212 138.627984 0.000000 24.088881 -166.188095 0.000000 -19.146287 114.167970 0.000000 0.000000 0.000000 0.000000 -16.992342 -171.076637 0.000000 -11.734762 -149.166327 0.000000 -45.090301 93.212004 0.000000 0.000000 0.000000 0.000000
0.069153 -0.009848 0.004845 0.000000 0.000000 0.000000 0.000000 -43.519556 -2.140221 0.000000 51.355611 -49.863430 0.000000 -68.738975 22.005644 0.000000 0.000000 0.000000 47.397919 0.000000 -31.696697 -31.604016 0.000000 -57.772730 -55.135319 0.000000 -109.176392 0.000000 0.000000 0.000000 52.826544 0.000000 -84.433118 -34.835891 0.000000 -74.960659 -56.560233 0.000000 -36.015193 0.000000 0.000000 0.000000 15.030203 121.459059 0.000000 25.485977 -165.940976 0.000000 -23.742536 101.284395 0.000000 0.000000 0.000000 0.000000 -20.979909 -170.095516 0.000000 -10.881758 -151.727271 0.000000 -45.798169 82.753794 0.000000 0.000000 0.000000 0.000000
0.053452 -0.000949 0.005684 0.000000 0.000000 0.000000 0.000000 -43.290296 -2.510851 0.000000 59.721605 -38.411676 0.000000 -62.309364 25.957172 0.000000 0.000000 0.000000 50.411597 0.000000 -24.226533 -32.625520 0.000000 -41.985084 -56.685025 0.000000 -93.285573 0.000000 0.000000 0.000000 55.043325 0.000000 -89.419500 -33.974201 0.000000 -83.639483 -57.563522 0.000000 -40.197572 0.000000 0.000000 0.000000 16.134283 106.024198 0.000000 27.402613 -166.798700 0.000000 -28.761467 89.278431 0.000000 0.000000 0.000000 0.000000 -25.284732 -168.373641 0.000000 -9.331185 -155.106423 0.000000 -48.165485 75.826297 0.000000 0.000000 0.000000 0.000000
0.037746 0.009274 0.006532 0.000000 0.000000 0.000000 0.000000 -42.948175 -2.116735 0.000000 68.008207 -30.064726 0.000000 -57.917078 31.222534 0.000000 0.000000 0.000000 52.881836 0.000000 -21.398836 -32.896119 0.000000 -34.979300 -59.192192 0.000000 -82.339487 0.000000 0.000000 0.000000 57.044082 0.000000 -95.590991 -32.900995 0.000000 -91.369103 -58.216978 0.000000 -43.151010 0.000000 0.000000 0.000000 17.202956 98.991869 0.000000 29.409094 -168.880824 0.000000 -33.511599 83.885445 0.000000 0.000000 0.000000 0.000000 -28.949448 -166.462379 0.000000 -7.469922 -158.278017 0.000000 -51.776209 77.358527 0.000000 0.000000 0.000000 0.000000
0.025693 0.018669 0.007205 0.000000 0.000000 0.000000 0.000000 -42.516608 -1.023126 0.000000 74.925335 -27.089026 0.000000 -56.640946 37.501386 0.000000 0.000000 0.000000 54.198071 0.000000 -24.579937 -32.003283 0.000000 -42.336331 -61.776080 0.000000 -83.151330 0.000000 0.000000 0.000000 58.351133 0.000000 -101.697496 -30.949105 0.000000 -96.408624 -58.243161 0.000000 -45.081949 0.000000 0.000000 0.000000 17.977050 103.724375 0.000000 31.102763 -171.379024 0.000000 -37.570706 87.867638 0.000000 0.000000 0.000000 0.000000 -31.145491 -164.929934 0.000000 -5.780650 -160.467126 0.000000 -55.570200 88.278338 0.000000 0.000000 0.000000 0.000000
0.020175 0.025876 0.007592 0.000000 0.000000 0.000000 0.000000 -42.110555 0.557842 0.000000 79.756268 -29.973531 0.000000 -58.935296 44.224884 0.000000 0.000000 0.000000 54.447684 0.000000 -31.291642 -27.166236 0.000000 -63.185686 -60.745156 0.000000 -94.191418 0.000000 0.000000 0.000000 59.266043 0.000000 -107.654263 -28.297475 0.000000 -99.208182 -56.892389 0.000000 -45.654715 0.000000 0.000000 0.000000 18.266502 117.398826 0.000000 32.059691 -174.023093 0.000000 -40.298863 98.376791 0.000000 0.000000 0.000000 0.000000 -31.477769 -164.094311 0.000000 -4.621093 -161.069056 0.000000 -58.370032 105.016848 0.000000 0.000000 0.000000 0.000000
0.021657 0.030019 0.007669 0.000000 0.000000 0.000000 0.000000 -41.894915 2.197835 0.000000 82.131333 -37.160483 0.000000 -64.077399 49.146305 0.000000 0.000000 0.000000 54.145795 0.000000 -37.613273 -19.746010 0.000000 -88.946642 -56.978703 0.000000 -109.718918 0.000000 0.000000 0.000000 59.885341 0.000000 -113.236094 -24.874888 0.000000 -99.081601 -54.636464 0.000000 -46.243071 0.000000 0.000000 0.000000 18.216863 133.726964 0.000000 32.172114 -175.845674 0.000000 -39.827239 110.054970 0.000000 0.000000 0.000000 0.000000 -29.437459 -163.577146 0.000000 -4.327856 -159.878191 0.000000 -60.022627 121.110235 0.000000 0.000000 0.000000 0.000000
0.032878 0.030608 0.007181 0.000000 0.000000 0.000000 0.000000 -42.093263 4.151681 0.000000 82.908033 -51.181776 0.000000 -72.641809 53.772776 0.000000 0.000000 0.000000 53.145778 0.000000 -52.995749 -12.334007 0.000000 -120.777012 -51.570436 0.000000 -134.556815 0.000000 0.000000 0.000000 59.924872 0.000000 -120.147113 -21.342051 0.000000 -94.703949 -51.202706 0.000000 -45.943205 0.000000 0.000000 0.000000 17.480168 163.041553 0.000000 31.371928 -176.428843 0.000000 -36.606273 131.785843 0.000000 0.000000 0.000000 0.000000 -25.747033 -164.610994 0.000000 -4.580604 -157.422987 0.000000 -59.747368 144.937907 0.000000 0.000000 0.000000 0.000000
0.044062 0.028529 0.006619 0.000000 0.000000 0.000000 0.000000 -42.657403 4.961328 0.000000 82.172832 -59.251019 0.000000 -78.670860 52.488877 0.000000 0.000000 0.000000 51.638316 0.000000 -48.721057 -5.634315 0.000000 -142.599565 -45.777092 0.000000 -148.003587 0.000000 0.000000 0.000000 59.494550 0.000000 -120.162535 -19.048957 0.000000 -92.644393 -49.509246 0.000000 -45.987336 0.000000 0.000000 0.000000 16.989400 162.963169 0.000000 30.328985 -175.612849 0.000000 -30.750122 129.053294 0.000000 0.000000 0.000000 0.000000 -22.087683 -164.891638 0.000000 -5.099444 -155.180066 0.000000 -59.572046 141.058690 0.000000 0.000000 0.000000 0.000000
0.054338 0.023892 0.005897 0.000000 0.000000 0.000000 0.000000 -43.358215 5.098733 0.000000 79.014692 -64.444237 0.000000 -81.537997 47.911315 0.000000 0.000000 0.000000 50.120716 0.000000 -48.393284 -6.731039 0.000000 -135.473017 -43.667046 0.000000 -147.092898 0.000000 0.000000 0.000000 58.151705 0.000000 -117.427763 -19.022829 0.000000 -88.753837 -48.594523 0.000000 -45.123361 0.000000 0.000000 0.000000 16.863527 163.689081 0.000000 29.153189 -174.107601 0.000000 -23.387091 127.998185 0.000000 0.000000 0.000000 0.000000 -18.637117 -164.904271 0.000000 -5.676984 -153.091540 0.000000 -58.686781 137.311151 0.000000 0.000000 0.000000 0.000000
0.063788 0.016550 0.005031 0.000000 0.000000 0.000000 0.000000 -43.995569 4.898777 0.000000 72.462584 -68.409593 0.000000 -82.215750 41.980474 0.000000 0.000000 0.000000 48.069837 0.000000 -49.358093 -12.445824 0.000000 -127.759424 -43.886957 0.000000 -148.141862 0.000000 0.000000 0.000000 55.622268 0.000000 -111.331568 -21.419539 0.000000 -83.285683 -48.269403 0.000000 -44.618797 0.000000 0.000000 0.000000 16.870378 164.522394 0.000000 28.029874 -172.529723 0.000000 -15.565727 127.923639 0.000000 0.000000 0.000000 0.000000 -15.746538 -165.306150 0.000000 -6.415592 -150.830120 0.000000 -57.088788 133.887182 0.000000 0.000000 0.000000 0.000000
0.072234 0.007392 0.004136 0.000000 0.000000 0.000000 0.000000 -44.489843 4.352050 0.000000 63.777980 -71.425056 0.000000 -81.984672 34.936513 0.000000 0.000000 0.000000 45.178447 0.000000 -51.121792 -20.318732 0.000000 -120.190857 -46.264819 0.000000 -148.294162 0.000000 0.000000 0.000000 52.456758 0.000000 -103.126197 -25.501129 0.000000 -76.611253 -48.580781 0.000000 -43.079416 0.000000 0.000000 0.000000 16.907983 165.222956 0.000000 26.941200 -171.313318 0.000000 -8.574406 128.894772 0.000000 0.000000 0.000000 0.000000 -13.592025 -166.016444 0.000000 -7.319446 -148.634852 0.000000 -55.010422 130.664772 0.000000 0.000000 0.000000 0.000000
0.079186 -0.002468 0.003337 0.000000 0.000000 0.000000 0.000000 -44.734676 3.427734 0.000000 53.915253 -73.180355 0.000000 -81.165412 28.035967 0.000000 0.000000 0.000000 41.908109 0.000000 -53.104191 -28.097560 0.000000 -114.146682 -49.948066 0.000000 -149.654597 0.000000 0.000000 0.000000 49.377500 0.000000 -93.803432 -29.832780 0.000000 -69.876251 -49.604633 0.000000 -40.598071 0.000000 0.000000 0.000000 16.911300 165.921468 0.000000 25.967864 -169.996223 0.000000 -3.736178 131.217294 0.000000 0.000000 0.000000 0.000000 -12.375447 -167.297134 0.000000 -8.318310 -146.673376 0.000000 -52.196612 127.554925 0.000000 0.000000 0.000000 0.000000
0.084393 -0.011533 0.002737 0.000000 0.000000 0.000000 0.000000 -44.688471 2.221355 0.000000 44.892551 -73.575579 0.000000 -79.904532 22.519386 0.000000 0.000000 0.000000 39.685226 0.000000 -54.879395 -34.583052 0.000000 -109.754625 -53.888309 0.000000 -151.459855 0.000000 0.000000 0.000000 47.232416 0.000000 -85.432664 -32.936008 0.000000 -64.715419 -50.271246 0.000000 -37.893051 0.000000 0.000000 0.000000 16.884464 166.662944 0.000000 25.030750 -168.394732 0.000000 -1.844634 134.689465 0.000000 0.000000 0.000000 0.000000 -12.027877 -169.003596 0.000000 -9.482500 -145.166475 0.000000 -48.751469 124.744727 0.000000 0.000000 0.000000 0.000000
0.088352 -0.018709 0.002399 0.000000 0.000000 0.000000 0.000000 -44.428740 0.949727 0.000000 38.135340 -73.166737 0.000000 -78.867320 18.782680 0.000000 0.000000 0.000000 39.241220 0.000000 -56.090657 -38.291639 0.000000 -106.612499 -56.527099 0.000000 -151.601809 0.000000 0.000000 0.000000 46.344066 0.000000 -81.982754 -33.747850 0.000000 -61.086369 -49.468708 0.000000 -35.030935 0.000000 0.000000 0.000000 16.806524 167.329193 0.000000 24.167695 -166.712581 0.000000 -1.919012 138.326759 0.000000 0.000000 0.000000 0.000000 -12.210654 -170.892592 0.000000 -10.707082 -143.931592 0.000000 -45.353732 122.959887 0.000000 0.000000 0.000000 0.000000
0.090951 -0.022783 0.002309 0.000000 0.000000 0.000000 0.000000 -44.105670 -0.195135 0.000000 35.416175 -72.328473 0.000000 -78.292618 17.460160 0.000000 0.000000 0.000000 40.389378 0.000000 -57.016384 -38.592728 0.000000 -104.453501 -58.043433 0.000000 -150.352261 0.000000 0.000000 0.000000 47.037758 0.000000 -84.167109 -32.787447 0.000000 -60.435854 -48.392834 0.000000 -33.457874 0.000000 0.000000 0.000000 16.677536 167.932508 0.000000 23.459845 -165.045728 0.000000 -3.932099 141.710488 0.000000 0.000000 0.000000 0.000000 -12.943807 -172.813254 0.000000 -11.687906 -143.578376 0.000000 -42.684417 121.801668 0.000000 0.000000 0.000000 0.000000
0.092607 -0.023391 0.002391 0.000000 0.000000 0.000000 0.000000 -43.895740 -0.973799 0.000000 37.450062 -71.464985 0.000000 -78.390636 19.075380 0.000000 0.000000 0.000000 42.782201 0.000000 -57.889245 -36.903422 0.000000 -103.167178 -58.658421 0.000000 -147.493191 0.000000 0.000000 0.000000 48.953357 0.000000 -90.539427 -30.446784 0.000000 -62.843507 -47.227644 0.000000 -32.828045 0.000000 0.000000 0.000000 16.395613 168.244464 0.000000 23.032878 -163.553363 0.000000 -7.279459 144.161093 0.000000 0.000000 0.000000 0.000000 -13.939109 -174.460874 0.000000 -12.113846 -144.176568 0.000000 -41.822610 122.012495 0.000000 0.000000 0.000000 0.000000
0.093015 -0.019932 0.002533 0.000000 0.000000 0.000000 0.000000 -43.802177 -1.301331 0.000000 43.657092 -70.589867 0.000000 -78.858458 22.931535 0.000000 0.000000 0.000000 45.482515 0.000000 -59.358188 -35.016420 0.000000 -103.438196 -59.208521 0.000000 -142.759037 0.000000 0.000000 0.000000 51.385447 0.000000 -99.196849 -27.656575 0.000000 -66.417789 -46.131832 0.000000 -32.768239 0.000000 0.000000 0.000000 15.810890 168.438234 0.000000 23.114036 -162.697872 0.000000 -11.693040 145.037977 0.000000 0.000000 0.000000 0.000000 -15.137340 -174.971464 0.000000 -11.638583 -146.265153 0.000000 -42.701257 122.207981 0.000000 0.000000 0.000000 0.000000
0.092015 -0.012917 0.002673 0.000000 0.000000 0.000000 0.000000 -43.571500 -1.324260 0.000000 51.832373 -68.919800 0.000000 -79.523618 28.721940 0.000000 0.000000 0.000000 47.715570 0.000000 -61.373378 -33.039505 0.000000 -106.235089 -59.627746 0.000000 -141.927944 0.000000 0.000000 0.000000 53.749348 0.000000 -106.872229 -26.412879 0.000000 -71.377319 -46.376032 0.000000 -35.380905 0.000000 0.000000 0.000000 15.150998 168.397945 0.000000 23.751272 -163.204438 0.000000 -16.628945 144.688174 0.000000 0.000000 0.000000 0.000000 -16.126278 -174.267519 0.000000 -10.509843 -148.773822 0.000000 -45.394999 123.917893 0.000000 0.000000 0.000000 0.000000
0.089795 -0.003222 0.002783 0.000000 0.000000 0.000000 0.000000 -43.218942 -1.129761 0.000000 60.907877 -66.141287 0.000000 -79.826186 36.300087 0.000000 0.000000 0.000000 49.195383 0.000000 -63.673113 -30.956222 0.000000 -112.861779 -59.072622 0.000000 -113.743311 0.000000 0.000000 0.000000 55.900403 0.000000 -112.229363 -26.294673 0.000000 -76.960559 -47.740633 0.000000 -39.939335 0.000000 0.000000 0.000000 14.428221 168.086017 0.000000 25.000160 -164.886683 0.000000 -21.721095 143.695040 0.000000 0.000000 0.000000 0.000000 -16.782093 -172.560050 0.000000 -9.057559 -151.287560 0.000000 -49.239769 127.089142 0.000000 0.000000 0.000000 0.000000
0.086683 0.007731 0.002861 0.000000 0.000000 0.000000 0.000000 -42.758114 -0.834626 0.000000 69.359657 -62.316720 0.000000 -79.745165 44.907296 0.000000 0.000000 0.000000 49.750295 0.000000 -65.883734 -28.856469 0.000000 -123.112850 -57.402720 0.000000 -102.318627 0.000000 0.000000 0.000000 57.698254 0.000000 -115.153220 -26.596723 0.000000 -82.734549 -49.816036 0.000000 -44.970688 0.000000 0.000000 0.000000 13.684565 167.732248 0.000000 26.726927 -167.189977 0.000000 -26.554724 142.886679 0.000000 0.000000 0.000000 0.000000 -17.045156 -170.419436 0.000000 -7.508886 -153.337843 0.000000 -53.189969 130.622213 0.000000 0.000000 0.000000 0.000000
0.083142 0.018200 0.002891 0.000000 0.000000 0.000000 0.000000 -42.404223 -0.316905 0.000000 76.410904 -58.491942 0.000000 -79.720883 52.626388 0.000000 0.000000 0.000000 50.016667 0.000000 -67.355575 -27.058237 0.000000 -134.984434 -55.250048 0.000000 -95.011272 0.000000 0.000000 0.000000 59.260486 0.000000 -115.962296 -26.332717 0.000000 -88.155842 -51.238349 0.000000 -49.736902 0.000000 0.000000 0.000000 12.992717 167.448058 0.000000 28.662171 -169.333604 0.000000 -29.982500 142.960775 0.000000 0.000000 0.000000 0.000000 -16.599728 -167.910333 0.000000 -6.374432 -154.939498 0.000000 -56.512195 133.540074 0.000000 0.000000 0.000000 0.000000
0.079825 0.026572 0.002809 0.000000 0.000000 0.000000 0.000000 -42.160564 0.605898 0.000000 81.210987 -55.520444 0.000000 -79.960480 58.251931 0.000000 0.000000 0.000000 50.272291 0.000000 -67.486178 -23.482185 0.000000 -146.815482 -51.399648 0.000000 -95.647097 0.000000 0.000000 0.000000 60.200655 0.000000 -116.258770 -24.932365 0.000000 -91.474232 -51.354728 0.000000 -52.823806 0.000000 0.000000 0.000000 12.496532 167.214279 0.000000 30.179243 -171.083111 0.000000 -31.324649 143.287684 0.000000 0.000000 0.000000 0.000000 -15.718619 -165.691341 0.000000 -5.784543 -155.999091 0.000000 -58.679848 135.530035 0.000000 0.000000 0.000000 0.000000
0.077304 0.031887 0.002595 0.000000 0.000000 0.000000 0.000000 -42.100814 2.008525 0.000000 83.952911 -54.117329 0.000000 -80.612007 61.082108 0.000000 0.000000 0.000000 50.912345 0.000000 -65.219160 -17.485965 0.000000 -155.857478 -46.208831 0.000000 -105.337695 0.000000 0.000000 0.000000 60.596348 0.000000 -117.443447 -22.803549 0.000000 -92.997184 -50.202761 0.000000 -54.236596 0.000000 0.000000 0.000000 12.345172 167.030646 0.000000 30.905152 -172.115166 0.000000 -31.300493 143.242914 0.000000 0.000000 0.000000 0.000000 -14.805416 -164.689823 0.000000 -5.659467 -156.544758 0.000000 -59.580224 135.999682 0.000000 0.000000 0.000000 0.000000
0.075952 0.033916 0.002276 0.000000 0.000000 0.000000 0.000000 -42.252919 3.667787 0.000000 85.148594 -54.526994 0.000000 -81.663049 60.962586 0.000000 0.000000 0.000000 51.280874 0.000000 -61.151147 -10.117877 0.000000 -160.775393 -40.279007 0.000000 -120.550815 0.000000 0.000000 0.000000 60.652633 0.000000 -119.672888 -20.229127 0.000000 -92.903907 -48.314391 0.000000 -54.039703 0.000000 0.000000 0.000000 12.551212 166.891274 0.000000 30.759067 -172.246476 0.000000 -29.696204 143.242188 0.000000 0.000000 0.000000 0.000000 -13.879485 -164.877934 0.000000 -5.854694 -156.529131 0.000000 -59.514653 135.101858 0.000000 0.000000 0.000000 0.000000
0.075697 0.033424 0.001846 0.000000 0.000000 0.000000 0.000000 -42.743144 5.412674 0.000000 85.161366 -56.680375 0.000000 -82.769662 58.349295 0.000000 0.000000 0.000000 51.297004 0.000000 -56.132234 -3.551665 0.000000 -160.986120 -35.148308 0.000000 -134.314919 0.000000 0.000000 0.000000 60.194794 0.000000 -121.822520 -17.467241 0.000000 -90.841657 -45.381694 0.000000 -51.178527 0.000000 0.000000 0.000000 12.938657 166.765273 0.000000 29.921817 -171.640041 0.000000 -26.649925 141.954166 0.000000 0.000000 0.000000 0.000000 -13.053391 -165.567214 0.000000 -6.153846 -156.174442 0.000000 -58.450991 131.859592 0.000000 0.000000 0.000000 0.000000
0.076215 0.031144 0.001374 0.000000 0.000000 0.000000 0.000000 -43.366863 6.906852 0.000000 84.294408 -59.964796 0.000000 -83.938224 54.043477 0.000000 0.000000 0.000000 51.244340 0.000000 -51.884290 0.179492 0.000000 -156.446003 -33.199819 0.000000 -160.936166 0.000000 0.000000 0.000000 59.617444 0.000000 -121.957741 -15.968532 0.000000 -86.377430 -43.320778 0.000000 -47.312560 0.000000 0.000000 0.000000 13.648416 166.702315 0.000000 28.553486 -171.125445 0.000000 -22.463816 139.577927 0.000000 0.000000 0.000000 0.000000 -12.183788 -165.947142 0.000000 -6.526510 -155.242129 0.000000 -57.276033 128.170988 0.000000 0.000000 0.000000 0.000000
0.077388 0.026669 0.000924 0.000000 0.000000 0.000000 0.000000 -43.966365 7.669537 0.000000 81.152301 -64.060301 0.000000 -84.817856 48.263031 0.000000 0.000000 0.000000 50.867850 0.000000 -49.210920 -0.538488 0.000000 -147.854662 -34.731920 0.000000 -156.974878 0.000000 0.000000 0.000000 58.746454 0.000000 -117.689096 -16.883792 0.000000 -80.730910 -42.909779 0.000000 -44.045445 0.000000 0.000000 0.000000 14.517997 166.656896 0.000000 27.038041 -170.940424 0.000000 -18.019591 136.557190 0.000000 0.000000 0.000000 0.000000 -11.235517 -165.644465 0.000000 -7.097031 -153.950562 0.000000 -56.126116 124.962163 0.000000 0.000000 0.000000 0.000000
0.078917 0.020008 0.000588 0.000000 0.000000 0.000000 0.000000 -44.367934 7.312192 0.000000 74.980343 -67.349070 0.000000 -84.628830 41.798869 0.000000 0.000000 0.000000 50.043834 0.000000 -48.411453 -6.089726 0.000000 -137.312360 -39.712003 0.000000 -154.728839 0.000000 0.000000 0.000000 57.388821 0.000000 -110.024301 -20.054181 0.000000 -74.422376 -44.360578 0.000000 -40.166464 0.000000 0.000000 0.000000 15.336932 166.701718 0.000000 25.660265 -170.922360 0.000000 -13.862700 134.147553 0.000000 0.000000 0.000000 0.000000 -10.454338 -165.278710 0.000000 -7.935597 -152.117311 0.000000 -54.897798 122.260384 0.000000 0.000000 0.000000 0.000000
0.080694 0.011511 0.000440 0.000000 0.000000 0.000000 0.000000 -44.605331 5.867338 0.000000 66.508096 -69.494599 0.000000 -83.776685 34.538384 0.000000 0.000000 0.000000 49.164025 0.000000 -49.590781 -15.524020 0.000000 -125.767543 -47.203857 0.000000 -153.137066 0.000000 0.000000 0.000000 55.768130 0.000000 -100.442790 -24.199470 0.000000 -68.673997 -46.561319 0.000000 -36.517477 0.000000 0.000000 0.000000 15.955368 166.797177 0.000000 24.553587 -170.716249 0.000000 -10.840429 133.546399 0.000000 0.000000 0.000000 0.000000 -9.735049 -165.023826 0.000000 -9.114932 -149.872153 0.000000 -53.708955 120.061897 0.000000 0.000000 0.000000 0.000000
0.082466 0.002285 0.000494 0.000000 0.000000 0.000000 0.000000 -44.645277 3.699589 0.000000 57.068459 -70.637899 0.000000 -82.617834 27.516860 0.000000 0.000000 0.000000 48.074042 0.000000 -52.485274 -26.005082 0.000000 -115.359299 -54.757262 0.000000 -152.153972 0.000000 0.000000 0.000000 54.161944 0.000000 -91.879984 -28.163787 0.000000 -63.412177 -48.647473 0.000000 -32.770320 0.000000 0.000000 0.000000 16.137013 166.921992 0.000000 23.836123 -170.585326 0.000000 -9.476054 133.919210 0.000000 0.000000 0.000000 0.000000 -9.184357 -164.708875 0.000000 -10.682688 -147.888253 0.000000 -52.378109 118.677864 0.000000 0.000000 0.000000 0.000000
0.084211 -0.006378 0.000687 0.000000 0.000000 0.000000 0.000000 -44.497148 1.371173 0.000000 48.484369 -70.806302 0.000000 -81.483246 21.883274 0.000000 0.000000 0.000000 47.626745 0.000000 -55.517757 -34.662686 0.000000 -106.396980 -60.975954 0.000000 -149.365213 0.000000 0.000000 0.000000 52.803331 0.000000 -86.022123 -31.360242 0.000000 -59.669324 -50.171048 0.000000 -30.106199 0.000000 0.000000 0.000000 16.004211 167.085510 0.000000 23.170437 -170.057160 0.000000 -10.606299 134.908895 0.000000 0.000000 0.000000 0.000000 -8.983946 -165.183072 0.000000 -12.562278 -146.320609 0.000000 -50.132733 118.056716 0.000000 0.000000 0.000000 0.000000
0.085887 -0.013118 0.001012 0.000000 0.000000 0.000000 0.000000 -44.325273 -0.784095 0.000000 42.194472 -70.233363 0.000000 -80.718232 18.386427 0.000000 0.000000 0.000000 48.028410 0.000000 -57.948296 -37.920894 0.000000 -100.257896 -63.280261 0.000000 -144.865550 0.000000 0.000000 0.000000 51.813076 0.000000 -86.661758 -32.126172 0.000000 -58.025536 -50.069736 0.000000 -28.847864 0.000000 0.000000 0.000000 15.438399 167.202606 0.000000 22.749472 -169.121454 0.000000 -13.547428 136.580902 0.000000 0.000000 0.000000 0.000000 -9.366984 -166.294162 0.000000 -14.173277 -145.303332 0.000000 -47.787210 118.611003 0.000000 0.000000 0.000000 0.000000
0.087278 -0.016718 0.001440 0.000000 0.000000 0.000000 0.000000 -44.257035 -2.386233 0.000000 40.013243 -69.424781 0.000000 -80.381738 17.870539 0.000000 0.000000 0.000000 48.673004 0.000000 -59.468746 -36.504203 0.000000 -96.728796 -62.007913 0.000000 -139.237048 0.000000 0.000000 0.000000 51.249164 0.000000 -92.620505 -30.932867 0.000000 -59.595930 -48.355039 0.000000 -28.754951 0.000000 0.000000 0.000000 14.364897 167.039394 0.000000 22.748547 -167.692143 0.000000 -17.678848 138.530866 0.000000 0.000000 0.000000 0.000000 -10.379925 -167.698762 0.000000 -15.172895 -144.945783 0.000000 -45.821781 119.488167 0.000000 0.000000 0.000000 0.000000
0.088373 -0.016670 0.001901 0.000000 0.000000 0.000000 0.000000 -44.363085 -3.221442 0.000000 42.220780 -68.710794 0.000000 -80.410073 20.460668 0.000000 0.000000 0.000000 49.910629 0.000000 -60.049557 -31.706993 0.000000 -96.239970 -58.733303 0.000000 -134.145885 0.000000 0.000000 0.000000 51.324173 0.000000 -102.881008 -28.128229 0.000000 -63.028539 -45.942886 0.000000 -29.360744 0.000000 0.000000 0.000000 13.131664 166.664366 0.000000 22.979521 -165.970251 0.000000 -21.633759 140.343138 0.000000 0.000000 0.000000 0.000000 -11.750289 -169.155942 0.000000 -15.334138 -145.192920 0.000000 -44.857103 120.654214 0.000000 0.000000 0.000000 0.000000
0.088720 -0.012308 0.002334 0.000000 0.000000 0.000000 0.000000 -44.390922 -3.415335 0.000000 48.390199 -68.033957 0.000000 -80.671466 25.417779 0.000000 0.000000 0.000000 51.260946 0.000000 -60.532106 -25.493707 0.000000 -99.259522 -54.578490 0.000000 -131.103929 0.000000 0.000000 0.000000 52.049812 0.000000 -113.409974 -25.705230 0.000000 -68.269338 -44.116612 0.000000 -32.796010 0.000000 0.000000 0.000000 11.964970 166.210823 0.000000 23.738334 -165.065223 0.000000 -25.338973 141.654485 0.000000 0.000000 0.000000 0.000000 -13.090862 -169.749000 0.000000 -14.465868 -146.465901 0.000000 -45.912339 122.520579 0.000000 0.000000 0.000000 0.000000
0.087593 -0.004108 0.002700 0.000000 0.000000 0.000000 0.000000 -44.218236 -3.167916 0.000000 56.289078 -66.330909 0.000000 -80.532811 32.398429 0.000000 0.000000 0.000000 52.170536 0.000000 -61.653926 -20.595591 0.000000 -107.106683 -51.372609 0.000000 -133.233446 0.000000 0.000000 0.000000 53.383012 0.000000 -121.733536 -24.819980 0.000000 -74.724289 -44.265366 0.000000 -37.814162 0.000000 0.000000 0.000000 10.895137 165.697681 0.000000 25.230314 -165.688191 0.000000 -28.336677 142.635782 0.000000 0.000000 0.000000 0.000000 -14.325579 -169.227426 0.000000 -12.781534 -148.464102 0.000000 -49.028335 125.657576 0.000000 0.000000 0.000000 0.000000
0.084972 0.006415 0.002961 0.000000 0.000000 0.000000 0.000000 -43.779594 -2.698573 0.000000 64.589612 -63.076660 0.000000 -79.544184 40.271348 0.000000 0.000000 0.000000 52.679833 0.000000 -63.740771 -17.572221 0.000000 -88.610259 -49.453300 0.000000 -109.187245 0.000000 0.000000 0.000000 55.018599 0.000000 -126.071476 -25.646112 0.000000 -82.249005 -46.630397 0.000000 -44.340567 0.000000 0.000000 0.000000 10.189563 165.429218 0.000000 26.987738 -167.077390 0.000000 -30.553008 144.229772 0.000000 0.000000 0.000000 0.000000 -15.317535 -168.002156 0.000000 -10.635028 -150.673474 0.000000 -53.382824 129.497547 0.000000 0.000000 0.000000 0.000000
0.080990 0.018043 0.003103 0.000000 0.000000 0.000000 0.000000 -43.167849 -2.130327 0.000000 72.289372 -58.492250 0.000000 -77.526938 48.720591 0.000000 0.000000 0.000000 52.627698 0.000000 -66.005178 -16.092684 0.000000 -55.145410 -48.210966 0.000000 -101.609696 0.000000 0.000000 0.000000 56.952729 0.000000 -127.170557 -27.565074 0.000000 -89.520002 -50.119289 0.000000 -50.822826 0.000000 0.000000 0.000000 9.755475 165.485110 0.000000 28.965833 -169.346216 0.000000 -32.253573 145.621018 0.000000 0.000000 0.000000 0.000000 -15.963476 -166.262060 0.000000 -8.383935 -152.721442 0.000000 -58.160411 132.979549 0.000000 0.000000 0.000000 0.000000
0.076336 0.028978 0.003130 0.000000 0.000000 0.000000 0.000000 -42.514141 -1.250204 0.000000 78.695539 -53.854743 0.000000 -75.603648 56.335363 0.000000 0.000000 0.000000 52.332500 0.000000 -67.767552 -15.996490 0.000000 -6.557836 -46.919522 0.000000 -96.638841 0.000000 0.000000 0.000000 58.990380 0.000000 -123.743881 -29.865119 0.000000 -96.082898 -53.526706 0.000000 -57.095662 0.000000 0.000000 0.000000 9.541075 165.831925 0.000000 30.666745 -172.031350 0.000000 -34.216984 146.440268 0.000000 0.000000 0.000000 0.000000 -16.026963 -164.316731 0.000000 -6.777605 -154.622442 0.000000 -61.903932 135.653912 0.000000 0.000000 0.000000 0.000000
0.071962 0.037474 0.003057 0.000000 0.000000 0.000000 0.000000 -42.057430 -0.108415 0.000000 82.764548 -50.106754 0.000000 -74.425606 61.580012 0.000000 0.000000 0.000000 52.270793 0.000000 -67.955425 -12.638119 0.000000 19.353455 -43.448883 0.000000 -99.038357 0.000000 0.000000 0.000000 60.583608 0.000000 -119.598680 -29.603294 0.000000 -100.724820 -54.940348 0.000000 -61.652406 0.000000 0.000000 0.000000 9.498077 166.408770 0.000000 31.811067 -174.545673 0.000000 -36.347992 146.811967 0.000000 0.000000 0.000000 0.000000 -15.609784 -162.592879 0.000000 -5.846474 -156.040318 0.000000 -63.868796 136.428360 0.000000 0.000000 0.000000 0.000000
0.068427 0.043057 0.002967 0.000000 0.000000 0.000000 0.000000 -41.872643 1.187161 0.000000 85.152929 -47.741300 0.000000 -74.244619 64.498061 0.000000 0.000000 0.000000 52.166448 0.000000 -66.645578 -6.686235 0.000000 25.226414 -38.284437 0.000000 -110.463446 0.000000 0.000000 0.000000 61.469499 0.000000 -115.444393 -26.973959 0.000000 -103.327525 -53.847951 0.000000 -64.253453 0.000000 0.000000 0.000000 9.416797 166.904967 0.000000 32.469557 -176.309195 0.000000 -38.209711 146.440777 0.000000 0.000000 0.000000 0.000000 -15.075501 -161.505633 0.000000 -5.395379 -156.944387 0.000000 -64.405377 135.380763 0.000000 0.000000 0.000000 0.000000
0.066351 0.045253 0.002896 0.000000 0.000000 0.000000 0.000000 -42.162566 2.541435 0.000000 85.682311 -47.655298 0.000000 -75.420232 64.512780 0.000000 0.000000 0.000000 52.222935 0.000000 -62.873184 0.255943 0.000000 6.161848 -32.814612 0.000000 -126.808244 0.000000 0.000000 0.000000 61.581764 0.000000 -112.803794 -22.203679 0.000000 -103.842286 -50.696456 0.000000 -64.212625 0.000000 0.000000 0.000000 9.306679 167.122746 0.000000 32.528714 -176.711441 0.000000 -38.334309 145.600821 0.000000 0.000000 0.000000 0.000000 -14.466127 -161.421010 0.000000 -5.436302 -157.225088 0.000000 -63.704732 132.946438 0.000000 0.000000 0.000000 0.000000
0.065911 0.044835 0.002852 0.000000 0.000000 0.000000 0.000000 -42.737221 3.660616 0.000000 85.347804 -49.681597 0.000000 -77.780600 61.914801 0.000000 0.000000 0.000000 52.280500 0.000000 -57.596409 6.756108 0.000000 -30.778147 -28.212113 0.000000 -141.872134 0.000000 0.000000 0.000000 61.162188 0.000000 -112.462669 -17.453107 0.000000 -102.405082 -47.335269 0.000000 -61.982411 0.000000 0.000000 0.000000 9.345103 167.107187 0.000000 32.160496 -176.275446 0.000000 -36.839822 144.342952 0.000000 0.000000 0.000000 0.000000 -13.672246 -161.864439 0.000000 -5.743492 -157.106912 0.000000 -62.620406 129.851012 0.000000 0.000000 0.000000 0.000000
0.066742 0.042608 0.002844 0.000000 0.000000 0.000000 0.000000 -43.360096 4.432486 0.000000 84.528772 -52.969923 0.000000 -80.554339 57.988016 0.000000 0.000000 0.000000 52.219967 0.000000 -52.601925 10.717198 0.000000 -88.577941 -25.958111 0.000000 -168.659531 0.000000 0.000000 0.000000 60.672813 0.000000 -113.737926 -14.007558 0.000000 -99.536215 -44.813700 0.000000 -58.197369 0.000000 0.000000 0.000000 9.504503 166.927134 0.000000 31.552385 -175.163078 0.000000 -33.755256 142.848050 0.000000 0.000000 0.000000 0.000000 -12.826182 -162.487090 0.000000 -6.048614 -156.562759 0.000000 -61.608398 127.292915 0.000000 0.000000 0.000000 0.000000
0.068714 0.038322 0.002861 0.000000 0.000000 0.000000 0.000000 -43.897888 4.745749 0.000000 83.192851 -57.035807 0.000000 -82.928624 53.247842 0.000000 0.000000 0.000000 51.811489 0.000000 -49.765160 9.848566 0.000000 -128.045689 -26.497630 0.000000 -163.541043 0.000000 0.000000 0.000000 60.044938 0.000000 -114.975681 -12.527242 0.000000 -95.218516 -43.456586 0.000000 -54.125600 0.000000 0.000000 0.000000 10.147353 167.055778 0.000000 30.382625 -173.407223 0.000000 -28.531922 140.981180 0.000000 0.000000 0.000000 0.000000 -12.064427 -163.093273 0.000000 -6.307554 -155.776189 0.000000 -60.023717 125.222062 0.000000 0.000000 0.000000 0.000000
0.071593 0.031003 0.002884 0.000000 0.000000 0.000000 0.000000 -44.285740 4.467579 0.000000 78.905620 -61.395105 0.000000 -83.949738 47.231622 0.000000 0.000000 0.000000 50.418881 0.000000 -48.922176 3.850931 0.000000 -147.201559 -30.726626 0.000000 -158.888027 0.000000 0.000000 0.000000 58.617467 0.000000 -113.666607 -14.067092 0.000000 -88.529750 -43.736301 0.000000 -49.822863 0.000000 0.000000 0.000000 11.041322 167.359197 0.000000 28.906045 -171.349252 0.000000 -22.329757 139.206484 0.000000 0.000000 0.000000 0.000000 -11.561335 -163.798267 0.000000 -6.698745 -154.431959 0.000000 -57.829884 123.004305 0.000000 0.000000 0.000000 0.000000
0.075223 0.020561 0.002907 0.000000 0.000000 0.000000 0.000000 -44.496476 3.566731 0.000000 71.698415 -65.004928 0.000000 -83.909769 40.198072 0.000000 0.000000 0.000000 48.138012 0.000000 -49.435517 -6.614688 0.000000 -133.947318 -37.870343 0.000000 -155.122323 0.000000 0.000000 0.000000 56.449481 0.000000 -108.981286 -18.549973 0.000000 -80.667604 -44.967323 0.000000 -46.140802 0.000000 0.000000 0.000000 12.063806 167.901202 0.000000 27.162412 -169.420093 0.000000 -16.217770 137.468947 0.000000 0.000000 0.000000 0.000000 -11.290188 -164.599812 0.000000 -7.667932 -152.423967 0.000000 -54.760748 121.049107 0.000000 0.000000 0.000000 0.000000
0.079309 0.007645 0.002935 0.000000 0.000000 0.000000 0.000000 -44.557783 2.112180 0.000000 62.186745 -67.381589 0.000000 -83.185190 31.983702 0.000000 0.000000 0.000000 45.408848 0.000000 -51.030111 -18.331851 0.000000 -120.364816 -46.549815 0.000000 -151.966960 0.000000 0.000000 0.000000 53.572150 0.000000 -101.560038 -24.204703 0.000000 -71.758114 -46.696952 0.000000 -42.496844 0.000000 0.000000 0.000000 13.079043 168.416626 0.000000 25.276063 -167.938234 0.000000 -11.352017 136.575106 0.000000 0.000000 0.000000 0.000000 -11.458835 -165.844984 0.000000 -9.052992 -149.927955 0.000000 -51.240529 119.189802 0.000000 0.000000 0.000000 0.000000
0.083563 -0.005532 0.002986 0.000000 0.000000 0.000000 0.000000 -44.507707 0.258842 0.000000 51.855371 -68.618382 0.000000 -81.977911 24.097527 0.000000 0.000000 0.000000 41.960958 0.000000 -52.872208 -28.112178 0.000000 -110.569719 -52.221741 0.000000 -151.218350 0.000000 0.000000 0.000000 50.715229 0.000000 -92.898094 -29.832263 0.000000 -63.564254 -48.234085 0.000000 -39.509626 0.000000 0.000000 0.000000 13.887425 168.794476 0.000000 23.527799 -167.035881 0.000000 -8.740759 136.013883 0.000000 0.000000 0.000000 0.000000 -11.948562 -167.108889 0.000000 -10.687542 -147.441325 0.000000 -47.468062 117.766840 0.000000 0.000000 0.000000 0.000000
0.087378 -0.016835 0.003091 0.000000 0.000000 0.000000 0.000000 -44.457833 -1.703941 0.000000 42.545190 -68.757311 0.000000 -80.806742 17.783904 0.000000 0.000000 0.000000 40.067295 0.000000 -54.189569 -34.905844 0.000000 -104.002258 -56.138236 0.000000 -149.759413 0.000000 0.000000 0.000000 48.524588 0.000000 -85.648536 -33.747160 0.000000 -56.990213 -48.484906 0.000000 -37.007177 0.000000 0.000000 0.000000 14.398347 168.899347 0.000000 22.101312 -166.310960 0.000000 -8.403095 136.627940 0.000000 0.000000 0.000000 0.000000 -12.736426 -168.513353 0.000000 -12.228694 -145.294075 0.000000 -44.582420 117.415675 0.000000 0.000000 0.000000 0.000000
0.090491 -0.024815 0.003247 0.000000 0.000000 0.000000 0.000000 -44.489057 -3.459058 0.000000 35.631705 -68.388906 0.000000 -80.008276 13.794997 0.000000 0.000000 0.000000 39.373015 0.000000 -54.811512 -37.324965 0.000000 -100.277100 -56.831949 0.000000 -147.589149 0.000000 0.000000 0.000000 47.205949 0.000000 -82.916878 -35.397214 0.000000 -52.633295 -47.704213 0.000000 -34.881814 0.000000 0.000000 0.000000 14.481835 168.488261 0.000000 21.248820 -165.947530 0.000000 -9.432630 137.770173 0.000000 0.000000 0.000000 0.000000 -13.758365 -169.858638 0.000000 -13.342960 -144.040930 0.000000 -43.153171 118.044800 0.000000 0.000000 0.000000 0.000000
0.092766 -0.028226 0.003460 0.000000 0.000000 0.000000 0.000000 -44.599587 -4.731270 0.000000 33.123539 -68.071696 0.000000 -79.718440 12.431602 0.000000 0.000000 0.000000 40.276483 0.000000 -54.832370 -35.922761 0.000000 -99.620819 -55.358279 0.000000 -145.573182 0.000000 0.000000 0.000000 46.805104 0.000000 -86.076209 -34.571820 0.000000 -52.030806 -45.920447 0.000000 -32.839486 0.000000 0.000000 0.000000 13.920987 167.495973 0.000000 21.088477 -165.298190 0.000000 -12.396772 139.614535 0.000000 0.000000 0.000000 0.000000 -14.781661 -171.114301 0.000000 -13.874009 -143.512344 0.000000 -43.578394 119.323765 0.000000 0.000000 0.000000 0.000000
0.094140 -0.028756 0.003635 0.000000 0.000000 0.000000 0.000000 -44.683247 -5.494939 0.000000 33.764138 -67.670093 0.000000 -79.669864 13.201122 0.000000 0.000000 0.000000 41.760459 0.000000 -54.843158 -33.148406 0.000000 -100.267326 -52.896743 0.000000 -142.908005 0.000000 0.000000 0.000000 47.323821 0.000000 -91.162508 -32.671826 0.000000 -53.046624 -44.099119 0.000000 -31.564776 0.000000 0.000000 0.000000 13.496391 166.794821 0.000000 21.012376 -164.621977 0.000000 -14.913139 140.851177 0.000000 0.000000 0.000000 0.000000 -15.568128 -171.999391 0.000000 -13.892904 -143.618091 0.000000 -44.429669 120.493669 0.000000 0.000000 0.000000 0.000000
0.095006 -0.027336 0.003800 0.000000 0.000000 0.000000 0.000000 -44.770967 -5.788147 0.000000 36.059217 -68.096299 0.000000 -79.770576 14.820040 0.000000 0.000000 0.000000 43.565685 0.000000 -55.066070 -29.938925 0.000000 -101.494638 -50.000035 0.000000 -140.067582 0.000000 0.000000 0.000000 48.081611 0.000000 -97.391744 -29.970860 0.000000 -54.694759 -41.871541 0.000000 -30.363705 0.000000 0.000000 0.000000 13.019959 166.066166 0.000000 21.041813 -163.794282 0.000000 -17.185387 141.849230 0.000000 0.000000 0.000000 0.000000 -16.201685 -172.620105 0.000000 -13.439438 -144.285035 0.000000 -45.953356 121.278785 0.000000 0.000000 0.000000 0.000000
0.095539 -0.024918 0.003951 0.000000 0.000000 0.000000 0.000000 -44.853512 -5.713920 0.000000 38.909263 -69.033407 0.000000 -79.986651 16.957271 0.000000 0.000000 0.000000 45.324628 0.000000 -55.077992 -26.679529 0.000000 -103.010053 -47.097065 0.000000 -138.148071 0.000000 0.000000 0.000000 48.920578 0.000000 -104.020964 -26.867592 0.000000 -56.580415 -39.324678 0.000000 -29.699144 0.000000 0.000000 0.000000 12.483884 165.458605 0.000000 21.214720 -162.905103 0.000000 -19.362356 142.621806 0.000000 0.000000 0.000000 0.000000 -16.538069 -172.864733 0.000000 -12.953071 -145.164788 0.000000 -47.396022 121.535612 0.000000 0.000000 0.000000 0.000000
