HIERARCHY
ROOT Hips
{
	OFFSET 0.000000 0.000000 0.000000
	CHANNELS 6 Xposition Yposition Zposition Zrotation Xrotation Yrotation
	JOINT Spine
	{
		OFFSET 0.000000 0.100000 0.000000
		CHANNELS 3 Zrotation Xrotation Yrotation
		JOINT Chest
		{
			OFFSET 0.000000 0.250000 0.000000
			CHANNELS 3 Zrotation Xrotation Yrotation
			JOINT Neck
			{
				OFFSET 0.000000 0.100000 0.000000
				CHANNELS 3 Zrotation Xrotation Yrotation
				JOINT Head
				{
					OFFSET 0.000000 0.100000 0.000000
					CHANNELS 3 Zrotation Xrotation Yrotation
					End Site
					{
						OFFSET 0.0 0.0 0.0
					}
				}
			}
			JOINT LeftShoulder
			{
				OFFSET -0.200000 0.000000 0.000000
				CHANNELS 3 Zrotation Xrotation Yrotation
				JOINT LeftArm
				{
					OFFSET -0.150000 0.000000 0.000000
					CHANNELS 3 Zrotation Xrotation Yrotation
					JOINT LeftForeArm
					{
						OFFSET -0.250000 0.000000 0.000000
						CHANNELS 3 Zrotation Xrotation Yrotation
						JOINT LeftHand
						{
							OFFSET -0.100000 0.000000 0.000000
							CHANNELS 3 Zrotation Xrotation Yrotation
							End Site
							{
								OFFSET 0.0 0.0 0.0
							}
						}
					}
				}
			}
			JOINT RightShoulder
			{
				OFFSET 0.200000 0.000000 0.000000
				CHANNELS 3 Zrotation Xrotation Yrotation
				JOINT RightArm
				{
					OFFSET 0.150000 0.000000 0.000000
					CHANNELS 3 Zrotation Xrotation Yrotation
					JOINT RightForeArm
					{
						OFFSET 0.250000 0.000000 0.000000
						CHANNELS 3 Zrotation Xrotation Yrotation
						JOINT RightHand
						{
							OFFSET 0.100000 0.000000 0.000000
							CHANNELS 3 Zrotation Xrotation Yrotation
							End Site
							{
								OFFSET 0.0 0.0 0.0
							}
						}
					}
				}
			}
		}
	}
	JOINT LeftUpLeg
	{
		OFFSET -0.100000 -0.050000 0.000000
		CHANNELS 3 Zrotation Xrotation Yrotation
		JOINT LeftLeg
		{
			OFFSET 0.000000 -0.400000 0.000000
			CHANNELS 3 Zrotation Xrotation Yrotation
			JOINT LeftFoot
			{
				OFFSET 0.000000 -0.400000 0.000000
				CHANNELS 3 Zrotation Xrotation Yrotation
				JOINT LeftToeBase
				{
					OFFSET 0.000000 0.000000 0.100000
					CHANNELS 3 Zrotation Xrotation Yrotation
					End Site
					{
						OFFSET 0.0 0.0 0.0
					}
				}
			}
		}
	}
	JOINT RightUpLeg
	{
		OFFSET 0.100000 -0.050000 0.000000
		CHANNELS 3 Zrotation Xrotation Yrotation
		JOINT RightLeg
		{
			OFFSET 0.000000 -0.400000 0.000000
			CHANNELS 3 Zrotation Xrotation Yrotation
			JOINT RightFoot
			{
				OFFSET 0.000000 -0.400000 0.000000
				CHANNELS 3 Zrotation Xrotation Yrotation
				JOINT RightToeBase
				{
					OFFSET 0.000000 0.000000 0.100000
					CHANNELS 3 Zrotation Xrotation Yrotation
					End Site
					{
						OFFSET 0.0 0.0 0.0
					}
				}
			}
		}
	}
}
MOTION
Frames: 73
Frame Time: 0.033333
0.090729 0.004060 0.001721 0.000000 0.000000 0.000000 0.000000 -41.863453 3.508476 0.000000 72.665069 -72.630597 0.000000 -82.745271 36.563719 0.000000 0.000000 0.000000 53.439670 0.000000 -55.120729 -17.775734 0.000000 -131.002170 -43.847461 0.000000 -160.578065 0.000000 0.000000 0.000000 56.091866 0.000000 -117.946719 -34.536033 0.000000 -77.174903 -52.352581 0.000000 -38.187008 0.000000 0.000000 0.000000 12.578544 169.569609 0.000000 24.841256 -163.333579 0.000000 -34.472290 132.457499 0.000000 0.000000 0.000000 0.000000 -16.694313 -169.744767 0.000000 -14.945695 -149.029632 0.000000 -55.350529 115.373795 0.000000 0.000000 0.000000 0.000000
0.090613 0.004877 0.002424 0.000000 0.000000 0.000000 0.000000 -45.393431 2.612594 0.000000 74.852450 -69.138386 0.000000 -84.022178 38.290869 0.000000 0.000000 0.000000 51.801235 0.000000 -57.666947 -12.082788 0.000000 -128.997351 -43.915472 0.000000 -155.217756 0.000000 0.000000 0.000000 56.530418 0.000000 -122.264914 -25.916265 0.000000 -79.923233 -47.488947 0.000000 -40.442309 0.000000 0.000000 0.000000 12.571408 167.243807 0.000000 26.460761 -169.495336 0.000000 -32.899286 124.074992 0.000000 0.000000 0.000000 0.000000 -16.880527 -169.582235 0.000000 -14.997828 -150.785355 0.000000 -50.799353 110.769297 0.000000 0.000000 0.000000 0.000000
0.090599 0.005782 0.003653 0.000000 0.000000 0.000000 0.000000 -46.275908 1.371290 0.000000 75.098869 -67.803498 0.000000 -83.611246 41.451848 0.000000 0.000000 0.000000 52.737287 0.000000 -60.806548 -12.971036 0.000000 -127.205104 -47.793762 0.000000 -151.439398 0.000000 0.000000 0.000000 56.252614 0.000000 -124.142552 -22.212434 0.000000 -81.903895 -46.101609 0.000000 -41.068049 0.000000 0.000000 0.000000 12.940934 167.521682 0.000000 28.457624 -167.427947 0.000000 -34.296145 125.085145 0.000000 0.000000 0.000000 0.000000 -16.761164 -166.648794 0.000000 -14.543836 -150.910181 0.000000 -45.525900 110.258445 0.000000 0.000000 0.000000 0.000000
0.090310 0.007311 0.004467 0.000000 0.000000 0.000000 0.000000 -44.485708 0.342660 0.000000 76.617286 -65.991375 0.000000 -83.670889 41.295314 0.000000 0.000000 0.000000 54.084777 0.000000 -58.817273 -14.477751 0.000000 -124.624430 -52.025053 0.000000 -164.241899 0.000000 0.000000 0.000000 59.305193 0.000000 -122.209697 -21.777479 0.000000 -86.436910 -47.418089 0.000000 -44.446081 0.000000 0.000000 0.000000 13.340563 167.768520 0.000000 30.079279 -167.177307 0.000000 -31.858473 131.122464 0.000000 0.000000 0.000000 0.000000 -18.164615 -168.037564 0.000000 -14.051973 -150.176157 0.000000 -45.952131 118.465807 0.000000 0.000000 0.000000 0.000000
0.089645 0.010059 0.004508 0.000000 0.000000 0.000000 0.000000 -42.743503 -0.654413 0.000000 79.787872 -62.381428 0.000000 -80.759555 46.507854 0.000000 0.000000 0.000000 52.187682 0.000000 -60.116961 -24.566464 0.000000 -130.125582 -52.529626 0.000000 -158.831155 0.000000 0.000000 0.000000 57.443620 0.000000 -114.524016 -28.833951 0.000000 -90.941249 -50.276451 0.000000 -47.314953 0.000000 0.000000 0.000000 13.795683 168.161699 0.000000 30.671289 -166.114442 0.000000 -28.425229 130.284422 0.000000 0.000000 0.000000 0.000000 -19.910655 -174.882915 0.000000 -9.485965 -154.001487 0.000000 -50.192113 124.814865 0.000000 0.000000 0.000000 0.000000
0.084148 0.018622 0.004643 0.000000 0.000000 0.000000 0.000000 -42.087113 -1.047813 0.000000 81.765428 -58.206608 0.000000 -76.685886 56.918816 0.000000 0.000000 0.000000 50.143083 0.000000 -67.959893 -30.560492 0.000000 -151.982074 -54.209811 0.000000 177.727780 0.000000 0.000000 0.000000 57.084373 0.000000 -108.553818 -31.580448 0.000000 -95.747040 -57.019170 0.000000 -44.426882 0.000000 0.000000 0.000000 13.661120 169.270428 0.000000 32.237297 -167.966020 0.000000 -33.247387 133.842289 0.000000 0.000000 0.000000 0.000000 -20.231403 -174.926192 0.000000 -3.955372 -155.477370 0.000000 -55.166238 130.276335 0.000000 0.000000 0.000000 0.000000
0.077882 0.026795 0.004598 0.000000 0.000000 0.000000 0.000000 -40.829411 -1.437311 0.000000 84.160110 -52.911513 0.000000 -74.480123 62.057013 0.000000 0.000000 0.000000 50.993023 0.000000 -65.937319 -27.664194 0.000000 -169.071941 -49.945446 0.000000 -179.713436 0.000000 0.000000 0.000000 58.982457 0.000000 -108.961780 -31.283548 0.000000 -98.472890 -56.551680 0.000000 -48.910061 0.000000 0.000000 0.000000 12.109656 166.500856 0.000000 34.481374 -177.425894 0.000000 -33.560879 138.627490 0.000000 0.000000 0.000000 0.000000 -17.273522 -168.418211 0.000000 -4.610238 -158.959204 0.000000 -61.961473 145.627920 0.000000 0.000000 0.000000 0.000000
0.074373 0.032589 0.004601 0.000000 0.000000 0.000000 0.000000 -40.550566 -1.741616 0.000000 84.885454 -49.981444 0.000000 -73.588327 65.977925 0.000000 0.000000 0.000000 51.827884 0.000000 -65.113874 -24.087664 0.000000 -167.928065 -50.054296 0.000000 -176.812142 0.000000 0.000000 0.000000 61.217674 0.000000 -116.454959 -29.796961 0.000000 -97.415317 -54.023028 0.000000 -52.390301 0.000000 0.000000 0.000000 10.683857 166.410732 0.000000 34.520917 -178.133760 0.000000 -44.677371 138.371512 0.000000 0.000000 0.000000 0.000000 -17.019068 -169.380398 0.000000 -4.615638 -158.803284 0.000000 -64.971648 147.662429 0.000000 0.000000 0.000000 0.000000
0.073007 0.036880 0.004502 0.000000 0.000000 0.000000 0.000000 -41.332315 -1.023061 0.000000 85.375327 -50.865418 0.000000 -76.475317 64.710919 0.000000 0.000000 0.000000 50.875022 0.000000 -65.153785 -18.653207 0.000000 -162.152982 -43.462604 0.000000 -170.913943 0.000000 0.000000 0.000000 58.308655 0.000000 -114.869401 -28.955577 0.000000 -101.082264 -53.758677 0.000000 -52.218647 0.000000 0.000000 0.000000 10.179430 166.040680 0.000000 31.784698 -177.094102 0.000000 -50.230234 134.962186 0.000000 0.000000 0.000000 0.000000 -17.362249 -169.806712 0.000000 -5.151818 -158.841558 0.000000 -65.330858 143.803363 0.000000 0.000000 0.000000 0.000000
0.073215 0.035700 0.004494 0.000000 0.000000 0.000000 0.000000 -41.326517 0.186959 0.000000 85.027665 -52.174572 0.000000 -79.088161 61.870824 0.000000 0.000000 0.000000 50.717701 0.000000 -59.869491 -0.823348 0.000000 -158.191012 -34.149620 0.000000 -163.668831 0.000000 0.000000 0.000000 53.796457 0.000000 -123.288279 -25.627480 0.000000 -95.932031 -46.119533 0.000000 -51.331994 0.000000 0.000000 0.000000 9.962062 164.972383 0.000000 31.235513 -176.612876 0.000000 -45.493869 135.074288 0.000000 0.000000 0.000000 0.000000 -17.430032 -169.716767 0.000000 -5.648438 -158.527581 0.000000 -64.701295 141.974665 0.000000 0.000000 0.000000 0.000000
0.073365 0.035266 0.004396 0.000000 0.000000 0.000000 0.000000 -43.443339 2.588637 0.000000 84.275082 -58.578363 0.000000 -83.666541 54.847606 0.000000 0.000000 0.000000 52.602112 0.000000 -53.417047 5.022366 0.000000 -151.083226 -29.724860 0.000000 -158.731001 0.000000 0.000000 0.000000 56.773917 0.000000 -123.055778 -16.542528 0.000000 -96.683164 -44.429923 0.000000 -54.892956 0.000000 0.000000 0.000000 10.737022 165.602919 0.000000 30.564996 -174.535283 0.000000 -32.676605 135.216054 0.000000 0.000000 0.000000 0.000000 -16.164672 -170.228236 0.000000 -6.237868 -157.677596 0.000000 -64.145022 140.258799 0.000000 0.000000 0.000000 0.000000
0.074534 0.031460 0.004348 0.000000 0.000000 0.000000 0.000000 -43.892895 3.468286 0.000000 83.659032 -61.791068 0.000000 -85.212311 53.415708 0.000000 0.000000 0.000000 50.933376 0.000000 -45.603476 6.095600 0.000000 -144.812102 -29.963292 0.000000 -158.728466 0.000000 0.000000 0.000000 57.454857 0.000000 -125.508975 -12.623137 0.000000 -91.357133 -44.484217 0.000000 -54.903707 0.000000 0.000000 0.000000 12.620122 165.287171 0.000000 28.534926 -174.342174 0.000000 -23.984210 135.439090 0.000000 0.000000 0.000000 0.000000 -14.637712 -170.045814 0.000000 -7.318901 -157.103947 0.000000 -63.045956 138.505158 0.000000 0.000000 0.000000 0.000000
0.079297 0.023634 0.004226 0.000000 0.000000 0.000000 0.000000 -45.847801 3.782600 0.000000 82.078574 -69.486449 0.000000 -86.208059 43.935895 0.000000 0.000000 0.000000 50.259032 0.000000 -47.023847 1.465408 0.000000 -126.091740 -35.661383 0.000000 -147.169001 0.000000 0.000000 0.000000 56.648645 0.000000 -122.033761 -18.017880 0.000000 -88.717738 -43.312653 0.000000 -46.542847 0.000000 0.000000 0.000000 12.787383 164.246398 0.000000 26.905681 -169.051647 0.000000 -22.101181 132.708966 0.000000 0.000000 0.000000 0.000000 -14.563392 -172.584178 0.000000 -7.205598 -156.143053 0.000000 -58.564415 124.884245 0.000000 0.000000 0.000000 0.000000
0.081533 0.015959 0.004161 0.000000 0.000000 0.000000 0.000000 -44.994289 3.339391 0.000000 77.286414 -71.035447 0.000000 -83.066036 36.704909 0.000000 0.000000 0.000000 47.216021 0.000000 -52.722998 -18.155083 0.000000 -124.873295 -43.742748 0.000000 -148.035308 0.000000 0.000000 0.000000 55.243404 0.000000 -108.119903 -23.954110 0.000000 -71.867358 -45.270409 0.000000 -41.597285 0.000000 0.000000 0.000000 14.027121 166.981067 0.000000 24.986069 -169.249709 0.000000 -17.108612 131.278400 0.000000 0.000000 0.000000 0.000000 -14.143533 -170.486871 0.000000 -7.420153 -155.333405 0.000000 -56.232100 121.868002 0.000000 0.000000 0.000000 0.000000
0.084492 -0.004233 0.003751 0.000000 0.000000 0.000000 0.000000 -44.048641 2.827763 0.000000 52.466227 -77.843256 0.000000 -81.744392 22.647012 0.000000 0.000000 0.000000 44.541276 0.000000 -55.341214 -36.098493 0.000000 -114.593618 -57.924550 0.000000 -148.062745 0.000000 0.000000 0.000000 49.837446 0.000000 -88.010366 -32.351355 0.000000 -64.014636 -48.276853 0.000000 -38.698194 0.000000 0.000000 0.000000 13.785531 166.024103 0.000000 24.266740 -170.877610 0.000000 -13.501663 131.151401 0.000000 0.000000 0.000000 0.000000 -12.523635 -168.043538 0.000000 -8.547052 -151.614271 0.000000 -54.002267 119.467334 0.000000 0.000000 0.000000 0.000000
0.087265 -0.018257 0.003703 0.000000 0.000000 0.000000 0.000000 -43.191583 1.250049 0.000000 34.712353 -72.552228 0.000000 -78.849329 16.184896 0.000000 0.000000 0.000000 40.159586 0.000000 -57.746153 -43.620645 0.000000 -105.160965 -65.107576 0.000000 -156.492277 0.000000 0.000000 0.000000 46.724870 0.000000 -75.549038 -35.772081 0.000000 -57.907993 -54.473827 0.000000 -24.354330 0.000000 0.000000 0.000000 14.175848 167.636861 0.000000 23.390308 -169.050754 0.000000 -12.846898 137.247672 0.000000 0.000000 0.000000 0.000000 -11.961297 -171.053027 0.000000 -11.208177 -146.250035 0.000000 -50.113307 118.729390 0.000000 0.000000 0.000000 0.000000
0.089425 -0.024414 0.003690 0.000000 0.000000 0.000000 0.000000 -43.066406 -0.672597 0.000000 33.439045 -71.460108 0.000000 -78.901047 16.556159 0.000000 0.000000 0.000000 38.492874 0.000000 -58.659211 -48.376242 0.000000 -95.732669 -69.044326 0.000000 -152.867790 0.000000 0.000000 0.000000 45.372998 0.000000 -70.098206 -38.016575 0.000000 -54.770016 -55.839773 0.000000 -25.972797 0.000000 0.000000 0.000000 14.240610 169.557219 0.000000 22.597566 -166.293753 0.000000 -12.278962 141.407548 0.000000 0.000000 0.000000 0.000000 -11.615903 -171.552794 0.000000 -13.381081 -144.290646 0.000000 -45.218076 117.088265 0.000000 0.000000 0.000000 0.000000
0.092337 -0.023431 0.003602 0.000000 0.000000 0.000000 0.000000 -43.589674 -0.866410 0.000000 37.226035 -72.899338 0.000000 -80.282107 24.424122 0.000000 0.000000 0.000000 44.158632 0.000000 -53.348408 -18.062312 0.000000 -96.871809 -43.389082 0.000000 -141.128211 0.000000 0.000000 0.000000 51.805403 0.000000 -78.436634 -38.750106 0.000000 -63.462543 -54.265333 0.000000 -27.657302 0.000000 0.000000 0.000000 13.364046 168.708477 0.000000 22.397349 -167.708353 0.000000 -15.549562 138.182253 0.000000 0.000000 0.000000 0.000000 -13.793517 -172.098026 0.000000 -14.442553 -144.031116 0.000000 -39.446223 119.079099 0.000000 0.000000 0.000000 0.000000
0.092927 -0.020335 0.003592 0.000000 0.000000 0.000000 0.000000 -44.106818 -0.837893 0.000000 45.032542 -73.702213 0.000000 -81.891125 25.362398 0.000000 0.000000 0.000000 48.385361 0.000000 -56.187879 -21.253778 0.000000 -100.827883 -46.353563 0.000000 -141.908225 0.000000 0.000000 0.000000 53.318757 0.000000 -92.575455 -32.837666 0.000000 -60.488760 -54.110640 0.000000 -38.621498 0.000000 0.000000 0.000000 13.106755 168.535490 0.000000 23.000437 -164.106008 0.000000 -22.150155 138.577049 0.000000 0.000000 0.000000 0.000000 -14.776007 -172.283319 0.000000 -14.053950 -147.762102 0.000000 -40.075853 115.246762 0.000000 0.000000 0.000000 0.000000
0.092815 -0.009653 0.003671 0.000000 0.000000 0.000000 0.000000 -44.649468 0.318637 0.000000 62.717035 -71.299955 0.000000 -80.171705 34.216097 0.000000 0.000000 0.000000 47.680650 0.000000 -70.672347 -24.479004 0.000000 -124.402674 -46.621295 0.000000 -157.924821 0.000000 0.000000 0.000000 53.244657 0.000000 -108.312802 -30.951057 0.000000 -68.439408 -47.892715 0.000000 -33.959318 0.000000 0.000000 0.000000 11.091423 169.069679 0.000000 25.246223 -161.898935 0.000000 -29.454985 141.113861 0.000000 0.000000 0.000000 0.000000 -25.089230 -178.596524 0.000000 -9.025291 -154.787823 0.000000 -39.444567 117.089732 0.000000 0.000000 0.000000 0.000000
-0.012166 0.018621 0.009417 0.000000 0.000000 0.000000 0.000000 -42.858913 -12.355726 0.000000 74.347227 50.810130 0.000000 -24.163377 -6.202762 0.000000 0.000000 0.000000 53.341377 0.000000 164.462979 -21.576783 0.000000 71.517205 -55.884760 0.000000 46.137239 0.000000 0.000000 0.000000 59.555602 0.000000 -51.111183 -35.021891 0.000000 -134.996355 -75.071358 0.000000 -57.320722 0.000000 0.000000 0.000000 22.390513 -178.445733 0.000000 32.429075 -164.402603 0.000000 -34.719627 -144.556084 0.000000 0.000000 0.000000 0.000000 -39.748755 -156.402055 0.000000 -5.588654 -167.265152 0.000000 -60.250764 -166.058333 0.000000 0.000000 0.000000 0.000000
-0.004328 0.028438 0.008474 0.000000 0.000000 0.000000 0.000000 -41.766425 -2.442847 0.000000 80.187932 -5.137389 0.000000 -35.139023 42.928993 0.000000 0.000000 0.000000 63.231080 0.000000 -91.079220 -75.652599 0.000000 163.885789 -84.271031 0.000000 4.517850 0.000000 0.000000 0.000000 60.207247 0.000000 -112.855585 -33.076417 0.000000 -99.588614 -58.941070 0.000000 -45.603666 0.000000 0.000000 0.000000 21.565770 168.480401 0.000000 33.783511 -173.643647 0.000000 -44.218866 145.734449 0.000000 0.000000 0.000000 0.000000 -35.706177 -161.607064 0.000000 -4.174369 -163.108401 0.000000 -59.092616 164.673138 0.000000 0.000000 0.000000 0.000000
0.011927 0.031096 0.007729 0.000000 0.000000 0.000000 0.000000 -41.543123 3.511190 0.000000 82.502594 -40.718919 0.000000 -58.156812 60.335678 0.000000 0.000000 0.000000 56.294448 0.000000 -58.494669 -37.183764 0.000000 -152.813692 -67.914990 0.000000 -154.359499 0.000000 0.000000 0.000000 59.963908 0.000000 -119.138942 -30.887856 0.000000 -95.133125 -55.126279 0.000000 -47.557724 0.000000 0.000000 0.000000 18.609270 163.087576 0.000000 33.656955 -176.836944 0.000000 -41.466616 136.652763 0.000000 0.000000 0.000000 0.000000 -32.847387 -163.454297 0.000000 -4.008675 -161.477437 0.000000 -59.218605 153.283132 0.000000 0.000000 0.000000 0.000000
0.023662 0.032451 0.007541 0.000000 0.000000 0.000000 0.000000 -41.817522 4.703505 0.000000 83.365783 -52.128308 0.000000 -75.458091 56.100145 0.000000 0.000000 0.000000 51.537438 0.000000 -52.435096 -13.647539 0.000000 -153.910229 -62.991380 0.000000 -132.392544 0.000000 0.000000 0.000000 59.144423 0.000000 -119.383147 -29.191026 0.000000 -93.158630 -55.056212 0.000000 -40.505796 0.000000 0.000000 0.000000 17.089652 160.828684 0.000000 32.498075 -179.878805 0.000000 -40.238898 133.321657 0.000000 0.000000 0.000000 0.000000 -29.650004 -164.190995 0.000000 -3.482025 -160.772256 0.000000 -61.934055 146.925523 0.000000 0.000000 0.000000 0.000000
0.031678 0.032548 0.007268 0.000000 0.000000 0.000000 0.000000 -41.687407 5.021876 0.000000 84.162660 -55.027003 0.000000 -78.053579 56.508765 0.000000 0.000000 0.000000 51.309268 0.000000 -47.371300 5.102764 0.000000 -155.688508 -47.336140 0.000000 -149.551869 0.000000 0.000000 0.000000 60.094911 0.000000 -115.957870 -18.614975 0.000000 -96.684029 -53.621490 0.000000 -44.520288 0.000000 0.000000 0.000000 16.429315 161.627988 0.000000 32.049481 -178.193977 0.000000 -44.241646 131.547663 0.000000 0.000000 0.000000 0.000000 -27.560208 -165.564677 0.000000 -3.775539 -159.362817 0.000000 -61.100665 143.018613 0.000000 0.000000 0.000000 0.000000
0.043186 0.031352 0.007088 0.000000 0.000000 0.000000 0.000000 -41.682089 5.034213 0.000000 83.680860 -57.888789 0.000000 -79.418360 55.731352 0.000000 0.000000 0.000000 51.468043 0.000000 -45.399427 6.020808 0.000000 -148.190520 -33.668934 0.000000 -153.587439 0.000000 0.000000 0.000000 60.213614 0.000000 -121.804620 -12.579632 0.000000 -98.459558 -45.889037 0.000000 -47.172951 0.000000 0.000000 0.000000 16.613774 162.522599 0.000000 30.146464 -176.924919 0.000000 -43.016564 128.584225 0.000000 0.000000 0.000000 0.000000 -22.840727 -165.886607 0.000000 -4.729519 -155.677586 0.000000 -59.120503 139.794544 0.000000 0.000000 0.000000 0.000000
0.057342 0.028729 0.006570 0.000000 0.000000 0.000000 0.000000 -42.814067 5.254999 0.000000 82.708647 -64.133482 0.000000 -82.709346 49.343515 0.000000 0.000000 0.000000 52.203675 0.000000 -44.988986 0.401308 0.000000 -135.053444 -35.330690 0.000000 -149.020758 0.000000 0.000000 0.000000 60.278543 0.000000 -130.371842 -11.858199 0.000000 -90.115654 -41.369180 0.000000 -48.668373 0.000000 0.000000 0.000000 16.764721 163.996187 0.000000 28.985889 -172.886153 0.000000 -19.373878 125.431172 0.000000 0.000000 0.000000 0.000000 -15.964195 -164.924628 0.000000 -6.424225 -149.724173 0.000000 -57.754752 138.006429 0.000000 0.000000 0.000000 0.000000
0.064989 0.025154 0.005235 0.000000 0.000000 0.000000 0.000000 -44.509622 5.034524 0.000000 81.152582 -68.542627 0.000000 -84.768983 46.051182 0.000000 0.000000 0.000000 50.616037 0.000000 -48.741640 -5.218896 0.000000 -126.119921 -41.891862 0.000000 -149.961852 0.000000 0.000000 0.000000 59.657456 0.000000 -120.561945 -17.646409 0.000000 -87.268927 -50.334885 0.000000 -51.438188 0.000000 0.000000 0.000000 17.761897 164.944843 0.000000 27.778822 -171.914537 0.000000 -10.188324 124.209291 0.000000 0.000000 0.000000 0.000000 -13.811994 -164.985962 0.000000 -6.793801 -149.728752 0.000000 -58.048139 133.930565 0.000000 0.000000 0.000000 0.000000
0.075495 0.009848 0.003918 0.000000 0.000000 0.000000 0.000000 -46.094000 5.798630 0.000000 72.857740 -76.090677 0.000000 -85.777029 39.882165 0.000000 0.000000 0.000000 48.656364 0.000000 -51.222344 -23.664003 0.000000 -116.233446 -48.742653 0.000000 -145.147270 0.000000 0.000000 0.000000 54.792035 0.000000 -105.516032 -24.058541 0.000000 -81.410098 -50.476691 0.000000 -39.224961 0.000000 0.000000 0.000000 16.482714 164.717464 0.000000 27.234479 -170.795216 0.000000 -5.116345 125.788129 0.000000 0.000000 0.000000 0.000000 -12.093253 -163.542817 0.000000 -6.912030 -150.176998 0.000000 -60.232743 135.996995 0.000000 0.000000 0.000000 0.000000
0.081575 -0.005377 0.002571 0.000000 0.000000 0.000000 0.000000 -45.550819 4.419080 0.000000 53.633129 -79.064590 0.000000 -81.429556 23.124411 0.000000 0.000000 0.000000 40.538545 0.000000 -54.786819 -37.781965 0.000000 -109.435753 -54.098948 0.000000 -137.053429 0.000000 0.000000 0.000000 47.102305 0.000000 -91.411130 -34.206295 0.000000 -63.169445 -49.721943 0.000000 -34.491146 0.000000 0.000000 0.000000 16.800955 167.296044 0.000000 25.437863 -168.601334 0.000000 1.789631 133.098746 0.000000 0.000000 0.000000 0.000000 -11.262817 -164.462303 0.000000 -6.865912 -149.412930 0.000000 -51.729206 121.024668 0.000000 0.000000 0.000000 0.000000
0.086642 -0.019257 0.002080 0.000000 0.000000 0.000000 0.000000 -44.417389 2.391618 0.000000 30.764155 -74.176920 0.000000 -77.761074 15.253335 0.000000 0.000000 0.000000 35.711935 0.000000 -55.649157 -39.033844 0.000000 -109.064603 -52.721971 0.000000 -155.914796 0.000000 0.000000 0.000000 40.169143 0.000000 -72.992015 -41.032117 0.000000 -58.277682 -49.449501 0.000000 -43.922201 0.000000 0.000000 0.000000 16.818512 165.916868 0.000000 25.001641 -170.405623 0.000000 2.953815 133.200281 0.000000 0.000000 0.000000 0.000000 -11.384971 -170.667953 0.000000 -9.094227 -143.052477 0.000000 -48.208635 122.678477 0.000000 0.000000 0.000000 0.000000
0.090230 -0.024188 0.002059 0.000000 0.000000 0.000000 0.000000 -44.145357 0.475070 0.000000 30.342096 -71.566176 0.000000 -76.774538 12.644075 0.000000 0.000000 0.000000 33.141466 0.000000 -56.476660 -37.259118 0.000000 -105.383110 -53.067996 0.000000 -156.939169 0.000000 0.000000 0.000000 42.582215 0.000000 -71.631299 -36.958049 0.000000 -57.243781 -50.942874 0.000000 -38.093189 0.000000 0.000000 0.000000 16.985323 166.179712 0.000000 24.287203 -170.233624 0.000000 -1.431295 135.976478 0.000000 0.000000 0.000000 0.000000 -11.904677 -171.553763 0.000000 -11.489757 -141.276479 0.000000 -45.895097 123.658624 0.000000 0.000000 0.000000 0.000000
0.092712 -0.027034 0.002285 0.000000 0.000000 0.000000 0.000000 -43.906580 -1.317712 0.000000 28.741339 -70.529697 0.000000 -77.746956 15.753340 0.000000 0.000000 0.000000 33.684444 0.000000 -57.558538 -42.617925 0.000000 -105.170725 -59.622097 0.000000 -163.416172 0.000000 0.000000 0.000000 46.070185 0.000000 -74.412712 -34.512379 0.000000 -57.564989 -52.803341 0.000000 -29.223958 0.000000 0.000000 0.000000 16.933572 168.362115 0.000000 23.328592 -164.362808 0.000000 -5.232980 143.447727 0.000000 0.000000 0.000000 0.000000 -12.454178 -173.868589 0.000000 -12.239133 -141.312292 0.000000 -39.979141 120.669500 0.000000 0.000000 0.000000 0.000000
0.093277 -0.026320 0.002347 0.000000 0.000000 0.000000 0.000000 -43.834213 -1.982585 0.000000 34.334960 -70.819920 0.000000 -77.404888 18.148031 0.000000 0.000000 0.000000 44.997142 0.000000 -57.668727 -46.092076 0.000000 -101.745762 -68.890469 0.000000 -152.455480 0.000000 0.000000 0.000000 50.790152 0.000000 -80.699056 -30.245315 0.000000 -60.568414 -47.497649 0.000000 -28.857380 0.000000 0.000000 0.000000 16.679736 170.163507 0.000000 22.256745 -158.596962 0.000000 -2.364408 149.432618 0.000000 0.000000 0.000000 0.000000 -12.786712 -174.311737 0.000000 -14.034249 -142.862084 0.000000 -36.154689 118.941460 0.000000 0.000000 0.000000 0.000000
0.094321 -0.025304 0.002368 0.000000 0.000000 0.000000 0.000000 -43.688408 -1.943291 0.000000 37.661782 -71.671913 0.000000 -79.641785 19.518553 0.000000 0.000000 0.000000 51.545583 0.000000 -57.502912 -33.172274 0.000000 -100.929173 -57.972127 0.000000 -133.911203 0.000000 0.000000 0.000000 51.700777 0.000000 -103.741834 -24.138292 0.000000 -60.264349 -40.898491 0.000000 -28.033997 0.000000 0.000000 0.000000 16.641342 168.925282 0.000000 21.852767 -161.638303 0.000000 -8.251283 146.944810 0.000000 0.000000 0.000000 0.000000 -14.829480 -175.761169 0.000000 -13.695445 -144.064801 0.000000 -38.959742 123.111014 0.000000 0.000000 0.000000 0.000000
0.094446 -0.021758 0.002810 0.000000 0.000000 0.000000 0.000000 -43.765779 -1.241877 0.000000 49.095385 -72.551106 0.000000 -80.124345 24.538249 0.000000 0.000000 0.000000 50.813341 0.000000 -59.166080 -25.230999 0.000000 -99.819120 -54.674280 0.000000 -132.895911 0.000000 0.000000 0.000000 54.141415 0.000000 -119.286323 -24.671586 0.000000 -74.329240 -43.723374 0.000000 -34.050162 0.000000 0.000000 0.000000 15.156862 168.209147 0.000000 22.668485 -162.589231 0.000000 -19.225579 147.392073 0.000000 0.000000 0.000000 0.000000 -17.720411 -176.983740 0.000000 -11.699227 -149.277611 0.000000 -43.893620 123.797517 0.000000 0.000000 0.000000 0.000000
0.094098 -0.010566 0.002937 0.000000 0.000000 0.000000 0.000000 -43.734972 -1.164447 0.000000 61.788426 -69.866525 0.000000 -79.820372 32.551573 0.000000 0.000000 0.000000 48.035246 0.000000 -62.343078 -27.550389 0.000000 -102.798941 -55.786940 0.000000 -131.003671 0.000000 0.000000 0.000000 55.695385 0.000000 -121.099892 -23.832938 0.000000 -79.674536 -45.625654 0.000000 -38.049231 0.000000 0.000000 0.000000 14.716805 167.845591 0.000000 23.273139 -161.285992 0.000000 -21.334228 146.598653 0.000000 0.000000 0.000000 0.000000 -17.601556 -177.726715 0.000000 -8.830080 -151.025706 0.000000 -48.478079 123.443920 0.000000 0.000000 0.000000 0.000000
0.088049 0.010140 0.002945 0.000000 0.000000 0.000000 0.000000 -43.669220 -0.504987 0.000000 73.681262 -63.812300 0.000000 -79.780239 43.777148 0.000000 0.000000 0.000000 48.498513 0.000000 -68.526516 -34.083927 0.000000 -116.570594 -62.203516 0.000000 -135.057483 0.000000 0.000000 0.000000 56.554577 0.000000 -117.617131 -22.422560 0.000000 -78.385130 -45.696318 0.000000 -40.994897 0.000000 0.000000 0.000000 12.245434 167.522857 0.000000 26.948150 -165.959350 0.000000 -28.530040 135.718390 0.000000 0.000000 0.000000 0.000000 -18.935512 -171.149184 0.000000 -5.460389 -157.401206 0.000000 -54.385939 122.668678 0.000000 0.000000 0.000000 0.000000
0.080891 0.027047 0.002925 0.000000 0.000000 0.000000 0.000000 -41.637387 -0.816430 0.000000 83.077670 -56.376085 0.000000 -82.009662 55.362367 0.000000 0.000000 0.000000 49.079119 0.000000 -70.822163 -30.161147 0.000000 -130.934973 -63.675366 0.000000 -174.782013 0.000000 0.000000 0.000000 60.989957 0.000000 -112.244383 -32.663713 0.000000 -90.330112 -58.295849 0.000000 -55.772804 0.000000 0.000000 0.000000 13.332324 167.507976 0.000000 28.908998 -173.649059 0.000000 -33.487777 137.749200 0.000000 0.000000 0.000000 0.000000 -16.622479 -162.998608 0.000000 -5.336746 -155.908474 0.000000 -61.625535 139.965609 0.000000 0.000000 0.000000 0.000000
0.077356 0.034491 0.002903 0.000000 0.000000 0.000000 0.000000 -41.105714 -0.474769 0.000000 85.168647 -51.143600 0.000000 -78.570853 68.342070 0.000000 0.000000 0.000000 50.588813 0.000000 -70.445694 -26.770299 0.000000 -156.715559 -53.862925 0.000000 177.314450 0.000000 0.000000 0.000000 62.374004 0.000000 -110.951992 -32.758934 0.000000 -94.931503 -59.577588 0.000000 -59.200835 0.000000 0.000000 0.000000 12.780525 167.061925 0.000000 31.285191 -173.231373 0.000000 -35.664771 144.511234 0.000000 0.000000 0.000000 0.000000 -15.802097 -162.786321 0.000000 -5.141295 -155.874059 0.000000 -61.149603 145.561896 0.000000 0.000000 0.000000 0.000000
0.075010 0.037454 0.002883 0.000000 0.000000 0.000000 0.000000 -41.066026 0.245390 0.000000 85.417695 -47.674509 0.000000 -76.148992 71.989043 0.000000 0.000000 0.000000 52.780940 0.000000 -68.722664 -21.637157 0.000000 -169.974598 -46.074094 0.000000 -179.227662 0.000000 0.000000 0.000000 61.851456 0.000000 -114.708063 -25.001663 0.000000 -99.687546 -53.398843 0.000000 -57.664582 0.000000 0.000000 0.000000 11.699630 167.555170 0.000000 32.955725 -172.116566 0.000000 -33.954630 148.480369 0.000000 0.000000 0.000000 0.000000 -15.560579 -165.338376 0.000000 -4.892992 -155.197841 0.000000 -59.039400 138.952082 0.000000 0.000000 0.000000 0.000000
0.074341 0.035841 0.002703 0.000000 0.000000 0.000000 0.000000 -42.876829 2.922394 0.000000 84.811116 -52.614492 0.000000 -81.856639 61.273520 0.000000 0.000000 0.000000 52.095834 0.000000 -64.508852 -15.548418 0.000000 -168.049085 -38.639587 0.000000 -168.822729 0.000000 0.000000 0.000000 61.119106 0.000000 -121.984211 -14.342920 0.000000 -98.429520 -42.256619 0.000000 -56.075467 0.000000 0.000000 0.000000 11.370614 166.400371 0.000000 33.930550 -173.456877 0.000000 -31.311363 147.812390 0.000000 0.000000 0.000000 0.000000 -12.279309 -162.525990 0.000000 -6.355719 -157.092000 0.000000 -60.925739 133.613393 0.000000 0.000000 0.000000 0.000000
0.074673 0.033274 0.002025 0.000000 0.000000 0.000000 0.000000 -42.848002 6.654694 0.000000 85.146428 -57.226063 0.000000 -84.234612 56.404984 0.000000 0.000000 0.000000 48.964632 0.000000 -59.398616 2.401420 0.000000 -167.294763 -29.989060 0.000000 -166.674930 0.000000 0.000000 0.000000 58.969014 0.000000 -123.935870 -12.615265 0.000000 -90.343084 -42.915006 0.000000 -50.359912 0.000000 0.000000 0.000000 11.725665 166.407959 0.000000 30.594185 -172.819093 0.000000 -25.847657 142.720295 0.000000 0.000000 0.000000 0.000000 -12.442024 -163.016320 0.000000 -6.610415 -159.168554 0.000000 -59.587962 131.698006 0.000000 0.000000 0.000000 0.000000
0.076357 0.032707 0.001098 0.000000 0.000000 0.000000 0.000000 -42.904914 8.940888 0.000000 86.049370 -59.984005 0.000000 -85.358090 54.381630 0.000000 0.000000 0.000000 53.247251 0.000000 -44.833675 12.500598 0.000000 -157.019023 -28.371812 0.000000 -156.682097 0.000000 0.000000 0.000000 58.926440 0.000000 -125.540927 -15.564035 0.000000 -85.383178 -43.151700 0.000000 -49.165096 0.000000 0.000000 0.000000 14.462472 166.818582 0.000000 26.727683 -169.601426 0.000000 -24.052404 136.149532 0.000000 0.000000 0.000000 0.000000 -13.002823 -170.553644 0.000000 -6.244618 -155.878120 0.000000 -56.683867 128.154074 0.000000 0.000000 0.000000 0.000000
0.076457 0.031352 0.000777 0.000000 0.000000 0.000000 0.000000 -43.460229 8.974025 0.000000 85.976794 -62.425830 0.000000 -86.054476 51.101751 0.000000 0.000000 0.000000 51.304771 0.000000 -42.790593 10.808387 0.000000 -153.593265 -27.346536 0.000000 -151.774197 0.000000 0.000000 0.000000 60.267601 0.000000 -127.797829 -14.722329 0.000000 -82.740113 -43.178039 0.000000 -47.315089 0.000000 0.000000 0.000000 14.576701 166.864941 0.000000 26.673232 -169.782354 0.000000 -20.844821 137.675328 0.000000 0.000000 0.000000 0.000000 -12.630047 -169.380718 0.000000 -6.169041 -155.203413 0.000000 -56.909651 127.150067 0.000000 0.000000 0.000000 0.000000
0.077718 0.026055 0.000202 0.000000 0.000000 0.000000 0.000000 -45.044482 8.839549 0.000000 82.370731 -67.719744 0.000000 -85.407479 44.857949 0.000000 0.000000 0.000000 49.243103 0.000000 -41.634659 3.503382 0.000000 -141.859142 -30.129045 0.000000 -154.692761 0.000000 0.000000 0.000000 58.796856 0.000000 -121.576872 -16.164996 0.000000 -82.273668 -38.786095 0.000000 -34.864368 0.000000 0.000000 0.000000 15.329580 166.526858 0.000000 25.663299 -170.002580 0.000000 -12.792080 133.977395 0.000000 0.000000 0.000000 0.000000 -10.122885 -164.448668 0.000000 -7.484455 -151.419648 0.000000 -53.186972 118.823883 0.000000 0.000000 0.000000 0.000000
0.080393 0.017006 0.000132 0.000000 0.000000 0.000000 0.000000 -45.730826 8.383243 0.000000 76.103460 -72.149678 0.000000 -84.421735 39.629871 0.000000 0.000000 0.000000 51.576966 0.000000 -50.692963 -13.321328 0.000000 -129.660059 -46.506868 0.000000 -156.902902 0.000000 0.000000 0.000000 57.881049 0.000000 -105.279672 -19.711028 0.000000 -62.074560 -43.634424 0.000000 -32.201272 0.000000 0.000000 0.000000 16.754430 166.614002 0.000000 24.053209 -170.973525 0.000000 -4.967569 131.756991 0.000000 0.000000 0.000000 0.000000 -8.577199 -162.766851 0.000000 -8.128705 -148.849883 0.000000 -53.505227 118.384018 0.000000 0.000000 0.000000 0.000000
0.083561 0.000331 0.000135 0.000000 0.000000 0.000000 0.000000 -45.155234 4.822207 0.000000 55.387222 -78.123953 0.000000 -84.147473 23.885213 0.000000 0.000000 0.000000 48.958006 0.000000 -55.036396 -31.492344 0.000000 -105.967486 -59.428484 0.000000 -147.141660 0.000000 0.000000 0.000000 53.434567 0.000000 -75.570603 -30.895731 0.000000 -59.839806 -49.887504 0.000000 -41.762815 0.000000 0.000000 0.000000 16.834822 166.833888 0.000000 23.588161 -172.791539 0.000000 -4.860561 126.817808 0.000000 0.000000 0.000000 0.000000 -7.937711 -161.196788 0.000000 -10.065873 -149.018113 0.000000 -53.169602 117.203866 0.000000 0.000000 0.000000 0.000000
0.084654 -0.013426 0.000500 0.000000 0.000000 0.000000 0.000000 -44.462218 0.144697 0.000000 36.148818 -71.483620 0.000000 -80.310684 13.766209 0.000000 0.000000 0.000000 43.776125 0.000000 -55.050840 -45.875529 0.000000 -97.370300 -69.691611 0.000000 -153.409846 0.000000 0.000000 0.000000 49.387722 0.000000 -72.520786 -38.159963 0.000000 -54.693069 -55.690740 0.000000 -27.023175 0.000000 0.000000 0.000000 16.607952 166.843518 0.000000 23.548188 -172.529985 0.000000 -6.433182 132.025462 0.000000 0.000000 0.000000 0.000000 -8.551253 -164.234577 0.000000 -12.876884 -145.991346 0.000000 -52.734805 117.238793 0.000000 0.000000 0.000000 0.000000
0.086389 -0.021185 0.000993 0.000000 0.000000 0.000000 0.000000 -43.710511 -2.833179 0.000000 32.389388 -66.686912 0.000000 -78.428787 10.416313 0.000000 0.000000 0.000000 44.970504 0.000000 -59.184130 -48.598961 0.000000 -94.256343 -73.577258 0.000000 -151.967165 0.000000 0.000000 0.000000 49.308807 0.000000 -72.981307 -38.786482 0.000000 -56.976896 -56.840659 0.000000 -24.181917 0.000000 0.000000 0.000000 16.242482 167.500833 0.000000 21.458617 -167.011735 0.000000 -10.589299 144.034357 0.000000 0.000000 0.000000 0.000000 -9.343530 -168.183144 0.000000 -14.364222 -142.460970 0.000000 -49.888218 117.593247 0.000000 0.000000 0.000000 0.000000
0.087039 -0.020732 0.001445 0.000000 0.000000 0.000000 0.000000 -43.631006 -4.289230 0.000000 34.945178 -67.698853 0.000000 -78.949536 15.265144 0.000000 0.000000 0.000000 47.542409 0.000000 -61.308890 -46.239233 0.000000 -97.736470 -66.750630 0.000000 -147.747018 0.000000 0.000000 0.000000 52.263773 0.000000 -88.568648 -34.322000 0.000000 -53.547184 -49.690662 0.000000 -21.121736 0.000000 0.000000 0.000000 14.944569 167.695346 0.000000 22.584461 -168.061192 0.000000 -17.388260 138.746361 0.000000 0.000000 0.000000 0.000000 -9.436050 -168.013976 0.000000 -16.591124 -142.941628 0.000000 -45.604884 118.672755 0.000000 0.000000 0.000000 0.000000
0.088075 -0.020116 0.001795 0.000000 0.000000 0.000000 0.000000 -43.715923 -3.863088 0.000000 39.668130 -68.469205 0.000000 -80.411659 19.578312 0.000000 0.000000 0.000000 51.454027 0.000000 -62.298183 -40.213462 0.000000 -94.658267 -62.620144 0.000000 -124.635989 0.000000 0.000000 0.000000 53.402354 0.000000 -95.789771 -30.251794 0.000000 -59.578502 -46.733874 0.000000 -31.347272 0.000000 0.000000 0.000000 13.560367 167.636966 0.000000 22.042504 -166.817656 0.000000 -28.162584 139.188521 0.000000 0.000000 0.000000 0.000000 -10.193637 -169.484894 0.000000 -19.009542 -145.741835 0.000000 -37.138829 120.410025 0.000000 0.000000 0.000000 0.000000
0.090622 -0.018499 0.002258 0.000000 0.000000 0.000000 0.000000 -45.137428 -3.897404 0.000000 41.529083 -69.402680 0.000000 -81.841606 20.907644 0.000000 0.000000 0.000000 54.453549 0.000000 -59.137691 -10.736805 0.000000 -95.674458 -43.060649 0.000000 -121.193790 0.000000 0.000000 0.000000 50.503205 0.000000 -127.922198 -17.076791 0.000000 -67.327783 -35.670708 0.000000 -31.672297 0.000000 0.000000 0.000000 11.638239 166.727110 0.000000 22.866161 -165.032578 0.000000 -26.329093 140.679157 0.000000 0.000000 0.000000 0.000000 -12.720866 -169.230610 0.000000 -16.289788 -145.168292 0.000000 -39.837358 123.275774 0.000000 0.000000 0.000000 0.000000
0.090591 -0.010588 0.003118 0.000000 0.000000 0.000000 0.000000 -45.338865 -2.848836 0.000000 56.553044 -69.146548 0.000000 -81.700150 31.479811 0.000000 0.000000 0.000000 51.494320 0.000000 -61.906683 -12.270354 0.000000 -95.312029 -46.179529 0.000000 -121.910666 0.000000 0.000000 0.000000 50.428220 0.000000 -129.206257 -18.763163 0.000000 -74.194653 -37.924567 0.000000 -35.444828 0.000000 0.000000 0.000000 9.098493 164.342240 0.000000 24.993409 -161.543306 0.000000 -28.192871 143.802769 0.000000 0.000000 0.000000 0.000000 -16.717545 -171.805152 0.000000 -12.592160 -146.967421 0.000000 -47.124592 123.229987 0.000000 0.000000 0.000000 0.000000
0.090492 -0.002235 0.003261 0.000000 0.000000 0.000000 0.000000 -45.143279 -2.690025 0.000000 63.613179 -69.671014 0.000000 -81.660333 37.528744 0.000000 0.000000 0.000000 53.296482 0.000000 -57.615267 -15.547750 0.000000 -101.391836 -51.227401 0.000000 -126.420959 0.000000 0.000000 0.000000 52.871846 0.000000 -132.737022 -21.323994 0.000000 -81.957444 -43.432145 0.000000 -38.083340 0.000000 0.000000 0.000000 9.469446 164.333688 0.000000 24.831986 -160.427933 0.000000 -28.075006 142.609805 0.000000 0.000000 0.000000 0.000000 -17.255481 -172.897284 0.000000 -10.653822 -149.400389 0.000000 -51.972842 124.061148 0.000000 0.000000 0.000000 0.000000
0.084000 0.020801 0.003285 0.000000 0.000000 0.000000 0.000000 -42.808204 -2.908165 0.000000 78.423010 -60.965242 0.000000 -79.797222 47.162978 0.000000 0.000000 0.000000 52.029823 0.000000 -61.906310 -15.900407 0.000000 -129.314392 -48.685458 0.000000 -146.609997 0.000000 0.000000 0.000000 57.246570 0.000000 -133.203235 -30.633540 0.000000 -89.115940 -50.408360 0.000000 -51.585367 0.000000 0.000000 0.000000 10.317976 165.284741 0.000000 29.025512 -169.480262 0.000000 -34.242827 145.256784 0.000000 0.000000 0.000000 0.000000 -15.356058 -166.526552 0.000000 -7.502523 -154.833833 0.000000 -62.478300 132.295062 0.000000 0.000000 0.000000 0.000000
0.073860 0.039330 0.003257 0.000000 0.000000 0.000000 0.000000 -41.426293 -1.562104 0.000000 83.806547 -50.268639 0.000000 -75.724974 61.814074 0.000000 0.000000 0.000000 52.593713 0.000000 -73.668063 -21.436887 0.000000 -163.734257 -51.945392 0.000000 -176.336192 0.000000 0.000000 0.000000 62.178926 0.000000 -124.886784 -34.793022 0.000000 -98.646002 -59.356716 0.000000 -60.603905 0.000000 0.000000 0.000000 9.069846 165.079351 0.000000 33.215561 -177.331758 0.000000 -35.272190 149.299400 0.000000 0.000000 0.000000 0.000000 -15.894699 -160.759467 0.000000 -5.024460 -156.553157 0.000000 -67.355600 144.284375 0.000000 0.000000 0.000000 0.000000
0.068207 0.045506 0.003088 0.000000 0.000000 0.000000 0.000000 -41.076693 -0.704650 0.000000 85.740697 -44.620338 0.000000 -71.226772 67.744364 0.000000 0.000000 0.000000 53.652047 0.000000 -78.403729 -18.798746 0.000000 175.568310 -46.831839 0.000000 175.479793 0.000000 0.000000 0.000000 62.279882 0.000000 -118.661587 -33.955765 0.000000 -105.725585 -61.313774 0.000000 -69.385726 0.000000 0.000000 0.000000 9.950813 166.792039 0.000000 33.435377 -176.067784 0.000000 -35.050521 149.318072 0.000000 0.000000 0.000000 0.000000 -16.209815 -159.999186 0.000000 -4.598086 -156.974685 0.000000 -66.257613 144.687172 0.000000 0.000000 0.000000 0.000000
0.064570 0.048024 0.002885 0.000000 0.000000 0.000000 0.000000 -41.406200 0.277333 0.000000 86.725650 -40.861848 0.000000 -66.529651 73.306571 0.000000 0.000000 0.000000 51.017327 0.000000 -70.618686 -13.649071 0.000000 176.100599 -43.600580 0.000000 -178.102413 0.000000 0.000000 0.000000 62.238068 0.000000 -116.033849 -32.799727 0.000000 -107.982908 -60.173447 0.000000 -69.357479 0.000000 0.000000 0.000000 9.343623 167.687838 0.000000 33.900686 -177.009651 0.000000 -38.050416 147.030609 0.000000 0.000000 0.000000 0.000000 -16.460595 -161.466942 0.000000 -4.095529 -156.757736 0.000000 -64.996234 136.173129 0.000000 0.000000 0.000000 0.000000
0.064925 0.046738 0.002797 0.000000 0.000000 0.000000 0.000000 -42.151615 3.241603 0.000000 86.199748 -46.717756 0.000000 -74.387770 66.912061 0.000000 0.000000 0.000000 51.009556 0.000000 -61.744669 -6.073038 0.000000 178.620402 -31.109350 0.000000 -176.293753 0.000000 0.000000 0.000000 61.586909 0.000000 -104.513178 -28.448465 0.000000 -110.057398 -51.528668 0.000000 -67.278657 0.000000 0.000000 0.000000 9.012531 167.614512 0.000000 32.281157 -177.795365 0.000000 -39.691806 144.139590 0.000000 0.000000 0.000000 0.000000 -14.025346 -160.281722 0.000000 -6.112199 -157.405939 0.000000 -64.774255 134.050725 0.000000 0.000000 0.000000 0.000000
0.065549 0.044687 0.002780 0.000000 0.000000 0.000000 0.000000 -42.549085 5.191357 0.000000 86.118146 -50.195124 0.000000 -79.812062 60.986938 0.000000 0.000000 0.000000 52.406130 0.000000 -56.359535 19.574989 0.000000 -178.771046 -21.151306 0.000000 -175.468970 0.000000 0.000000 0.000000 61.337268 0.000000 -107.353207 -10.648919 0.000000 -100.868484 -44.338338 0.000000 -60.698809 0.000000 0.000000 0.000000 9.177630 167.583572 0.000000 31.458183 -177.113143 0.000000 -44.319264 146.336300 0.000000 0.000000 0.000000 0.000000 -13.134393 -161.817735 0.000000 -6.214633 -157.728100 0.000000 -61.453137 124.380018 0.000000 0.000000 0.000000 0.000000
0.065386 0.044502 0.002780 0.000000 0.000000 0.000000 0.000000 -42.716715 5.036442 0.000000 85.484027 -50.996046 0.000000 -81.161791 59.707044 0.000000 0.000000 0.000000 53.188312 0.000000 -53.174018 24.196190 0.000000 -176.312060 -18.368658 0.000000 -171.485782 0.000000 0.000000 0.000000 61.088076 0.000000 -110.282291 -5.833323 0.000000 -99.171449 -38.434139 0.000000 -59.652521 0.000000 0.000000 0.000000 9.340038 167.307655 0.000000 31.442153 -176.051227 0.000000 -41.016495 140.716476 0.000000 0.000000 0.000000 0.000000 -13.229763 -162.952534 0.000000 -5.717035 -157.834859 0.000000 -60.354643 123.345426 0.000000 0.000000 0.000000 0.000000
0.066073 0.043980 0.002904 0.000000 0.000000 0.000000 0.000000 -44.536538 5.429244 0.000000 83.513123 -55.568738 0.000000 -84.403944 53.236913 0.000000 0.000000 0.000000 52.966811 0.000000 -42.859371 17.392694 0.000000 -166.131353 -20.088692 0.000000 -163.538065 0.000000 0.000000 0.000000 59.790717 0.000000 -119.016828 -4.651129 0.000000 -96.814132 -36.235585 0.000000 -56.443613 0.000000 0.000000 0.000000 9.335444 166.134153 0.000000 32.063910 -174.218486 0.000000 -27.360423 142.574712 0.000000 0.000000 0.000000 0.000000 -11.860223 -163.589758 0.000000 -6.358441 -156.840562 0.000000 -60.873054 126.830584 0.000000 0.000000 0.000000 0.000000
0.069463 0.037532 0.002913 0.000000 0.000000 0.000000 0.000000 -45.350144 5.088399 0.000000 81.857290 -61.649664 0.000000 -87.040528 48.094600 0.000000 0.000000 0.000000 52.291962 0.000000 -42.901418 8.863462 0.000000 -145.262244 -28.711790 0.000000 -157.302092 0.000000 0.000000 0.000000 59.381254 0.000000 -123.033793 -13.774792 0.000000 -93.404789 -47.269107 0.000000 -48.421801 0.000000 0.000000 0.000000 9.843683 165.479033 0.000000 31.135270 -173.960960 0.000000 -19.969838 141.341658 0.000000 0.000000 0.000000 0.000000 -11.004914 -162.765986 0.000000 -6.733659 -154.652652 0.000000 -60.889431 127.099668 0.000000 0.000000 0.000000 0.000000
0.074466 0.027165 0.002921 0.000000 0.000000 0.000000 0.000000 -44.785445 4.393896 0.000000 80.536230 -66.113629 0.000000 -86.206595 43.928164 0.000000 0.000000 0.000000 51.066265 0.000000 -46.638207 1.403750 0.000000 -136.223466 -35.406898 0.000000 -155.131486 0.000000 0.000000 0.000000 59.209710 0.000000 -121.532320 -17.917136 0.000000 -87.872670 -48.394036 0.000000 -43.251779 0.000000 0.000000 0.000000 11.317021 166.785519 0.000000 28.092670 -166.926847 0.000000 -16.596400 137.174413 0.000000 0.000000 0.000000 0.000000 -10.625387 -164.589316 0.000000 -6.582501 -152.140541 0.000000 -59.069749 124.080753 0.000000 0.000000 0.000000 0.000000
0.079815 0.013318 0.002921 0.000000 0.000000 0.000000 0.000000 -44.349493 3.219035 0.000000 77.036450 -70.138548 0.000000 -82.953230 39.387593 0.000000 0.000000 0.000000 46.339243 0.000000 -55.282697 -21.358275 0.000000 -117.919269 -43.224845 0.000000 -141.670021 0.000000 0.000000 0.000000 57.569356 0.000000 -110.874705 -20.402671 0.000000 -74.957344 -45.199191 0.000000 -42.850701 0.000000 0.000000 0.000000 15.137450 170.957827 0.000000 22.785754 -164.889608 0.000000 -5.774993 131.530573 0.000000 0.000000 0.000000 0.000000 -10.933723 -165.396919 0.000000 -6.441278 -152.429330 0.000000 -50.084783 115.854511 0.000000 0.000000 0.000000 0.000000
0.084830 -0.010036 0.002903 0.000000 0.000000 0.000000 0.000000 -44.407663 1.549480 0.000000 44.488238 -76.943480 0.000000 -81.361622 18.540697 0.000000 0.000000 0.000000 39.562974 0.000000 -55.849187 -38.760551 0.000000 -103.757980 -57.105406 0.000000 -151.381587 0.000000 0.000000 0.000000 48.219846 0.000000 -80.794912 -32.761771 0.000000 -53.786650 -47.064371 0.000000 -37.522535 0.000000 0.000000 0.000000 14.833248 169.567493 0.000000 22.044370 -165.636751 0.000000 -3.824099 134.170620 0.000000 0.000000 0.000000 0.000000 -10.940699 -165.731734 0.000000 -10.016239 -148.170815 0.000000 -46.547619 112.824372 0.000000 0.000000 0.000000 0.000000
0.088504 -0.027389 0.002976 0.000000 0.000000 0.000000 0.000000 -44.219664 -1.995992 0.000000 29.774094 -68.811722 0.000000 -80.126714 11.032388 0.000000 0.000000 0.000000 37.414847 0.000000 -53.779204 -44.400727 0.000000 -93.049677 -68.632343 0.000000 -154.839880 0.000000 0.000000 0.000000 44.792941 0.000000 -74.480481 -38.310470 0.000000 -48.037680 -48.888175 0.000000 -38.669140 0.000000 0.000000 0.000000 14.649781 169.881237 0.000000 21.941279 -166.858709 0.000000 -6.482907 136.340345 0.000000 0.000000 0.000000 0.000000 -11.858787 -168.239590 0.000000 -14.960427 -142.744473 0.000000 -39.615617 113.906933 0.000000 0.000000 0.000000 0.000000
0.091004 -0.037340 0.003061 0.000000 0.000000 0.000000 0.000000 -44.174417 -5.526703 0.000000 25.733989 -62.410991 0.000000 -78.737995 4.595362 0.000000 0.000000 0.000000 37.875775 0.000000 -57.106243 -47.477777 0.000000 -85.573832 -75.116109 0.000000 -145.559551 0.000000 0.000000 0.000000 42.324780 0.000000 -73.341447 -41.897720 0.000000 -46.544324 -51.903276 0.000000 -33.218626 0.000000 0.000000 0.000000 14.769439 168.224128 0.000000 21.049293 -167.708051 0.000000 -6.916627 138.694842 0.000000 0.000000 0.000000 0.000000 -15.160790 -173.061427 0.000000 -15.179477 -140.240949 0.000000 -40.838197 118.087516 0.000000 0.000000 0.000000 0.000000
0.094898 -0.033444 0.003395 0.000000 0.000000 0.000000 0.000000 -44.912205 -6.378499 0.000000 28.176428 -66.778143 0.000000 -78.584808 7.641376 0.000000 0.000000 0.000000 29.514379 0.000000 -52.288554 -36.939787 0.000000 -111.607214 -39.491707 0.000000 -159.881000 0.000000 0.000000 0.000000 45.644695 0.000000 -76.974311 -40.940254 0.000000 -53.150810 -50.775210 0.000000 -33.959627 0.000000 0.000000 0.000000 14.246457 167.649782 0.000000 20.862959 -167.261044 0.000000 -10.091965 137.484796 0.000000 0.000000 0.000000 0.000000 -14.508542 -170.377326 0.000000 -15.507738 -141.914619 0.000000 -39.196616 121.262515 0.000000 0.000000 0.000000 0.000000
0.095533 -0.029573 0.003763 0.000000 0.000000 0.000000 0.000000 -44.822307 -6.340537 0.000000 32.889163 -68.387242 0.000000 -80.236604 14.847132 0.000000 0.000000 0.000000 47.526410 0.000000 -54.416628 -33.492635 0.000000 -101.676913 -53.520433 0.000000 -134.934118 0.000000 0.000000 0.000000 50.171002 0.000000 -84.867254 -33.946360 0.000000 -52.663531 -45.064500 0.000000 -29.363041 0.000000 0.000000 0.000000 14.295258 167.503599 0.000000 19.664415 -163.682081 0.000000 -18.730284 144.264493 0.000000 0.000000 0.000000 0.000000 -15.591004 -171.362628 0.000000 -14.062754 -142.867225 0.000000 -44.970604 123.323130 0.000000 0.000000 0.000000 0.000000
0.095927 -0.026830 0.003989 0.000000 0.000000 0.000000 0.000000 -44.628497 -5.742153 0.000000 34.925138 -69.240347 0.000000 -80.183737 18.639264 0.000000 0.000000 0.000000 47.259028 0.000000 -55.490783 -19.933359 0.000000 -99.958885 -45.011170 0.000000 -131.430990 0.000000 0.000000 0.000000 49.985758 0.000000 -107.091999 -24.373311 0.000000 -50.853668 -36.932690 0.000000 -29.295896 0.000000 0.000000 0.000000 13.048624 165.316612 0.000000 20.777255 -162.421468 0.000000 -17.776306 140.890712 0.000000 0.000000 0.000000 0.000000 -17.333345 -173.446365 0.000000 -12.288313 -146.793869 0.000000 -48.886928 121.964196 0.000000 0.000000 0.000000 0.000000
0.095471 -0.016220 0.004291 0.000000 0.000000 0.000000 0.000000 -45.054711 -4.963391 0.000000 51.409443 -70.278963 0.000000 -80.247146 20.960590 0.000000 0.000000 0.000000 48.953085 0.000000 -56.380022 -23.625677 0.000000 -102.954970 -47.879140 0.000000 -136.992078 0.000000 0.000000 0.000000 48.516268 0.000000 -126.319332 -18.082772 0.000000 -66.018053 -32.521206 0.000000 -28.435546 0.000000 0.000000 0.000000 9.942957 163.213057 0.000000 22.841412 -160.902183 0.000000 -25.303386 145.311102 0.000000 0.000000 0.000000 0.000000 -17.356533 -174.462849 0.000000 -11.673135 -146.692034 0.000000 -51.303478 120.026153 0.000000 0.000000 0.000000 0.000000
