HIERARCHY
ROOT Hips
{
  OFFSET 0.000000 0.000000 0.000000
  CHANNELS 6 Xposition Yposition Zposition Xrotation Yrotation Zrotation
  JOINT Spine
  {
    OFFSET 0.785918 22.667751 -11.192521
    CHANNELS 3 Xrotation Yrotation Zrotation
    JOINT Chest
    {
      OFFSET 0.785918 22.667751 -11.192521
      CHANNELS 3 Xrotation Yrotation Zrotation
      JOINT Neck
      {
        OFFSET 0.000000 4.280912 0.000000
        CHANNELS 3 Xrotation Yrotation Zrotation
        JOINT Head
        {
          OFFSET 0.000000 4.254871 0.000000
          CHANNELS 3 Xrotation Yrotation Zrotation
          End Site
          {
            OFFSET 0.000000 1.276461 0.000000
          }
        }
      }
      JOINT LeftCollar
      {
        OFFSET 3.000000 4.000000 0.000000
        CHANNELS 3 Xrotation Yrotation Zrotation
        JOINT LeftShoulder
        {
          OFFSET 16.621605 -2.780659 -2.297863
          CHANNELS 3 Xrotation Yrotation Zrotation
          JOINT LeftArm
          {
            OFFSET 7.570161 -18.010043 0.790673
            CHANNELS 3 Xrotation Yrotation Zrotation
            JOINT LeftForeArm
            {
              OFFSET 4.258502 -21.330331 -3.694189
              CHANNELS 3 Xrotation Yrotation Zrotation
              JOINT LeftHand
              {
                OFFSET -1.020528 -3.245478 -1.657259
                CHANNELS 3 Xrotation Yrotation Zrotation
                End Site
                {
                  OFFSET -0.306158 -0.973643 -0.497178
                }
              }
            }
          }
        }
      }
      JOINT RightCollar
      {
        OFFSET -3.000000 4.000000 0.000000
        CHANNELS 3 Xrotation Yrotation Zrotation
        JOINT RightShoulder
        {
          OFFSET -16.621605 2.780659 2.297863
          CHANNELS 3 Xrotation Yrotation Zrotation
          JOINT RightArm
          {
            OFFSET -7.047239 -26.880381 -0.525442
            CHANNELS 3 Xrotation Yrotation Zrotation
            JOINT RightForeArm
            {
              OFFSET -7.219958 -17.761464 -6.028907
              CHANNELS 3 Xrotation Yrotation Zrotation
              JOINT RightHand
              {
                OFFSET 1.362391 -2.129385 -3.788414
                CHANNELS 3 Xrotation Yrotation Zrotation
                End Site
                {
                  OFFSET 0.408717 -0.638815 -1.136524
                }
              }
            }
          }
        }
      }
    }
  }
  JOINT LeftUpLeg
  {
    OFFSET 10.014631 -0.404759 2.482655
    CHANNELS 3 Xrotation Yrotation Zrotation
    JOINT LeftLeg
    {
      OFFSET 2.113296 -38.097659 -0.269871
      CHANNELS 3 Xrotation Yrotation Zrotation
      JOINT LeftFoot
      {
        OFFSET -0.633741 -33.349279 19.614675
        CHANNELS 3 Xrotation Yrotation Zrotation
        End Site
        {
          OFFSET -0.190122 -10.004784 5.884402
        }
      }
    }
  }
  JOINT RightUpLeg
  {
    OFFSET -10.014631 0.404759 -2.482655
    CHANNELS 3 Xrotation Yrotation Zrotation
    JOINT RightLeg
    {
      OFFSET 1.865041 -30.879068 8.259322
      CHANNELS 3 Xrotation Yrotation Zrotation
      JOINT RightFoot
      {
        OFFSET -6.913018 -39.753150 16.368861
        CHANNELS 3 Xrotation Yrotation Zrotation
        End Site
        {
          OFFSET -2.073905 -11.925945 4.910658
        }
      }
    }
  }
}
MOTION
Frames: 80
Frame Time: 0.083333
0.111184 0.140942 0.094126 0.635841 -0.057091 -0.073260 0.000000 0.000000 0.000000 -25.926438 11.185813 -5.054789 -46.018994 -10.180383 -2.735190 0.000000 0.000000 0.000000 26.426941 -7.764438 9.497192 -3.240685 -1.425530 -0.050389 -1.514983 0.401038 0.421055 0.734938 2.093896 -0.122076 0.000000 0.000000 0.000000 26.426941 -7.764438 9.497192 -1.660592 0.371408 -0.267044 0.568948 0.085545 0.040344 0.463159 -0.842679 0.208451 0.000000 0.000000 0.000000 0.068466 0.085573 0.628439 -0.830488 -0.024304 -0.580406 0.000000 0.000000 0.000000 -0.041893 -0.060128 -0.522602 -0.020791 -0.007219 0.534284 0.000000 0.000000 0.000000
0.110929 0.140847 0.094561 0.543528 -0.055530 -0.076657 0.000000 0.000000 0.000000 -25.926263 11.192197 -5.020354 -45.969319 -10.163846 -2.749980 0.000000 0.000000 0.000000 26.517317 -7.764443 9.497228 -2.744121 -1.221706 -0.079049 -1.211320 0.354313 0.370013 0.638907 1.725371 -0.088062 0.000000 0.000000 0.000000 26.517317 -7.764443 9.497228 -1.416223 0.300842 -0.251129 0.556527 0.057091 0.009238 0.352397 -0.666655 0.205445 0.000000 0.000000 0.000000 0.261641 0.087633 0.613452 -1.000250 -0.007924 -0.549451 0.000000 0.000000 0.000000 0.080593 -0.038058 -0.442750 -0.098593 -0.038919 0.418616 0.000000 0.000000 0.000000
0.110296 0.140926 0.095371 1.282982 -0.160900 -0.243150 0.000000 0.000000 0.000000 -25.924416 11.267165 -4.859565 -46.819424 -10.010828 -2.726204 0.000000 0.000000 0.000000 25.759317 -7.764460 9.497466 -6.334528 -2.887905 -0.316859 -2.495880 0.883190 0.894328 1.503434 3.789181 -0.108419 0.000000 0.000000 0.000000 25.759317 -7.764460 9.497466 -3.276782 0.624348 -0.721693 1.446422 0.142069 -0.094053 0.810507 -1.435922 0.698575 0.000000 0.000000 0.000000 1.363365 0.267145 1.702799 -3.222660 0.010923 -1.465930 0.000000 0.000000 0.000000 0.583752 -0.046966 -1.058788 -0.390525 -0.238702 0.819766 0.000000 0.000000 0.000000
0.109633 0.141051 0.096433 1.339046 -0.262346 -0.451452 0.000000 0.000000 0.000000 -25.920286 11.433396 -4.490939 -47.094688 -9.755301 -2.649317 0.000000 0.000000 0.000000 25.668335 -7.764479 9.498051 -5.918875 -2.932885 -0.701934 -1.516631 1.013333 0.935909 1.445992 2.998261 0.265485 0.000000 0.000000 0.000000 25.668335 -7.764479 9.498051 -2.986291 0.321084 -1.189622 1.619893 0.277036 -0.448903 1.011805 -1.196302 1.559927 0.000000 0.000000 0.000000 3.832740 0.481584 2.376728 -5.679024 0.045940 -1.911510 0.000000 0.000000 0.000000 1.614478 0.065700 -1.173090 -0.627076 -0.694074 0.335535 0.000000 0.000000 0.000000
0.109276 0.140978 0.097793 1.555056 -0.385883 -0.698050 0.000000 0.000000 0.000000 -25.916100 11.634626 -4.199165 -47.108630 -9.507735 -2.276215 0.000000 0.000000 0.000000 25.412998 -7.764459 9.498814 -5.307900 -2.915601 -0.975162 -1.033785 1.030199 0.770000 1.224200 2.396921 0.843138 0.000000 0.000000 0.000000 25.412998 -7.764459 9.498814 -2.268262 -0.098265 -1.775262 1.145800 0.654278 -0.731810 1.765367 -1.439819 2.882395 0.000000 0.000000 0.000000 6.697435 0.774570 2.600395 -7.463732 -0.092295 -2.039966 0.000000 0.000000 0.000000 2.131725 0.143413 -1.426011 -0.343975 -1.130343 -0.059867 0.000000 0.000000 0.000000
0.109346 0.140909 0.099501 2.025708 -0.512665 -0.939806 0.000000 0.000000 0.000000 -25.917901 11.675027 -3.952450 -47.219864 -9.210466 -1.819578 0.000000 0.000000 0.000000 24.901860 -7.764477 9.499357 -4.932774 -2.851110 -1.125676 -1.562455 0.899365 0.333866 1.286923 2.418852 1.329086 0.000000 0.000000 0.000000 24.901860 -7.764477 9.499357 -1.610148 -0.363792 -2.066247 1.533334 0.511421 -0.703761 1.257870 -1.533157 3.517934 0.000000 0.000000 0.000000 9.972386 1.119462 2.767616 -10.702284 -0.231396 -2.192480 0.000000 0.000000 0.000000 3.220770 0.346385 -1.540601 -1.588516 -1.495834 -0.303291 0.000000 0.000000 0.000000
0.109264 0.140733 0.101378 2.412670 -0.599895 -1.105768 0.000000 0.000000 0.000000 -25.927023 11.471567 -3.899248 -47.436851 -8.937813 -1.313698 0.000000 0.000000 0.000000 24.479113 -7.764493 9.498644 -4.851147 -2.629892 -0.932991 -1.910681 0.854429 -0.360221 1.293960 2.594298 1.662589 0.000000 0.000000 0.000000 24.479113 -7.764493 9.498644 -1.264505 -0.263361 -2.151507 1.930257 0.294635 -0.510972 0.088970 -1.819236 3.520072 0.000000 0.000000 0.000000 10.111264 1.284815 2.706055 -10.405231 -0.413959 -2.124968 0.000000 0.000000 0.000000 5.126021 0.604031 -1.696942 -3.346365 -2.110366 -0.888622 0.000000 0.000000 0.000000
0.108763 0.140703 0.102864 2.682749 -0.625650 -1.148304 0.000000 0.000000 0.000000 -25.934550 11.261464 -3.993002 -47.617900 -8.767676 -0.931886 0.000000 0.000000 0.000000 24.196835 -7.764495 9.497870 -5.388183 -2.678545 -1.001318 -2.215236 0.906323 -0.080740 1.576836 2.837714 1.792358 0.000000 0.000000 0.000000 24.196835 -7.764495 9.497870 -1.291274 -0.040686 -2.110287 2.223031 0.060103 -0.129549 -0.993382 -2.320673 3.197894 0.000000 0.000000 0.000000 11.543065 1.470512 2.294911 -11.739634 -0.744841 -2.005343 0.000000 0.000000 0.000000 6.327313 0.691435 -2.118534 -4.479255 -2.575135 -1.273153 0.000000 0.000000 0.000000
0.108191 0.141854 0.103515 2.947857 -0.656498 -1.202597 0.000000 0.000000 0.000000 -25.941211 11.085808 -4.041381 -47.857209 -8.639833 -0.676421 0.000000 0.000000 0.000000 23.918693 -7.764510 9.497466 -6.716507 -3.108532 -1.110773 -1.927428 1.239845 0.525564 1.978770 2.874851 2.270505 0.000000 0.000000 0.000000 23.918693 -7.764510 9.497466 -1.578297 0.197611 -1.719375 2.649542 -0.313658 0.223650 -1.434651 -2.933360 2.869117 0.000000 0.000000 0.000000 12.362053 1.632561 1.831310 -13.250247 -0.975370 -1.682925 0.000000 0.000000 0.000000 5.342275 0.531920 -2.653332 -4.207085 -2.622999 -1.350313 0.000000 0.000000 0.000000
0.107603 0.144467 0.105045 2.952333 -0.712270 -1.323005 0.000000 0.000000 0.000000 -25.941562 11.146618 -4.014597 -47.798476 -8.670156 -0.500216 0.000000 0.000000 0.000000 23.891872 -7.764444 9.497379 -6.974045 -3.254039 -0.915642 -2.086986 1.162064 1.488904 1.808195 2.404861 3.083887 0.000000 0.000000 0.000000 23.891872 -7.764444 9.497379 -1.588717 0.175200 -1.073440 2.849688 -0.503371 0.000863 -1.761479 -2.363543 2.331876 0.000000 0.000000 0.000000 8.798362 1.516992 1.415644 -9.988306 -0.857901 -0.836089 0.000000 0.000000 0.000000 4.761638 0.447660 -2.954965 -3.993854 -2.479964 -0.975206 0.000000 0.000000 0.000000
0.107303 0.147037 0.108133 2.865042 -0.782786 -1.478987 0.000000 0.000000 0.000000 -25.939435 11.321139 -3.841454 -47.785620 -8.711174 -0.517425 0.000000 0.000000 0.000000 23.951084 -7.764476 9.497545 -5.566717 -2.758811 -0.363758 -2.279369 0.502943 3.430884 1.486457 0.186969 4.536284 0.000000 0.000000 0.000000 23.951084 -7.764476 9.497545 -0.038302 -0.378753 -0.563980 3.577938 -0.233631 -2.463828 -2.580458 1.984567 2.974847 0.000000 0.000000 0.000000 3.541930 1.247665 1.035826 -5.056804 -0.641235 0.003958 0.000000 0.000000 0.000000 3.918840 0.355649 -3.096625 -3.165551 -2.287518 -0.702875 0.000000 0.000000 0.000000
0.107325 0.148790 0.111153 2.782043 -0.906358 -1.749181 0.000000 0.000000 0.000000 -25.935390 11.646663 -3.587249 -47.882440 -8.956387 -0.750216 0.000000 0.000000 0.000000 23.986270 -7.764651 9.497656 -3.947787 -2.229463 1.203708 -3.139035 -0.724007 8.093906 -0.147795 -4.667908 9.436984 0.000000 0.000000 0.000000 23.986270 -7.764651 9.497656 2.749855 -1.358465 -0.503120 4.574252 1.364003 -8.320365 -3.714151 12.433077 6.522378 0.000000 0.000000 0.000000 0.356513 1.103222 1.290880 -3.117330 -0.401551 0.120499 0.000000 0.000000 0.000000 3.015261 0.393123 -2.748178 -1.785832 -2.053021 -0.547795 0.000000 0.000000 0.000000
0.107331 0.150232 0.112597 2.791317 -0.985819 -1.920292 0.000000 0.000000 0.000000 -25.934720 11.810179 -3.601850 -48.431512 -9.308723 -1.076845 0.000000 0.000000 0.000000 23.944518 -7.765072 9.497022 -4.100559 -2.099265 4.946020 -3.792894 -1.649143 14.276260 -5.011798 -11.625114 18.931103 0.000000 0.000000 0.000000 23.944518 -7.765072 9.497022 3.355025 -1.518608 -1.249277 4.275508 5.468597 -17.640554 -2.309559 25.020709 17.289632 0.000000 0.000000 0.000000 -2.017888 0.970931 1.412479 -1.423261 -0.215910 0.267766 0.000000 0.000000 0.000000 4.608719 0.689611 -2.621287 -2.960962 -2.305667 -0.408389 0.000000 0.000000 0.000000
0.106279 0.152199 0.113215 2.765734 -1.016817 -1.987898 0.000000 0.000000 0.000000 -25.935474 11.849874 -3.726948 -49.271016 -9.423574 -1.231283 0.000000 0.000000 0.000000 23.956180 -7.765678 9.496327 -4.695462 -1.782404 11.248012 -5.583142 -2.009939 17.487052 -13.297374 -17.034431 31.089710 0.000000 0.000000 0.000000 23.956180 -7.765678 9.496327 3.583308 -1.385371 -3.347902 3.888465 9.112172 -24.748001 0.338403 33.890249 36.730868 0.000000 0.000000 0.000000 -1.689287 1.032961 1.298060 -1.758213 -0.288393 0.370038 0.000000 0.000000 0.000000 5.623105 0.854502 -2.594746 -4.279960 -2.471386 -0.407643 0.000000 0.000000 0.000000
0.104846 0.153527 0.113446 2.748330 -1.066816 -2.096212 0.000000 0.000000 0.000000 -25.939858 11.818799 -3.884554 -49.715600 -9.488358 -1.041587 0.000000 0.000000 0.000000 23.951074 -7.766692 9.495653 -5.112293 -1.084550 19.842872 -7.405579 -1.900919 19.500077 -25.818343 -19.256243 46.019923 0.000000 0.000000 0.000000 23.951074 -7.766692 9.495653 3.999263 -1.083277 -7.273721 2.960950 12.219614 -28.448159 1.401508 42.623143 58.832913 0.000000 0.000000 0.000000 -1.281692 1.126782 1.041782 -1.671796 -0.580180 0.315996 0.000000 0.000000 0.000000 5.869577 0.940460 -2.531104 -4.018307 -2.630005 -0.662494 0.000000 0.000000 0.000000
0.103768 0.153680 0.113544 2.631205 -1.120336 -2.213996 0.000000 0.000000 0.000000 -25.943202 11.839455 -4.082665 -49.826174 -9.674247 -0.799236 0.000000 0.000000 0.000000 24.043785 -7.768360 9.495160 -5.280784 -0.572274 25.768315 -9.017732 -1.524424 24.326239 -39.136026 -16.218830 61.673952 0.000000 0.000000 0.000000 24.043785 -7.768360 9.495160 4.442748 -0.680669 -12.330744 1.959099 14.678941 -29.373491 3.297390 49.764885 81.042292 0.000000 0.000000 0.000000 -0.182306 1.289567 1.016789 -2.528998 -1.027974 -0.171382 0.000000 0.000000 0.000000 7.628518 1.253193 -2.336642 -5.031179 -3.073152 -1.161182 0.000000 0.000000 0.000000
0.103590 0.153162 0.113712 2.055085 -1.149411 -2.288885 0.000000 0.000000 0.000000 -25.943674 11.929556 -4.183825 -49.599195 -9.806146 -0.616557 0.000000 0.000000 0.000000 24.596023 -7.770267 9.494982 -4.641486 0.052436 31.478623 -9.784409 -1.524428 26.800661 -47.343717 -12.669985 68.588784 0.000000 0.000000 0.000000 24.596023 -7.770267 9.494982 5.183628 -0.277321 -17.806639 -0.391791 16.085803 -27.787450 0.800536 53.934803 95.709273 0.000000 0.000000 0.000000 2.775973 1.597996 0.915811 -5.259220 -1.752696 -0.916985 0.000000 0.000000 0.000000 12.021365 1.837399 -2.258981 -8.037870 -3.926419 -1.831533 0.000000 0.000000 0.000000
0.104417 0.152497 0.113874 1.242891 -1.133317 -2.271499 0.000000 0.000000 0.000000 -25.935503 12.200716 -4.305799 -49.575441 -9.976082 -0.710605 0.000000 0.000000 0.000000 25.399087 -7.773080 9.493879 -4.002417 0.509356 37.199230 -10.989934 -0.894984 27.714679 -52.151589 -8.181954 74.756731 0.000000 0.000000 0.000000 25.399087 -7.773080 9.493879 5.893460 0.010848 -23.137843 -2.685217 16.786300 -25.158623 -0.323186 56.779578 106.223446 0.000000 0.000000 0.000000 6.263407 1.916851 0.550090 -7.714392 -2.591470 -1.635534 0.000000 0.000000 0.000000 16.977497 2.377959 -2.461488 -11.451160 -4.804841 -2.375824 0.000000 0.000000 0.000000
0.104961 0.153009 0.113912 1.417193 -1.126721 -2.254009 0.000000 0.000000 0.000000 -25.921037 12.617592 -4.572809 -50.743882 -10.223746 -1.079613 0.000000 0.000000 0.000000 25.234695 -7.777287 9.490753 -4.599197 0.537558 43.226756 -11.281765 -0.048988 26.068314 -53.967131 -5.494622 75.611106 0.000000 0.000000 0.000000 25.234695 -7.777287 9.490753 5.621244 0.011420 -26.736242 -4.949035 17.045883 -24.301546 -2.393957 60.277371 117.002658 0.000000 0.000000 0.000000 8.925289 2.243719 0.060639 -8.783196 -3.389403 -2.177972 0.000000 0.000000 0.000000 18.172520 2.527166 -2.594978 -12.664066 -5.138427 -2.634255 0.000000 0.000000 0.000000
0.104151 0.155490 0.113254 1.375247 -1.132201 -2.265882 0.000000 0.000000 0.000000 -25.911718 12.922120 -4.765840 -51.603171 -10.352307 -1.273214 0.000000 0.000000 0.000000 25.275422 -7.781266 9.488445 -4.042535 0.684522 48.007084 -12.091760 0.762660 25.623612 -59.387641 -5.206150 77.646225 0.000000 0.000000 0.000000 25.275422 -7.781266 9.488445 5.867885 0.086471 -29.386439 -6.763262 17.475467 -24.260231 -2.593361 62.635691 124.196374 0.000000 0.000000 0.000000 10.335300 2.432891 -0.310934 -7.385813 -3.689391 -2.309872 0.000000 0.000000 0.000000 16.792474 2.342259 -2.654068 -11.084313 -5.011066 -2.758837 0.000000 0.000000 0.000000
0.102691 0.158245 0.112125 0.216449 -1.157130 -2.340647 0.000000 0.000000 0.000000 -25.918820 12.853769 -4.610757 -51.326043 -10.066047 -1.001699 0.000000 0.000000 0.000000 26.396134 -7.781800 9.490225 -1.829309 1.218810 51.316319 -13.116496 0.284738 25.942405 -67.618108 -6.735244 80.781946 0.000000 0.000000 0.000000 26.396134 -7.781800 9.490225 6.894332 0.639478 -32.321924 -7.471098 18.631870 -23.298318 2.050470 60.590311 120.608890 0.000000 0.000000 0.000000 7.902810 2.124813 -0.385010 -1.884386 -3.312373 -2.224804 0.000000 0.000000 0.000000 15.596664 2.095191 -2.706743 -7.920469 -4.713902 -2.805478 0.000000 0.000000 0.000000
0.101899 0.159795 0.111243 -0.010150 -1.208545 -2.449104 0.000000 0.000000 0.000000 -25.923041 12.874379 -4.409947 -51.335445 -9.840700 -0.864934 0.000000 0.000000 0.000000 26.591876 -7.781501 9.490161 -1.115651 1.420789 55.376275 -13.522144 -0.793881 25.376957 -71.478120 -6.358694 81.242689 0.000000 0.000000 0.000000 26.591876 -7.781501 9.490161 7.209485 0.916243 -35.560738 -8.695308 19.538159 -22.496453 4.498469 59.862512 120.677055 0.000000 0.000000 0.000000 6.969804 2.076594 -0.436758 -0.612379 -3.240634 -2.150790 0.000000 0.000000 0.000000 13.385408 1.827154 -2.773743 -4.148359 -4.334105 -2.603872 0.000000 0.000000 0.000000
0.101079 0.161490 0.110522 -0.365182 -1.237549 -2.513252 0.000000 0.000000 0.000000 -25.940919 12.436811 -4.214011 -50.966344 -9.395685 -0.382189 0.000000 0.000000 0.000000 26.930087 -7.777698 9.494673 -0.405683 1.965259 58.441052 -14.138215 -2.122663 25.334306 -74.846035 -5.528369 88.408244 0.000000 0.000000 0.000000 26.930087 -7.777698 9.494673 7.943967 1.591994 -38.442341 -10.334925 20.117681 -22.469842 5.745118 60.168244 122.943379 0.000000 0.000000 0.000000 6.370918 2.026732 -0.610927 -0.324062 -3.139958 -1.806048 0.000000 0.000000 0.000000 13.885787 1.872009 -2.937908 -4.483712 -4.337945 -2.384955 0.000000 0.000000 0.000000
0.099893 0.163307 0.109555 -0.677892 -1.271247 -2.584840 0.000000 0.000000 0.000000 -25.962925 11.886959 -4.082207 -50.672263 -8.989358 0.126966 0.000000 0.000000 0.000000 27.228339 -7.774220 9.500158 0.217802 2.538773 60.333079 -14.764692 -3.450060 25.239718 -78.730452 -6.330249 91.408840 0.000000 0.000000 0.000000 27.228339 -7.774220 9.500158 8.284032 2.256214 -40.278092 -11.468108 20.588134 -22.881972 6.538198 60.605718 124.660479 0.000000 0.000000 0.000000 4.737081 1.847619 -0.655724 0.975872 -2.740823 -1.259161 0.000000 0.000000 0.000000 12.827264 1.704011 -3.039840 -3.842438 -4.004925 -2.032313 0.000000 0.000000 0.000000
0.098774 0.164498 0.108620 -1.109875 -1.330412 -2.707986 0.000000 0.000000 0.000000 -25.977813 11.643463 -3.832755 -50.296138 -8.744189 0.371622 0.000000 0.000000 0.000000 27.627781 -7.772510 9.502643 1.477885 2.719482 61.128247 -15.602424 -4.527461 25.702296 -81.079828 -7.351043 73.203201 0.000000 0.000000 0.000000 27.627781 -7.772510 9.502643 8.218031 2.530003 -41.158529 -12.104578 20.834815 -23.374138 6.605450 61.135523 126.044568 0.000000 0.000000 0.000000 4.982636 1.923867 -0.820108 1.152846 -2.667435 -0.877486 0.000000 0.000000 0.000000 10.828500 1.425528 -3.027825 -2.147208 -3.469156 -1.733179 0.000000 0.000000 0.000000
0.097961 0.166297 0.107727 -1.378978 -1.372993 -2.794713 0.000000 0.000000 0.000000 -25.984753 11.588000 -3.598193 -50.238056 -8.626990 0.304014 0.000000 0.000000 0.000000 27.872395 -7.771526 9.502784 1.700268 2.767888 62.258002 -15.985722 -4.453632 25.401244 -81.923356 -7.050217 74.454402 0.000000 0.000000 0.000000 27.872395 -7.771526 9.502784 8.316158 2.637785 -42.057300 -12.416029 20.984882 -22.929659 7.042355 60.638639 125.754424 0.000000 0.000000 0.000000 4.588420 1.900936 -0.770174 1.055833 -2.552329 -0.673171 0.000000 0.000000 0.000000 10.467086 1.400607 -2.938660 -1.473064 -3.333772 -1.708983 0.000000 0.000000 0.000000
0.096821 0.169630 0.106643 -1.615064 -1.404849 -2.859336 0.000000 0.000000 0.000000 -25.988274 11.607793 -3.476280 -50.280914 -8.556143 0.278665 0.000000 0.000000 0.000000 28.090845 -7.771495 9.502811 1.474917 2.828101 63.452813 -16.356676 -4.217373 26.344079 -85.338906 -6.150338 67.406324 0.000000 0.000000 0.000000 28.090845 -7.771495 9.502811 8.552063 2.757000 -42.921094 -12.763234 21.019554 -22.291572 7.532202 60.092530 125.327707 0.000000 0.000000 0.000000 4.308708 1.881205 -0.725404 0.893001 -2.450100 -0.489050 0.000000 0.000000 0.000000 10.167628 1.374643 -2.858424 -1.107256 -3.226577 -1.718919 0.000000 0.000000 0.000000
0.095418 0.173179 0.105812 -1.513105 -1.467509 -2.981386 0.000000 0.000000 0.000000 -25.991908 11.685564 -3.492490 -50.745081 -8.574327 0.321759 0.000000 0.000000 0.000000 27.969202 -7.772835 9.503014 1.055893 2.889781 64.646996 -16.596852 -3.799282 27.458054 -88.287199 -4.731993 62.261853 0.000000 0.000000 0.000000 27.969202 -7.772835 9.503014 8.624404 2.873367 -43.837907 -13.197707 21.116227 -21.615500 7.673913 60.034456 125.808545 0.000000 0.000000 0.000000 4.067814 1.929941 -0.613856 1.152999 -2.377273 -0.398689 0.000000 0.000000 0.000000 9.441482 1.367369 -2.670979 -0.695446 -3.115319 -1.784571 0.000000 0.000000 0.000000
0.094312 0.175851 0.105343 -1.571722 -1.503989 -3.052939 0.000000 0.000000 0.000000 -25.992926 11.783926 -3.626344 -51.193611 -8.728425 0.281102 0.000000 0.000000 0.000000 28.017714 -7.774882 9.503949 1.046266 2.932607 65.284020 -16.622888 -3.555205 27.237085 -88.445604 -4.644905 62.507271 0.000000 0.000000 0.000000 28.017714 -7.774882 9.503949 9.059475 3.060036 -44.182143 -13.484860 20.974827 -21.117009 8.038609 59.628361 125.451221 0.000000 0.000000 0.000000 3.698157 1.915363 -0.505090 1.825450 -2.300957 -0.441496 0.000000 0.000000 0.000000 8.189252 1.251628 -2.380742 0.753666 -2.923394 -2.076585 0.000000 0.000000 0.000000
0.093887 0.177790 0.105080 -1.868924 -1.532961 -3.110432 0.000000 0.000000 0.000000 -25.996972 11.795666 -3.585804 -51.324140 -8.804870 0.148103 0.000000 0.000000 0.000000 28.300213 -7.775399 9.504882 1.461923 2.939542 65.081358 -16.650982 -3.517961 26.834626 -87.942138 -5.717316 66.434164 0.000000 0.000000 0.000000 28.300213 -7.775399 9.504882 9.672076 3.241330 -44.138030 -13.579182 20.788853 -20.994912 8.426687 58.887112 124.587070 0.000000 0.000000 0.000000 3.789316 1.934902 -0.434833 2.146909 -2.274033 -0.482956 0.000000 0.000000 0.000000 8.111781 1.302122 -2.052943 1.299998 -2.937538 -2.433026 0.000000 0.000000 0.000000
0.093734 0.179529 0.105058 -1.944965 -1.552194 -3.147955 0.000000 0.000000 0.000000 -25.996109 11.899423 -3.560587 -51.466350 -8.865886 0.036340 0.000000 0.000000 0.000000 28.366475 -7.776203 9.504181 1.439256 2.867892 64.900218 -16.494564 -3.254230 26.622463 -87.382267 -5.869746 66.469329 0.000000 0.000000 0.000000 28.366475 -7.776203 9.504181 9.820957 3.229693 -44.205382 -13.611800 20.843124 -20.815455 8.886015 58.499894 123.989926 0.000000 0.000000 0.000000 3.675222 1.933994 -0.379002 2.303299 -2.261776 -0.522079 0.000000 0.000000 0.000000 8.387507 1.391047 -1.888023 1.191165 -3.039488 -2.663110 0.000000 0.000000 0.000000
0.093674 0.180885 0.105197 -2.091007 -1.564763 -3.172448 0.000000 0.000000 0.000000 -26.000233 11.836153 -3.564479 -51.377141 -8.843622 0.136993 0.000000 0.000000 0.000000 28.508319 -7.776190 9.505601 1.200606 2.997587 64.978064 -16.333653 -2.984748 26.422276 -87.162648 -5.658808 65.446788 0.000000 0.000000 0.000000 28.508319 -7.776190 9.505601 10.352538 3.425865 -44.188263 -13.641761 20.688292 -20.655436 9.595519 57.861532 122.836078 0.000000 0.000000 0.000000 3.230982 1.873352 -0.317341 2.328062 -2.218589 -0.536739 0.000000 0.000000 0.000000 8.805185 1.467033 -1.828928 1.081621 -3.117505 -2.756293 0.000000 0.000000 0.000000
0.093575 0.182546 0.105070 -2.263683 -1.582255 -3.206360 0.000000 0.000000 0.000000 -26.005256 11.767303 -3.536642 -51.230626 -8.826405 0.221366 0.000000 0.000000 0.000000 28.674060 -7.775993 9.506997 1.151384 3.111978 65.208343 -16.435282 -2.879185 26.938257 -88.107401 -5.157322 64.203579 0.000000 0.000000 0.000000 28.674060 -7.775993 9.506997 10.706111 3.588180 -44.205866 -13.725379 20.608902 -20.674878 10.055371 57.542168 122.270120 0.000000 0.000000 0.000000 2.959977 1.839588 -0.237942 2.657562 -2.142691 -0.536679 0.000000 0.000000 0.000000 9.341920 1.579744 -1.694025 1.151204 -3.251408 -2.987860 0.000000 0.000000 0.000000
0.093434 0.184217 0.104879 -2.238243 -1.612839 -3.265418 0.000000 0.000000 0.000000 -26.007948 11.791981 -3.465144 -51.389427 -8.826722 0.153498 0.000000 0.000000 0.000000 28.636384 -7.776071 9.506592 1.180603 3.090027 65.559563 -16.614169 -2.970687 27.314057 -89.313584 -5.045194 64.586003 0.000000 0.000000 0.000000 28.636384 -7.776071 9.506592 10.546932 3.551463 -44.380195 -13.756895 20.655713 -20.548951 10.058590 57.672320 122.415298 0.000000 0.000000 0.000000 3.055156 1.889836 -0.221893 3.183504 -2.085283 -0.465351 0.000000 0.000000 0.000000 9.822251 1.710620 -1.585354 0.955803 -3.383366 -3.120621 0.000000 0.000000 0.000000
0.093334 0.185624 0.104856 -2.291254 -1.629569 -3.297633 0.000000 0.000000 0.000000 -26.009979 11.798238 -3.452197 -51.535783 -8.800128 0.157753 0.000000 0.000000 0.000000 28.683118 -7.776330 9.506937 1.364194 3.080086 65.367082 -16.676821 -3.134020 27.433869 -89.461635 -5.588378 66.778263 0.000000 0.000000 0.000000 28.683118 -7.776330 9.506937 10.552770 3.557893 -44.220173 -13.626944 20.564823 -20.445017 10.366041 57.385589 121.598766 0.000000 0.000000 0.000000 3.215278 1.928123 -0.288570 4.030791 -2.021590 -0.382674 0.000000 0.000000 0.000000 10.090580 1.769778 -1.559247 1.245239 -3.446633 -3.184857 0.000000 0.000000 0.000000
0.093377 0.186370 0.105088 -2.385199 -1.630484 -3.299184 0.000000 0.000000 0.000000 -26.013240 11.714053 -3.476070 -51.597082 -8.716454 0.264797 0.000000 0.000000 0.000000 28.778592 -7.776090 9.508447 1.538068 3.163439 65.228476 -16.745150 -3.463150 27.291798 -89.257454 -6.195969 69.004616 0.000000 0.000000 0.000000 28.778592 -7.776090 9.508447 10.754790 3.671682 -44.028886 -13.514662 20.505958 -20.444081 11.614557 57.208285 120.139735 0.000000 0.000000 0.000000 3.617264 1.978858 -0.339961 3.500970 -2.045863 -0.269466 0.000000 0.000000 0.000000 10.724645 1.856542 -1.588631 0.465642 -3.547346 -3.196552 0.000000 0.000000 0.000000
0.093653 0.187181 0.105285 -2.431805 -1.631862 -3.301735 0.000000 0.000000 0.000000 -26.015056 11.669731 -3.460547 -51.580860 -8.646592 0.332141 0.000000 0.000000 0.000000 28.824704 -7.775760 9.508976 1.611763 3.195053 65.111077 -16.778313 -3.651987 27.267849 -89.095236 -6.440991 70.079734 0.000000 0.000000 0.000000 28.824704 -7.775760 9.508976 10.703154 3.685543 -43.947567 -13.476969 20.521996 -20.559598 12.596873 57.431000 119.354306 0.000000 0.000000 0.000000 4.563562 2.109939 -0.325218 2.693242 -2.048977 -0.079955 0.000000 0.000000 0.000000 11.498894 1.965972 -1.643637 -0.516414 -3.671700 -3.165887 0.000000 0.000000 0.000000
0.094144 0.187806 0.105371 -2.422258 -1.626283 -3.291021 0.000000 0.000000 0.000000 -26.014730 11.657973 -3.421651 -51.536653 -8.582825 0.348723 0.000000 0.000000 0.000000 28.815730 -7.775308 9.508535 1.623080 3.171026 64.859864 -16.672994 -3.698442 26.880929 -88.273941 -6.788418 71.317267 0.000000 0.000000 0.000000 28.815730 -7.775308 9.508535 10.500265 3.611192 -43.866859 -13.383583 20.634752 -20.678398 13.270045 57.591238 118.793986 0.000000 0.000000 0.000000 5.785966 2.277127 -0.369965 1.468848 -2.177861 0.016708 0.000000 0.000000 0.000000 11.743015 1.975484 -1.774280 -0.905525 -3.695914 -3.047497 0.000000 0.000000 0.000000
0.094624 0.188423 0.105384 -2.412184 -1.602723 -3.245693 0.000000 0.000000 0.000000 -26.013963 11.593259 -3.382849 -51.358335 -8.454925 0.436318 0.000000 0.000000 0.000000 28.812729 -7.774279 9.508269 1.661976 3.159850 64.134924 -16.465986 -3.722365 26.522384 -87.017720 -7.304930 73.456532 0.000000 0.000000 0.000000 28.812729 -7.774279 9.508269 10.122456 3.511069 -43.724605 -13.276400 20.847785 -21.062967 13.653309 58.083688 118.802002 0.000000 0.000000 0.000000 5.722547 2.241689 -0.437277 1.991815 -2.024573 0.245894 0.000000 0.000000 0.000000 11.781782 1.907944 -2.040765 -1.274964 -3.665066 -2.822567 0.000000 0.000000 0.000000
0.094918 0.188865 0.105725 -2.371486 -1.584837 -3.211228 0.000000 0.000000 0.000000 -26.013331 11.543622 -3.354368 -51.024923 -8.353611 0.592588 0.000000 0.000000 0.000000 28.777846 -7.773501 9.507988 1.791560 3.114284 62.742032 -16.064870 -3.690744 25.849727 -85.036142 -8.451566 77.894408 0.000000 0.000000 0.000000 28.777846 -7.773501 9.507988 9.637331 3.335562 -43.044849 -12.858878 21.090142 -21.636845 13.976051 58.569028 118.500514 0.000000 0.000000 0.000000 5.501300 2.194618 -0.516904 2.106437 -1.927405 0.441238 0.000000 0.000000 0.000000 11.546306 1.804457 -2.317906 -1.555014 -3.558892 -2.478687 0.000000 0.000000 0.000000
0.095212 0.188964 0.106194 -2.246541 -1.534075 -3.113335 0.000000 0.000000 0.000000 -26.004750 11.608608 -3.426121 -50.582239 -8.423651 0.635914 0.000000 0.000000 0.000000 28.671040 -7.773505 9.506569 1.846547 2.960059 60.752824 -15.519762 -3.443150 25.295579 -82.304530 -9.348741 78.302362 0.000000 0.000000 0.000000 28.671040 -7.773505 9.506569 9.364177 3.059943 -41.700408 -11.694230 21.044082 -21.374463 14.824934 57.542515 115.432838 0.000000 0.000000 0.000000 5.503052 2.142422 -0.598325 2.179717 -2.052720 0.190274 0.000000 0.000000 0.000000 12.901670 1.905673 -2.729579 -2.465460 -3.833039 -2.291026 0.000000 0.000000 0.000000
0.095531 0.188646 0.106605 -1.939347 -1.546606 -3.137334 0.000000 0.000000 0.000000 -26.000451 11.745261 -3.393997 -50.305642 -8.672592 0.470872 0.000000 0.000000 0.000000 28.360091 -7.773974 9.504190 1.985120 2.676140 56.838482 -14.886622 -3.235677 26.343965 -80.505154 -10.361366 62.436756 0.000000 0.000000 0.000000 28.360091 -7.773974 9.504190 8.662897 2.524531 -38.887179 -9.831460 20.896574 -21.919755 14.199554 57.351840 113.342331 0.000000 0.000000 0.000000 6.616415 2.316374 -0.169622 1.483979 -2.263916 -0.390843 0.000000 0.000000 0.000000 16.002343 2.437304 -2.800352 -5.191848 -4.539078 -2.437809 0.000000 0.000000 0.000000
0.095973 0.188148 0.107118 -1.587612 -1.570214 -3.182798 0.000000 0.000000 0.000000 -26.001647 11.745914 -3.393950 -49.958376 -8.888334 0.459298 0.000000 0.000000 0.000000 28.004918 -7.774099 9.503589 2.368056 2.530243 51.524672 -14.260484 -3.651663 28.388075 -79.022760 -12.375779 32.821102 0.000000 0.000000 0.000000 28.004918 -7.774099 9.503589 7.496271 2.053707 -35.659798 -7.639513 20.709979 -22.655723 12.158798 57.639195 112.300449 0.000000 0.000000 0.000000 7.855250 2.524920 0.147472 0.374249 -2.350108 -0.547739 0.000000 0.000000 0.000000 17.767116 2.789537 -2.746449 -7.590131 -4.961591 -2.569372 0.000000 0.000000 0.000000
0.096727 0.187058 0.108421 -1.255013 -1.553607 -3.149547 0.000000 0.000000 0.000000 -26.008109 11.447318 -3.371675 -49.294946 -8.835441 0.710741 0.000000 0.000000 0.000000 27.685614 -7.771886 9.505084 3.520150 2.644240 45.983610 -13.516184 -5.054583 29.054215 -76.233160 -17.523538 18.590047 0.000000 0.000000 0.000000 27.685614 -7.771886 9.505084 6.959841 1.835544 -31.975034 -5.356567 20.310011 -23.856225 9.559055 56.895899 110.458494 0.000000 0.000000 0.000000 7.701326 2.505206 0.184360 -0.520763 -2.325159 -0.460279 0.000000 0.000000 0.000000 17.363081 2.749524 -2.654664 -8.063299 -4.905151 -2.571840 0.000000 0.000000 0.000000
0.098069 0.185605 0.110478 -0.588323 -1.518196 -3.078587 0.000000 0.000000 0.000000 -26.010190 11.177755 -3.593769 -48.888143 -8.915406 1.023630 0.000000 0.000000 0.000000 27.048376 -7.771115 9.507020 4.460937 2.809029 39.883655 -11.755144 -7.106655 28.050844 -70.510300 -24.275379 -36.074731 0.000000 0.000000 0.000000 27.048376 -7.771115 9.507020 6.466960 1.709986 -28.507979 -3.260691 19.575022 -24.419066 6.707900 55.634893 107.221717 0.000000 0.000000 0.000000 7.631291 2.489427 0.312472 -2.816258 -2.236297 -0.246985 0.000000 0.000000 0.000000 17.116401 2.763520 -2.363517 -9.391434 -4.892305 -2.766668 0.000000 0.000000 0.000000
0.099890 0.184431 0.112509 0.112654 -1.518196 -3.076545 0.000000 0.000000 0.000000 -26.008706 11.142553 -3.699241 -48.020423 -9.219006 1.187014 0.000000 0.000000 0.000000 26.360052 -7.771113 9.506406 4.371406 2.787830 33.946043 -9.215662 -8.455327 26.407793 -62.315051 -28.376137 9.517561 0.000000 0.000000 0.000000 26.360052 -7.771113 9.506406 5.894705 1.396538 -25.184678 -1.277314 18.260700 -23.790737 2.721966 53.699194 101.155964 0.000000 0.000000 0.000000 6.309506 2.358194 0.617983 -5.516950 -2.005370 0.005368 0.000000 0.000000 0.000000 17.343095 2.942793 -1.719742 -11.512224 -4.978146 -3.385861 0.000000 0.000000 0.000000
0.102264 0.183410 0.114435 0.959339 -1.502705 -3.042037 0.000000 0.000000 0.000000 -26.001534 11.220593 -3.666840 -47.134811 -9.510678 1.107016 0.000000 0.000000 0.000000 25.528408 -7.770407 9.502825 5.744192 2.738889 28.263975 -7.721332 -8.377845 21.762946 -48.332710 -33.636068 7.755657 0.000000 0.000000 0.000000 25.528408 -7.770407 9.502825 6.031507 0.861995 -21.217190 0.282194 15.862138 -22.080066 -1.746838 48.044516 85.399310 0.000000 0.000000 0.000000 1.290161 1.759567 0.956067 -3.271858 -1.374912 0.221708 0.000000 0.000000 0.000000 15.848343 2.839572 -1.258324 -10.874114 -4.833823 -3.785206 0.000000 0.000000 0.000000
0.104305 0.182136 0.116262 1.751005 -1.474321 -2.979978 0.000000 0.000000 0.000000 -25.999551 11.109147 -3.852616 -46.976114 -9.740929 1.083544 0.000000 0.000000 0.000000 24.761618 -7.770194 9.502809 4.629642 2.503312 22.854989 -7.235289 -6.499534 18.101660 -33.086325 -29.091058 19.260024 0.000000 0.000000 0.000000 24.761618 -7.770194 9.502809 5.362542 0.602360 -16.834297 1.441989 12.887206 -19.236199 -2.006339 40.109884 58.600376 0.000000 0.000000 0.000000 0.473666 1.675433 1.323131 -2.601155 -1.194256 0.026172 0.000000 0.000000 0.000000 14.244643 2.647153 -1.260746 -10.844934 -4.587217 -3.503551 0.000000 0.000000 0.000000
0.105218 0.180683 0.118045 2.331654 -1.450298 -2.926232 0.000000 0.000000 0.000000 -26.010238 10.648904 -4.084530 -46.882859 -9.743986 1.333357 0.000000 0.000000 0.000000 24.202922 -7.769186 9.506639 2.165941 2.226307 18.905852 -7.463443 -3.937096 12.235527 -17.583243 -16.093992 27.529395 0.000000 0.000000 0.000000 24.202922 -7.769186 9.506639 4.976954 0.682525 -11.730532 1.191436 9.618889 -17.025530 -5.409056 32.025417 34.017513 0.000000 0.000000 0.000000 -0.880118 1.517077 1.904305 -2.270618 -0.797752 -0.078428 0.000000 0.000000 0.000000 11.445985 2.247217 -1.456639 -10.469495 -4.005272 -2.735996 0.000000 0.000000 0.000000
0.105150 0.179042 0.119153 1.989327 -1.370113 -2.758408 0.000000 0.000000 0.000000 -25.999087 10.791598 -4.155878 -45.830165 -10.097490 1.028461 0.000000 0.000000 0.000000 24.569791 -7.769244 9.505597 2.345374 1.993874 12.740400 -7.671438 -3.119973 8.807200 -8.905666 -8.590407 18.571213 0.000000 0.000000 0.000000 24.569791 -7.769244 9.505597 4.760071 0.302538 -6.591940 1.854010 7.674832 -16.496249 -4.888965 25.572969 21.473517 0.000000 0.000000 0.000000 -1.836972 1.295490 2.219865 -2.025148 -0.473996 -0.204401 0.000000 0.000000 0.000000 8.135842 1.606784 -1.732382 -7.800837 -3.257455 -2.059678 0.000000 0.000000 0.000000
0.104802 0.177283 0.119739 1.577216 -1.294054 -2.602535 0.000000 0.000000 0.000000 -25.976481 11.320393 -4.080913 -44.668123 -10.585922 0.446746 0.000000 0.000000 0.000000 25.004046 -7.769893 9.500394 0.896549 0.745374 6.076574 -6.903354 -2.442387 7.867630 -3.329594 -5.029814 11.375226 0.000000 0.000000 0.000000 25.004046 -7.769893 9.500394 4.234370 -0.296585 -3.142117 1.545343 5.658322 -14.026031 -4.351706 18.379927 13.110120 0.000000 0.000000 0.000000 -0.467773 1.334018 2.743870 -2.814874 -0.375179 -0.717793 0.000000 0.000000 0.000000 8.033096 1.436007 -1.980075 -7.524828 -3.075405 -1.735075 0.000000 0.000000 0.000000
0.104158 0.175819 0.119092 1.341394 -1.199519 -2.408440 0.000000 0.000000 0.000000 -25.959865 11.607012 -4.206729 -43.949209 -10.977485 0.061013 0.000000 0.000000 0.000000 25.274489 -7.770642 9.498203 -1.352545 -0.749782 -0.519767 -6.022609 -1.661462 9.391593 -0.123432 -1.972717 7.460769 0.000000 0.000000 0.000000 25.274489 -7.770642 9.498203 3.033804 -0.385853 -1.614229 1.269652 3.011764 -7.579956 -2.837763 8.797213 6.868080 0.000000 0.000000 0.000000 0.636881 1.317351 3.135852 -3.621785 -0.110783 -0.909216 0.000000 0.000000 0.000000 7.364642 1.200470 -2.129434 -7.058417 -2.857204 -1.612512 0.000000 0.000000 0.000000
0.103295 0.174135 0.118224 1.030542 -1.109620 -2.226870 0.000000 0.000000 0.000000 -25.949021 11.746318 -4.504873 -43.233268 -11.312149 0.017211 0.000000 0.000000 0.000000 25.620196 -7.772103 9.498138 -2.633434 -1.697632 -4.134632 -5.384384 -0.891345 9.886301 1.090163 0.331443 4.919215 0.000000 0.000000 0.000000 25.620196 -7.772103 9.498138 1.463653 -0.086583 -1.303889 0.604888 0.524187 0.445748 -1.827404 0.180535 2.435495 0.000000 0.000000 0.000000 2.595295 1.356058 3.500787 -5.105038 0.009718 -1.322832 0.000000 0.000000 0.000000 7.393572 1.066002 -2.267284 -6.224764 -2.780445 -1.513534 0.000000 0.000000 0.000000
0.102231 0.171916 0.118284 0.902798 -1.045151 -2.096187 0.000000 0.000000 0.000000 -25.946959 11.675519 -4.673046 -42.857861 -11.377441 0.052573 0.000000 0.000000 0.000000 25.773081 -7.772084 9.499065 -5.013146 -2.825421 -3.905422 -3.407187 0.588645 8.014168 1.434441 1.780589 3.160594 0.000000 0.000000 0.000000 25.773081 -7.772084 9.499065 -1.189388 0.549645 -1.369148 1.109296 -0.737630 4.823879 0.209917 -4.860479 1.367174 0.000000 0.000000 0.000000 6.259050 1.557180 3.467570 -8.788525 -0.010906 -1.492615 0.000000 0.000000 0.000000 7.675405 1.021606 -2.331847 -6.310045 -2.745627 -1.402622 0.000000 0.000000 0.000000
0.101319 0.169650 0.119205 0.855171 -0.963160 -1.927985 0.000000 0.000000 0.000000 -25.945657 11.540681 -4.836696 -42.841091 -11.358937 -0.020069 0.000000 0.000000 0.000000 25.853440 -7.771371 9.500190 -4.793954 -2.421790 -2.408801 -2.185226 0.878398 5.295911 0.520765 2.204660 2.173101 0.000000 0.000000 0.000000 25.853440 -7.771371 9.500190 -0.850579 0.611322 -1.674859 2.308219 -1.440223 5.698029 -0.970622 -5.212155 1.576961 0.000000 0.000000 0.000000 9.914396 1.719202 3.303780 -12.527358 -0.079115 -1.674655 0.000000 0.000000 0.000000 7.754051 0.937808 -2.409010 -6.544503 -2.729942 -1.436950 0.000000 0.000000 0.000000
0.100844 0.168191 0.119752 0.738777 -0.951763 -1.907697 0.000000 0.000000 0.000000 -25.944676 11.555757 -4.844490 -42.652642 -11.409419 -0.055651 0.000000 0.000000 0.000000 25.972176 -7.771435 9.500218 -4.640139 -2.172671 -0.693020 -1.760474 0.748720 4.151051 0.068392 1.429696 3.138922 0.000000 0.000000 0.000000 25.972176 -7.771435 9.500218 -0.644808 0.571333 -1.588787 2.474366 -1.373813 5.128623 -1.574049 -4.312364 1.483171 0.000000 0.000000 0.000000 12.078430 1.827005 3.507693 -13.895103 -0.038965 -1.934889 0.000000 0.000000 0.000000 7.955787 0.949993 -2.369862 -6.396520 -2.741635 -1.456535 0.000000 0.000000 0.000000
0.100774 0.167546 0.119910 0.679528 -0.978901 -1.965223 0.000000 0.000000 0.000000 -25.946833 11.549709 -4.733865 -42.652857 -11.387420 -0.105692 0.000000 0.000000 0.000000 26.017450 -7.771145 9.500117 -4.419088 -1.963952 0.363551 -0.894730 0.581340 4.669743 0.700709 -0.372580 3.926345 0.000000 0.000000 0.000000 26.017450 -7.771145 9.500117 -0.732835 0.579276 -1.309491 3.038785 -0.971338 3.129334 -1.121916 -2.551110 2.165425 0.000000 0.000000 0.000000 11.505825 1.794419 3.819947 -12.733843 0.039255 -2.132726 0.000000 0.000000 0.000000 8.133131 1.007211 -2.293462 -6.321795 -2.751592 -1.431560 0.000000 0.000000 0.000000
0.100799 0.167289 0.119995 0.658772 -1.026518 -2.063811 0.000000 0.000000 0.000000 -25.948551 11.598909 -4.556305 -42.761961 -11.371154 -0.211839 0.000000 0.000000 0.000000 26.016461 -7.770922 9.499491 -3.494910 -1.511881 1.196311 0.552751 0.385961 4.828458 1.216740 -2.013995 3.160780 0.000000 0.000000 0.000000 26.016461 -7.770922 9.499491 -0.554079 0.464803 -0.897060 4.610419 -0.956730 0.966090 -0.820676 -0.119721 3.270364 0.000000 0.000000 0.000000 10.834469 1.798267 4.056695 -12.090597 0.112942 -2.208161 0.000000 0.000000 0.000000 8.401381 1.106481 -2.179836 -6.280785 -2.767824 -1.357291 0.000000 0.000000 0.000000
0.100955 0.167110 0.119970 0.715765 -1.060104 -2.131744 0.000000 0.000000 0.000000 -25.946037 11.747545 -4.270569 -43.000430 -11.285643 -0.460746 0.000000 0.000000 0.000000 25.943398 -7.770152 9.497515 -3.066954 -1.478551 1.491144 0.645667 0.200963 4.589660 1.425186 -2.127536 2.387180 0.000000 0.000000 0.000000 25.943398 -7.770152 9.497515 -0.856160 0.283809 -0.722755 5.484040 -0.366349 -1.721553 -0.114134 1.451952 4.955427 0.000000 0.000000 0.000000 9.702017 1.775041 4.050813 -11.036197 0.030622 -2.199822 0.000000 0.000000 0.000000 8.512225 1.172563 -2.101836 -6.041923 -2.812994 -1.369987 0.000000 0.000000 0.000000
0.101173 0.166988 0.119823 0.903006 -1.110593 -2.231524 0.000000 0.000000 0.000000 -25.947727 11.797033 -3.916735 -43.389492 -11.065589 -0.653521 0.000000 0.000000 0.000000 25.734425 -7.768717 9.496231 -3.430730 -1.783218 1.296969 0.324764 0.255728 4.369344 1.548409 -1.231936 1.409379 0.000000 0.000000 0.000000 25.734425 -7.768717 9.496231 -1.372192 0.204710 -1.016704 5.009895 0.227804 -2.651057 0.190209 0.905193 5.662514 0.000000 0.000000 0.000000 7.640519 1.707079 4.093752 -9.298220 -0.024679 -2.157388 0.000000 0.000000 0.000000 7.904993 1.179354 -1.979845 -5.514830 -2.747687 -1.372302 0.000000 0.000000 0.000000
0.101386 0.166567 0.119595 0.931253 -1.143027 -2.298047 0.000000 0.000000 0.000000 -25.951762 11.747369 -3.764953 -43.513905 -10.923685 -0.637051 0.000000 0.000000 0.000000 25.691463 -7.768123 9.496324 -3.381580 -1.748322 1.133261 0.303375 0.385112 3.427553 1.584471 -0.538044 0.796536 0.000000 0.000000 0.000000 25.691463 -7.768123 9.496324 -1.234325 0.181862 -1.346806 4.763720 0.266103 -2.310847 -0.382882 0.146943 5.673274 0.000000 0.000000 0.000000 6.035434 1.637195 4.088763 -7.706338 -0.052358 -2.055218 0.000000 0.000000 0.000000 7.666830 1.204687 -1.846585 -5.157408 -2.737232 -1.464645 0.000000 0.000000 0.000000
0.101488 0.165590 0.119469 0.960452 -1.159731 -2.332047 0.000000 0.000000 0.000000 -25.956973 11.624794 -3.724299 -43.603490 -10.808314 -0.549154 0.000000 0.000000 0.000000 25.655084 -7.767730 9.496917 -3.357909 -1.660530 0.740352 0.395309 0.588186 2.614356 1.546083 0.109941 0.340507 0.000000 0.000000 0.000000 25.655084 -7.767730 9.496917 -1.072971 0.254242 -1.547326 4.133013 0.201125 -1.464461 -1.361706 -1.378478 5.241940 0.000000 0.000000 0.000000 6.375934 1.686358 4.085211 -8.142303 -0.066054 -2.049636 0.000000 0.000000 0.000000 7.489851 1.222435 -1.720362 -5.059067 -2.731530 -1.585385 0.000000 0.000000 0.000000
0.101323 0.164336 0.119946 0.933249 -1.153781 -2.320314 0.000000 0.000000 0.000000 -25.961522 11.472115 -3.795866 -43.605969 -10.732414 -0.400193 0.000000 0.000000 0.000000 25.684059 -7.767611 9.497860 -3.329056 -1.537582 0.144177 0.275431 0.732695 2.400188 1.337162 0.151052 1.149553 0.000000 0.000000 0.000000 25.684059 -7.767611 9.497860 -0.969394 0.404634 -1.673552 3.205035 0.264812 -0.717752 -2.177891 -2.828897 4.744966 0.000000 0.000000 0.000000 9.220606 1.893706 4.021526 -10.580915 -0.106414 -2.105722 0.000000 0.000000 0.000000 7.340400 1.182630 -1.779220 -5.150830 -2.678916 -1.515223 0.000000 0.000000 0.000000
0.100881 0.163518 0.120700 0.785960 -1.126689 -2.267346 0.000000 0.000000 0.000000 -25.962861 11.376933 -3.868504 -43.480238 -10.696172 -0.326594 0.000000 0.000000 0.000000 25.839061 -7.767517 9.498586 -2.989816 -1.339254 -0.738659 0.172854 0.793335 2.670863 1.143199 0.006356 1.793958 0.000000 0.000000 0.000000 25.839061 -7.767517 9.498586 -0.408685 0.405170 -1.691146 3.198797 -0.040238 -0.066523 -2.635786 -2.287937 4.095852 0.000000 0.000000 0.000000 10.981660 1.983563 3.945855 -12.383528 -0.106968 -2.150390 0.000000 0.000000 0.000000 7.357023 1.121837 -1.906106 -5.279390 -2.642300 -1.448713 0.000000 0.000000 0.000000
0.100371 0.163231 0.121192 0.571579 -1.097527 -2.211785 0.000000 0.000000 0.000000 -25.959746 11.420587 -3.883822 -43.232946 -10.725243 -0.358631 0.000000 0.000000 0.000000 26.060767 -7.767559 9.498459 -2.448642 -1.153200 -1.342187 -0.078738 0.680723 3.032631 0.866984 -0.125671 2.131261 0.000000 0.000000 0.000000 26.060767 -7.767559 9.498459 0.702135 0.142956 -1.538088 3.522350 -0.456593 0.169746 -3.086332 -0.657475 3.548442 0.000000 0.000000 0.000000 10.446512 1.897659 3.896216 -12.587245 -0.094723 -2.188862 0.000000 0.000000 0.000000 7.721786 1.118774 -1.937374 -5.499886 -2.680075 -1.515718 0.000000 0.000000 0.000000
0.100002 0.163139 0.121396 0.416638 -1.082384 -2.184145 0.000000 0.000000 0.000000 -25.954249 11.567180 -3.869777 -43.125493 -10.762775 -0.404532 0.000000 0.000000 0.000000 26.219362 -7.767855 9.497696 -2.350827 -1.254994 -1.670424 -0.849076 0.463838 3.615950 0.775528 -0.044752 2.616024 0.000000 0.000000 0.000000 26.219362 -7.767855 9.497696 1.056871 -0.062588 -1.350441 3.426744 -0.540805 0.175835 -2.928110 0.170647 3.200517 0.000000 0.000000 0.000000 9.644857 1.822900 3.787387 -12.530689 -0.176663 -2.242597 0.000000 0.000000 0.000000 7.788498 1.093100 -1.968252 -5.269391 -2.693374 -1.569124 0.000000 0.000000 0.000000
0.099583 0.162714 0.121957 0.355094 -1.070956 -2.162142 0.000000 0.000000 0.000000 -25.950288 11.667723 -3.878543 -43.136211 -10.764312 -0.402483 0.000000 0.000000 0.000000 26.284917 -7.768107 9.497192 -2.606686 -1.479994 -1.887037 -1.803061 0.242747 4.401486 0.815422 0.117584 3.210432 0.000000 0.000000 0.000000 26.284917 -7.768107 9.497192 0.824179 -0.106026 -1.042683 3.097905 -0.331076 -0.284961 -2.172570 0.286859 3.242693 0.000000 0.000000 0.000000 9.957552 1.846079 3.586257 -12.393512 -0.451992 -2.409001 0.000000 0.000000 0.000000 8.012876 1.099138 -2.008991 -5.274541 -2.748878 -1.617967 0.000000 0.000000 0.000000
0.098967 0.162182 0.122632 0.295676 -1.078938 -2.179765 0.000000 0.000000 0.000000 -25.951318 11.659287 -3.802891 -43.115579 -10.682553 -0.376639 0.000000 0.000000 0.000000 26.338800 -7.767846 9.497148 -2.764345 -1.537342 -1.690938 -2.086375 0.155310 4.554062 1.092028 -0.175327 3.776910 0.000000 0.000000 0.000000 26.338800 -7.767846 9.497148 0.854422 -0.124519 -0.968592 3.290642 -0.293328 -0.709429 -2.562775 0.322835 3.443818 0.000000 0.000000 0.000000 12.729027 2.070908 3.445069 -13.408794 -0.680341 -2.529157 0.000000 0.000000 0.000000 8.201698 1.137896 -1.948350 -5.189783 -2.802935 -1.716968 0.000000 0.000000 0.000000
0.098277 0.161826 0.123068 0.133171 -1.091172 -2.208286 0.000000 0.000000 0.000000 -25.954171 11.613058 -3.734204 -42.995841 -10.610598 -0.317635 0.000000 0.000000 0.000000 26.491816 -7.767644 9.497450 -2.727042 -1.437581 -1.332792 -2.089552 0.047669 4.785963 1.465815 -0.854400 4.327557 0.000000 0.000000 0.000000 26.491816 -7.767644 9.497450 1.192331 -0.146206 -0.984065 3.622827 -0.373790 -0.948241 -3.285992 0.603103 3.573110 0.000000 0.000000 0.000000 15.839892 2.301525 3.505392 -14.577679 -0.664352 -2.545880 0.000000 0.000000 0.000000 8.028170 1.138162 -1.803602 -4.886573 -2.773540 -1.869186 0.000000 0.000000 0.000000
0.097909 0.161737 0.123209 -0.132169 -1.093192 -2.218109 0.000000 0.000000 0.000000 -25.954610 11.626144 -3.697387 -42.789066 -10.612252 -0.299780 0.000000 0.000000 0.000000 26.750330 -7.767733 9.497587 -2.222811 -1.155857 -0.976834 -1.712739 -0.046774 4.646631 1.583537 -1.289564 3.930132 0.000000 0.000000 0.000000 26.750330 -7.767733 9.497587 1.462628 -0.179738 -1.035133 3.484543 -0.331012 -0.963587 -3.232574 0.885420 3.577705 0.000000 0.000000 0.000000 14.179070 2.150167 3.722667 -14.542925 -0.471502 -2.614359 0.000000 0.000000 0.000000 8.060749 1.122116 -1.788420 -4.988833 -2.710457 -1.843607 0.000000 0.000000 0.000000
0.098107 0.161516 0.123367 -0.094399 -1.109293 -2.249914 0.000000 0.000000 0.000000 -25.954753 11.657615 -3.689001 -42.896466 -10.609719 -0.273359 0.000000 0.000000 0.000000 26.707167 -7.767923 9.497466 -2.229624 -1.164596 -0.666039 -1.669691 -0.038337 4.298159 1.668043 -1.209626 3.715408 0.000000 0.000000 0.000000 26.707167 -7.767923 9.497466 1.320464 -0.167536 -1.113666 3.373765 -0.269311 -0.851586 -3.296789 0.807672 3.448614 0.000000 0.000000 0.000000 11.634631 1.975210 3.923352 -13.425537 -0.330613 -2.638255 0.000000 0.000000 0.000000 7.818248 1.115316 -1.750738 -5.230454 -2.646934 -1.815769 0.000000 0.000000 0.000000
0.098808 0.161175 0.123521 0.038987 -1.139420 -2.308496 0.000000 0.000000 0.000000 -25.955661 11.692079 -3.584139 -43.171198 -10.540778 -0.315647 0.000000 0.000000 0.000000 26.563554 -7.767750 9.497058 -2.563586 -1.371246 -0.565934 -1.356674 0.120917 4.030386 1.517157 -1.195195 3.918751 0.000000 0.000000 0.000000 26.563554 -7.767750 9.497058 0.779170 -0.123490 -1.171477 3.516530 -0.177904 -1.002584 -3.063670 0.514954 3.603644 0.000000 0.000000 0.000000 11.723098 2.020547 4.037314 -13.053298 -0.246673 -2.555432 0.000000 0.000000 0.000000 8.029085 1.199407 -1.671011 -5.423500 -2.720535 -1.871714 0.000000 0.000000 0.000000
0.099431 0.160939 0.123627 0.456455 -1.169467 -2.361668 0.000000 0.000000 0.000000 -25.958264 11.650867 -3.478730 -43.608515 -10.437617 -0.390647 0.000000 0.000000 0.000000 26.141637 -7.767185 9.496780 -3.264893 -1.716714 -0.463338 -0.816410 0.442815 3.498934 1.405432 -0.860171 3.736117 0.000000 0.000000 0.000000 26.141637 -7.767185 9.496780 0.063488 -0.030996 -1.109657 3.739684 -0.082194 -1.395802 -2.947795 0.110174 3.759966 0.000000 0.000000 0.000000 12.725864 2.139638 4.151841 -13.760684 -0.126424 -2.452164 0.000000 0.000000 0.000000 7.895623 1.265240 -1.583097 -5.618609 -2.777209 -1.920186 0.000000 0.000000 0.000000
0.099470 0.160910 0.123673 0.679490 -1.181949 -2.383141 0.000000 0.000000 0.000000 -25.962072 11.545809 -3.353430 -43.683565 -10.303976 -0.419527 0.000000 0.000000 0.000000 25.916610 -7.766366 9.496903 -2.975367 -1.531787 -0.399821 -0.306416 0.549204 2.583207 1.069902 -0.269772 2.438439 0.000000 0.000000 0.000000 25.916610 -7.766366 9.496903 0.062872 -0.027717 -0.980396 3.879247 -0.093302 -1.834644 -2.989078 0.294423 3.847678 0.000000 0.000000 0.000000 10.917686 2.042623 4.103251 -12.789857 -0.120887 -2.310529 0.000000 0.000000 0.000000 7.496129 1.253891 -1.527422 -5.467530 -2.747812 -1.937025 0.000000 0.000000 0.000000
0.099217 0.160709 0.123766 0.655320 -1.180069 -2.379707 0.000000 0.000000 0.000000 -25.962017 11.544802 -3.291561 -43.674825 -10.240800 -0.437700 0.000000 0.000000 0.000000 25.940399 -7.766140 9.496835 -2.620226 -1.382797 -0.430948 0.295908 0.756376 1.346746 0.968968 0.530155 0.757562 0.000000 0.000000 0.000000 25.940399 -7.766140 9.496835 0.071773 -0.055424 -0.993561 4.034076 -0.226814 -1.670470 -2.793447 0.434057 3.795391 0.000000 0.000000 0.000000 8.722255 1.887499 4.024011 -11.476160 -0.089891 -2.123047 0.000000 0.000000 0.000000 6.657576 1.143532 -1.484172 -4.638185 -2.611818 -1.954373 0.000000 0.000000 0.000000
0.099089 0.160343 0.123449 0.683442 -1.180664 -2.380426 0.000000 0.000000 0.000000 -25.962623 11.525208 -3.251556 -43.742274 -10.166480 -0.426253 0.000000 0.000000 0.000000 25.912194 -7.765957 9.496844 -2.505873 -1.330613 -0.504219 0.315395 0.830379 0.733118 1.101759 0.854948 0.329926 0.000000 0.000000 0.000000 25.912194 -7.765957 9.496844 0.052527 -0.055226 -1.086545 3.882644 -0.206910 -1.529581 -2.618886 0.115863 3.865332 0.000000 0.000000 0.000000 8.751157 1.894493 3.989795 -11.286561 -0.127217 -2.116232 0.000000 0.000000 0.000000 4.999750 0.929061 -1.435198 -3.074267 -2.336275 -1.908775 0.000000 0.000000 0.000000
0.099236 0.159857 0.122734 0.731236 -1.183627 -2.385666 0.000000 0.000000 0.000000 -25.962980 11.517637 -3.214601 -43.770492 -10.103970 -0.397941 0.000000 0.000000 0.000000 25.863903 -7.765818 9.496814 -2.536916 -1.353773 -0.546759 0.152921 0.790155 0.802190 1.032464 0.823387 0.585751 0.000000 0.000000 0.000000 25.863903 -7.765818 9.496814 -0.110784 -0.030523 -1.326949 3.248887 -0.013046 -1.191719 -2.348078 -0.526871 3.760151 0.000000 0.000000 0.000000 8.404250 1.875253 3.974480 -10.543187 -0.166142 -2.106282 0.000000 0.000000 0.000000 4.452077 0.864104 -1.416958 -2.579951 -2.242439 -1.869964 0.000000 0.000000 0.000000
0.099347 0.159311 0.122116 0.762485 -1.185041 -2.388018 0.000000 0.000000 0.000000 -25.962837 11.523007 -3.244152 -43.786203 -10.084633 -0.317166 0.000000 0.000000 0.000000 25.833049 -7.765915 9.496817 -2.776504 -1.466682 -0.583996 -0.310308 0.726678 1.026706 0.978033 0.995792 0.902298 0.000000 0.000000 0.000000 25.833049 -7.765915 9.496817 -0.539945 0.076974 -1.683654 2.301662 0.305844 -0.616383 -1.737854 -1.392606 3.536668 0.000000 0.000000 0.000000 7.817444 1.831785 3.994944 -9.376431 -0.190533 -2.105855 0.000000 0.000000 0.000000 4.790265 0.916252 -1.411539 -3.017911 -2.304777 -1.895120 0.000000 0.000000 0.000000
0.099275 0.158459 0.122059 0.750690 -1.187868 -2.394055 0.000000 0.000000 0.000000 -25.965131 11.460298 -3.266260 -43.886304 -10.022733 -0.239223 0.000000 0.000000 0.000000 25.843266 -7.765903 9.497061 -3.345212 -1.659905 -0.600564 -1.016213 0.669757 1.344040 1.015844 1.388280 1.234568 0.000000 0.000000 0.000000 25.843266 -7.765903 9.497061 -0.955058 0.245955 -1.925544 1.781393 0.537905 -0.367919 -1.203074 -2.201916 3.650325 0.000000 0.000000 0.000000 9.773132 1.979694 4.023956 -11.131936 -0.231548 -2.262913 0.000000 0.000000 0.000000 5.446147 1.004937 -1.425093 -3.984693 -2.391026 -1.894761 0.000000 0.000000 0.000000
0.099156 0.158032 0.122115 0.753852 -1.184782 -2.387623 0.000000 0.000000 0.000000 -25.967280 11.385842 -3.324591 -43.947876 -9.979445 -0.139806 0.000000 0.000000 0.000000 25.841367 -7.765938 9.497384 -3.815046 -1.795843 -0.619926 -1.324246 0.649897 1.959841 1.222305 1.177523 1.978524 0.000000 0.000000 0.000000 25.841367 -7.765938 9.497384 -0.980583 0.342746 -1.923258 2.002841 0.539518 -0.551466 -1.421991 -2.021471 3.719708 0.000000 0.000000 0.000000 12.990811 2.212021 3.984745 -14.815319 -0.230930 -2.401479 0.000000 0.000000 0.000000 6.036214 1.084623 -1.421635 -4.936268 -2.478167 -1.943847 0.000000 0.000000 0.000000
