HIERARCHY
ROOT mixamorig:Hips
{
  OFFSET 0.000000 0.000000 0.000000
  CHANNELS 6 Xposition Yposition Zposition Xrotation Yrotation Zrotation
  JOINT mixamorig:Spine
  {
    OFFSET 0.785918 22.667751 -11.192521
    CHANNELS 3 Xrotation Yrotation Zrotation
    JOINT mixamorig:Spine2
    {
      OFFSET 0.785918 22.667751 -11.192521
      CHANNELS 3 Xrotation Yrotation Zrotation
      JOINT mixamorig:Neck
      {
        OFFSET 0.000000 4.280912 0.000000
        CHANNELS 3 Xrotation Yrotation Zrotation
        JOINT mixamorig:Head
        {
          OFFSET 0.000000 4.254871 0.000000
          CHANNELS 3 Xrotation Yrotation Zrotation
          End Site
          {
            OFFSET 0.000000 1.276461 0.000000
          }
        }
      }
      JOINT mixamorig:LeftShoulder
      {
        OFFSET 16.621605 2.780659 -2.297863
        CHANNELS 3 Xrotation Yrotation Zrotation
        JOINT mixamorig:LeftArm
        {
          OFFSET 7.570161 -18.010043 0.790673
          CHANNELS 3 Xrotation Yrotation Zrotation
          JOINT mixamorig:LeftForeArm
          {
            OFFSET 4.258502 -21.330331 -3.694189
            CHANNELS 3 Xrotation Yrotation Zrotation
            JOINT mixamorig:LeftHand
            {
              OFFSET -1.020528 -3.245478 -1.657259
              CHANNELS 3 Xrotation Yrotation Zrotation
              End Site
              {
                OFFSET -0.306158 -0.973643 -0.497178
              }
            }
          }
        }
      }
      JOINT mixamorig:RightShoulder
      {
        OFFSET -16.621605 2.780659 2.297863
        CHANNELS 3 Xrotation Yrotation Zrotation
        JOINT mixamorig:RightArm
        {
          OFFSET -7.047239 -26.880381 -0.525442
          CHANNELS 3 Xrotation Yrotation Zrotation
          JOINT mixamorig:RightForeArm
          {
            OFFSET -7.219958 -17.761464 -6.028907
            CHANNELS 3 Xrotation Yrotation Zrotation
            JOINT mixamorig:RightHand
            {
              OFFSET 1.362391 -2.129385 -3.788414
              CHANNELS 3 Xrotation Yrotation Zrotation
              End Site
              {
                OFFSET 0.408717 -0.638815 -1.136524
              }
            }
          }
        }
      }
    }
  }
  JOINT mixamorig:LeftUpLeg
  {
    OFFSET 10.014631 -0.404759 2.482655
    CHANNELS 3 Xrotation Yrotation Zrotation
    JOINT mixamorig:LeftLeg
    {
      OFFSET 2.113296 -38.097659 -0.269871
      CHANNELS 3 Xrotation Yrotation Zrotation
      JOINT mixamorig:LeftFoot
      {
        OFFSET -0.573928 -31.710121 21.169490
        CHANNELS 3 Xrotation Yrotation Zrotation
        JOINT mixamorig:LeftToeBase
        {
          OFFSET -0.179441 -4.917473 -4.664447
          CHANNELS 3 Xrotation Yrotation Zrotation
          End Site
          {
            OFFSET -0.053832 -1.475242 -1.399334
          }
        }
      }
    }
  }
  JOINT mixamorig:RightUpLeg
  {
    OFFSET -10.014631 0.404759 -2.482655
    CHANNELS 3 Xrotation Yrotation Zrotation
    JOINT mixamorig:RightLeg
    {
      OFFSET 1.865041 -30.879068 8.259322
      CHANNELS 3 Xrotation Yrotation Zrotation
      JOINT mixamorig:RightFoot
      {
        OFFSET -5.726950 -38.744381 19.123190
        CHANNELS 3 Xrotation Yrotation Zrotation
        JOINT mixamorig:RightToeBase
        {
          OFFSET -3.558205 -3.026307 -8.262988
          CHANNELS 3 Xrotation Yrotation Zrotation
          End Site
          {
            OFFSET -1.067462 -0.907892 -2.478896
          }
        }
      }
    }
  }
}
MOTION
Frames: 80
Frame Time: 0.083333
0.111184 0.140942 0.094126 0.635841 -0.057091 -0.073260 0.000000 0.000000 0.000000 -26.053894 7.191326 3.484596 12.540438 -1.021397 -8.928327 12.761678 -0.343198 -9.550412 21.909605 -9.272711 -0.500530 -1.514983 0.401038 0.421055 0.734938 2.093896 -0.122076 0.000000 0.000000 0.000000 23.530098 -7.494588 -0.495486 0.568948 0.085545 0.040344 0.463159 -0.842679 0.208451 0.000000 0.000000 0.000000 0.068466 0.085573 0.628439 -0.743547 -0.082958 -0.660171 -1.003780 -1.045872 1.361866 0.000000 0.000000 0.000000 -0.041893 -0.060128 -0.522602 -0.072453 0.017360 0.551691 -0.137775 0.032374 -0.096314 0.000000 0.000000 0.000000
0.110929 0.140847 0.094561 0.543528 -0.055530 -0.076657 -0.000000 0.000000 0.000000 -26.053987 7.189498 3.501290 15.914574 -0.939275 -8.502476 16.087661 0.146355 -9.233635 22.508802 -9.074503 -0.447381 -1.211320 0.354313 0.370013 0.638907 1.725371 -0.088062 0.000000 0.000000 0.000000 23.870051 -7.567052 -0.433151 0.556527 0.057091 0.009238 0.352397 -0.666655 0.205445 0.000000 0.000000 0.000000 0.261641 0.087633 0.613452 -0.928299 -0.043705 -0.597289 -0.981234 -0.619712 0.812580 0.000000 0.000000 0.000000 0.080593 -0.038058 -0.442750 -0.148383 -0.022213 0.429511 -0.112977 -0.042277 -0.009488 0.000000 0.000000 0.000000
0.110296 0.140926 0.095371 1.282982 -0.160900 -0.243150 -0.000000 0.000000 0.000000 -26.047838 7.401231 3.669104 -10.269819 -1.674223 -11.775022 -9.702670 -3.748622 -11.641937 18.118909 -10.723233 -1.132913 -2.495880 0.883190 0.894328 1.503434 3.789181 -0.108419 0.000000 0.000000 0.000000 21.251310 -7.243425 -1.108759 1.446422 0.142069 -0.094053 0.810507 -1.435922 0.698575 0.000000 0.000000 0.000000 1.363365 0.267145 1.702799 -3.068594 -0.029020 -1.516055 -2.770204 -0.618762 0.843168 0.000000 0.000000 0.000000 0.583752 -0.046966 -1.058788 -0.528739 -0.213073 0.841554 -0.211374 -0.231350 0.208406 0.000000 0.000000 0.000000
0.109633 0.141051 0.096433 1.339046 -0.262346 -0.451452 -0.000000 0.000000 0.000000 -26.042402 7.612340 3.983730 -10.355066 -2.010065 -11.767543 -9.710314 -4.097920 -11.567468 18.484067 -10.787301 -1.391612 -1.516631 1.013333 0.935909 1.445992 2.998261 0.265485 0.000000 0.000000 0.000000 21.481778 -7.558139 -1.468014 1.619893 0.277036 -0.448903 1.011805 -1.196302 1.559927 0.000000 0.000000 0.000000 3.832740 0.481584 2.376728 -5.580322 0.111290 -1.811494 -3.943123 1.394912 -1.673809 0.000000 0.000000 0.000000 1.614478 0.065700 -1.173090 -0.826790 -0.704075 0.364070 0.080939 -0.424857 0.778858 0.000000 0.000000 0.000000
0.109276 0.140978 0.097793 1.555056 -0.385883 -0.698050 -0.000000 0.000000 0.000000 -26.037424 7.842352 4.321903 -10.584433 -2.902406 -11.765321 -9.728967 -5.029435 -11.382194 18.863764 -10.780003 -1.610126 -1.033785 1.030199 0.770000 1.224200 2.396921 0.843138 0.000000 0.000000 0.000000 21.964887 -7.984829 -1.984366 1.145800 0.654278 -0.731810 1.765367 -1.439819 2.882395 0.000000 0.000000 0.000000 6.697435 0.774570 2.600395 -7.442789 -0.018818 -1.920923 -4.108066 1.628831 -1.773108 0.000000 0.000000 0.000000 2.131725 0.143413 -1.426011 -0.588101 -1.157867 0.027255 0.724259 0.005460 0.928760 0.000000 0.000000 0.000000
0.109346 0.140909 0.099501 2.025708 -0.512665 -0.939806 -0.000000 0.000000 0.000000 -26.036305 7.974060 4.569373 -10.958606 -3.996933 -11.694930 -9.843214 -6.179673 -11.078342 18.754228 -10.725486 -1.671431 -1.562455 0.899365 0.333866 1.286923 2.418852 1.329086 0.000000 0.000000 0.000000 22.135484 -8.256211 -2.147428 1.533334 0.511421 -0.703761 1.257870 -1.533157 3.517934 0.000000 0.000000 0.000000 9.972386 1.119462 2.767616 -10.727060 -0.134951 -2.022579 -3.484380 2.292617 -2.327310 0.000000 0.000000 0.000000 3.220770 0.346385 -1.540601 -1.878753 -1.559719 -0.211870 1.250245 -0.206541 1.334869 0.000000 0.000000 0.000000
0.109264 0.140733 0.101378 2.412670 -0.599895 -1.105768 -0.000000 0.000000 0.000000 -26.043156 7.835956 4.630131 -11.172806 -4.187965 -11.608839 -10.014224 -6.398931 -10.942857 18.421639 -10.501787 -1.448658 -1.910681 0.854429 -0.360221 1.293960 2.594298 1.662589 0.000000 0.000000 0.000000 22.066267 -8.151901 -2.166794 1.930257 0.294635 -0.510972 0.088970 -1.819236 3.520072 0.000000 0.000000 0.000000 10.111264 1.284815 2.706055 -10.496998 -0.276990 -1.880021 -3.338297 3.188405 -3.186114 0.000000 0.000000 0.000000 5.126021 0.604031 -1.696942 -3.675646 -2.224642 -0.781073 1.218482 -0.062002 2.097664 0.000000 0.000000 0.000000
0.108763 0.140703 0.102864 2.682749 -0.625650 -1.148304 0.000000 0.000000 0.000000 -26.049432 7.659386 4.560387 -11.295334 -4.177052 -11.496886 -10.148373 -6.394086 -10.827813 17.584881 -10.537966 -1.601892 -2.215236 0.906323 -0.080740 1.576836 2.837714 1.792358 0.000000 0.000000 0.000000 21.749605 -7.923271 -2.139671 2.223031 0.060103 -0.129549 -0.993382 -2.320673 3.197894 0.000000 0.000000 0.000000 11.543065 1.470512 2.294911 -11.901726 -0.481792 -1.534925 -3.153254 5.893223 -6.018049 0.000000 0.000000 0.000000 6.327313 0.691435 -2.118534 -4.832167 -2.773312 -1.217119 1.613857 -0.808771 3.068487 0.000000 0.000000 0.000000
0.108191 0.141854 0.103515 2.947857 -0.656498 -1.202597 0.000000 0.000000 0.000000 -26.054664 7.523643 4.522565 -11.411286 -4.091960 -11.375582 -10.295340 -6.312482 -10.719895 15.948272 -10.947447 -1.891649 -1.927428 1.239845 0.525564 1.978770 2.874851 2.270505 0.000000 0.000000 0.000000 21.178985 -7.679930 -1.783475 2.649542 -0.313658 0.223650 -1.434651 -2.933360 2.869117 0.000000 0.000000 0.000000 12.362053 1.632561 1.831310 -13.441943 -0.501425 -0.869981 -2.820078 9.939947 -10.739930 0.000000 0.000000 0.000000 5.342275 0.531920 -2.653332 -4.462979 -2.889085 -1.272986 2.405009 -0.297451 3.444729 0.000000 0.000000 0.000000
0.107603 0.144467 0.105045 2.952333 -0.712270 -1.323005 -0.000000 0.000000 0.000000 -26.056387 7.542229 4.661864 -11.422638 -4.086563 -11.357535 -10.309652 -6.306239 -10.702447 15.641142 -11.075980 -1.853899 -2.086986 1.162064 1.488904 1.808195 2.404861 3.083887 0.000000 0.000000 0.000000 21.132915 -7.699204 -1.259671 2.849688 -0.503371 0.000863 -1.761479 -2.363543 2.331876 0.000000 0.000000 0.000000 8.798362 1.516992 1.415644 -10.158583 -0.301276 0.077849 -2.501563 11.074469 -12.512837 0.000000 0.000000 0.000000 4.761638 0.447660 -2.954965 -4.196616 -2.723896 -0.808594 2.392820 1.047906 3.072748 0.000000 0.000000 0.000000
0.107303 0.147037 0.108133 2.865042 -0.782786 -1.478987 -0.000000 0.000000 0.000000 -26.055539 7.680610 4.903619 -11.390327 -3.987715 -11.436841 -10.293468 -6.215728 -10.805656 17.138302 -10.598198 -1.183033 -2.279369 0.502943 3.430884 1.486457 0.186969 4.536284 0.000000 0.000000 0.000000 22.762427 -8.257797 -0.612374 3.577938 -0.233631 -2.463828 -2.580458 1.984567 2.974847 0.000000 0.000000 0.000000 3.541930 1.247665 1.035826 -5.281409 -0.015562 0.998016 -1.107563 11.904717 -13.692726 0.000000 0.000000 0.000000 3.918840 0.355649 -3.096625 -3.362842 -2.503721 -0.458616 2.312583 2.058647 2.745644 0.000000 0.000000 0.000000
0.107325 0.148790 0.111153 2.782043 -0.906358 -1.749181 -0.000000 0.000000 0.000000 -26.053880 7.938278 5.319307 -11.374499 -3.871713 -11.525717 -10.296149 -6.113267 -10.921489 18.818076 -10.084917 0.433833 -3.139035 -0.724007 8.093906 -0.147795 -4.667908 9.436984 0.000000 0.000000 0.000000 25.613126 -9.250567 -0.340443 4.574252 1.364003 -8.320365 -3.714151 12.433077 6.522378 0.000000 0.000000 0.000000 0.356513 1.103222 1.290880 -3.218697 0.218949 1.085534 -1.842535 11.825143 -14.010971 0.000000 0.000000 0.000000 3.015261 0.393123 -2.748178 -2.020738 -2.249345 -0.326545 1.831732 1.676126 2.711415 0.000000 0.000000 0.000000
0.107331 0.150232 0.112597 2.791317 -0.985819 -1.920292 -0.000000 0.000000 0.000000 -26.056101 8.014043 5.536758 -11.355597 -3.490267 -11.446292 -10.375872 -5.716640 -10.925277 18.590708 -9.936343 3.904413 -3.792894 -1.649143 14.276260 -5.011798 -11.625114 18.931103 0.000000 0.000000 0.000000 26.155088 -9.425028 -1.252764 4.275508 5.468597 -17.640554 -2.309559 25.020709 17.289632 0.000000 0.000000 0.000000 -2.017888 0.970931 1.412479 -1.447500 0.379124 1.181295 -2.479080 11.361056 -13.737352 0.000000 0.000000 0.000000 4.608719 0.689611 -2.621287 -3.201536 -2.479441 -0.186179 1.217575 1.789553 2.631379 0.000000 0.000000 0.000000
0.106279 0.152199 0.113215 2.765734 -1.016817 -1.987898 0.000000 0.000000 0.000000 -26.059451 7.972784 5.598098 -11.295502 -3.030897 -11.236507 -10.444351 -5.210355 -10.814227 17.973919 -9.590972 9.919756 -5.583142 -2.009939 17.487052 -13.297374 -17.034431 31.089710 0.000000 0.000000 0.000000 26.366918 -9.304299 -3.525290 3.888465 9.112172 -24.748001 0.338403 33.890249 36.730868 0.000000 0.000000 0.000000 -1.689287 1.032961 1.298060 -1.764975 0.224500 1.170185 -2.031605 10.183412 -12.015398 0.000000 0.000000 0.000000 5.623105 0.854502 -2.594746 -4.562680 -2.610486 -0.086366 1.684836 2.702616 2.156296 0.000000 0.000000 0.000000
0.104846 0.153527 0.113446 2.748330 -1.066816 -2.096212 -0.000000 0.000000 0.000000 -26.066889 7.844467 5.666988 -11.250102 -2.692191 -11.223614 -10.477729 -4.862118 -10.874633 17.526878 -8.857852 18.211558 -7.405579 -1.900919 19.500077 -25.818343 -19.256243 46.019923 0.000000 0.000000 0.000000 26.747045 -9.017794 -7.642277 2.960950 12.219614 -28.448159 1.401508 42.623143 58.832913 0.000000 0.000000 0.000000 -1.281692 1.126782 1.041782 -1.693215 -0.194337 0.982433 -1.869439 8.752037 -9.365731 0.000000 0.000000 0.000000 5.869577 0.940460 -2.531104 -4.472044 -2.710288 -0.188252 1.735392 3.757487 1.788847 0.000000 0.000000 0.000000
0.103768 0.153680 0.113544 2.631205 -1.120336 -2.213996 -0.000000 0.000000 0.000000 -26.074879 7.719260 5.762690 -11.174954 -2.525921 -11.241601 -10.439543 -4.685168 -10.928685 17.419375 -8.310076 23.786729 -9.017732 -1.524424 24.326239 -39.136026 -16.218830 61.673952 0.000000 0.000000 0.000000 27.244483 -8.641329 -12.967243 1.959099 14.678941 -29.373491 3.297390 49.764885 81.042292 0.000000 0.000000 0.000000 -0.182306 1.289567 1.016789 -2.599904 -0.807677 0.322686 -1.424926 6.790816 -5.834173 0.000000 0.000000 0.000000 7.628518 1.253193 -2.336642 -5.663670 -3.137473 -0.628622 1.672683 3.695643 1.984580 0.000000 0.000000 0.000000
0.103590 0.153162 0.113712 2.055085 -1.149411 -2.288885 -0.000000 0.000000 0.000000 -26.082226 7.597278 5.883924 -7.364461 -2.423178 -10.705681 -6.713946 -4.184419 -10.612694 18.609762 -7.682820 29.298328 -9.784409 -1.524428 26.800661 -47.343717 -12.669985 68.588784 0.000000 0.000000 0.000000 28.518807 -8.270571 -18.627776 -0.391791 16.085803 -27.787450 0.800536 53.934803 95.709273 0.000000 0.000000 0.000000 2.775973 1.597996 0.915811 -5.409420 -1.770296 -0.676122 -0.282203 3.896284 -0.820132 0.000000 0.000000 0.000000 12.021365 1.837399 -2.258981 -8.854288 -3.992521 -1.271286 1.500265 3.377813 2.414984 0.000000 0.000000 0.000000
0.104417 0.152497 0.113874 1.242891 -1.133317 -2.271499 0.000000 0.000000 0.000000 -26.082849 7.601941 5.994169 8.791075 -2.412275 -8.360487 9.170856 -2.608904 -9.190607 20.044887 -7.227135 34.788027 -10.989934 -0.894984 27.714679 -52.151589 -8.181954 74.756731 0.000000 0.000000 0.000000 30.009256 -8.025848 -24.178291 -2.685217 16.786300 -25.158623 -0.323186 56.779578 106.223446 0.000000 0.000000 0.000000 6.263407 1.916851 0.550090 -7.974747 -2.761226 -1.501388 1.006646 2.876942 2.073237 0.000000 0.000000 0.000000 16.977497 2.377959 -2.461488 -12.362935 -4.877795 -1.788654 1.309675 3.442185 2.720234 0.000000 0.000000 0.000000
0.104961 0.153009 0.113912 1.417193 -1.126721 -2.254009 0.000000 0.000000 0.000000 -26.072180 7.909971 6.080081 34.656088 -2.786836 -4.582304 34.659656 -0.675779 -6.977285 19.230365 -7.156807 40.363308 -11.281765 -0.048988 26.068314 -53.967131 -5.494622 75.611106 0.000000 0.000000 0.000000 29.514276 -8.069146 -28.184687 -4.949035 17.045883 -24.301546 -2.393957 60.277371 117.002658 0.000000 0.000000 0.000000 8.925289 2.243719 0.060639 -9.172368 -3.584690 -1.964446 0.178819 4.131048 2.072328 0.000000 0.000000 0.000000 18.172520 2.527166 -2.594978 -13.438277 -5.218081 -2.008565 0.945792 4.517540 2.669514 0.000000 0.000000 0.000000
0.104151 0.155490 0.113254 1.375247 -1.132201 -2.265882 0.000000 0.000000 0.000000 -26.067320 8.082350 6.174090 34.723733 -3.346751 -4.287981 34.713360 -1.503542 -6.955116 19.799972 -7.023091 44.900251 -12.091760 0.762660 25.623612 -59.387641 -5.206150 77.646225 0.000000 0.000000 0.000000 29.762921 -8.041736 -31.117841 -6.763262 17.475467 -24.260231 -2.593361 62.635691 124.196374 0.000000 0.000000 0.000000 10.335300 2.432891 -0.310934 -7.928324 -3.862887 -1.988248 -2.142203 5.405155 1.213465 0.000000 0.000000 0.000000 16.792474 2.342259 -2.654068 -11.781389 -5.104190 -2.097284 0.569553 5.259983 2.785821 0.000000 0.000000 0.000000
0.102691 0.158245 0.112125 0.216449 -1.157130 -2.340647 0.000000 0.000000 0.000000 -26.082637 7.756688 6.307371 35.341830 -3.597648 -4.176850 35.315085 -1.846739 -7.023005 23.190191 -6.594886 48.430757 -13.116496 0.284738 25.942405 -67.618108 -6.735244 80.781946 0.000000 0.000000 0.000000 31.949252 -7.520803 -33.987503 -7.471098 18.631870 -23.298318 2.050470 60.590311 120.608890 0.000000 0.000000 0.000000 7.902810 2.124813 -0.385010 -2.497506 -3.428649 -1.761394 -4.678365 6.869594 -0.302720 0.000000 0.000000 0.000000 15.596664 2.095191 -2.706743 -8.751980 -4.812063 -2.123560 -0.158253 4.944924 3.259029 0.000000 0.000000 0.000000
0.101899 0.159795 0.111243 -0.010150 -1.208545 -2.449104 0.000000 0.000000 -0.000000 -26.087667 7.752538 6.461013 35.454591 -3.660772 -4.133291 35.422599 -1.943892 -7.018248 24.132827 -6.427935 52.622136 -13.522144 -0.793881 25.376957 -71.478120 -6.358694 81.242689 0.000000 0.000000 0.000000 32.490166 -7.247678 -37.148060 -8.695308 19.538159 -22.496453 4.498469 59.862512 120.677055 0.000000 0.000000 0.000000 6.969804 2.076594 -0.436758 -1.056733 -3.292385 -1.578606 -6.909894 8.125703 -1.746229 0.000000 0.000000 0.000000 13.385408 1.827154 -2.773743 -4.997690 -4.391776 -1.850977 -1.480628 5.663234 3.131699 0.000000 0.000000 0.000000
0.101079 0.161490 0.110522 -0.365182 -1.237549 -2.513252 0.000000 0.000000 -0.000000 -26.104121 7.345825 6.396862 35.625923 -3.402223 -4.354974 35.608203 -1.503812 -7.147501 25.241187 -5.904766 56.040112 -14.138215 -2.122663 25.334306 -74.846035 -5.528369 88.408244 0.000000 0.000000 0.000000 33.619868 -6.542703 -39.673758 -10.334925 20.117681 -22.469842 5.745118 60.168244 122.943379 0.000000 0.000000 0.000000 6.370918 2.026732 -0.610927 -0.883178 -3.186482 -1.221684 -4.728729 8.204942 -1.779403 0.000000 0.000000 0.000000 13.885787 1.872009 -2.937908 -5.187589 -4.406118 -1.649431 -2.325125 6.304742 3.279760 0.000000 0.000000 0.000000
0.099893 0.163307 0.109555 -0.677892 -1.271247 -2.584840 0.000000 0.000000 -0.000000 -26.124438 6.831797 6.277142 35.777319 -3.070162 -4.605239 35.773726 -0.958207 -7.265823 26.212610 -5.335940 58.267411 -14.764692 -3.450060 25.239718 -78.730452 -6.330249 91.408840 0.000000 0.000000 0.000000 34.300192 -5.833115 -41.217394 -11.468108 20.588134 -22.881972 6.538198 60.605718 124.660479 0.000000 0.000000 0.000000 4.737081 1.847619 -0.655724 0.361544 -2.742390 -0.642562 -3.509292 8.368805 -2.497280 0.000000 0.000000 0.000000 12.827264 1.704011 -3.039840 -4.455512 -4.070871 -1.279340 -2.319022 6.951956 3.098432 0.000000 0.000000 0.000000
0.098774 0.164498 0.108620 -1.109875 -1.330412 -2.707986 0.000000 0.000000 0.000000 -26.139503 6.574351 6.351244 35.984241 -2.877018 -4.785102 35.985338 -0.615632 -7.385846 27.911633 -5.188683 59.390637 -15.602424 -4.527461 25.702296 -81.079828 -7.351043 73.203201 0.000000 0.000000 0.000000 34.668352 -5.527540 -41.955426 -12.104578 20.834815 -23.374138 6.605450 61.135523 126.044568 0.000000 0.000000 0.000000 4.982636 1.923867 -0.820108 0.466007 -2.600420 -0.149739 -3.546743 9.388415 -3.898366 0.000000 0.000000 0.000000 10.828500 1.425528 -3.027825 -2.653290 -3.519058 -0.923839 -2.657047 8.124133 2.841448 0.000000 0.000000 0.000000
0.097961 0.166297 0.107727 -1.378978 -1.372993 -2.794713 0.000000 0.000000 0.000000 -26.146209 6.523623 6.460408 36.107574 -2.771600 -4.891943 36.109859 -0.422159 -7.462323 28.406236 -5.142182 60.666120 -15.985722 -4.453632 25.401244 -81.923356 -7.050217 74.454402 0.000000 0.000000 0.000000 35.038917 -5.402617 -42.726709 -12.416029 20.984882 -22.929659 7.042355 60.638639 125.754424 0.000000 0.000000 0.000000 4.588420 1.900936 -0.770174 0.374957 -2.494986 0.012413 -3.273481 8.902163 -3.618321 0.000000 0.000000 0.000000 10.467086 1.400607 -2.938660 -2.040883 -3.383874 -0.903414 -2.977188 7.826670 3.058259 0.000000 0.000000 0.000000
0.096821 0.169630 0.106643 -1.615064 -1.404849 -2.859336 0.000000 0.000000 0.000000 -26.150880 6.506373 6.556962 36.211730 -2.647471 -4.946999 36.214725 -0.237352 -7.464434 28.412976 -5.074777 61.836454 -16.356676 -4.217373 26.344079 -85.338906 -6.150338 67.406324 0.000000 0.000000 0.000000 35.507954 -5.285203 -43.550806 -12.763234 21.019554 -22.291572 7.532202 60.092530 125.327707 0.000000 0.000000 0.000000 4.308708 1.881205 -0.725404 0.209266 -2.381266 0.190068 -2.022301 8.857950 -3.725746 0.000000 0.000000 0.000000 10.167628 1.374643 -2.858424 -1.710804 -3.270141 -0.887815 -2.491733 7.831009 2.901723 0.000000 0.000000 0.000000
0.095418 0.173179 0.105812 -1.513105 -1.467509 -2.981386 0.000000 0.000000 0.000000 -26.156155 6.534743 6.691202 36.151301 -2.628397 -4.942212 36.154651 -0.219944 -7.442153 27.867415 -5.005447 62.816736 -16.596852 -3.799282 27.458054 -88.287199 -4.731993 62.261853 0.000000 0.000000 0.000000 35.454168 -5.194878 -44.611605 -13.197707 21.116227 -21.615500 7.673913 60.034456 125.808545 0.000000 0.000000 0.000000 4.067814 1.929941 -0.613856 0.455306 -2.296573 0.291966 -1.875519 8.929400 -3.922922 0.000000 0.000000 0.000000 9.441482 1.367369 -2.670979 -1.273758 -3.160982 -0.949130 -2.223553 7.956993 2.813910 0.000000 0.000000 0.000000
0.094312 0.175851 0.105343 -1.571722 -1.503989 -3.052939 0.000000 0.000000 0.000000 -26.160974 6.514843 6.768347 36.171157 -2.546509 -4.799818 36.174188 -0.205487 -7.225643 27.890769 -4.967996 63.211693 -16.622888 -3.555205 27.237085 -88.445604 -4.644905 62.507271 0.000000 0.000000 0.000000 35.924196 -5.051856 -45.132206 -13.484860 20.974827 -21.117009 8.038609 59.628361 125.451221 0.000000 0.000000 0.000000 3.698157 1.915363 -0.505090 1.111352 -2.211223 0.269646 -2.022684 9.100418 -4.105205 0.000000 0.000000 0.000000 8.189252 1.251628 -2.380742 0.141873 -2.962328 -1.214283 -1.948591 7.981006 2.729175 0.000000 0.000000 0.000000
0.093887 0.177790 0.105080 -1.868924 -1.532961 -3.110432 0.000000 0.000000 0.000000 -26.167585 6.443804 6.838834 36.314632 -2.469284 -4.593707 36.316351 -0.229287 -6.946490 28.594416 -4.975958 63.003436 -16.650982 -3.517961 26.834626 -87.942138 -5.717316 66.434164 0.000000 0.000000 0.000000 36.828240 -4.889419 -45.063375 -13.579182 20.788853 -20.994912 8.426687 58.887112 124.587070 0.000000 0.000000 0.000000 3.789316 1.934902 -0.434833 1.400789 -2.184400 0.236351 -1.549816 9.168787 -4.087576 0.000000 0.000000 0.000000 8.111781 1.302122 -2.052943 0.633146 -2.963684 -1.537661 -1.742207 7.993577 2.644117 0.000000 0.000000 0.000000
0.093734 0.179529 0.105058 -1.944965 -1.552194 -3.147955 0.000000 0.000000 0.000000 -26.168168 6.504216 6.921814 36.356042 -2.579009 -4.440223 36.356311 -0.449841 -6.831327 28.636642 -5.051038 62.747481 -16.494564 -3.254230 26.622463 -87.382267 -5.869746 66.469329 0.000000 0.000000 0.000000 37.044923 -4.918153 -45.179628 -13.611800 20.843124 -20.815455 8.886015 58.499894 123.989926 0.000000 0.000000 0.000000 3.675222 1.933994 -0.379002 1.582943 -2.174096 0.193747 -1.456993 9.193143 -4.057309 0.000000 0.000000 0.000000 8.387507 1.391047 -1.888023 0.528598 -3.068975 -1.766191 -1.816971 8.054881 2.714655 0.000000 0.000000 0.000000
0.093674 0.180885 0.105197 -2.091007 -1.564763 -3.172448 0.000000 0.000000 0.000000 -26.173349 6.404340 6.918408 36.437092 -2.599675 -4.407065 36.436552 -0.491306 -6.810538 28.544865 -4.909749 62.776779 -16.333653 -2.984748 26.422276 -87.162648 -5.658808 65.446788 0.000000 0.000000 0.000000 37.723038 -4.730428 -45.102841 -13.641761 20.688292 -20.655436 9.595519 57.861532 122.836078 0.000000 0.000000 0.000000 3.230982 1.873352 -0.317341 1.709388 -2.149201 0.131821 -1.899269 8.834474 -3.714565 0.000000 0.000000 0.000000 8.805185 1.467033 -1.828928 0.383167 -3.148612 -1.862956 -1.962125 7.869141 2.846038 0.000000 0.000000 0.000000
0.093575 0.182546 0.105070 -2.263683 -1.582255 -3.206360 0.000000 0.000000 0.000000 -26.179301 6.302534 6.928047 36.524310 -2.545084 -4.437373 36.524195 -0.404923 -6.821629 28.669799 -4.790282 63.002961 -16.435282 -2.879185 26.938257 -88.107401 -5.157322 64.203579 0.000000 0.000000 0.000000 38.249488 -4.570133 -45.068141 -13.725379 20.608902 -20.674878 10.055371 57.542168 122.270120 0.000000 0.000000 0.000000 2.959977 1.839588 -0.237942 2.056758 -2.091793 0.094432 -1.816410 8.444316 -3.319286 0.000000 0.000000 0.000000 9.341920 1.579744 -1.694025 0.371685 -3.286761 -2.105436 -2.265591 7.404609 3.139602 0.000000 0.000000 0.000000
0.093434 0.184217 0.104879 -2.238243 -1.612839 -3.265418 0.000000 0.000000 0.000000 -26.181850 6.332733 7.005326 36.505828 -2.535010 -4.457417 36.505989 -0.381592 -6.838129 28.667053 -4.814361 63.355429 -16.614169 -2.970687 27.314057 -89.313584 -5.045194 64.586003 0.000000 0.000000 0.000000 38.058425 -4.605824 -45.267694 -13.756895 20.655713 -20.548951 10.058590 57.672320 122.415298 0.000000 0.000000 0.000000 3.055156 1.889836 -0.221893 2.510795 -2.043034 0.161798 -1.382281 8.285547 -3.134108 0.000000 0.000000 0.000000 9.822251 1.710620 -1.585354 0.136091 -3.429152 -2.268242 -2.648367 6.976471 3.452669 0.000000 0.000000 0.000000
0.093334 0.185624 0.104856 -2.291254 -1.629569 -3.297633 0.000000 0.000000 0.000000 -26.184595 6.316021 7.039625 36.529624 -2.507267 -4.485546 36.530073 -0.330761 -6.857288 28.898418 -4.831610 63.159111 -16.676821 -3.134020 27.433869 -89.461635 -5.588378 66.778263 0.000000 0.000000 0.000000 38.112426 -4.604493 -45.135523 -13.626944 20.564823 -20.445017 10.366041 57.385589 121.598766 0.000000 0.000000 0.000000 3.215278 1.928123 -0.288570 3.238341 -1.979850 0.268205 -0.596080 8.382814 -3.134805 0.000000 0.000000 0.000000 10.090580 1.769778 -1.559247 0.380021 -3.494277 -2.349921 -3.043111 6.614373 3.658015 0.000000 0.000000 0.000000
0.093377 0.186370 0.105088 -2.385199 -1.630484 -3.299184 0.000000 0.000000 0.000000 -26.188316 6.213824 7.001426 36.585443 -2.521471 -4.512771 36.585651 -0.329512 -6.902867 29.169914 -4.751411 63.050321 -16.745150 -3.463150 27.291798 -89.257454 -6.195969 69.004616 0.000000 0.000000 0.000000 38.410592 -4.489525 -44.910427 -13.514662 20.505958 -20.444081 11.614557 57.208285 120.139735 0.000000 0.000000 0.000000 3.617264 1.978858 -0.339961 2.734232 -1.990161 0.389528 -0.767980 8.480057 -3.386516 0.000000 0.000000 0.000000 10.724645 1.856542 -1.588631 -0.386338 -3.609342 -2.381137 -3.032977 6.533699 3.813565 0.000000 0.000000 0.000000
0.093653 0.187181 0.105285 -2.431805 -1.631862 -3.301735 0.000000 0.000000 0.000000 -26.190002 6.171900 6.988867 36.614075 -2.548189 -4.528322 36.614002 -0.351200 -6.939705 29.293288 -4.720364 62.969607 -16.778313 -3.651987 27.267849 -89.095236 -6.440991 70.079734 0.000000 0.000000 0.000000 38.407340 -4.468489 -44.810734 -13.476969 20.521996 -20.559598 12.596873 57.431000 119.354306 0.000000 0.000000 0.000000 4.563562 2.109939 -0.325218 1.940675 -1.982535 0.561080 -1.040611 8.214115 -3.495021 0.000000 0.000000 0.000000 11.498894 1.965972 -1.643637 -1.348090 -3.743960 -2.363389 -3.059068 6.558983 3.918096 0.000000 0.000000 0.000000
0.094144 0.187806 0.105371 -2.422258 -1.626283 -3.291021 0.000000 0.000000 0.000000 -26.188857 6.185945 6.983050 36.611218 -2.576990 -4.545469 36.610980 -0.375597 -6.977108 29.299054 -4.743519 62.771071 -16.672994 -3.698442 26.880929 -88.273941 -6.788418 71.317267 0.000000 0.000000 0.000000 38.198225 -4.530784 -44.708555 -13.383583 20.634752 -20.678398 13.270045 57.591238 118.793986 0.000000 0.000000 0.000000 5.785966 2.277127 -0.369965 0.762499 -2.115007 0.630060 -1.254590 7.966579 -3.391089 0.000000 0.000000 0.000000 11.743015 1.975484 -1.774280 -1.703110 -3.779980 -2.265479 -3.030536 6.521042 3.977379 0.000000 0.000000 0.000000
0.094624 0.188423 0.105384 -2.412184 -1.602723 -3.245693 0.000000 0.000000 0.000000 -26.186419 6.172594 6.924614 36.614129 -2.634704 -4.578830 36.613345 -0.424770 -7.051572 29.339766 -4.751796 62.161012 -16.465986 -3.722365 26.522384 -87.017720 -7.304930 73.456532 0.000000 0.000000 0.000000 37.820199 -4.604964 -44.512342 -13.276400 20.847785 -21.062967 13.653309 58.083688 118.802002 0.000000 0.000000 0.000000 5.722547 2.241689 -0.437277 1.272334 -1.977804 0.811245 -0.589167 7.380961 -2.979405 0.000000 0.000000 0.000000 11.781782 1.907944 -2.040765 -1.983460 -3.774511 -2.080668 -3.038819 6.558490 4.104353 0.000000 0.000000 0.000000
0.094918 0.188865 0.105725 -2.371486 -1.584837 -3.211228 0.000000 0.000000 0.000000 -26.184286 6.169600 6.879271 36.605376 -2.747633 -4.553816 36.602916 -0.575354 -7.087974 29.436860 -4.798574 60.872508 -16.064870 -3.690744 25.849727 -85.036142 -8.451566 77.894408 0.000000 0.000000 0.000000 37.300554 -4.758195 -43.816227 -12.858878 21.090142 -21.636845 13.976051 58.569028 118.500514 0.000000 0.000000 0.000000 5.501300 2.194618 -0.516904 1.417663 -1.895592 0.960029 -0.481498 6.865456 -2.623788 0.000000 0.000000 0.000000 11.546306 1.804457 -2.317906 -2.175027 -3.673526 -1.737764 -2.919908 6.969249 3.956194 0.000000 0.000000 0.000000
0.095212 0.188964 0.106194 -2.246541 -1.534075 -3.113335 0.000000 0.000000 0.000000 -26.174810 6.265961 6.803394 36.542423 -2.772074 -4.457684 36.539097 -0.664204 -6.982129 29.372524 -4.957015 58.907163 -15.519762 -3.443150 25.295579 -82.304530 -9.348741 78.302362 0.000000 0.000000 0.000000 36.908303 -5.029721 -42.493914 -11.694230 21.044082 -21.374463 14.824934 57.542515 115.432838 0.000000 0.000000 0.000000 5.503052 2.142422 -0.598325 1.514504 -2.063508 0.669562 -0.588328 6.558762 -1.881356 0.000000 0.000000 0.000000 12.901670 1.905673 -2.729579 -3.159504 -3.950364 -1.560555 -3.155637 6.543224 4.133858 0.000000 0.000000 0.000000
0.095531 0.188646 0.106605 -1.939347 -1.546606 -3.137334 0.000000 0.000000 0.000000 -26.169085 6.454244 6.883483 32.850558 -2.641218 -4.913865 32.895934 -0.790135 -7.149103 29.191098 -5.251592 54.990372 -14.886622 -3.235677 26.343965 -80.505154 -10.361366 62.436756 0.000000 0.000000 0.000000 35.885368 -5.562525 -39.800418 -9.831460 20.896574 -21.919755 14.199554 57.351840 113.342331 0.000000 0.000000 0.000000 6.616415 2.316374 -0.169622 0.809473 -2.309088 0.043544 -0.544984 6.124327 -1.157511 0.000000 0.000000 0.000000 16.002343 2.437304 -2.800352 -5.994120 -4.663917 -1.747732 -3.417782 5.710397 4.473294 0.000000 0.000000 0.000000
0.095973 0.188148 0.107118 -1.587612 -1.570214 -3.182798 0.000000 0.000000 0.000000 -26.168336 6.518931 6.916841 16.924107 -2.530913 -6.914319 17.169107 -1.966874 -8.208396 29.212698 -5.408304 49.727997 -14.260484 -3.651663 28.388075 -79.022760 -12.375779 32.821102 0.000000 0.000000 0.000000 34.349349 -6.017420 -36.739319 -7.639513 20.709979 -22.655723 12.158798 57.639195 112.300449 0.000000 0.000000 0.000000 7.855250 2.524920 0.147472 -0.287532 -2.417877 -0.181710 -0.453945 5.334824 -0.538580 0.000000 0.000000 0.000000 17.767116 2.789537 -2.746449 -8.399299 -5.127344 -1.976505 -3.342632 4.780953 4.997063 0.000000 0.000000 0.000000
0.096727 0.187058 0.108421 -1.255013 -1.553607 -3.149547 0.000000 0.000000 0.000000 -26.169682 6.375616 6.762175 -9.178782 -2.205572 -10.258606 -8.621393 -3.823902 -10.016836 30.058494 -5.308304 44.575137 -13.516184 -5.054583 29.054215 -76.233160 -17.523538 18.590047 0.000000 0.000000 0.000000 33.496161 -6.189902 -32.904490 -5.356567 20.310011 -23.856225 9.559055 56.895899 110.458494 0.000000 0.000000 0.000000 7.701326 2.505206 0.184360 -1.115068 -2.440337 -0.202662 -0.677999 4.097241 0.564614 0.000000 0.000000 0.000000 17.363081 2.749524 -2.654664 -8.924383 -5.120808 -2.094664 -3.211752 3.406867 5.693779 0.000000 0.000000 0.000000
0.098069 0.185605 0.110478 -0.588323 -1.518196 -3.078587 0.000000 0.000000 0.000000 -26.167081 6.249353 6.529006 -9.472643 -1.907547 -10.659977 -8.942222 -3.643667 -10.470866 30.347283 -5.155056 38.679560 -11.755144 -7.106655 28.050844 -70.510300 -24.275379 -36.074731 0.000000 0.000000 0.000000 32.340969 -6.292188 -29.434161 -3.260691 19.575022 -24.419066 6.707900 55.634893 107.221717 0.000000 0.000000 0.000000 7.631291 2.489427 0.312472 -3.312521 -2.434653 -0.192026 0.063260 1.656666 2.613437 0.000000 0.000000 0.000000 17.116401 2.763520 -2.363517 -10.271419 -5.158220 -2.410352 -2.111004 1.915530 6.063231 0.000000 0.000000 0.000000
0.099890 0.184431 0.112509 0.112654 -1.518196 -3.076545 0.000000 0.000000 0.000000 -26.161556 6.342048 6.473658 -9.835327 -1.992326 -11.155454 -9.247314 -3.877097 -10.954796 29.555295 -5.172799 32.738223 -9.215662 -8.455327 26.407793 -62.315051 -28.376137 9.517561 0.000000 0.000000 0.000000 31.059273 -6.597059 -26.182874 -1.277314 18.260700 -23.790737 2.721966 53.699194 101.155964 0.000000 0.000000 0.000000 6.309506 2.358194 0.617983 -5.825450 -2.210667 -0.027878 1.414727 0.427810 3.216263 0.000000 0.000000 0.000000 17.343095 2.942793 -1.719742 -12.410191 -5.288321 -3.117438 -0.469182 0.708593 6.236285 0.000000 0.000000 0.000000
0.102264 0.183410 0.114435 0.959339 -1.502705 -3.042037 0.000000 0.000000 0.000000 -26.147727 6.632504 6.454007 -10.280567 -2.065296 -11.852918 -9.620922 -4.152389 -11.645988 30.099940 -5.246298 27.380349 -7.721332 -8.377845 21.762946 -48.332710 -33.636068 7.755657 0.000000 0.000000 0.000000 30.360194 -7.128086 -22.064139 0.282194 15.862138 -22.080066 -1.746838 48.044516 85.399310 0.000000 0.000000 0.000000 1.290161 1.759567 0.956067 -3.393090 -1.527766 0.219580 0.975344 0.635745 2.452136 0.000000 0.000000 0.000000 15.848343 2.839572 -1.258324 -11.816967 -5.138009 -3.518374 -0.598254 0.566116 6.355512 0.000000 0.000000 0.000000
0.104305 0.182136 0.116262 1.751005 -1.474321 -2.979978 0.000000 0.000000 0.000000 -26.140809 6.672346 6.296584 -10.664569 -1.955222 -12.056325 -10.006817 -4.157162 -11.873467 28.191992 -5.457842 21.851143 -7.235289 -6.499534 18.101660 -33.086325 -29.091058 19.260024 0.000000 0.000000 0.000000 28.898131 -7.374431 -17.740743 1.441989 12.887206 -19.236199 -2.006339 40.109884 58.600376 0.000000 0.000000 0.000000 0.473666 1.675433 1.323131 -2.770711 -1.268546 0.113168 0.514402 1.715651 0.761783 0.000000 0.000000 0.000000 14.244643 2.647153 -1.260746 -11.642279 -4.884806 -3.220908 -0.616412 1.263044 6.047517 0.000000 0.000000 0.000000
0.105218 0.180683 0.118045 2.331654 -1.450298 -2.926232 0.000000 0.000000 0.000000 -26.146968 6.342000 6.014481 -10.936996 -2.033512 -11.805762 -10.273829 -4.248719 -11.604385 25.139216 -5.671432 17.657865 -7.463443 -3.937096 12.235527 -17.583243 -16.093992 27.529395 0.000000 0.000000 0.000000 27.938481 -7.267140 -12.591663 1.191436 9.618889 -17.025530 -5.409056 32.025417 34.017513 0.000000 0.000000 0.000000 -0.880118 1.517077 1.904305 -2.366826 -0.757171 0.114692 -0.367651 2.950294 -1.645489 0.000000 0.000000 0.000000 11.445985 2.247217 -1.456639 -10.958548 -4.314569 -2.447214 -0.375399 2.444882 5.556968 0.000000 0.000000 0.000000
0.105150 0.179042 0.119153 1.989327 -1.370113 -2.758408 -0.000000 0.000000 0.000000 -26.137831 6.426018 5.911988 -10.797105 -2.418516 -11.595712 -10.065701 -4.564824 -11.312918 25.676209 -5.909809 11.521385 -7.671438 -3.119973 8.807200 -8.905666 -8.590407 18.571213 0.000000 0.000000 0.000000 28.077346 -7.646396 -7.479077 1.854010 7.674832 -16.496249 -4.888965 25.572969 21.473517 0.000000 0.000000 0.000000 -1.836972 1.295490 2.219865 -1.952177 -0.285501 0.162302 -1.919056 5.143599 -4.939841 0.000000 0.000000 0.000000 8.135842 1.606784 -1.732382 -8.064770 -3.571768 -1.769572 -0.535559 3.329000 5.219360 0.000000 0.000000 0.000000
0.104802 0.177283 0.119739 1.577216 -1.294054 -2.602535 -0.000000 0.000000 0.000000 -26.118108 6.877880 5.991338 -10.639197 -2.699988 -11.525317 -9.853308 -4.799613 -11.185588 24.625940 -7.138439 4.615745 -6.903354 -2.442387 7.867630 -3.329594 -5.029814 11.375226 0.000000 0.000000 0.000000 27.974836 -8.254642 -4.141380 1.545343 5.658322 -14.026031 -4.351706 18.379927 13.110120 0.000000 0.000000 0.000000 -0.467773 1.334018 2.743870 -2.855771 -0.131536 -0.295752 -0.895582 5.622091 -5.862086 0.000000 0.000000 0.000000 8.033096 1.436007 -1.980075 -7.758898 -3.401027 -1.490527 -0.137619 2.764539 5.166502 0.000000 0.000000 0.000000
0.104158 0.175819 0.119092 1.341394 -1.199519 -2.408440 -0.000000 0.000000 0.000000 -26.103860 7.097665 5.908132 -10.548067 -2.934062 -11.425826 -9.719410 -4.996258 -11.039053 22.569862 -8.576317 -2.364950 -6.022609 -1.661462 9.391593 -0.123432 -1.972717 7.460769 0.000000 0.000000 0.000000 27.016470 -8.329644 -2.848686 1.269652 3.011764 -7.579956 -2.837763 8.797213 6.868080 0.000000 0.000000 0.000000 0.636881 1.317351 3.135852 -3.771705 0.157976 -0.505066 0.858608 5.113631 -5.904986 0.000000 0.000000 0.000000 7.364642 1.200470 -2.129434 -7.247290 -3.204425 -1.409567 0.468612 2.276519 5.151008 0.000000 0.000000 0.000000
0.103295 0.174135 0.118224 1.030542 -1.109620 -2.226870 0.000000 0.000000 0.000000 -26.097426 7.101932 5.755913 -10.390289 -3.005458 -11.329679 -9.557234 -5.018986 -10.930314 21.540685 -9.468595 -6.350835 -5.384384 -0.891345 9.886301 1.090163 0.331443 4.919215 0.000000 0.000000 0.000000 25.747705 -7.995025 -2.944237 0.604888 0.524187 0.445748 -1.827404 0.180535 2.435495 0.000000 0.000000 0.000000 2.595295 1.356058 3.500787 -5.240850 0.258496 -0.969373 0.570053 4.422184 -5.387841 0.000000 0.000000 0.000000 7.393572 1.066002 -2.267284 -6.549960 -3.122402 -1.355905 1.259606 0.892628 5.071422 0.000000 0.000000 0.000000
0.102231 0.171916 0.118284 0.902798 -1.045151 -2.096187 0.000000 0.000000 -0.000000 -26.096346 6.998490 5.584288 -10.312828 -3.013395 -11.109520 -9.498873 -4.974853 -10.707918 19.225116 -10.499410 -6.464425 -3.407187 0.588645 8.014168 1.434441 1.780589 3.160594 0.000000 0.000000 0.000000 23.228169 -7.279477 -3.385016 1.109296 -0.737630 4.823879 0.209917 -4.860479 1.367174 0.000000 0.000000 0.000000 6.259050 1.557180 3.467570 -8.881709 0.269005 -1.095019 0.339350 5.019697 -6.167337 0.000000 0.000000 0.000000 7.675405 1.021606 -2.331847 -6.701786 -3.097283 -1.304300 1.882577 -0.287733 5.094621 0.000000 0.000000 0.000000
0.101319 0.169650 0.119205 0.855171 -0.963160 -1.927985 0.000000 0.000000 -0.000000 -26.094530 6.876382 5.350599 -10.281113 -3.120946 -10.836033 -9.468273 -5.030433 -10.411323 19.542288 -10.107993 -4.864095 -2.185226 0.878398 5.295911 0.520765 2.204660 2.173101 0.000000 0.000000 0.000000 23.644418 -7.226817 -3.573839 2.308219 -1.440223 5.698029 -0.970622 -5.212155 1.576961 0.000000 0.000000 0.000000 9.914396 1.719202 3.303780 -12.582443 0.206156 -1.257866 -0.021955 5.337766 -6.436367 0.000000 0.000000 0.000000 7.754051 0.937808 -2.409010 -6.958279 -3.087726 -1.350426 2.461137 -0.663113 5.016773 0.000000 0.000000 0.000000
0.100844 0.168191 0.119752 0.738777 -0.951763 -1.907697 0.000000 0.000000 -0.000000 -26.094342 6.866982 5.340812 -10.248029 -3.401096 -10.480893 -9.406257 -5.243907 -9.998511 19.826366 -9.864865 -3.133904 -1.760474 0.748720 4.151051 0.068392 1.429696 3.138922 0.000000 0.000000 0.000000 23.968241 -7.273453 -3.467968 2.474366 -1.373813 5.128623 -1.574049 -4.312364 1.483171 0.000000 0.000000 0.000000 12.078430 1.827005 3.507693 -13.970816 0.265588 -1.489864 -0.670089 5.624024 -6.811794 0.000000 0.000000 0.000000 7.955787 0.949993 -2.369862 -6.812864 -3.095832 -1.385321 2.475385 -0.879041 4.958394 0.000000 0.000000 0.000000
0.100774 0.167546 0.119910 0.679528 -0.978901 -1.965223 0.000000 0.000000 0.000000 -26.096280 6.867847 5.413224 -10.236797 -3.556047 -10.350801 -9.373805 -5.374470 -9.837130 20.117782 -9.668063 -2.007784 -0.894730 0.581340 4.669743 0.700709 -0.372580 3.926345 0.000000 0.000000 0.000000 23.937237 -7.262996 -3.162876 3.038785 -0.971338 3.129334 -1.121916 -2.551110 2.165425 0.000000 0.000000 0.000000 11.505825 1.794419 3.819947 -12.819028 0.351796 -1.677100 -1.210211 5.703207 -6.957174 0.000000 0.000000 0.000000 8.133131 1.007211 -2.293462 -6.732168 -3.099106 -1.367851 2.372484 -0.935777 4.888437 0.000000 0.000000 0.000000
0.100799 0.167289 0.119995 0.658772 -1.026518 -2.063811 0.000000 0.000000 0.000000 -26.097503 6.934080 5.555082 -10.244513 -3.629431 -10.371729 -9.363484 -5.452254 -9.843489 21.090046 -9.258167 -1.006650 0.552751 0.385961 4.828458 1.216740 -2.013995 3.160780 0.000000 0.000000 0.000000 24.130045 -7.385945 -2.686868 4.610419 -0.956730 0.966090 -0.820676 -0.119721 3.270364 0.000000 0.000000 0.000000 10.834469 1.798267 4.056695 -12.155356 0.441115 -1.733740 -1.546316 5.930318 -7.351132 0.000000 0.000000 0.000000 8.401381 1.106481 -2.179836 -6.690379 -3.106066 -1.311336 2.190940 -1.125076 4.816508 0.000000 0.000000 0.000000
0.100955 0.167110 0.119970 0.715765 -1.060104 -2.131744 0.000000 0.000000 0.000000 -26.092761 7.157171 5.722903 -10.307975 -3.771617 -10.483927 -9.383947 -5.623847 -9.926319 21.489019 -9.256502 -0.515458 0.645667 0.200963 4.589660 1.425186 -2.127536 2.387180 0.000000 0.000000 0.000000 23.779620 -7.566719 -2.417236 5.484040 -0.366349 -1.721553 -0.114134 1.451952 4.955427 0.000000 0.000000 0.000000 9.702017 1.775041 4.050813 -11.057353 0.376164 -1.685090 -2.480163 6.494154 -7.960776 0.000000 0.000000 0.000000 8.512225 1.172563 -2.101836 -6.439790 -3.139150 -1.323699 1.805429 -0.993592 4.763706 0.000000 0.000000 0.000000
0.101173 0.166988 0.119823 0.903006 -1.110593 -2.231524 0.000000 0.000000 0.000000 -26.090266 7.340145 5.887594 -10.428238 -3.841889 -10.627939 -9.472080 -5.740034 -10.053319 20.952683 -9.565709 -0.532640 0.324764 0.255728 4.369344 1.548409 -1.231936 1.409379 0.000000 0.000000 0.000000 23.092677 -7.639049 -2.554498 5.009895 0.227804 -2.651057 0.190209 0.905193 5.662514 0.000000 0.000000 0.000000 7.640519 1.707079 4.093752 -9.263986 0.300879 -1.660611 -3.370139 6.363070 -7.756833 0.000000 0.000000 0.000000 7.904993 1.179354 -1.979845 -5.887730 -3.071527 -1.328017 1.477107 -0.856282 4.803598 0.000000 0.000000 0.000000
0.101386 0.166567 0.119595 0.931253 -1.143027 -2.298047 0.000000 0.000000 0.000000 -26.092811 7.336287 5.954750 -10.442289 -3.804860 -10.671048 -9.489765 -5.713086 -10.103768 20.983028 -9.537696 -0.592309 0.303375 0.385112 3.427553 1.584471 -0.538044 0.796536 0.000000 0.000000 0.000000 23.207342 -7.667092 -2.768938 4.763720 0.266103 -2.310847 -0.382882 0.146943 5.673274 0.000000 0.000000 0.000000 6.035434 1.637195 4.088763 -7.679672 0.262952 -1.572981 -3.387366 6.173150 -7.499736 0.000000 0.000000 0.000000 7.666830 1.204687 -1.846585 -5.537917 -3.060205 -1.423587 1.285943 -0.878924 4.877359 0.000000 0.000000 0.000000
0.101488 0.165590 0.119469 0.960452 -1.159731 -2.332047 0.000000 0.000000 0.000000 -26.097069 7.240586 5.944643 -10.442526 -3.718269 -10.657602 -9.510492 -5.624968 -10.107612 20.982972 -9.450896 -0.923105 0.395309 0.588186 2.614356 1.546083 0.109941 0.340507 0.000000 0.000000 0.000000 23.343224 -7.596683 -2.888904 4.133013 0.201125 -1.464461 -1.361706 -1.378478 5.241940 0.000000 0.000000 0.000000 6.375934 1.686358 4.085211 -8.132887 0.236890 -1.585660 -2.839202 5.955036 -7.158633 0.000000 0.000000 0.000000 7.489851 1.222435 -1.720362 -5.442772 -3.052244 -1.532406 1.485765 -0.788863 4.791244 0.000000 0.000000 0.000000
0.101323 0.164336 0.119946 0.933249 -1.153781 -2.320314 0.000000 0.000000 0.000000 -26.101700 7.081480 5.864076 -10.402537 -3.583681 -10.618749 -9.504781 -5.477264 -10.096632 21.040484 -9.324184 -1.508352 0.275431 0.732695 2.400188 1.337162 0.151052 1.149553 0.000000 0.000000 0.000000 23.475770 -7.443692 -2.994216 3.205035 0.264812 -0.717752 -2.177891 -2.828897 4.744966 0.000000 0.000000 0.000000 9.220606 1.893706 4.021526 -10.626647 0.181679 -1.663174 -2.232084 5.633840 -6.645032 0.000000 0.000000 0.000000 7.340400 1.182630 -1.779220 -5.534173 -2.996353 -1.440840 1.999714 -0.649402 4.567997 0.000000 0.000000 0.000000
0.100881 0.163518 0.120700 0.785960 -1.126689 -2.267346 0.000000 0.000000 0.000000 -26.103792 6.960323 5.772818 -10.302374 -3.432895 -10.608889 -9.440736 -5.306735 -10.119764 21.540791 -9.132266 -2.336800 0.172854 0.793335 2.670863 1.143199 0.006356 1.793958 0.000000 0.000000 0.000000 24.192489 -7.451578 -2.927701 3.198797 -0.040238 -0.066523 -2.635786 -2.287937 4.095852 0.000000 0.000000 0.000000 10.981660 1.983563 3.945855 -12.425052 0.166649 -1.728332 -1.954784 5.405063 -6.326997 0.000000 0.000000 0.000000 7.357023 1.121837 -1.906106 -5.655124 -2.954945 -1.344084 2.540649 -0.379670 4.302999 0.000000 0.000000 0.000000
0.100371 0.163231 0.121192 0.571579 -1.097527 -2.211785 0.000000 0.000000 0.000000 -26.101948 6.965215 5.745549 -10.189357 -3.392337 -10.626678 -9.337337 -5.247721 -10.149067 22.314797 -8.961645 -2.870510 -0.078738 0.680723 3.032631 0.866984 -0.125671 2.131261 0.000000 0.000000 0.000000 25.528451 -7.737719 -2.627353 3.522350 -0.456593 0.169746 -3.086332 -0.657475 3.548442 0.000000 0.000000 0.000000 10.446512 1.897659 3.896216 -12.573027 0.175118 -1.767302 -1.640116 5.520786 -6.418681 0.000000 0.000000 0.000000 7.721786 1.118774 -1.937374 -5.875102 -2.991658 -1.398510 2.787873 -0.277356 4.206582 0.000000 0.000000 0.000000
0.100002 0.163139 0.121396 0.416638 -1.082384 -2.184145 0.000000 0.000000 0.000000 -26.097875 7.070686 5.786577 -10.127691 -3.483333 -10.684086 -9.251921 -5.335482 -10.191001 22.566678 -9.067856 -3.228385 -0.849076 0.463838 3.615950 0.775528 -0.044752 2.616024 0.000000 0.000000 0.000000 26.039133 -7.954289 -2.433484 3.426744 -0.540805 0.175835 -2.928110 0.170647 3.200517 0.000000 0.000000 0.000000 9.644857 1.822900 3.787387 -12.490560 0.150425 -1.723581 -1.195222 6.836094 -7.845642 0.000000 0.000000 0.000000 7.788498 1.093100 -1.968252 -5.663578 -3.003666 -1.447154 2.881641 -0.314648 4.187282 0.000000 0.000000 0.000000
0.099583 0.162714 0.121957 0.355094 -1.070956 -2.162142 0.000000 0.000000 0.000000 -26.094762 7.147061 5.806891 -10.107215 -3.539449 -10.770726 -9.211577 -5.401112 -10.268078 22.362612 -9.286883 -3.518453 -1.803061 0.242747 4.401486 0.815422 0.117584 3.210432 0.000000 0.000000 0.000000 25.865278 -7.996610 -2.195112 3.097905 -0.331076 -0.284961 -2.172570 0.286859 3.242693 0.000000 0.000000 0.000000 9.957552 1.846079 3.586257 -12.408340 0.009708 -1.656959 -1.507901 9.671210 -10.846994 0.000000 0.000000 0.000000 8.012876 1.099138 -2.008991 -5.669097 -3.064502 -1.505042 2.715422 -0.382630 4.307615 0.000000 0.000000 0.000000
0.098967 0.162182 0.122632 0.295676 -1.078938 -2.179765 0.000000 0.000000 0.000000 -26.095463 7.148872 5.836105 -10.078732 -3.537020 -10.821203 -9.179555 -5.401244 -10.320282 22.266409 -9.341969 -3.297405 -2.086375 0.155310 4.554062 1.092028 -0.175327 3.776910 0.000000 0.000000 0.000000 25.959539 -8.014896 -2.070085 3.290642 -0.293328 -0.709429 -2.562775 0.322835 3.443818 0.000000 0.000000 0.000000 12.729027 2.070908 3.445069 -13.557652 -0.142860 -1.633888 -1.671503 11.069368 -12.102867 0.000000 0.000000 0.000000 8.201698 1.137896 -1.948350 -5.573465 -3.111743 -1.593490 2.553370 -0.170388 4.255209 0.000000 0.000000 0.000000
0.098277 0.161826 0.123068 0.133171 -1.091172 -2.208286 0.000000 0.000000 0.000000 -26.098735 7.088171 5.863848 -9.987980 -3.463168 -10.831899 -9.106135 -5.312067 -10.348028 22.469618 -9.242971 -2.902067 -2.089552 0.047669 4.785963 1.465815 -0.854400 4.327557 0.000000 0.000000 0.000000 26.462404 -8.040731 -2.007323 3.622827 -0.373790 -0.948241 -3.285992 0.603103 3.573110 0.000000 0.000000 0.000000 15.839892 2.301525 3.505392 -14.856236 -0.116974 -1.635606 -1.422755 10.862283 -11.767221 0.000000 0.000000 0.000000 8.028170 1.138162 -1.803602 -5.251352 -3.082329 -1.737346 2.732396 -0.036902 4.162098 0.000000 0.000000 0.000000
0.097909 0.161737 0.123209 -0.132169 -1.093192 -2.218109 0.000000 0.000000 0.000000 -26.100834 7.049085 5.896515 -9.847263 -3.393743 -10.823921 -8.984608 -5.214588 -10.357602 23.248917 -8.973720 -2.493762 -1.712739 -0.046774 4.646631 1.583537 -1.289564 3.930132 0.000000 0.000000 0.000000 26.996106 -8.078907 -2.039250 3.484543 -0.331012 -0.963587 -3.232574 0.885420 3.577705 0.000000 0.000000 0.000000 14.179070 2.150167 3.722667 -14.589457 0.031480 -1.787616 -2.624876 10.399139 -11.737500 0.000000 0.000000 0.000000 8.060749 1.122116 -1.788420 -5.298753 -3.024940 -1.707738 2.758425 0.227595 4.130598 0.000000 0.000000 0.000000
0.098107 0.161516 0.123367 -0.094399 -1.109293 -2.249914 0.000000 0.000000 0.000000 -26.101202 7.074255 5.937654 -9.881465 -3.511870 -10.801106 -8.994054 -5.334751 -10.310945 23.195632 -8.981682 -2.216619 -1.669691 -0.038337 4.298159 1.668043 -1.209626 3.715408 0.000000 0.000000 0.000000 26.807285 -8.065649 -2.170019 3.373765 -0.269311 -0.851586 -3.296789 0.807672 3.448614 0.000000 0.000000 0.000000 11.634631 1.975210 3.923352 -13.277114 0.132784 -1.878525 -4.337392 9.958759 -11.707616 0.000000 0.000000 0.000000 7.818248 1.115316 -1.750738 -5.450746 -2.972392 -1.679100 2.649224 0.627729 4.149610 0.000000 0.000000 0.000000
0.098808 0.161175 0.123521 0.038987 -1.139420 -2.308496 0.000000 0.000000 0.000000 -26.100805 7.150906 6.017736 -9.977591 -3.719566 -10.799044 -9.042188 -5.559031 -10.265692 22.719536 -9.182916 -2.122999 -1.356674 0.120917 4.030386 1.517157 -1.195195 3.918751 0.000000 0.000000 0.000000 26.128659 -8.012835 -2.262312 3.516530 -0.177904 -1.002584 -3.063670 0.514954 3.603644 0.000000 0.000000 0.000000 11.723098 2.020547 4.037314 -12.982302 0.192779 -1.847556 -3.718819 9.131796 -10.740564 0.000000 0.000000 0.000000 8.029085 1.199407 -1.671011 -5.642369 -3.044660 -1.737811 2.444900 0.653147 4.197913 0.000000 0.000000 0.000000
0.099431 0.160939 0.123627 0.456455 -1.169467 -2.361668 0.000000 0.000000 0.000000 -26.099544 7.230776 6.049852 -10.201756 -3.797678 -10.832967 -9.240541 -5.685594 -10.277171 21.596093 -9.516400 -2.000080 -0.816410 0.442815 3.498934 1.405432 -0.860171 3.736117 0.000000 0.000000 0.000000 25.001157 -7.907252 -2.181240 3.739684 -0.082194 -1.395802 -2.947795 0.110174 3.759966 0.000000 0.000000 0.000000 12.725864 2.139638 4.151841 -13.790397 0.295363 -1.794619 -2.764059 8.269938 -9.785704 0.000000 0.000000 0.000000 7.895623 1.265240 -1.583097 -5.841419 -3.100949 -1.789896 2.380420 0.609428 4.221731 0.000000 0.000000 0.000000
0.099470 0.160910 0.123673 0.679490 -1.181949 -2.383141 0.000000 0.000000 0.000000 -26.099883 7.232551 6.040113 -10.302122 -3.682666 -10.890410 -9.358756 -5.600490 -10.354311 21.695626 -9.347319 -1.726932 -0.306416 0.549204 2.583207 1.069902 -0.269772 2.438439 0.000000 0.000000 0.000000 24.797519 -7.902916 -1.883547 3.879247 -0.093302 -1.834644 -2.989078 0.294423 3.847678 0.000000 0.000000 0.000000 10.917686 2.042623 4.103251 -12.790655 0.311705 -1.642931 -2.561161 8.457960 -10.111052 0.000000 0.000000 0.000000 7.496129 1.253891 -1.527422 -5.691393 -3.073116 -1.810424 2.360672 0.562579 4.252609 0.000000 0.000000 0.000000
0.099217 0.160709 0.123766 0.655320 -1.180069 -2.379707 0.000000 0.000000 0.000000 -26.099193 7.251638 6.048708 -10.295024 -3.718168 -10.900655 -9.342845 -5.635959 -10.357799 22.093293 -9.209811 -1.651227 0.295908 0.756376 1.346746 0.968968 0.530155 0.757562 0.000000 0.000000 0.000000 24.839261 -7.931206 -1.838312 4.034076 -0.226814 -1.670470 -2.793447 0.434057 3.795391 0.000000 0.000000 0.000000 8.722255 1.887499 4.024011 -11.406255 0.327310 -1.486182 -2.328805 8.259990 -10.002910 0.000000 0.000000 0.000000 6.657576 1.143532 -1.484172 -4.877851 -2.934368 -1.820914 2.540609 0.534096 4.188036 0.000000 0.000000 0.000000
0.099089 0.160343 0.123449 0.683442 -1.180664 -2.380426 0.000000 0.000000 0.000000 -26.099011 7.256489 6.047392 -10.311661 -3.740734 -10.905834 -9.353463 -5.662446 -10.357934 22.189770 -9.162221 -1.660352 0.315395 0.830379 0.733118 1.101759 0.854948 0.329926 0.000000 0.000000 0.000000 24.798353 -7.930668 -1.885873 3.882644 -0.206910 -1.529581 -2.618886 0.115863 3.865332 0.000000 0.000000 0.000000 8.751157 1.894493 3.989795 -11.204944 0.277168 -1.491513 -2.502624 8.148301 -9.788176 0.000000 0.000000 0.000000 4.999750 0.929061 -1.435198 -3.309139 -2.647770 -1.754526 2.777881 0.742797 3.952611 0.000000 0.000000 0.000000
0.099236 0.159857 0.122734 0.731236 -1.183627 -2.385666 -0.000000 0.000000 0.000000 -26.098601 7.272901 6.053290 -10.344512 -3.815603 -10.942557 -9.364912 -5.749111 -10.378831 22.115922 -9.186753 -1.668712 0.152921 0.790155 0.802190 1.032464 0.823387 0.585751 0.000000 0.000000 0.000000 24.591134 -7.903885 -2.110333 3.248887 -0.013046 -1.191719 -2.348078 -0.526871 3.760151 0.000000 0.000000 0.000000 8.404250 1.875253 3.974480 -10.446468 0.225974 -1.491493 -3.250795 8.026050 -9.616107 0.000000 0.000000 0.000000 4.452077 0.864104 -1.416958 -2.756298 -2.537433 -1.684072 2.632992 1.417084 3.671368 0.000000 0.000000 0.000000
0.099347 0.159311 0.122116 0.762485 -1.185041 -2.388018 -0.000000 0.000000 0.000000 -26.098658 7.272020 6.050685 -10.365720 -3.871877 -11.031940 -9.363923 -5.823618 -10.456910 21.834832 -9.293392 -1.766768 -0.310308 0.726678 1.026706 0.978033 0.995792 0.902298 0.000000 0.000000 0.000000 24.124133 -7.790077 -2.553456 2.301662 0.305844 -0.616383 -1.737854 -1.392606 3.536668 0.000000 0.000000 0.000000 7.817444 1.831785 3.994944 -9.309074 0.189921 -1.504384 -3.459031 7.789167 -9.259358 0.000000 0.000000 0.000000 4.790265 0.916252 -1.411539 -3.182660 -2.587272 -1.675493 2.545441 1.927172 3.526410 0.000000 0.000000 0.000000
0.099275 0.158459 0.122059 0.750690 -1.187868 -2.394055 -0.000000 0.000000 0.000000 -26.101035 7.205150 6.028803 -10.348524 -3.809559 -11.110004 -9.353611 -5.771144 -10.548749 21.263291 -9.472358 -1.864186 -1.016213 0.669757 1.344040 1.015844 1.388280 1.234568 0.000000 0.000000 0.000000 23.716564 -7.612694 -2.854165 1.781393 0.537905 -0.367919 -1.203074 -2.201916 3.650325 0.000000 0.000000 0.000000 9.773132 1.979694 4.023956 -11.134437 0.149008 -1.657056 -2.712763 7.758390 -9.009650 0.000000 0.000000 0.000000 5.446147 1.004937 -1.425093 -4.120642 -2.675617 -1.659695 2.717533 2.219227 3.447474 0.000000 0.000000 0.000000
0.099156 0.158032 0.122115 0.753852 -1.184782 -2.387623 0.000000 0.000000 0.000000 -26.103380 7.122643 5.983882 -10.333712 -3.716052 -11.116131 -9.360030 -5.676547 -10.574253 20.776273 -9.594060 -1.964205 -1.324246 0.649897 1.959841 1.222305 1.177523 1.978524 0.000000 0.000000 0.000000 23.685226 -7.512734 -2.870711 2.002841 0.539518 -0.551466 -1.421991 -2.021471 3.719708 0.000000 0.000000 0.000000 12.990811 2.212021 3.984745 -14.806342 0.160601 -1.777175 -2.702656 8.014309 -9.309295 0.000000 0.000000 0.000000 6.036214 1.084623 -1.421635 -5.086745 -2.768345 -1.697747 3.285248 2.161473 3.375877 0.000000 0.000000 0.000000
