HIERARCHY
ROOT Hips
{
  OFFSET 0.000000 0.000000 0.000000
  CHANNELS 6 Xposition Yposition Zposition Zrotation Xrotation Yrotation
  JOINT Spine
  {
    OFFSET 0.000000 10.000000 0.000000
    CHANNELS 3 Zrotation Xrotation Yrotation
    JOINT Spine1
    {
      OFFSET 0.000000 10.000000 0.000000
      CHANNELS 3 Zrotation Xrotation Yrotation
      JOINT Spine2
      {
        OFFSET 0.000000 10.000000 0.000000
        CHANNELS 3 Zrotation Xrotation Yrotation
        JOINT Neck
        {
          OFFSET 0.000000 10.000000 0.000000
          CHANNELS 3 Zrotation Xrotation Yrotation
          JOINT Head
          {
            OFFSET 0.000000 10.000000 0.000000
            CHANNELS 3 Zrotation Xrotation Yrotation
            End Site
            {
              OFFSET 0.0 -10.0 0.0
            }
          }
        }
        JOINT LeftShoulder
        {
          OFFSET -5.000000 5.000000 0.000000
          CHANNELS 3 Zrotation Xrotation Yrotation
          JOINT LeftArm
          {
            OFFSET -10.000000 0.000000 0.000000
            CHANNELS 3 Zrotation Xrotation Yrotation
            JOINT LeftForeArm
            {
              OFFSET -10.000000 0.000000 0.000000
              CHANNELS 3 Zrotation Xrotation Yrotation
              JOINT LeftHand
              {
                OFFSET -10.000000 0.000000 0.000000
                CHANNELS 3 Zrotation Xrotation Yrotation
                End Site
                {
                  OFFSET 0.0 -10.0 0.0
                }
              }
            }
          }
        }
        JOINT RightShoulder
        {
          OFFSET 5.000000 5.000000 0.000000
          CHANNELS 3 Zrotation Xrotation Yrotation
          JOINT RightArm
          {
            OFFSET 10.000000 0.000000 0.000000
            CHANNELS 3 Zrotation Xrotation Yrotation
            JOINT RightForeArm
            {
              OFFSET 10.000000 0.000000 0.000000
              CHANNELS 3 Zrotation Xrotation Yrotation
              JOINT RightHand
              {
                OFFSET 10.000000 0.000000 0.000000
                CHANNELS 3 Zrotation Xrotation Yrotation
                End Site
                {
                  OFFSET 0.0 -10.0 0.0
                }
              }
            }
          }
        }
      }
    }
  }
  JOINT LeftUpLeg
  {
    OFFSET 0.000000 0.000000 0.000000
    CHANNELS 3 Zrotation Xrotation Yrotation
    JOINT LeftLeg
    {
      OFFSET 0.000000 0.000000 0.000000
      CHANNELS 3 Zrotation Xrotation Yrotation
      JOINT LeftFoot
      {
        OFFSET 0.000000 0.000000 0.000000
        CHANNELS 3 Zrotation Xrotation Yrotation
        End Site
        {
          OFFSET 0.0 -10.0 0.0
        }
      }
    }
  }
  JOINT RightUpLeg
  {
    OFFSET 5.000000 -5.000000 0.000000
    CHANNELS 3 Zrotation Xrotation Yrotation
    JOINT RightLeg
    {
      OFFSET 0.000000 -20.000000 0.000000
      CHANNELS 3 Zrotation Xrotation Yrotation
      JOINT RightFoot
      {
        OFFSET 0.000000 -20.000000 0.000000
        CHANNELS 3 Zrotation Xrotation Yrotation
        End Site
        {
          OFFSET 0.0 -10.0 0.0
        }
      }
    }
  }
}
MOTION
Frames: 73
Frame Time: 0.033333
0.000000 90.000000 0.000000 0.000000 0.000000 0.000000 -18.272574 0.000000 0.000000 -23.761309 0.000000 0.000000 39.168076 0.000000 0.000000 -4.088210 0.000000 0.000000 0.000000 0.000000 0.000000 39.652734 -4.543658 -12.553130 -17.542170 -4.768374 28.607984 26.565051 0.000000 0.000000 0.000000 0.000000 0.000000 -20.222231 0.098534 -0.556681 151.966425 -74.005637 -21.210198 -26.565051 0.000000 0.000000 0.000000 0.000000 0.000000 -89.975714 2.207881 2.204958 -21.135111 5.327556 0.994600 0.000000 0.000000 0.000000 -103.935929 0.096348 0.109860 -110.682971 -1.306195 -1.992535 0.000000 0.000000 0.000000
0.000000 90.000000 0.000000 0.000000 0.000000 0.000000 -18.399081 0.000000 0.000000 -23.917666 0.000000 0.000000 39.395920 0.000000 0.000000 -4.109328 0.000000 0.000000 0.000000 0.000000 0.000000 39.317137 -4.469727 -12.456507 -16.227556 -4.303867 27.197515 26.565051 0.000000 0.000000 0.000000 0.000000 0.000000 -20.251578 0.081031 -0.458191 151.131357 -73.498250 -21.623357 -26.565051 0.000000 0.000000 0.000000 0.000000 0.000000 -89.588807 2.281310 2.259938 -21.276954 5.303332 0.996632 0.000000 0.000000 0.000000 -104.338571 0.001917 -0.015415 -113.127995 -1.464779 -2.451375 0.000000 0.000000 0.000000
0.000000 90.000000 0.000000 0.000000 0.000000 0.000000 -18.490974 0.000000 0.000000 -24.031215 0.000000 0.000000 39.515199 0.000000 0.000000 -4.144309 0.000000 0.000000 0.000000 0.000000 0.000000 39.078875 -4.419589 -12.395717 -15.115908 -3.928174 25.938128 26.565051 0.000000 0.000000 0.000000 0.000000 0.000000 -20.400518 0.059436 -0.342652 149.798040 -73.038280 -22.406559 -26.565051 0.000000 0.000000 0.000000 0.000000 0.000000 -88.750171 2.524574 2.435171 -21.591456 5.250469 1.000225 0.000000 0.000000 0.000000 -105.356410 -0.192248 -0.319947 -115.583829 -1.572002 -2.863204 0.000000 0.000000 0.000000
0.000000 90.000000 0.000000 0.000000 0.000000 0.000000 -18.609598 0.000000 0.000000 -24.177521 0.000000 0.000000 39.529368 0.000000 0.000000 -4.248396 0.000000 0.000000 0.000000 0.000000 0.000000 38.933281 -4.388358 -12.358058 -14.521135 -3.654657 24.819629 26.565051 0.000000 0.000000 0.000000 0.000000 0.000000 -20.671528 0.026137 -0.180022 148.254920 -72.500639 -23.263849 -26.565051 0.000000 0.000000 0.000000 0.000000 0.000000 -88.214835 2.649307 2.526182 -21.926702 5.209377 1.007027 0.000000 0.000000 0.000000 -106.086366 -0.358033 -0.572721 -118.356151 -1.682285 -3.505097 0.000000 0.000000 0.000000
0.000000 90.000000 0.000000 0.000000 0.000000 0.000000 -18.800198 0.000000 0.000000 -24.412680 0.000000 0.000000 39.738337 0.000000 0.000000 -4.338079 0.000000 0.000000 0.000000 0.000000 0.000000 38.626956 -4.319445 -12.274937 -13.047769 -3.034442 22.679214 26.565051 0.000000 0.000000 0.000000 0.000000 0.000000 -20.973659 -0.018987 0.034715 145.623395 -71.192592 -24.598021 -26.565051 0.000000 0.000000 0.000000 0.000000 0.000000 -87.154531 2.946422 2.747915 -22.448229 5.132860 1.013732 0.000000 0.000000 0.000000 -107.515986 -0.621361 -0.956450 -123.878573 -1.898236 -4.959666 0.000000 0.000000 0.000000
0.000000 90.000000 0.000000 0.000000 0.000000 0.000000 -18.991604 0.000000 0.000000 -24.648563 0.000000 0.000000 39.868168 0.000000 0.000000 -4.460579 0.000000 0.000000 0.000000 0.000000 0.000000 38.421461 -4.272199 -12.215362 -11.010630 -2.105371 20.123101 26.565051 0.000000 0.000000 0.000000 0.000000 0.000000 -21.394912 -0.086120 0.358154 142.029579 -69.665437 -26.459745 -26.565051 0.000000 0.000000 0.000000 0.000000 0.000000 -85.854861 3.299074 2.989970 -23.256291 5.027999 1.026268 0.000000 0.000000 0.000000 -109.181475 -0.945003 -1.468824 -130.061281 -2.149709 -6.843471 0.000000 0.000000 0.000000
0.000000 90.000000 0.000000 0.000000 0.000000 0.000000 -19.177186 0.000000 0.000000 -24.877581 0.000000 0.000000 39.898413 0.000000 0.000000 -4.619482 0.000000 0.000000 0.000000 0.000000 0.000000 38.214495 -4.222628 -12.146709 -10.242959 -1.789832 18.660824 26.565051 0.000000 0.000000 0.000000 0.000000 0.000000 -21.980000 -0.164926 0.751429 137.653891 -68.439196 -28.934952 -26.565051 0.000000 0.000000 0.000000 0.000000 0.000000 -83.997368 3.753037 3.250500 -24.262025 4.878492 1.035185 0.000000 0.000000 0.000000 -111.032616 -1.337954 -2.153142 -136.547123 -2.321666 -9.431761 0.000000 0.000000 0.000000
0.000000 90.000000 0.000000 0.000000 0.000000 0.000000 -19.214118 0.000000 0.000000 -24.923169 0.000000 0.000000 39.774379 0.000000 0.000000 -4.705042 0.000000 0.000000 0.000000 0.000000 0.000000 38.087124 -4.191705 -12.103252 -9.505267 -1.473804 16.988628 26.565051 0.000000 0.000000 0.000000 0.000000 0.000000 -22.595011 -0.248737 1.144160 132.596888 -67.081330 -31.817858 -26.565051 0.000000 0.000000 0.000000 0.000000 0.000000 -81.592369 4.356001 3.606667 -25.527885 4.672970 1.040688 0.000000 0.000000 0.000000 -113.263713 -1.790087 -3.022915 -142.691599 -2.533435 -12.303313 0.000000 0.000000 0.000000
0.000000 90.000000 0.000000 0.000000 0.000000 0.000000 -19.194235 0.000000 0.000000 -24.898646 0.000000 0.000000 39.538842 0.000000 0.000000 -4.784924 0.000000 0.000000 0.000000 0.000000 0.000000 38.072944 -4.175010 -12.059617 -9.036354 -1.287954 15.706323 26.565051 0.000000 0.000000 0.000000 0.000000 0.000000 -23.228587 -0.332312 1.532242 126.091070 -64.845665 -34.700918 -26.565051 0.000000 0.000000 0.000000 0.000000 0.000000 -79.289853 4.906123 3.919994 -26.910325 4.454893 1.043008 0.000000 0.000000 0.000000 -115.379290 -2.288221 -3.911196 -148.507827 -2.759529 -15.787563 0.000000 0.000000 0.000000
0.000000 90.000000 0.000000 0.000000 0.000000 0.000000 -19.084615 0.000000 0.000000 -24.763172 0.000000 0.000000 39.280291 0.000000 0.000000 -4.790911 0.000000 0.000000 0.000000 0.000000 0.000000 38.010474 -4.142354 -11.984517 -8.943901 -1.193870 14.798257 26.565051 0.000000 0.000000 0.000000 0.000000 0.000000 -23.827224 -0.418833 1.919221 118.468057 -61.758754 -37.293466 -26.565051 0.000000 0.000000 0.000000 0.000000 0.000000 -77.325616 5.334220 4.114709 -28.522738 4.222049 1.040921 0.000000 0.000000 0.000000 -117.049349 -2.702659 -4.737816 -153.891168 -3.129380 -19.664259 0.000000 0.000000 0.000000
0.000000 90.000000 0.000000 0.000000 0.000000 0.000000 -18.869796 0.000000 0.000000 -24.497693 0.000000 0.000000 39.101339 0.000000 0.000000 -4.666486 0.000000 0.000000 0.000000 0.000000 0.000000 37.911451 -4.101746 -11.898953 -8.826245 -1.111103 14.223481 26.565051 0.000000 0.000000 0.000000 0.000000 0.000000 -24.391823 -0.493571 2.224518 109.143370 -57.509792 -39.066923 -26.565051 0.000000 0.000000 0.000000 0.000000 0.000000 -75.385791 5.751255 4.345720 -30.623666 3.960838 1.043023 0.000000 0.000000 0.000000 -118.355851 -3.087848 -5.404927 -158.187766 -3.559741 -23.110754 0.000000 0.000000 0.000000
0.000000 90.000000 0.000000 0.000000 0.000000 0.000000 -18.564964 0.000000 0.000000 -24.120462 0.000000 0.000000 38.805550 0.000000 0.000000 -4.507325 0.000000 0.000000 0.000000 0.000000 0.000000 37.798492 -4.054241 -11.799611 -9.240067 -1.162796 14.106152 26.565051 0.000000 0.000000 0.000000 0.000000 0.000000 -24.970185 -0.553517 2.459022 97.978920 -52.089380 -39.480487 -26.565051 0.000000 0.000000 0.000000 0.000000 0.000000 -73.986288 5.962570 4.448130 -33.256206 3.691066 1.050742 0.000000 0.000000 0.000000 -118.850349 -3.412815 -5.883369 -160.896692 -3.879251 -25.728703 0.000000 0.000000 0.000000
0.000000 90.000000 0.000000 0.000000 0.000000 0.000000 -18.203203 0.000000 0.000000 -23.672632 0.000000 0.000000 38.431845 0.000000 0.000000 -4.328353 0.000000 0.000000 0.000000 0.000000 0.000000 37.569113 -3.979213 -11.656404 -10.154165 -1.333154 14.404448 26.565051 0.000000 0.000000 0.000000 0.000000 0.000000 -25.714727 -0.607068 2.633086 85.686804 -45.732084 -38.127372 -26.565051 0.000000 0.000000 0.000000 0.000000 0.000000 -72.981841 6.030824 4.448759 -36.307703 3.403331 1.054122 0.000000 0.000000 0.000000 -118.579209 -3.634297 -6.180978 -162.661094 -4.134465 -27.791884 0.000000 0.000000 0.000000
0.000000 90.000000 0.000000 0.000000 0.000000 0.000000 -17.865137 0.000000 0.000000 -23.253764 0.000000 0.000000 38.286446 0.000000 0.000000 -4.077281 0.000000 0.000000 0.000000 0.000000 0.000000 37.341841 -3.909888 -11.525282 -11.085306 -1.517826 14.717370 26.565051 0.000000 0.000000 0.000000 0.000000 0.000000 -26.312381 -0.617636 2.646312 73.684416 -38.743503 -36.459605 -26.565051 0.000000 0.000000 0.000000 0.000000 0.000000 -72.645798 5.918727 4.335542 -39.555736 3.134844 1.062095 0.000000 0.000000 0.000000 -117.952716 -3.785719 -6.359601 -163.515505 -4.251446 -29.212531 0.000000 0.000000 0.000000
0.000000 90.000000 0.000000 0.000000 0.000000 0.000000 -17.623608 0.000000 0.000000 -22.954017 0.000000 0.000000 38.220795 0.000000 0.000000 -3.882602 0.000000 0.000000 0.000000 0.000000 0.000000 37.045221 -3.827661 -11.381070 -12.660715 -1.871940 15.470781 26.565051 0.000000 0.000000 0.000000 0.000000 0.000000 -27.037804 -0.610282 2.570299 62.347095 -31.393169 -34.579570 -26.565051 0.000000 0.000000 0.000000 0.000000 0.000000 -73.034672 5.615961 4.123892 -42.867941 2.913752 1.084875 0.000000 0.000000 0.000000 -116.539707 -3.800441 -6.231153 -164.319356 -4.355704 -31.165273 0.000000 0.000000 0.000000
0.000000 90.000000 0.000000 0.000000 0.000000 0.000000 -17.376162 0.000000 0.000000 -22.646682 0.000000 0.000000 38.054412 0.000000 0.000000 -3.722858 0.000000 0.000000 0.000000 0.000000 0.000000 36.750228 -3.755103 -11.262050 -14.582047 -2.311715 16.536168 26.565051 0.000000 0.000000 0.000000 0.000000 0.000000 -27.971337 -0.609252 2.491032 52.429297 -24.355307 -32.312904 -26.565051 0.000000 0.000000 0.000000 0.000000 0.000000 -73.555008 5.290929 3.914453 -46.277495 2.689138 1.098289 0.000000 0.000000 0.000000 -115.261488 -3.835913 -6.123942 -164.948466 -4.392594 -33.201340 0.000000 0.000000 0.000000
0.000000 90.000000 0.000000 0.000000 0.000000 0.000000 -17.241694 0.000000 0.000000 -22.479433 0.000000 0.000000 38.059127 0.000000 0.000000 -3.598042 0.000000 0.000000 0.000000 0.000000 0.000000 36.424793 -3.677586 -11.131575 -16.369834 -2.736278 17.616657 26.565051 0.000000 0.000000 0.000000 0.000000 0.000000 -29.362706 -0.635975 2.442485 43.360610 -17.701187 -29.375029 -26.565051 0.000000 0.000000 0.000000 0.000000 0.000000 -74.374390 4.880300 3.668363 -49.690397 2.481024 1.103465 0.000000 0.000000 0.000000 -113.549863 -3.804956 -5.833648 -165.319900 -4.448435 -34.959094 0.000000 0.000000 0.000000
0.000000 90.000000 0.000000 0.000000 0.000000 0.000000 -17.253276 0.000000 0.000000 -22.493824 0.000000 0.000000 38.207038 0.000000 0.000000 -3.547897 0.000000 0.000000 0.000000 0.000000 0.000000 36.020931 -3.586261 -10.981950 -17.533713 -2.943718 18.195078 26.565051 0.000000 0.000000 0.000000 0.000000 0.000000 -30.691394 -0.668198 2.412790 36.021245 -12.076408 -26.282376 -26.565051 0.000000 0.000000 0.000000 0.000000 0.000000 -74.892655 4.571363 3.484984 -53.103777 2.229529 1.061613 0.000000 0.000000 0.000000 -112.445435 -3.839973 -5.736192 -165.967496 -4.470671 -37.611069 0.000000 0.000000 0.000000
0.000000 90.000000 0.000000 0.000000 0.000000 0.000000 -17.335136 0.000000 0.000000 -22.595719 0.000000 0.000000 38.213094 0.000000 0.000000 -3.620199 0.000000 0.000000 0.000000 0.000000 0.000000 35.645753 -3.505568 -10.862245 -18.112157 -3.031156 18.368638 26.565051 0.000000 0.000000 0.000000 0.000000 0.000000 -32.063873 -0.724447 2.455793 30.490472 -8.035472 -23.286708 -26.565051 0.000000 0.000000 0.000000 0.000000 0.000000 -74.973224 4.420645 3.381065 -55.961498 1.969831 0.989388 0.000000 0.000000 0.000000 -111.973362 -3.929476 -5.821749 -166.915287 -4.503578 -40.875150 0.000000 0.000000 0.000000
0.000000 90.000000 0.000000 0.000000 0.000000 0.000000 -17.480131 0.000000 0.000000 -22.776233 0.000000 0.000000 38.219013 0.000000 0.000000 -3.750145 0.000000 0.000000 0.000000 0.000000 0.000000 35.408618 -3.456337 -10.790243 -18.152334 -3.018879 18.194629 26.565051 0.000000 0.000000 0.000000 0.000000 0.000000 -33.589040 -0.846668 2.640798 26.655937 -5.762780 -21.077512 -26.565051 0.000000 0.000000 0.000000 0.000000 0.000000 -75.037301 4.328658 3.317962 -58.300715 1.747064 0.917024 0.000000 0.000000 0.000000 -111.796134 -3.998320 -5.906730 -168.028844 -4.588721 -44.581091 0.000000 0.000000 0.000000
0.000000 90.000000 0.000000 0.000000 0.000000 0.000000 -17.717681 0.000000 0.000000 -23.071339 0.000000 0.000000 38.220383 0.000000 0.000000 -3.967037 0.000000 0.000000 0.000000 0.000000 0.000000 35.241598 -3.423231 -10.744003 -17.751828 -2.929529 17.737600 26.565051 0.000000 0.000000 0.000000 0.000000 0.000000 -35.676745 -1.044254 3.007046 24.114580 -4.440665 -19.489127 -26.565051 0.000000 0.000000 0.000000 0.000000 0.000000 -74.858970 4.315923 3.296024 -60.365249 1.517610 0.828350 0.000000 0.000000 0.000000 -111.613569 -4.044529 -5.956387 -169.125750 -4.709097 -48.502908 0.000000 0.000000 0.000000
0.000000 90.000000 0.000000 0.000000 0.000000 0.000000 -17.982738 0.000000 0.000000 -23.400080 0.000000 0.000000 38.085402 0.000000 0.000000 -4.263930 0.000000 0.000000 0.000000 0.000000 0.000000 35.082825 -3.390037 -10.693877 -16.575932 -2.669760 16.775193 26.565051 0.000000 0.000000 0.000000 0.000000 0.000000 -37.594380 -1.246282 3.429733 23.270471 -4.074001 -19.103271 -26.565051 0.000000 0.000000 0.000000 0.000000 0.000000 -74.488955 4.383482 3.324430 -61.971856 1.301734 0.746836 0.000000 0.000000 0.000000 -111.758766 -4.106638 -6.063106 -169.850842 -4.777375 -51.382892 0.000000 0.000000 0.000000
0.000000 90.000000 0.000000 0.000000 0.000000 0.000000 -18.327982 0.000000 0.000000 -23.827782 0.000000 0.000000 38.193365 0.000000 0.000000 -4.537843 0.000000 0.000000 0.000000 0.000000 0.000000 34.912508 -3.357159 -10.647226 -14.920743 -2.266903 15.480051 26.565051 0.000000 0.000000 0.000000 0.000000 0.000000 -39.662814 -1.512256 3.946568 23.560681 -4.253022 -19.405386 -26.565051 0.000000 0.000000 0.000000 0.000000 0.000000 -74.157539 4.461022 3.363143 -63.049444 1.127503 0.675958 0.000000 0.000000 0.000000 -111.920909 -4.135784 -6.126540 -170.197327 -4.810705 -52.837877 0.000000 0.000000 0.000000
0.000000 90.000000 0.000000 0.000000 0.000000 0.000000 -18.645355 0.000000 0.000000 -24.220632 0.000000 0.000000 37.995228 0.000000 0.000000 -4.907830 0.000000 0.000000 0.000000 0.000000 0.000000 34.935194 -3.376752 -10.700311 -13.090091 -1.773516 13.973867 26.565051 0.000000 0.000000 0.000000 0.000000 0.000000 -41.169246 -1.752208 4.421114 25.482316 -5.062259 -20.588596 -26.565051 0.000000 0.000000 0.000000 0.000000 0.000000 -73.646659 4.611083 3.449967 -63.563248 0.982612 0.607274 0.000000 0.000000 0.000000 -112.612983 -4.226333 -6.346028 -170.411629 -4.814166 -53.507976 0.000000 0.000000 0.000000
0.000000 90.000000 0.000000 0.000000 0.000000 0.000000 -18.948049 0.000000 0.000000 -24.593592 0.000000 0.000000 37.364668 0.000000 0.000000 -5.433570 0.000000 0.000000 0.000000 0.000000 0.000000 35.179688 -3.443376 -10.824645 -11.333399 -1.417420 12.601331 26.565051 0.000000 0.000000 0.000000 0.000000 0.000000 -42.506073 -1.919574 4.774654 28.415504 -6.382392 -22.277122 -26.565051 0.000000 0.000000 0.000000 0.000000 0.000000 -73.614369 4.634436 3.466514 -63.016374 0.975565 0.592942 0.000000 0.000000 0.000000 -112.879882 -4.236064 -6.391920 -170.348430 -4.802650 -53.187370 0.000000 0.000000 0.000000
0.000000 90.000000 0.000000 0.000000 0.000000 0.000000 -19.377798 0.000000 0.000000 -25.121272 0.000000 0.000000 37.176618 0.000000 0.000000 -5.905196 0.000000 0.000000 0.000000 0.000000 0.000000 35.286315 -3.480416 -10.905071 -9.564597 -1.113396 11.232991 26.565051 0.000000 0.000000 0.000000 0.000000 0.000000 -43.759445 -2.100456 5.158180 31.804787 -7.784028 -23.969674 -26.565051 0.000000 0.000000 0.000000 0.000000 0.000000 -73.676162 4.634826 3.470591 -61.887119 1.040966 0.608126 0.000000 0.000000 0.000000 -113.234339 -4.271556 -6.492534 -170.218913 -4.785181 -52.514608 0.000000 0.000000 0.000000
0.000000 90.000000 0.000000 0.000000 0.000000 0.000000 -19.834559 0.000000 0.000000 -25.680834 0.000000 0.000000 36.903918 0.000000 0.000000 -6.434213 0.000000 0.000000 0.000000 0.000000 0.000000 35.321059 -3.506438 -10.975237 -7.764860 -0.845547 9.887375 26.565051 0.000000 0.000000 0.000000 0.000000 0.000000 -45.070636 -2.254478 5.392599 35.101701 -9.045500 -25.618535 -26.565051 0.000000 0.000000 0.000000 0.000000 0.000000 -73.330198 4.765487 3.541862 -60.717614 1.054305 0.601072 0.000000 0.000000 0.000000 -114.180491 -4.371295 -6.789243 -170.002679 -4.736942 -51.160914 0.000000 0.000000 0.000000
0.000000 90.000000 0.000000 0.000000 0.000000 0.000000 -20.173347 0.000000 0.000000 -26.095227 0.000000 0.000000 36.443928 0.000000 0.000000 -6.925940 0.000000 0.000000 0.000000 0.000000 0.000000 35.447062 -3.547863 -11.060969 -6.407185 -0.625832 8.814551 26.565051 0.000000 0.000000 0.000000 0.000000 0.000000 -45.418517 -2.264511 5.383919 38.778245 -10.434284 -27.449953 -26.565051 0.000000 0.000000 0.000000 0.000000 0.000000 -72.990746 4.924269 3.628323 -59.285742 1.096610 0.612357 0.000000 0.000000 0.000000 -115.216652 -4.447634 -7.065426 -169.568497 -4.672662 -48.772303 0.000000 0.000000 0.000000
0.000000 90.000000 0.000000 0.000000 0.000000 0.000000 -20.476014 0.000000 0.000000 -26.464885 0.000000 0.000000 35.955340 0.000000 0.000000 -7.390122 0.000000 0.000000 0.000000 0.000000 0.000000 35.689657 -3.617276 -11.192796 -5.299508 -0.460771 7.927215 26.565051 0.000000 0.000000 0.000000 0.000000 0.000000 -45.565670 -2.215685 5.242133 41.642347 -11.570129 -28.847076 -26.565051 0.000000 0.000000 0.000000 0.000000 0.000000 -72.695741 5.085284 3.723209 -57.477488 1.208701 0.645733 0.000000 0.000000 0.000000 -116.226430 -4.510205 -7.299228 -168.945213 -4.591686 -45.825435 0.000000 0.000000 0.000000
0.000000 90.000000 0.000000 0.000000 0.000000 0.000000 -20.707157 0.000000 0.000000 -26.746781 0.000000 0.000000 35.309894 0.000000 0.000000 -7.848462 0.000000 0.000000 0.000000 0.000000 0.000000 36.031232 -3.705000 -11.350396 -4.238869 -0.324450 7.137643 26.565051 0.000000 0.000000 0.000000 0.000000 0.000000 -45.532737 -2.120374 5.021065 43.812587 -12.416711 -29.887457 -26.565051 0.000000 0.000000 0.000000 0.000000 0.000000 -72.420404 5.259731 3.830019 -55.152662 1.394651 0.694517 0.000000 0.000000 0.000000 -117.095817 -4.528704 -7.437795 -168.128609 -4.470045 -42.670475 0.000000 0.000000 0.000000
0.000000 90.000000 0.000000 0.000000 0.000000 0.000000 -20.930976 0.000000 0.000000 -27.019771 0.000000 0.000000 34.960980 0.000000 0.000000 -8.187221 0.000000 0.000000 0.000000 0.000000 0.000000 36.261902 -3.765252 -11.456129 -3.497347 -0.219238 6.578908 26.565051 0.000000 0.000000 0.000000 0.000000 0.000000 -45.951598 -2.094706 4.904704 45.498043 -13.117357 -30.599568 -26.565051 0.000000 0.000000 0.000000 0.000000 0.000000 -72.362463 5.372672 3.909763 -52.373626 1.656404 0.758627 0.000000 0.000000 0.000000 -117.516557 -4.473419 -7.403131 -167.032423 -4.319349 -39.407403 0.000000 0.000000 0.000000
0.000000 90.000000 0.000000 0.000000 0.000000 0.000000 -21.074047 0.000000 0.000000 -27.193891 0.000000 0.000000 34.903201 0.000000 0.000000 -8.341607 0.000000 0.000000 0.000000 0.000000 0.000000 36.420079 -3.809093 -11.531626 -3.023839 -0.169016 6.235661 26.565051 0.000000 0.000000 0.000000 0.000000 0.000000 -46.443565 -2.109226 4.876478 45.763099 -13.172367 -30.545757 -26.565051 0.000000 0.000000 0.000000 0.000000 0.000000 -72.056894 5.570456 4.042741 -49.545301 1.920159 0.796559 0.000000 0.000000 0.000000 -118.081335 -4.432960 -7.400313 -165.729286 -4.158801 -35.934522 0.000000 0.000000 0.000000
0.000000 90.000000 0.000000 0.000000 0.000000 0.000000 -21.028709 0.000000 0.000000 -27.138814 0.000000 0.000000 34.498943 0.000000 0.000000 -8.447619 0.000000 0.000000 0.000000 0.000000 0.000000 36.737039 -3.881283 -11.639987 -2.783784 -0.150050 6.079509 26.565051 0.000000 0.000000 0.000000 0.000000 0.000000 -47.051961 -2.145714 4.865993 45.482057 -13.025049 -30.382137 -26.565051 0.000000 0.000000 0.000000 0.000000 0.000000 -71.758657 5.805922 4.201879 -46.834644 2.170453 0.824061 0.000000 0.000000 0.000000 -118.702548 -4.341407 -7.328678 -164.076178 -4.007721 -31.969457 0.000000 0.000000 0.000000
0.000000 90.000000 0.000000 0.000000 0.000000 0.000000 -20.877063 0.000000 0.000000 -26.954615 0.000000 0.000000 34.138734 0.000000 0.000000 -8.436130 0.000000 0.000000 0.000000 0.000000 0.000000 37.154249 -3.971335 -11.769339 -2.792214 -0.151332 6.139517 26.565051 0.000000 0.000000 0.000000 0.000000 0.000000 -47.663447 -2.226934 4.932475 45.175312 -12.882559 -30.248521 -26.565051 0.000000 0.000000 0.000000 0.000000 0.000000 -71.803661 5.977890 4.330175 -43.911183 2.491786 0.898840 0.000000 0.000000 0.000000 -118.969074 -4.174685 -7.080544 -162.254836 -3.919805 -28.064696 0.000000 0.000000 0.000000
0.000000 90.000000 0.000000 0.000000 0.000000 0.000000 -20.693090 0.000000 0.000000 -26.730557 0.000000 0.000000 33.832222 0.000000 0.000000 -8.374353 0.000000 0.000000 0.000000 0.000000 0.000000 37.503790 -4.048236 -11.879052 -2.620260 -0.141953 6.179294 26.565051 0.000000 0.000000 0.000000 0.000000 0.000000 -48.725287 -2.415135 5.196064 44.869729 -12.776358 -30.245057 -26.565051 0.000000 0.000000 0.000000 0.000000 0.000000 -72.140629 6.066118 4.422121 -40.712316 2.860476 0.986954 0.000000 0.000000 0.000000 -118.865482 -3.964103 -6.706056 -160.509547 -3.907267 -24.805739 0.000000 0.000000 0.000000
0.000000 90.000000 0.000000 0.000000 0.000000 0.000000 -20.467272 0.000000 0.000000 -26.455351 0.000000 0.000000 33.680711 0.000000 0.000000 -8.217976 0.000000 0.000000 0.000000 0.000000 0.000000 37.777079 -4.104604 -11.951692 -2.508072 -0.138565 6.307175 26.565051 0.000000 0.000000 0.000000 0.000000 0.000000 -50.140401 -2.662903 5.580634 44.670507 -12.692393 -30.211110 -26.565051 0.000000 0.000000 0.000000 0.000000 0.000000 -72.458945 6.152339 4.511045 -38.031549 3.162901 1.045747 0.000000 0.000000 0.000000 -118.707181 -3.754785 -6.334233 -158.873870 -3.917998 -22.136684 0.000000 0.000000 0.000000
0.000000 90.000000 0.000000 0.000000 0.000000 0.000000 -20.216101 0.000000 0.000000 -26.148859 0.000000 0.000000 33.610155 0.000000 0.000000 -8.009854 0.000000 0.000000 0.000000 0.000000 0.000000 37.975329 -4.142647 -11.996319 -2.454079 -0.138616 6.510109 26.565051 0.000000 0.000000 0.000000 0.000000 0.000000 -51.486622 -2.897974 5.930507 45.114198 -13.007572 -30.522063 -26.565051 0.000000 0.000000 0.000000 0.000000 0.000000 -72.700927 6.239952 4.594622 -36.151072 3.384444 1.083039 0.000000 0.000000 0.000000 -118.482971 -3.579080 -6.014588 -157.452673 -3.920758 -20.160271 0.000000 0.000000 0.000000
0.000000 90.000000 0.000000 0.000000 0.000000 0.000000 -19.915335 0.000000 0.000000 -25.781228 0.000000 0.000000 33.381106 0.000000 0.000000 -7.812474 0.000000 0.000000 0.000000 0.000000 0.000000 38.188634 -4.179788 -12.033443 -2.241399 -0.129579 6.690402 26.565051 0.000000 0.000000 0.000000 0.000000 0.000000 -52.484133 -3.007856 6.043663 45.722555 -13.468035 -30.936321 -26.565051 0.000000 0.000000 0.000000 0.000000 0.000000 -72.848374 6.353678 4.691210 -34.795367 3.549481 1.101751 0.000000 0.000000 0.000000 -118.264530 -3.409728 -5.720172 -156.323738 -3.902178 -18.793954 0.000000 0.000000 0.000000
0.000000 90.000000 0.000000 0.000000 0.000000 0.000000 -19.580343 0.000000 0.000000 -25.371339 0.000000 0.000000 33.234067 0.000000 0.000000 -7.554952 0.000000 0.000000 0.000000 0.000000 0.000000 38.318557 -4.201703 -12.053544 -2.370001 -0.154049 7.123529 26.565051 0.000000 0.000000 0.000000 0.000000 0.000000 -53.308053 -3.094909 6.146581 47.217114 -14.452390 -31.758622 -26.565051 0.000000 0.000000 0.000000 0.000000 0.000000 -73.060311 6.418197 4.756393 -33.814512 3.673829 1.109876 0.000000 0.000000 0.000000 -117.933903 -3.259008 -5.449847 -155.387633 -3.889465 -17.809225 0.000000 0.000000 0.000000
0.000000 90.000000 0.000000 0.000000 0.000000 0.000000 -19.261372 0.000000 0.000000 -24.979882 0.000000 0.000000 33.263662 0.000000 0.000000 -7.250106 0.000000 0.000000 0.000000 0.000000 0.000000 38.395908 -4.217737 -12.073599 -2.809289 -0.219494 7.802306 26.565051 0.000000 0.000000 0.000000 0.000000 0.000000 -54.158797 -3.169395 6.198103 48.851505 -15.510590 -32.743165 -26.565051 0.000000 0.000000 0.000000 0.000000 0.000000 -73.365690 6.438757 4.797102 -33.073990 3.788803 1.120973 0.000000 0.000000 0.000000 -117.299291 -3.098854 -5.126566 -154.657885 -3.877596 -17.197999 0.000000 0.000000 0.000000
0.000000 90.000000 0.000000 0.000000 0.000000 0.000000 -18.940108 0.000000 0.000000 -24.584480 0.000000 0.000000 33.222210 0.000000 0.000000 -6.969452 0.000000 0.000000 0.000000 0.000000 0.000000 38.459570 -4.234867 -12.100402 -3.353736 -0.293026 8.461604 26.565051 0.000000 0.000000 0.000000 0.000000 0.000000 -54.031276 -3.087626 6.039932 51.216170 -17.176262 -34.167127 -26.565051 0.000000 0.000000 0.000000 0.000000 0.000000 -73.984999 6.342535 4.776158 -32.427829 3.910250 1.135406 0.000000 0.000000 0.000000 -116.117362 -2.883628 -4.681222 -154.042295 -3.895496 -16.860466 0.000000 0.000000 0.000000
0.000000 90.000000 0.000000 0.000000 0.000000 0.000000 -18.679391 0.000000 0.000000 -24.263033 0.000000 0.000000 33.333680 0.000000 0.000000 -6.690907 0.000000 0.000000 0.000000 0.000000 0.000000 38.528078 -4.256272 -12.136942 -3.890061 -0.362402 9.116587 26.565051 0.000000 0.000000 0.000000 0.000000 0.000000 -53.596920 -2.935527 5.749972 53.640212 -19.115980 -35.634998 -26.565051 0.000000 0.000000 0.000000 0.000000 0.000000 -74.436745 6.315923 4.796013 -32.158970 3.987190 1.147027 0.000000 0.000000 0.000000 -115.285988 -2.706308 -4.330216 -153.305285 -3.877996 -16.340431 0.000000 0.000000 0.000000
0.000000 90.000000 0.000000 0.000000 0.000000 0.000000 -18.382845 0.000000 0.000000 -23.896420 0.000000 0.000000 33.385148 0.000000 0.000000 -6.401583 0.000000 0.000000 0.000000 0.000000 0.000000 38.549978 -4.268588 -12.164171 -4.687770 -0.483653 9.975510 26.565051 0.000000 0.000000 0.000000 0.000000 0.000000 -52.540710 -2.719996 5.383720 56.669460 -21.586425 -37.421910 -26.565051 0.000000 0.000000 0.000000 0.000000 0.000000 -74.819766 6.324839 4.837403 -31.899791 4.063483 1.158448 0.000000 0.000000 0.000000 -114.466284 -2.537326 -3.998416 -152.457347 -3.845855 -15.748118 0.000000 0.000000 0.000000
0.000000 90.000000 0.000000 0.000000 0.000000 0.000000 -18.083594 0.000000 0.000000 -23.525750 0.000000 0.000000 33.362088 0.000000 0.000000 -6.136568 0.000000 0.000000 0.000000 0.000000 0.000000 38.607295 -4.290014 -12.205400 -5.435591 -0.577166 10.836959 26.565051 0.000000 0.000000 0.000000 0.000000 0.000000 -51.000418 -2.437737 4.922698 59.692400 -24.152390 -39.109459 -26.565051 0.000000 0.000000 0.000000 0.000000 0.000000 -75.318097 6.312046 4.873336 -31.454572 4.151075 1.166911 0.000000 0.000000 0.000000 -113.682348 -2.349651 -3.640568 -151.399974 -3.804100 -15.077888 0.000000 0.000000 0.000000
0.000000 90.000000 0.000000 0.000000 0.000000 0.000000 -17.768100 0.000000 0.000000 -23.133674 0.000000 0.000000 33.353661 0.000000 0.000000 -5.852672 0.000000 0.000000 0.000000 0.000000 0.000000 38.633663 -4.300070 -12.225161 -6.466164 -0.729421 11.898938 26.565051 0.000000 0.000000 0.000000 0.000000 0.000000 -49.234750 -2.191271 4.567659 62.871223 -27.073563 -40.918738 -26.565051 0.000000 0.000000 0.000000 0.000000 0.000000 -75.879665 6.259173 4.881518 -31.039354 4.231497 1.173828 0.000000 0.000000 0.000000 -112.895225 -2.166391 -3.303364 -150.158981 -3.756908 -14.348664 0.000000 0.000000 0.000000
0.000000 90.000000 0.000000 0.000000 0.000000 0.000000 -17.456766 0.000000 0.000000 -22.746096 0.000000 0.000000 33.404146 0.000000 0.000000 -5.551762 0.000000 0.000000 0.000000 0.000000 0.000000 38.651602 -4.303505 -12.229049 -8.017941 -1.086837 13.336208 26.565051 0.000000 0.000000 0.000000 0.000000 0.000000 -47.558314 -1.969592 4.258382 66.475791 -30.670970 -42.756829 -26.565051 0.000000 0.000000 0.000000 0.000000 0.000000 -76.276770 6.263010 4.919038 -30.641454 4.299773 1.176841 0.000000 0.000000 0.000000 -112.347398 -2.015928 -3.028850 -148.762022 -3.694175 -13.521234 0.000000 0.000000 0.000000
0.000000 90.000000 0.000000 0.000000 0.000000 0.000000 -17.129785 0.000000 0.000000 -22.337928 0.000000 0.000000 33.318200 0.000000 0.000000 -5.286359 0.000000 0.000000 0.000000 0.000000 0.000000 38.608352 -4.286840 -12.195212 -9.823417 -1.614837 14.994235 26.565051 0.000000 0.000000 0.000000 0.000000 0.000000 -45.613771 -1.701767 3.937387 70.653623 -34.479080 -44.819429 -26.565051 0.000000 0.000000 0.000000 0.000000 0.000000 -76.418117 6.319790 4.974413 -30.308116 4.347869 1.177134 0.000000 0.000000 0.000000 -112.010949 -1.915395 -2.844466 -147.399184 -3.638731 -12.749338 0.000000 0.000000 0.000000
0.000000 90.000000 0.000000 0.000000 0.000000 0.000000 -16.867440 0.000000 0.000000 -22.010088 0.000000 0.000000 33.514117 0.000000 0.000000 -4.978858 0.000000 0.000000 0.000000 0.000000 0.000000 38.467219 -4.246580 -12.126363 -11.680864 -2.203829 16.962425 26.565051 0.000000 0.000000 0.000000 0.000000 0.000000 -43.734515 -1.491979 3.646548 74.929264 -38.178897 -46.257003 -26.565051 0.000000 0.000000 0.000000 0.000000 0.000000 -76.141104 6.485737 5.075228 -30.067386 4.367699 1.173038 0.000000 0.000000 0.000000 -112.179726 -1.902167 -2.835714 -146.149519 -3.584615 -11.979437 0.000000 0.000000 0.000000
0.000000 90.000000 0.000000 0.000000 0.000000 0.000000 -16.579890 0.000000 0.000000 -21.650493 0.000000 0.000000 33.593888 0.000000 0.000000 -4.690039 0.000000 0.000000 0.000000 0.000000 0.000000 38.290758 -4.195257 -12.039537 -13.614226 -2.810984 19.182049 26.565051 0.000000 0.000000 0.000000 0.000000 0.000000 -41.997499 -1.347607 3.467733 79.116450 -41.503287 -47.314479 -26.565051 0.000000 0.000000 0.000000 0.000000 0.000000 -75.690453 6.652439 5.155354 -29.927657 4.372910 1.169020 0.000000 0.000000 0.000000 -112.369458 -1.941583 -2.911670 -145.051859 -3.544332 -11.369199 0.000000 0.000000 0.000000
0.000000 90.000000 0.000000 0.000000 0.000000 0.000000 -16.310637 0.000000 0.000000 -21.312787 0.000000 0.000000 33.705260 0.000000 0.000000 -4.407470 0.000000 0.000000 0.000000 0.000000 0.000000 38.214506 -4.165133 -11.980258 -15.390937 -3.418874 21.328720 26.565051 0.000000 0.000000 0.000000 0.000000 0.000000 -40.511742 -1.259079 3.392960 82.796547 -44.427095 -48.203994 -26.565051 0.000000 0.000000 0.000000 0.000000 0.000000 -75.099567 6.856542 5.245437 -30.019994 4.354804 1.167416 0.000000 0.000000 0.000000 -112.683313 -1.991199 -3.010273 -144.303956 -3.521800 -10.964286 0.000000 0.000000 0.000000
0.000000 90.000000 0.000000 0.000000 0.000000 0.000000 -16.066000 0.000000 0.000000 -21.005572 0.000000 0.000000 33.942070 0.000000 0.000000 -4.101888 0.000000 0.000000 0.000000 0.000000 0.000000 38.152260 -4.139038 -11.928366 -16.526137 -3.705672 23.359440 26.565051 0.000000 0.000000 0.000000 0.000000 0.000000 -39.214546 -1.230489 3.450026 86.130457 -46.858696 -48.948171 -26.565051 0.000000 0.000000 0.000000 0.000000 0.000000 -73.994064 7.222378 5.383645 -30.372207 4.304066 1.165862 0.000000 0.000000 0.000000 -113.283848 -2.086080 -3.201512 -144.038519 -3.497174 -10.766877 0.000000 0.000000 0.000000
0.000000 90.000000 0.000000 0.000000 0.000000 0.000000 -15.906464 0.000000 0.000000 -20.804945 0.000000 0.000000 34.150423 0.000000 0.000000 -3.883988 0.000000 0.000000 0.000000 0.000000 0.000000 38.108305 -4.123222 -11.898764 -14.881621 -3.478306 24.056364 26.565051 0.000000 0.000000 0.000000 0.000000 0.000000 -37.853133 -1.195033 3.489233 89.478773 -49.126345 -49.207926 -26.565051 0.000000 0.000000 0.000000 0.000000 0.000000 -72.463226 7.723651 5.577759 -30.924019 4.220645 1.161826 0.000000 0.000000 0.000000 -114.376985 -2.244441 -3.531370 -144.310580 -3.466149 -10.771044 0.000000 0.000000 0.000000
0.000000 90.000000 0.000000 0.000000 0.000000 0.000000 -15.839282 0.000000 0.000000 -20.720517 0.000000 0.000000 34.150330 0.000000 0.000000 -3.823614 0.000000 0.000000 0.000000 0.000000 0.000000 38.092463 -4.125930 -11.911837 -12.543620 -3.102570 24.540489 26.565051 0.000000 0.000000 0.000000 0.000000 0.000000 -36.346530 -1.139144 3.470115 92.348444 -50.848777 -48.776959 -26.565051 0.000000 0.000000 0.000000 0.000000 0.000000 -70.458322 8.308372 5.758279 -31.790454 4.086271 1.153207 0.000000 0.000000 0.000000 -115.830042 -2.465300 -4.040970 -145.106645 -3.435712 -10.987711 0.000000 0.000000 0.000000
0.000000 90.000000 0.000000 0.000000 0.000000 0.000000 -15.919317 0.000000 0.000000 -20.821040 0.000000 0.000000 34.335098 0.000000 0.000000 -3.828810 0.000000 0.000000 0.000000 0.000000 0.000000 38.136566 -4.155107 -11.979830 -9.494529 -2.595790 24.156298 26.565051 0.000000 0.000000 0.000000 0.000000 0.000000 -34.880375 -1.049621 3.330937 94.054310 -51.527590 -48.284995 -26.565051 0.000000 0.000000 0.000000 0.000000 0.000000 -68.535860 8.849473 5.913123 -32.738728 3.944509 1.144941 0.000000 0.000000 0.000000 -117.430221 -2.707422 -4.630698 -146.285220 -3.416364 -11.422350 0.000000 0.000000 0.000000
0.000000 90.000000 0.000000 0.000000 0.000000 0.000000 -15.987549 0.000000 0.000000 -20.906717 0.000000 0.000000 34.484532 0.000000 0.000000 -3.835017 0.000000 0.000000 0.000000 0.000000 0.000000 38.232785 -4.192260 -12.054185 -5.606261 -2.021774 22.516907 26.565051 0.000000 0.000000 0.000000 0.000000 0.000000 -33.789359 -0.997963 3.244103 94.220448 -51.101866 -47.652433 -26.565051 0.000000 0.000000 0.000000 0.000000 0.000000 -66.335300 9.433071 6.045929 -33.719706 3.779159 1.130577 0.000000 0.000000 0.000000 -119.256914 -2.984436 -5.343964 -147.649578 -3.397260 -11.953067 0.000000 0.000000 0.000000
0.000000 90.000000 0.000000 0.000000 0.000000 0.000000 -16.114485 0.000000 0.000000 -21.066090 0.000000 0.000000 34.768779 0.000000 0.000000 -3.843246 0.000000 0.000000 0.000000 0.000000 0.000000 38.288519 -4.219881 -12.115789 -1.946185 -1.232502 20.739827 26.565051 0.000000 0.000000 0.000000 0.000000 0.000000 -32.874575 -0.941334 3.130403 93.466320 -50.072330 -46.939281 -26.565051 0.000000 0.000000 0.000000 0.000000 0.000000 -64.525972 9.884401 6.158913 -34.661740 3.625724 1.119671 0.000000 0.000000 0.000000 -120.774623 -3.229675 -5.934485 -149.267593 -3.412227 -12.746366 0.000000 0.000000 0.000000
0.000000 90.000000 0.000000 0.000000 0.000000 0.000000 -16.282026 0.000000 0.000000 -21.276748 0.000000 0.000000 34.884512 0.000000 0.000000 -3.951481 0.000000 0.000000 0.000000 0.000000 0.000000 38.239014 -4.225057 -12.147327 1.700838 -0.238285 18.815456 26.565051 0.000000 0.000000 0.000000 0.000000 0.000000 -32.141825 -0.864889 2.943993 91.850477 -48.363652 -45.965170 -26.565051 0.000000 0.000000 0.000000 0.000000 0.000000 -62.864414 10.278014 6.250617 -35.570857 3.473601 1.105782 0.000000 0.000000 0.000000 -122.271442 -3.494065 -6.527738 -150.729172 -3.422867 -13.407061 0.000000 0.000000 0.000000
0.000000 90.000000 0.000000 0.000000 0.000000 0.000000 -16.511801 0.000000 0.000000 -21.565405 0.000000 0.000000 34.996941 0.000000 0.000000 -4.116579 0.000000 0.000000 0.000000 0.000000 0.000000 38.154718 -4.224621 -12.174393 4.064775 0.510226 16.985060 26.565051 0.000000 0.000000 0.000000 0.000000 0.000000 -31.623814 -0.774797 2.707002 90.005758 -46.508207 -45.029807 -26.565051 0.000000 0.000000 0.000000 0.000000 0.000000 -61.907255 10.451378 6.261756 -36.328812 3.350610 1.094129 0.000000 0.000000 0.000000 -123.582025 -3.743620 -7.082292 -151.938651 -3.437080 -13.934921 0.000000 0.000000 0.000000
0.000000 90.000000 0.000000 0.000000 0.000000 0.000000 -16.721074 0.000000 0.000000 -21.828262 0.000000 0.000000 35.009839 0.000000 0.000000 -4.300234 0.000000 0.000000 0.000000 0.000000 0.000000 37.979024 -4.200422 -12.161985 3.699317 0.466268 16.046092 26.565051 0.000000 0.000000 0.000000 0.000000 0.000000 -31.461547 -0.697247 2.474210 87.186110 -43.887223 -44.222047 -26.565051 0.000000 0.000000 0.000000 0.000000 0.000000 -61.318810 10.505561 6.230754 -37.060694 3.241044 1.083762 0.000000 0.000000 0.000000 -124.490752 -3.939431 -7.511166 -152.807643 -3.449604 -14.319461 0.000000 0.000000 0.000000
0.000000 90.000000 0.000000 0.000000 0.000000 0.000000 -16.803685 0.000000 0.000000 -21.932040 0.000000 0.000000 34.942971 0.000000 0.000000 -4.398521 0.000000 0.000000 0.000000 0.000000 0.000000 37.814093 -4.166915 -12.119963 2.365587 0.240627 15.183125 26.565051 0.000000 0.000000 0.000000 0.000000 0.000000 -31.650318 -0.650029 2.298338 83.458481 -40.558392 -43.761278 -26.565051 0.000000 0.000000 0.000000 0.000000 0.000000 -61.573310 10.348891 6.156916 -37.756403 3.183609 1.087219 0.000000 0.000000 0.000000 -124.581480 -3.996225 -7.618590 -153.462617 -3.484486 -14.748311 0.000000 0.000000 0.000000
0.000000 90.000000 0.000000 0.000000 0.000000 0.000000 -16.780624 0.000000 0.000000 -21.903116 0.000000 0.000000 34.597552 0.000000 0.000000 -4.500951 0.000000 0.000000 0.000000 0.000000 0.000000 37.611648 -4.113719 -12.034451 0.383678 -0.130577 14.795196 26.565051 0.000000 0.000000 0.000000 0.000000 0.000000 -31.931831 -0.623558 2.188581 79.445599 -37.268444 -42.896309 -26.565051 0.000000 0.000000 0.000000 0.000000 0.000000 -62.278913 10.060950 6.043501 -38.464107 3.146138 1.097465 0.000000 0.000000 0.000000 -124.157802 -3.972278 -7.527722 -153.936002 -3.520375 -15.155271 0.000000 0.000000 0.000000
0.000000 90.000000 0.000000 0.000000 0.000000 0.000000 -16.768500 0.000000 0.000000 -21.887913 0.000000 0.000000 34.214001 0.000000 0.000000 -4.628969 0.000000 0.000000 0.000000 0.000000 0.000000 37.326981 -4.043164 -11.924080 -2.655276 -0.602294 15.435415 26.565051 0.000000 0.000000 0.000000 0.000000 0.000000 -32.555647 -0.621458 2.134717 75.038333 -33.966037 -41.686832 -26.565051 0.000000 0.000000 0.000000 0.000000 0.000000 -63.428749 9.649199 5.922144 -39.263178 3.121777 1.113067 0.000000 0.000000 0.000000 -123.376997 -3.909012 -7.297315 -154.311500 -3.564347 -15.583568 0.000000 0.000000 0.000000
0.000000 90.000000 0.000000 0.000000 0.000000 0.000000 -16.680061 0.000000 0.000000 -21.776978 0.000000 0.000000 33.554249 0.000000 0.000000 -4.787903 0.000000 0.000000 0.000000 0.000000 0.000000 37.073433 -3.976761 -11.814308 -5.485269 -1.006120 15.865555 26.565051 0.000000 0.000000 0.000000 0.000000 0.000000 -33.387755 -0.625269 2.086978 70.643132 -30.767416 -40.418433 -26.565051 0.000000 0.000000 0.000000 0.000000 0.000000 -64.528465 9.245191 5.786806 -40.086737 3.094878 1.128739 0.000000 0.000000 0.000000 -122.613303 -3.865905 -7.111344 -154.594449 -3.592374 -15.934963 0.000000 0.000000 0.000000
0.000000 90.000000 0.000000 0.000000 0.000000 0.000000 -16.594855 0.000000 0.000000 -21.670055 0.000000 0.000000 33.094999 0.000000 0.000000 -4.874596 0.000000 0.000000 0.000000 0.000000 0.000000 36.840390 -3.913252 -11.704969 -7.997471 -1.293194 16.085545 26.565051 0.000000 0.000000 0.000000 0.000000 0.000000 -34.683311 -0.681104 2.152545 66.020173 -27.613038 -38.834219 -26.565051 0.000000 0.000000 0.000000 0.000000 0.000000 -65.732698 8.783229 5.628958 -40.838778 3.069962 1.141923 0.000000 0.000000 0.000000 -121.749581 -3.820192 -6.902400 -155.055789 -3.639509 -16.537369 0.000000 0.000000 0.000000
0.000000 90.000000 0.000000 0.000000 0.000000 0.000000 -16.418187 0.000000 0.000000 -21.448398 0.000000 0.000000 32.345427 0.000000 0.000000 -4.979932 0.000000 0.000000 0.000000 0.000000 0.000000 36.651622 -3.849943 -11.583419 -9.829126 -1.468393 16.087772 26.565051 0.000000 0.000000 0.000000 0.000000 0.000000 -36.104309 -0.761954 2.269645 61.590652 -24.529274 -37.492053 -26.565051 0.000000 0.000000 0.000000 0.000000 0.000000 -66.886528 8.311826 5.443949 -41.561485 3.043173 1.153918 0.000000 0.000000 0.000000 -120.683584 -3.758306 -6.631811 -155.694851 -3.712895 -17.404496 0.000000 0.000000 0.000000
0.000000 90.000000 0.000000 0.000000 0.000000 0.000000 -16.238896 0.000000 0.000000 -21.223361 0.000000 0.000000 31.745615 0.000000 0.000000 -5.027202 0.000000 0.000000 0.000000 0.000000 0.000000 36.543634 -3.805645 -11.487605 -11.278254 -1.600298 15.905875 26.565051 0.000000 0.000000 0.000000 0.000000 0.000000 -37.491869 -0.851908 2.418266 57.722284 -21.747403 -36.394814 -26.565051 0.000000 0.000000 0.000000 0.000000 0.000000 -68.008247 7.840892 5.257011 -42.099395 3.025200 1.163264 0.000000 0.000000 0.000000 -119.742161 -3.726274 -6.425386 -156.494167 -3.801453 -18.428807 0.000000 0.000000 0.000000
0.000000 90.000000 0.000000 0.000000 0.000000 0.000000 -16.104465 0.000000 0.000000 -21.054275 0.000000 0.000000 31.330917 0.000000 0.000000 -5.049804 0.000000 0.000000 0.000000 0.000000 0.000000 36.468448 -3.767407 -11.400267 -11.602903 -1.597944 15.132805 26.565051 0.000000 0.000000 0.000000 0.000000 0.000000 -39.169203 -1.002438 2.672648 54.206540 -19.172644 -35.325301 -26.565051 0.000000 0.000000 0.000000 0.000000 0.000000 -68.930128 7.430104 5.074926 -42.464199 3.004782 1.166866 0.000000 0.000000 0.000000 -119.055463 -3.721979 -6.324462 -157.343658 -3.877827 -19.509154 0.000000 0.000000 0.000000
0.000000 90.000000 0.000000 0.000000 0.000000 0.000000 -15.920609 0.000000 0.000000 -20.822530 0.000000 0.000000 30.759938 0.000000 0.000000 -5.075431 0.000000 0.000000 0.000000 0.000000 0.000000 36.428438 -3.739698 -11.332028 -11.421652 -1.503486 14.250677 26.565051 0.000000 0.000000 0.000000 0.000000 0.000000 -41.088650 -1.218880 3.067068 51.420935 -17.235923 -34.355477 -26.565051 0.000000 0.000000 0.000000 0.000000 0.000000 -69.622847 7.103435 4.915138 -42.691062 2.980333 1.164763 0.000000 0.000000 0.000000 -118.552401 -3.725521 -6.269750 -158.174589 -3.942679 -20.572086 0.000000 0.000000 0.000000
0.000000 90.000000 0.000000 0.000000 0.000000 0.000000 -15.688750 0.000000 0.000000 -20.530094 0.000000 0.000000 30.062146 0.000000 0.000000 -5.100946 0.000000 0.000000 0.000000 0.000000 0.000000 36.479107 -3.733774 -11.297326 -10.848119 -1.319574 13.273696 26.565051 0.000000 0.000000 0.000000 0.000000 0.000000 -43.195916 -1.499939 3.540287 49.204242 -15.888972 -33.589170 -26.565051 0.000000 0.000000 0.000000 0.000000 0.000000 -70.406488 6.768505 4.756612 -42.691835 2.982047 1.165435 0.000000 0.000000 0.000000 -118.024072 -3.709516 -6.178767 -158.922458 -4.009493 -21.591728 0.000000 0.000000 0.000000
0.000000 90.000000 0.000000 0.000000 0.000000 0.000000 -15.486956 0.000000 0.000000 -20.275221 0.000000 0.000000 29.596007 0.000000 0.000000 -5.075555 0.000000 0.000000 0.000000 0.000000 0.000000 36.517483 -3.729577 -11.271926 -10.165697 -1.131072 12.401566 26.565051 0.000000 0.000000 0.000000 0.000000 0.000000 -45.475615 -1.837297 4.107081 47.467398 -14.929851 -33.095211 -26.565051 0.000000 0.000000 0.000000 0.000000 0.000000 -70.919928 6.537281 4.646056 -42.656568 2.971574 1.160375 0.000000 0.000000 0.000000 -117.863971 -3.723576 -6.181443 -159.601887 -4.059020 -22.491352 0.000000 0.000000 0.000000
0.000000 90.000000 0.000000 0.000000 0.000000 0.000000 -15.372726 0.000000 0.000000 -20.131084 0.000000 0.000000 29.244761 0.000000 0.000000 -5.090455 0.000000 0.000000 0.000000 0.000000 0.000000 36.565689 -3.731884 -11.262877 -9.835837 -1.038755 11.937071 26.565051 0.000000 0.000000 0.000000 0.000000 0.000000 -46.378672 -1.969346 4.359171 46.953530 -14.680833 -32.965740 -26.565051 0.000000 0.000000 0.000000 0.000000 0.000000 -71.273800 6.387434 4.575682 -42.596677 2.974622 1.159777 0.000000 0.000000 0.000000 -117.675736 -3.719340 -6.151141 -159.949317 -4.092479 -22.982900 0.000000 0.000000 0.000000
0.000000 90.000000 0.000000 0.000000 0.000000 0.000000 -15.272301 0.000000 0.000000 -20.004183 0.000000 0.000000 29.038980 0.000000 0.000000 -5.068038 0.000000 0.000000 0.000000 0.000000 0.000000 36.588967 -3.733108 -11.258847 -9.661426 -0.990421 11.635164 26.565051 0.000000 0.000000 0.000000 0.000000 0.000000 -47.360862 -2.121833 4.639279 46.508228 -14.470390 -32.851590 -26.565051 0.000000 0.000000 0.000000 0.000000 0.000000 -71.502558 6.286042 4.524117 -42.475145 2.977934 1.157443 0.000000 0.000000 0.000000 -117.628725 -3.730436 -6.164792 -160.271299 -4.113079 -23.415470 0.000000 0.000000 0.000000
0.000000 90.000000 0.000000 0.000000 0.000000 0.000000 -15.138007 0.000000 0.000000 -19.834427 0.000000 0.000000 28.750432 0.000000 0.000000 -5.042323 0.000000 0.000000 0.000000 0.000000 0.000000 36.652999 -3.744612 -11.272566 -9.507582 -0.954476 11.419809 26.565051 0.000000 0.000000 0.000000 0.000000 0.000000 -48.650400 -2.328724 5.029227 45.828257 -14.130866 -32.652096 -26.565051 0.000000 0.000000 0.000000 0.000000 0.000000 -71.744079 6.188452 4.475528 -42.384505 2.985255 1.157608 0.000000 0.000000 0.000000 -117.456448 -3.717916 -6.123531 -160.593141 -4.138162 -23.887314 0.000000 0.000000 0.000000
