HIERARCHY
ROOT Hips
{
  OFFSET 0.000000 0.000000 0.000000
  CHANNELS 6 Xposition Yposition Zposition Xrotation Yrotation Zrotation
  JOINT Spine
  {
    OFFSET 0.948386 -15.154194 -11.793467
    CHANNELS 3 Xrotation Yrotation Zrotation
    JOINT Chest
    {
      OFFSET 0.948386 -15.154194 -11.793467
      CHANNELS 3 Xrotation Yrotation Zrotation
      JOINT Neck
      {
        OFFSET 0.343935 -7.888764 -12.246062
        CHANNELS 3 Xrotation Yrotation Zrotation
        JOINT Head
        {
          OFFSET 3.449240 8.135784 -9.475148
          CHANNELS 3 Xrotation Yrotation Zrotation
          End Site
          {
            OFFSET 0.0 5.0 2.0
          }
        }
      }
      JOINT LeftShoulder
      {
        OFFSET 18.256485 -2.701226 6.607737
        CHANNELS 3 Xrotation Yrotation Zrotation
        JOINT LeftArm
        {
          OFFSET -1.857336 20.561935 -9.062022
          CHANNELS 3 Xrotation Yrotation Zrotation
          JOINT LeftForeArm
          {
            OFFSET -8.120155 5.170765 -15.256390
            CHANNELS 3 Xrotation Yrotation Zrotation
            JOINT LeftHand
            {
              OFFSET -5.000000 0.000000 0.000000
              CHANNELS 3 Xrotation Yrotation Zrotation
              End Site
              {
                OFFSET -3.0 0.0 2.0
              }
            }
          }
        }
      }
      JOINT RightShoulder
      {
        OFFSET -18.256485 2.701226 -6.607737
        CHANNELS 3 Xrotation Yrotation Zrotation
        JOINT RightArm
        {
          OFFSET 0.145261 22.760435 5.011797
          CHANNELS 3 Xrotation Yrotation Zrotation
          JOINT RightForeArm
          {
            OFFSET 16.968781 17.889396 0.802253
            CHANNELS 3 Xrotation Yrotation Zrotation
            JOINT RightHand
            {
              OFFSET 6.881393 3.329501 -1.650932
              CHANNELS 3 Xrotation Yrotation Zrotation
              End Site
              {
                OFFSET 3.0 0.0 2.0
              }
            }
          }
        }
      }
    }
  }
  JOINT LeftUpLeg
  {
    OFFSET 12.292892 -2.290059 2.634992
    CHANNELS 3 Xrotation Yrotation Zrotation
    JOINT LeftLeg
    {
      OFFSET 11.116017 10.258207 -32.118153
      CHANNELS 3 Xrotation Yrotation Zrotation
      JOINT LeftFoot
      {
        OFFSET 6.155865 37.508751 5.082990
        CHANNELS 3 Xrotation Yrotation Zrotation
        JOINT LeftToeBase
        {
          OFFSET 6.123289 14.481330 -9.623508
          CHANNELS 3 Xrotation Yrotation Zrotation
          End Site
          {
            OFFSET 0.0 -1.0 3.0
          }
        }
      }
    }
  }
  JOINT RightUpLeg
  {
    OFFSET -12.292892 2.290059 -2.634992
    CHANNELS 3 Xrotation Yrotation Zrotation
    JOINT RightLeg
    {
      OFFSET 27.109585 13.262190 -15.009057
      CHANNELS 3 Xrotation Yrotation Zrotation
      JOINT RightFoot
      {
        OFFSET 36.069271 25.407405 17.727438
        CHANNELS 3 Xrotation Yrotation Zrotation
        JOINT RightToeBase
        {
          OFFSET 11.695868 11.183614 -5.192339
          CHANNELS 3 Xrotation Yrotation Zrotation
          End Site
          {
            OFFSET 0.0 -1.0 3.0
          }
        }
      }
    }
  }
}
MOTION
Frames: 37
Frame Time: 0.066667
0.000000 0.000000 0.000000 0.000000 0.000000 0.000000 0.000000 0.000000 0.000000 0.000000 0.000000 0.000000 0.000000 0.000000 0.000000 0.000000 0.000000 0.000000 0.000000 0.000000 0.000000 0.000000 0.000000 0.000000 12.027709 -43.831600 -29.347395 0.000000 0.000000 0.000000 0.000000 0.000000 0.000000 0.000000 0.000000 0.000000 0.000000 0.000000 0.000000 0.000000 0.000000 0.000000 0.000000 0.000000 0.000000 0.000000 0.000000 0.000000 60.985325 -20.292978 -12.032071 0.000000 0.000000 0.000000 0.000000 0.000000 0.000000 0.000000 0.000000 0.000000 26.307912 -24.867491 -5.899301 0.000000 0.000000 0.000000
0.000000 0.000000 0.000000 0.084364 -0.641332 -0.927784 -2.203915 -0.532717 0.530838 0.416834 -0.235926 -1.243703 1.498416 -3.306500 -2.389239 0.000000 0.000000 0.000000 0.833231 -1.469356 -3.563951 3.419554 2.884171 -0.774963 12.639828 -42.111147 -32.099644 0.000000 0.000000 0.000000 -3.469892 -1.008236 5.455533 -5.025334 4.685585 -1.911782 -1.769483 2.629727 -1.874435 0.000000 0.000000 0.000000 1.975162 -1.901598 0.043971 -3.911606 0.586914 0.523040 66.184141 -20.820582 -21.445671 0.000000 0.000000 0.000000 2.667478 0.775806 5.564584 -2.101564 -4.071894 9.717696 29.939507 -27.537959 -8.016193 0.000000 0.000000 0.000000
0.000000 0.000000 0.000000 -0.101198 -2.663023 -1.659066 -4.545934 -0.992195 1.000280 -0.079830 -2.204973 -0.644919 1.131137 -2.725242 -1.989474 0.000000 0.000000 0.000000 5.361201 -2.363604 -7.310979 3.276268 5.041342 0.113510 10.506234 -38.142613 -29.785419 0.000000 0.000000 0.000000 -5.989139 -1.438334 8.872390 -6.119613 5.560953 -4.232967 -1.796571 1.480973 -4.167119 0.000000 0.000000 0.000000 3.493635 -4.494454 -0.372531 -6.893372 1.173284 -0.682110 64.343410 -20.541169 -24.793356 0.000000 0.000000 0.000000 4.428047 -1.976204 6.603676 -3.145265 -1.734982 8.994048 29.218486 -26.904262 -10.927328 0.000000 0.000000 0.000000
0.000000 0.000000 0.000000 0.170851 -2.299698 -2.562338 -3.017908 -1.169894 1.337719 0.073604 -1.154047 -0.657753 0.381715 -2.527655 -2.062417 0.000000 0.000000 0.000000 8.279538 -2.061302 -7.763083 4.229858 7.146540 0.458153 7.429458 -34.226868 -23.814684 0.000000 0.000000 0.000000 -10.112719 -1.094687 8.941957 -7.919049 6.857394 -7.827508 -3.906274 2.929774 -8.897121 0.000000 0.000000 0.000000 1.406750 -5.988583 -1.534840 2.610400 -0.480033 0.314906 62.104643 -20.471103 -14.539695 0.000000 0.000000 0.000000 7.587088 2.871609 16.558181 -0.160035 -7.367071 9.639984 29.822728 -27.657029 -3.671511 0.000000 0.000000 0.000000
0.000000 0.000000 0.000000 0.212766 -2.237127 -2.699227 -3.507763 -1.251887 1.421990 0.087005 -0.397913 -0.399643 -0.808177 -1.408469 -1.491265 0.000000 0.000000 0.000000 7.785676 -1.834713 -6.925887 4.935257 9.154417 0.929384 6.953082 -34.168767 -22.362806 0.000000 0.000000 0.000000 -10.831723 -1.043841 9.028777 -7.495187 6.435631 -8.880109 -3.332705 1.740857 -9.279838 0.000000 0.000000 0.000000 -0.495005 -5.425016 -1.910374 2.103000 0.450265 -5.180551 63.717555 -20.566132 -21.632315 0.000000 0.000000 0.000000 9.050352 7.408245 22.185841 -1.232969 -16.302580 20.324386 32.051604 -30.438581 8.458093 0.000000 0.000000 0.000000
0.000000 0.000000 0.000000 0.163854 -2.362290 -2.576086 -4.712531 -1.652669 1.915957 -0.027047 -0.117116 0.026801 -2.159180 0.460513 -0.392433 0.000000 0.000000 0.000000 7.345530 -2.077363 -7.395950 5.093730 10.802267 1.541793 6.667046 -33.609452 -21.832616 0.000000 0.000000 0.000000 -12.255935 -1.181270 11.368671 -7.306952 6.342096 -8.002584 -2.846452 1.750767 -7.512484 0.000000 0.000000 0.000000 -1.503480 -6.326945 -2.497007 2.020429 0.739780 -7.024232 67.118556 -20.456049 -30.563000 0.000000 0.000000 0.000000 6.866400 13.988893 21.714140 -7.577770 -20.522151 35.382873 35.190817 -34.624801 16.507381 0.000000 0.000000 0.000000
0.000000 0.000000 0.000000 0.107876 -2.296423 -2.289013 -5.675662 -1.687147 1.919286 0.346454 2.063374 -0.113157 -3.240885 0.289257 -0.916776 0.000000 0.000000 0.000000 8.786584 -1.876663 -7.476640 4.000386 13.676043 3.252402 4.625354 -29.004438 -17.748477 0.000000 0.000000 0.000000 -14.179841 -1.062083 12.282506 -8.598665 7.291430 -9.295431 -2.968063 0.874320 -9.785231 0.000000 0.000000 0.000000 -2.391024 -5.574639 -2.518357 0.734933 0.292603 -2.917671 67.837453 -21.045192 -20.441192 0.000000 0.000000 0.000000 1.529760 18.726952 15.237086 -7.156904 -5.895188 22.753573 34.621164 -32.444304 5.362934 0.000000 0.000000 0.000000
0.000000 0.000000 0.000000 -0.057871 -2.252568 -1.544400 -6.625838 -1.898436 2.181020 0.389603 2.780986 0.075255 -3.641170 1.287774 -0.253145 0.000000 0.000000 0.000000 11.124962 -1.685882 -8.013554 3.690461 14.680362 3.815539 4.309683 -28.342415 -16.951082 0.000000 0.000000 0.000000 -12.876692 -1.325982 13.357898 -10.535302 8.973897 -8.131085 -2.832782 1.603851 -7.761796 0.000000 0.000000 0.000000 -0.754547 -6.698564 -2.402142 3.888091 0.629733 -7.495371 61.987546 -20.345538 -27.407654 0.000000 0.000000 0.000000 -1.846308 29.053576 15.040720 -12.315778 -7.818454 36.523656 41.659179 -39.749913 10.668908 0.000000 0.000000 0.000000
0.000000 0.000000 0.000000 0.003908 -2.134735 -1.723880 -6.695913 -2.160755 2.560099 0.291779 2.015011 0.023980 -2.937625 -0.410330 -1.382718 0.000000 0.000000 0.000000 11.579194 -1.438817 -7.487131 5.325520 16.201951 3.796354 4.354986 -28.300274 -17.152987 0.000000 0.000000 0.000000 -12.512838 -1.453273 14.105000 -10.170074 8.609774 -8.738998 -2.851556 1.411076 -8.226660 0.000000 0.000000 0.000000 -6.596362 -5.482116 -3.713496 2.423496 0.548695 -6.056188 63.221356 -20.459032 -24.751300 0.000000 0.000000 0.000000 3.778791 25.103656 21.740619 -9.151443 -14.414299 34.446337 37.705948 -37.964209 19.829269 0.000000 0.000000 0.000000
0.000000 0.000000 0.000000 0.037676 -1.941100 -1.727397 -6.574211 -2.294920 2.759458 0.302193 1.587570 -0.189152 -3.170202 -1.513234 -2.366673 0.000000 0.000000 0.000000 11.228855 -1.381153 -7.148195 5.774102 13.564248 2.424880 6.387413 -32.704888 -21.534696 0.000000 0.000000 0.000000 -12.877981 -1.506911 15.058096 -10.597753 8.914778 -9.100461 -2.598266 0.717560 -8.753889 0.000000 0.000000 0.000000 -6.073027 -6.418954 -3.823271 3.743893 0.561698 -7.003926 64.177697 -20.507940 -25.592886 0.000000 0.000000 0.000000 4.218831 26.481526 22.984959 -8.985164 -15.443575 34.827478 39.131355 -38.968162 17.631047 0.000000 0.000000 0.000000
0.000000 0.000000 0.000000 -0.056445 -1.541630 -1.011845 -6.425070 -2.272018 2.731009 0.547011 1.855967 -0.780129 -3.104689 -2.010865 -2.755713 0.000000 0.000000 0.000000 9.787267 -1.353651 -6.425695 6.873569 14.178473 2.214557 8.602689 -33.744562 -27.855564 0.000000 0.000000 0.000000 -13.588769 -1.329860 14.282999 -11.119056 9.330243 -9.129106 -2.999232 1.504807 -8.569382 0.000000 0.000000 0.000000 -5.769307 -6.012543 -3.623635 5.916145 0.202716 -6.270440 67.915591 -20.554107 -29.209852 0.000000 0.000000 0.000000 -6.050093 35.058509 11.788255 -11.021130 -12.546552 37.121812 48.790063 -44.889141 7.001630 0.000000 0.000000 0.000000
0.000000 0.000000 0.000000 -0.060990 -1.455104 -0.924185 1.873708 -2.122472 2.788590 0.739538 0.968075 -1.684947 -5.839257 -0.392644 -2.344537 0.000000 0.000000 0.000000 7.229061 -1.578264 -6.003493 7.812425 13.115580 1.310027 9.834195 -33.919289 -31.508020 0.000000 0.000000 0.000000 -15.729776 -0.911445 12.617062 -9.086272 7.995354 -5.939917 -3.261976 2.889911 -6.747142 0.000000 0.000000 0.000000 -3.829270 -6.987597 -3.360630 17.603054 -0.784893 -7.343868 62.985385 -20.380270 -28.479752 0.000000 0.000000 0.000000 -2.059643 34.493215 17.045289 -9.152057 -25.475785 41.146859 36.726877 -39.944949 32.532144 0.000000 0.000000 0.000000
0.000000 0.000000 0.000000 -0.083010 -1.253027 -0.666447 2.660631 -2.223712 2.936400 0.821135 1.381356 -1.757687 -6.810066 -0.358673 -2.636448 0.000000 0.000000 0.000000 6.649963 -1.327924 -5.113902 6.576310 10.948228 0.913152 11.972533 -38.050869 -33.829290 0.000000 0.000000 0.000000 -16.424142 -0.843042 12.792977 -9.002493 8.166040 -3.425109 -2.465626 2.544990 -4.575194 0.000000 0.000000 0.000000 -4.571196 -5.375656 -3.096484 18.755874 -0.929526 -7.265830 65.309253 -20.450317 -29.365515 0.000000 0.000000 0.000000 0.512120 35.714100 21.121046 -7.087498 -28.040307 38.766436 38.236867 -40.772121 28.533048 0.000000 0.000000 0.000000
0.000000 0.000000 0.000000 0.032876 -0.498116 -0.574911 5.007546 -2.140238 2.900528 0.551266 1.681350 -0.864358 -9.094409 0.438036 -2.781898 0.000000 0.000000 0.000000 1.441098 -0.980802 -2.602498 2.367961 7.236069 1.401911 9.899379 -41.471195 -25.770616 0.000000 0.000000 0.000000 -16.221533 -0.523731 8.277449 -7.956419 7.091425 -5.225345 -2.305364 2.076596 -4.892423 0.000000 0.000000 0.000000 -8.427035 -2.621431 -3.510175 18.474089 -2.472343 -2.121990 72.289263 -21.083765 -25.283747 0.000000 0.000000 0.000000 1.116701 33.470955 21.131585 0.244319 -31.652973 28.507587 37.374392 -39.137118 26.370586 0.000000 0.000000 0.000000
0.000000 0.000000 0.000000 0.015592 -0.458473 -0.462676 6.549645 -2.241912 3.059229 0.520343 -0.147530 -1.496015 -8.185242 -5.613658 -7.088335 0.000000 0.000000 0.000000 7.600307 -0.050183 -1.974472 6.853107 8.313379 -0.351409 13.547060 -39.843852 -36.289838 0.000000 0.000000 0.000000 -19.034082 -0.319905 8.626386 -8.309327 8.123316 2.814998 -0.718246 5.492685 6.637477 0.000000 0.000000 0.000000 -10.080318 -3.358664 -4.196981 25.223496 -3.158469 -3.144868 68.452465 -20.553280 -29.554559 0.000000 0.000000 0.000000 -9.973898 40.817741 9.067181 1.743080 -32.817677 26.830662 41.329324 -43.573751 25.626634 0.000000 0.000000 0.000000
0.000000 0.000000 0.000000 -0.154945 -0.177856 0.563776 6.039913 -2.949124 3.865300 0.825295 0.450416 -2.121921 -7.446305 -3.732685 -5.434270 0.000000 0.000000 0.000000 1.287736 -1.219522 -3.116804 4.469732 6.999593 0.281472 12.682337 -40.199369 -33.784735 0.000000 0.000000 0.000000 -18.378659 -0.097938 3.759387 -7.834506 8.244540 9.125096 1.112908 4.864087 12.479483 0.000000 0.000000 0.000000 -9.775452 -4.156916 -4.298658 26.490650 -4.112206 -1.178308 66.276890 -20.604969 -26.613023 0.000000 0.000000 0.000000 -8.220232 43.658016 12.478225 -7.223693 -27.641734 38.798668 45.297876 -49.254129 28.755431 0.000000 0.000000 0.000000
0.000000 0.000000 0.000000 -0.495306 -0.046749 2.257242 4.735475 -3.850779 4.920418 1.056194 1.364447 -2.436849 -7.599680 -2.050565 -4.182060 0.000000 0.000000 0.000000 4.207169 0.180056 -0.488374 4.258541 8.178575 0.856990 12.219532 -38.655605 -33.943112 0.000000 0.000000 0.000000 -17.951731 0.003267 1.801393 -7.505020 7.535831 5.283010 0.213549 5.387536 9.849775 0.000000 0.000000 0.000000 -10.143742 -3.798115 -4.321242 24.778763 -3.821106 -1.171429 70.614700 -21.106012 -23.518382 0.000000 0.000000 0.000000 -11.857217 43.053938 7.611407 -14.405300 -12.854942 44.878248 52.461212 -49.293547 10.899413 0.000000 0.000000 0.000000
0.000000 0.000000 0.000000 -0.896346 0.033513 4.186007 3.913480 -4.909903 6.202673 1.062554 1.794630 -2.293099 -6.943429 -0.737967 -2.971102 0.000000 0.000000 0.000000 0.342643 0.247266 0.495141 3.191219 9.255258 1.797357 10.580847 -38.552398 -29.660113 0.000000 0.000000 0.000000 -19.360326 0.135251 -0.314040 -8.395159 8.373107 4.470463 -0.252405 6.698331 9.953806 0.000000 0.000000 0.000000 -10.870689 -3.322154 -4.426472 24.935618 -4.758883 1.267617 69.688084 -20.685493 -28.306589 0.000000 0.000000 0.000000 -23.446341 46.116152 -5.104199 -15.108872 -13.041414 46.585666 51.179850 -50.364277 16.604496 0.000000 0.000000 0.000000
0.000000 0.000000 0.000000 -1.058007 -0.406673 4.474014 3.176497 -6.139722 7.727884 0.827079 1.534990 -1.714967 -5.208096 -1.746419 -3.209064 0.000000 0.000000 0.000000 0.775473 0.962986 2.067756 2.356405 9.010889 2.093851 8.187694 -39.124458 -22.776313 0.000000 0.000000 0.000000 -18.197898 0.090176 0.395959 -8.308804 8.078517 2.355058 -0.691362 5.630932 6.933549 0.000000 0.000000 0.000000 -11.521731 -3.380157 -4.635317 15.746349 -3.715644 3.748423 69.321169 -20.626383 -28.928875 0.000000 0.000000 0.000000 -22.007269 44.691778 -4.063996 -13.581327 -12.839003 43.007123 46.798725 -48.449896 22.617934 0.000000 0.000000 0.000000
0.000000 0.000000 0.000000 -1.105485 -0.632029 4.459839 4.226246 -6.713063 8.355737 -0.041273 0.564627 0.349354 -2.689880 1.220113 0.038728 0.000000 0.000000 0.000000 1.841423 1.306391 2.712676 -3.293196 4.882695 3.310658 13.550470 -50.058202 -28.550781 0.000000 0.000000 0.000000 -16.907107 -0.095693 2.898461 -7.972819 7.453296 -1.011239 -1.199947 3.939239 2.493888 0.000000 0.000000 0.000000 -11.291162 -2.824500 -4.439020 17.024157 -3.836299 3.250787 68.586895 -20.752419 -26.434889 0.000000 0.000000 0.000000 -1.373026 38.253281 19.456087 -9.181545 -23.503158 40.161618 37.941343 -39.505126 25.155209 0.000000 0.000000 0.000000
0.000000 0.000000 0.000000 -1.100064 -0.465341 4.604081 4.927764 -6.894242 8.522584 -0.759757 -1.651935 1.376146 1.037349 -0.536860 -0.089042 0.000000 0.000000 0.000000 20.900946 2.691524 3.939691 15.342513 -18.104636 -16.119518 88.040382 -57.870212 -120.455017 0.000000 0.000000 0.000000 -15.465423 -0.007179 1.264000 -9.038719 7.898713 -6.534783 -5.682514 6.101273 -8.825136 0.000000 0.000000 0.000000 -9.161332 -2.728678 -3.763840 16.818421 -2.950879 0.390172 72.305470 -21.396162 -21.941410 0.000000 0.000000 0.000000 1.036604 38.385029 22.818242 -3.381532 -30.597124 33.807885 33.205386 -35.717754 35.678679 0.000000 0.000000 0.000000
0.000000 0.000000 0.000000 -1.110020 -0.430878 4.684095 2.539758 -7.296237 9.195390 -1.850828 -4.520985 2.991283 5.655569 -4.014567 -1.678917 0.000000 0.000000 0.000000 20.854202 2.514643 3.195764 23.781678 -12.484166 -19.793493 59.738752 -56.538742 -93.765846 0.000000 0.000000 0.000000 -16.013167 0.344356 -3.170116 -10.916414 7.890876 -20.854023 -8.636409 3.931617 -21.686094 0.000000 0.000000 0.000000 -7.357002 -4.591791 -3.695839 10.362087 1.555003 -14.396143 74.667600 -20.666236 -30.488923 0.000000 0.000000 0.000000 0.319203 39.758562 22.313465 -0.806145 -32.184515 30.493396 36.451652 -39.242220 31.303686 0.000000 0.000000 0.000000
0.000000 0.000000 0.000000 -1.468791 -0.411055 6.317968 2.086423 -7.599191 9.611676 -3.069063 -2.805686 6.861280 4.217153 -1.165818 0.509886 0.000000 0.000000 0.000000 1.769451 -1.075570 -2.915817 4.343320 -21.473066 -9.628247 -156.637268 -85.815110 158.243544 0.000000 0.000000 0.000000 -17.405329 0.403512 -4.545157 -12.172082 7.714820 -29.741885 -10.487526 2.741414 -29.351311 0.000000 0.000000 0.000000 -5.916053 -7.376757 -4.048800 3.261163 1.891276 -14.917780 76.535109 -19.648429 -38.828626 0.000000 0.000000 0.000000 -12.701589 40.689300 5.526893 -13.315548 -16.849466 44.768385 38.035584 -40.296300 27.715823 0.000000 0.000000 0.000000
0.000000 0.000000 0.000000 -1.479591 -0.744615 6.010115 4.508796 -7.061752 8.752851 -3.136754 -3.060544 6.905040 2.572960 -0.931399 0.118758 0.000000 0.000000 0.000000 9.694040 -4.116066 -14.263222 37.679457 -29.107031 -38.608625 78.756248 -40.616197 -131.460314 0.000000 0.000000 0.000000 -23.352848 0.196949 -4.047684 -19.553865 9.985344 -39.449410 -12.773978 0.637483 -40.113835 0.000000 0.000000 0.000000 -1.725554 -11.531905 -4.244700 4.970255 1.119433 -10.847182 76.432542 -19.693859 -38.507249 0.000000 0.000000 0.000000 10.100695 24.221877 31.409036 5.786360 -37.470331 23.470498 27.844636 -27.228493 32.692308 0.000000 0.000000 0.000000
0.000000 0.000000 0.000000 -1.326406 -0.964006 5.106288 -1.167205 -6.730048 8.772024 -3.638842 -2.820478 8.305010 7.847406 0.396075 3.424853 0.000000 0.000000 0.000000 24.977898 -1.933827 -19.802485 52.699705 -30.978701 -53.597469 82.134437 -29.112767 -146.811177 0.000000 0.000000 0.000000 -29.698570 0.070006 -2.665611 -26.689760 12.023799 -44.165641 -9.429614 -2.469088 -39.401009 0.000000 0.000000 0.000000 -5.599363 -16.498597 -6.656007 6.469413 -0.714365 -1.833390 71.750175 -20.648359 -29.784663 0.000000 0.000000 0.000000 16.018433 16.022074 38.837145 22.773700 -38.521493 1.183914 21.668475 -16.674946 37.466025 0.000000 0.000000 0.000000
0.000000 0.000000 0.000000 -1.273461 -1.642995 4.207378 -3.824738 -6.284358 8.367382 -3.243678 -4.665270 6.387974 6.789364 -1.187407 1.464433 0.000000 0.000000 0.000000 24.132705 -5.141055 -33.002732 53.094885 -51.029260 -63.110362 90.914101 -29.789620 -150.661406 0.000000 0.000000 0.000000 -38.672654 0.009924 -1.881424 -35.040432 13.419518 -50.441822 -8.508568 -3.942978 -41.059251 0.000000 0.000000 0.000000 -5.385153 -16.452256 -6.601236 9.059223 -1.112418 -1.799777 67.305341 -20.511580 -29.586463 0.000000 0.000000 0.000000 21.792975 -2.042938 44.767369 34.029072 -40.721505 -10.640982 21.007065 -15.436690 37.608509 0.000000 0.000000 0.000000
0.000000 0.000000 0.000000 -1.364878 -2.035892 4.226297 -4.755181 -5.909748 7.906336 -2.758514 -1.217644 6.876331 5.194244 2.313638 4.112201 0.000000 0.000000 0.000000 -6.606105 -11.121896 -20.051599 -6.166765 -44.256801 -8.083680 -162.865370 -53.568111 171.302357 0.000000 0.000000 0.000000 -39.460575 -0.263516 -3.946994 -28.286630 10.308017 -53.584296 -14.359443 0.519215 -44.170119 0.000000 0.000000 0.000000 -3.868468 -18.418534 -6.952810 9.974510 -0.910906 -3.305840 59.787841 -20.292174 -33.727104 0.000000 0.000000 0.000000 7.604590 25.909500 28.024797 -3.313301 -24.015571 29.772483 32.449942 -32.996747 26.290046 0.000000 0.000000 0.000000
0.000000 0.000000 0.000000 -1.324617 -2.245090 3.861094 -9.104823 -5.280597 7.235744 -2.827256 0.700895 8.124017 7.669991 1.822297 4.725371 0.000000 0.000000 0.000000 -11.811213 -9.779835 -14.929024 -39.765889 -42.278613 17.232396 -60.231426 -41.237908 114.060259 0.000000 0.000000 0.000000 -44.179256 0.025357 -1.449903 -34.640888 9.371470 -63.344819 -13.495602 -3.835937 -53.731571 0.000000 0.000000 0.000000 -2.605550 -16.708514 -6.156417 0.971629 0.372146 -3.701356 64.498255 -20.226970 -36.103272 0.000000 0.000000 0.000000 13.370861 21.921544 36.051493 1.278092 -28.269462 24.756237 31.711317 -33.013616 32.986901 0.000000 0.000000 0.000000
0.000000 0.000000 0.000000 -1.212933 -2.273855 3.363084 -7.828022 -3.841958 5.023367 -3.282766 -0.537094 8.638383 6.387218 0.289417 2.719510 0.000000 0.000000 0.000000 -15.151722 -9.051842 -12.283182 -44.414446 -39.173747 20.654721 -39.814832 -32.666051 102.040149 0.000000 0.000000 0.000000 -45.859231 0.579131 1.595600 -48.293325 12.802680 -62.727052 -7.253709 -8.955627 -54.998194 0.000000 0.000000 0.000000 -0.427115 -10.554538 -3.598556 0.896056 0.714487 -6.043112 71.409257 -20.131796 -35.691920 0.000000 0.000000 0.000000 24.290829 -6.418458 49.560498 13.283471 -32.642840 9.642055 39.232691 -40.811330 24.417269 0.000000 0.000000 0.000000
0.000000 0.000000 0.000000 -0.978562 -2.322601 2.328502 -8.327429 -2.282152 2.683027 -3.347077 -0.737215 8.694796 6.119492 -2.234772 0.201911 0.000000 0.000000 0.000000 -14.400749 -9.752621 -13.721030 -45.206874 -38.280149 21.227799 -41.444398 -36.357655 98.084109 0.000000 0.000000 0.000000 -45.697811 0.374042 0.499952 -47.551881 12.002745 -64.182592 -7.573668 -8.732176 -55.047011 0.000000 0.000000 0.000000 -3.654551 -8.284742 -3.705019 7.306173 0.151712 -6.776693 69.970578 -20.096249 -36.476449 0.000000 0.000000 0.000000 25.444895 -12.146316 50.938403 20.321780 -36.847909 3.142836 37.590612 -39.447438 26.561552 0.000000 0.000000 0.000000
0.000000 0.000000 0.000000 -0.905238 -2.415514 1.938533 -11.385376 -1.805582 1.816568 -3.340119 0.992065 9.701112 5.039381 -1.939816 0.088414 0.000000 0.000000 0.000000 -11.943982 -8.556178 -12.796183 -38.956392 -36.928305 16.935583 -52.641485 -44.708640 100.525234 0.000000 0.000000 0.000000 -47.816967 0.889381 2.920951 -43.581518 13.294877 -58.480200 -7.798693 -7.200057 -49.847505 0.000000 0.000000 0.000000 -2.288423 -9.761103 -3.808742 8.190368 -0.107564 -5.977058 71.217119 -20.111397 -35.970043 0.000000 0.000000 0.000000 25.153593 -3.271072 52.607015 7.254013 -29.339430 16.100904 36.567504 -37.681207 24.309720 0.000000 0.000000 0.000000
0.000000 0.000000 0.000000 -0.969661 -2.306882 2.304423 -13.016703 -1.702272 1.561084 -2.292744 3.152488 8.098269 2.369976 1.550962 2.255414 0.000000 0.000000 0.000000 -14.580598 -9.467260 -13.184486 -18.045001 -38.758829 1.952715 -115.574518 -78.167108 125.800275 0.000000 0.000000 0.000000 -41.995990 0.749628 3.251381 -41.870604 14.521221 -53.928051 -13.067344 -0.288653 -43.115230 0.000000 0.000000 0.000000 -1.210704 -13.287623 -4.712580 12.219833 -1.610421 -1.739466 71.072704 -20.340523 -33.234689 0.000000 0.000000 0.000000 12.749046 32.014396 37.896809 -8.408596 -14.837134 33.206736 49.282723 -45.829913 8.654832 0.000000 0.000000 0.000000
0.000000 0.000000 0.000000 -1.023752 -2.307104 2.533329 -14.290153 -1.764403 1.591688 -2.724765 1.030200 8.034783 1.555808 0.456923 0.974864 0.000000 0.000000 0.000000 4.482462 -6.200300 -16.415545 -1.935258 -54.326470 -13.932197 134.889361 -45.123180 -160.418369 0.000000 0.000000 0.000000 -40.438403 1.672838 10.357865 -35.386438 13.831905 -49.531590 -9.173879 -2.998670 -40.186658 0.000000 0.000000 0.000000 -3.661951 -13.352767 -5.279529 11.498793 -2.266030 1.427747 75.043869 -20.478446 -32.204567 0.000000 0.000000 0.000000 1.949031 42.150327 25.332540 -8.553972 -14.794694 33.476438 46.964052 -44.789126 11.626163 0.000000 0.000000 0.000000
0.000000 0.000000 0.000000 -0.966398 -1.914771 2.635206 -23.377365 -2.045197 1.562573 -3.312485 1.442996 9.906192 -0.611854 1.394098 0.958255 0.000000 0.000000 0.000000 6.551342 -5.556152 -16.117941 6.215990 -41.662525 -17.146711 125.372978 -65.324109 -143.364306 0.000000 0.000000 0.000000 -34.832588 1.120093 10.319431 -29.284977 12.961481 -44.583783 -6.082178 -6.405350 -41.525553 0.000000 0.000000 0.000000 -13.555380 -7.202448 -6.056085 -0.609728 -0.192103 2.240173 77.712588 -21.784744 -22.970363 0.000000 0.000000 0.000000 6.860631 38.021487 30.873874 -2.601682 -25.241075 29.314686 43.427828 -45.039138 23.006623 0.000000 0.000000 0.000000
0.000000 0.000000 0.000000 -0.727241 -1.949309 1.576916 -10.089903 -1.337348 1.155182 -4.201680 -3.332245 9.449079 -1.395243 1.513876 0.761945 0.000000 0.000000 0.000000 19.625392 -3.733188 -21.214793 35.515540 -37.945795 -40.565089 74.388419 -36.576398 -132.934159 0.000000 0.000000 0.000000 -36.109385 1.025390 8.118141 -28.798478 14.129309 -39.465589 -9.658708 3.542689 -25.366268 0.000000 0.000000 0.000000 -12.561701 -8.180639 -6.012291 9.487367 -1.547593 -0.137434 75.366425 -20.983280 -27.967453 0.000000 0.000000 0.000000 23.005192 -2.093781 47.662249 28.423711 -44.261710 -1.852854 27.537616 -26.927753 36.864531 0.000000 0.000000 0.000000
0.000000 0.000000 0.000000 -1.018874 -1.957903 2.821703 -5.639900 -1.225935 1.262791 -4.904020 -0.707334 12.800937 2.202314 -1.285822 -0.333893 0.000000 0.000000 0.000000 16.421405 -4.193119 -19.673228 45.094718 -28.754085 -45.180653 52.010863 -29.089646 -123.989385 0.000000 0.000000 0.000000 -31.889540 0.688452 7.963984 -23.280131 12.803437 -34.139566 -9.533767 6.081681 -19.988615 0.000000 0.000000 0.000000 -11.595218 -5.516267 -5.144934 17.204070 -1.048461 -6.299515 74.722662 -19.884014 -37.422906 0.000000 0.000000 0.000000 -12.749759 44.888494 7.260821 0.658648 -30.042446 26.876258 38.911747 -41.937988 29.639082 0.000000 0.000000 0.000000
0.000000 0.000000 0.000000 -0.754126 -2.038495 1.616305 3.587051 -2.285034 3.035559 -5.259329 -4.662257 11.320800 1.817509 -5.463464 -4.249578 0.000000 0.000000 0.000000 22.333234 -2.327310 -18.493038 49.221872 -23.440531 -46.375787 49.557965 -29.353882 -120.860366 0.000000 0.000000 0.000000 -26.471343 0.256737 6.518292 -19.066085 13.140649 -21.088050 -7.508607 5.323346 -15.697787 0.000000 0.000000 0.000000 -8.104169 -3.928055 -3.744588 9.399597 -0.003943 -7.074091 77.845283 -20.197911 -34.492834 0.000000 0.000000 0.000000 15.846714 16.078585 38.543705 27.265052 -40.690677 -2.830549 28.590023 -28.759094 38.066582 0.000000 0.000000 0.000000
