HIERARCHY
ROOT Hips
{
  OFFSET 0.000000 0.000000 0.000000
  CHANNELS 6 Xposition Yposition Zposition Xrotation Yrotation Zrotation
  JOINT Spine
  {
    OFFSET 1.091648 -16.236955 -10.761358
    CHANNELS 3 Xrotation Yrotation Zrotation
    JOINT Chest
    {
      OFFSET 1.091648 -16.236955 -10.761358
      CHANNELS 3 Xrotation Yrotation Zrotation
      JOINT Neck
      {
        OFFSET 0.890352 -15.536897 -10.252686
        CHANNELS 3 Xrotation Yrotation Zrotation
        JOINT Head
        {
          OFFSET 1.195817 5.044793 -9.980132
          CHANNELS 3 Xrotation Yrotation Zrotation
          End Site
          {
            OFFSET 0.0 5.0 2.0
          }
        }
      }
      JOINT LeftShoulder
      {
        OFFSET 18.551902 0.686580 2.379349
        CHANNELS 3 Xrotation Yrotation Zrotation
        JOINT LeftArm
        {
          OFFSET 4.489639 14.616960 -7.136664
          CHANNELS 3 Xrotation Yrotation Zrotation
          JOINT LeftForeArm
          {
            OFFSET -11.787307 -5.085832 -20.740247
            CHANNELS 3 Xrotation Yrotation Zrotation
            JOINT LeftHand
            {
              OFFSET -5.000000 0.000000 0.000000
              CHANNELS 3 Xrotation Yrotation Zrotation
              End Site
              {
                OFFSET -3.0 0.0 2.0
              }
            }
          }
        }
      }
      JOINT RightShoulder
      {
        OFFSET -18.551902 -0.686580 -2.379349
        CHANNELS 3 Xrotation Yrotation Zrotation
        JOINT RightArm
        {
          OFFSET -4.570216 17.997882 -4.752058
          CHANNELS 3 Xrotation Yrotation Zrotation
          JOINT RightForeArm
          {
            OFFSET 11.171408 -1.711033 -16.578603
            CHANNELS 3 Xrotation Yrotation Zrotation
            JOINT RightHand
            {
              OFFSET 5.000000 0.000000 0.000000
              CHANNELS 3 Xrotation Yrotation Zrotation
              End Site
              {
                OFFSET 3.0 0.0 2.0
              }
            }
          }
        }
      }
    }
  }
  JOINT LeftUpLeg
  {
    OFFSET 12.221265 -0.127217 0.530709
    CHANNELS 3 Xrotation Yrotation Zrotation
    JOINT LeftLeg
    {
      OFFSET 15.450203 4.395018 -26.396204
      CHANNELS 3 Xrotation Yrotation Zrotation
      JOINT LeftFoot
      {
        OFFSET -14.961074 20.357352 18.976368
        CHANNELS 3 Xrotation Yrotation Zrotation
        JOINT LeftToeBase
        {
          OFFSET 0.647871 9.602728 -2.983394
          CHANNELS 3 Xrotation Yrotation Zrotation
          End Site
          {
            OFFSET 0.0 -1.0 3.0
          }
        }
      }
    }
  }
  JOINT RightUpLeg
  {
    OFFSET -12.221265 0.127217 -0.530709
    CHANNELS 3 Xrotation Yrotation Zrotation
    JOINT RightLeg
    {
      OFFSET -17.783329 14.206535 -27.554162
      CHANNELS 3 Xrotation Yrotation Zrotation
      JOINT RightFoot
      {
        OFFSET 21.291015 11.329868 27.532883
        CHANNELS 3 Xrotation Yrotation Zrotation
        JOINT RightToeBase
        {
          OFFSET 2.829073 8.974311 -0.113827
          CHANNELS 3 Xrotation Yrotation Zrotation
          End Site
          {
            OFFSET 0.0 -1.0 3.0
          }
        }
      }
    }
  }
}
MOTION
Frames: 37
Frame Time: 0.066667
0.000000 0.000000 0.000000 0.000000 0.000000 0.000000 0.000000 0.000000 0.000000 0.000000 0.000000 0.000000 0.000000 0.000000 0.000000 0.000000 0.000000 0.000000 0.000000 0.000000 0.000000 0.000000 0.000000 0.000000 -10.567538 -27.937061 40.789541 0.000000 0.000000 0.000000 0.000000 0.000000 0.000000 0.000000 0.000000 0.000000 -5.243529 15.063323 -38.205368 0.000000 0.000000 0.000000 0.000000 0.000000 0.000000 0.000000 0.000000 0.000000 34.383824 -2.181979 -0.675172 0.000000 0.000000 0.000000 0.000000 0.000000 0.000000 0.000000 0.000000 0.000000 0.000000 0.000000 0.000000 0.000000 0.000000 0.000000
0.000000 0.000000 0.000000 -0.003981 0.003271 0.092519 -0.862546 -0.776499 1.103216 0.030737 -0.590491 -0.066737 -2.758192 -1.101678 -0.851527 0.000000 0.000000 0.000000 1.591201 -1.021660 -1.144614 -0.803108 -1.794335 0.902550 -10.878704 -26.655407 43.794757 0.000000 0.000000 0.000000 -1.394561 -0.881011 -1.883866 -2.796931 -2.578886 -1.583813 -4.983460 13.529972 -40.290678 0.000000 0.000000 0.000000 3.708316 -3.437224 1.522380 -4.321354 -4.876635 2.170684 41.605079 -2.476084 -2.382177 0.000000 0.000000 0.000000 0.720235 6.579639 3.096860 -3.671192 6.652881 -0.121388 -4.500239 1.443089 0.412097 0.000000 0.000000 0.000000
0.000000 0.000000 0.000000 -0.002814 -0.267446 0.000672 -7.019627 -1.352112 1.555915 0.108148 -0.938994 -0.538599 -2.238432 -1.866346 -1.165989 0.000000 0.000000 0.000000 1.711657 -0.411550 0.235545 -5.115655 0.491937 2.803708 -6.892077 -16.655381 44.722858 0.000000 0.000000 0.000000 -1.160781 -0.797448 -1.813921 -7.056705 -5.812002 -3.961313 -0.280619 0.758692 -40.595530 0.000000 0.000000 0.000000 3.145092 -4.959954 0.905822 -8.870241 -9.071532 4.036750 49.079004 -3.169381 0.609943 0.000000 0.000000 0.000000 1.977035 11.617110 5.328984 -3.125059 12.498140 -3.415220 7.608371 -1.677558 -12.325568 0.000000 0.000000 0.000000
0.000000 0.000000 0.000000 -0.002636 -1.149804 -0.174558 -8.590829 -1.441182 1.592120 0.065539 -0.734582 -0.285160 -2.961527 -1.097947 -0.871157 0.000000 0.000000 0.000000 2.577230 -0.347152 0.948239 -6.557064 -0.228146 3.847933 -5.745315 -14.305393 43.589521 0.000000 0.000000 0.000000 -0.655695 -0.888142 -2.650430 -9.430189 -6.017241 -5.487563 -1.732583 4.802075 -39.660148 0.000000 0.000000 0.000000 5.004635 -8.030283 1.303392 -6.345763 -6.315836 2.368183 53.944638 -3.304196 -0.533759 0.000000 0.000000 0.000000 9.106876 22.677697 9.366959 -2.906118 22.131446 -8.979034 -0.790475 -0.408887 -34.564880 0.000000 0.000000 0.000000
0.000000 0.000000 0.000000 -0.047476 -1.147181 0.665309 -8.765117 -1.545888 1.766807 0.028889 -0.737472 -0.012024 -2.311348 -0.400532 -0.466799 0.000000 0.000000 0.000000 0.260528 0.238378 0.654858 -5.311021 -3.541485 4.026966 -9.774893 -23.694819 44.354151 0.000000 0.000000 0.000000 -2.452770 -1.302082 -2.329838 -9.985087 -2.319541 -6.442732 -2.797425 7.975865 -38.604516 0.000000 0.000000 0.000000 8.827742 -6.397433 3.787947 2.735580 -11.679494 15.201896 28.319205 0.425764 39.452860 0.000000 0.000000 0.000000 9.488619 25.016628 11.118135 -1.319542 23.701741 -10.952562 8.620084 -0.501087 -33.666156 0.000000 0.000000 0.000000
0.000000 0.000000 0.000000 -0.088806 -0.926018 1.537305 -10.473818 -1.634351 1.802179 -0.127390 1.136666 0.719900 0.501561 -0.335017 -0.110999 0.000000 0.000000 0.000000 1.517030 0.160038 1.318860 -4.472977 -3.924752 3.622475 -10.700132 -25.009227 45.784840 0.000000 0.000000 0.000000 -2.609879 -1.201081 -1.834394 -9.231801 -1.068402 -6.121488 -3.242808 9.387695 -38.043337 0.000000 0.000000 0.000000 10.807469 -5.106714 5.225647 10.260259 -13.877249 21.553526 22.140662 5.211450 54.999024 0.000000 0.000000 0.000000 9.357220 25.833058 11.871031 0.650489 23.636538 -12.129863 14.104821 -0.800918 -31.560102 0.000000 0.000000 0.000000
0.000000 0.000000 0.000000 -0.095445 -0.688054 1.786070 -16.524847 -1.997468 2.074132 -0.154295 1.389284 0.884176 1.059010 -0.239104 0.003840 0.000000 0.000000 0.000000 2.940295 -0.226980 1.457786 -4.053429 -4.170489 3.433126 -10.423117 -23.851106 46.716168 0.000000 0.000000 0.000000 -1.611065 -0.634624 -0.798370 -7.657011 -1.031810 -5.054124 -2.681009 8.106689 -36.548924 0.000000 0.000000 0.000000 9.003601 -4.916356 4.234507 5.797388 -18.152213 24.692526 13.301677 12.875537 63.491643 0.000000 0.000000 0.000000 5.611703 24.151690 12.165640 -3.939512 26.460250 -11.115107 4.767007 -0.391795 -35.817718 0.000000 0.000000 0.000000
0.000000 0.000000 0.000000 -0.097258 -0.179713 2.119514 -16.491548 -2.127568 2.352924 -0.254535 1.918766 1.641985 -1.148957 0.333322 0.027326 0.000000 0.000000 0.000000 1.806347 0.439799 2.106881 -4.217908 -3.641899 3.394077 -10.375855 -23.990111 46.277599 0.000000 0.000000 0.000000 -3.251150 -0.639579 0.650011 -5.816057 -1.177861 -3.785795 -2.251686 8.327751 -30.212963 0.000000 0.000000 0.000000 8.233176 -0.355089 4.806196 7.902172 -18.244039 25.640274 26.394943 5.164347 78.044655 0.000000 0.000000 0.000000 4.550360 23.052983 11.797903 -4.520431 26.354502 -10.684881 2.861534 -0.346889 -40.182469 0.000000 0.000000 0.000000
0.000000 0.000000 0.000000 -0.118501 -0.247871 2.542012 -15.039999 -2.093754 2.379434 -0.299822 1.355250 2.142024 -0.471649 0.269919 0.078630 0.000000 0.000000 0.000000 2.213261 1.291958 4.198219 -4.712603 -5.568212 4.200002 -12.678705 -27.317754 49.136062 0.000000 0.000000 0.000000 -1.429690 -0.160246 0.734435 -5.080694 -1.346856 -3.267037 -3.415848 11.724403 -32.388060 0.000000 0.000000 0.000000 8.355268 -1.864383 4.548846 5.886959 -17.262423 23.616446 32.242498 -0.804085 58.486742 0.000000 0.000000 0.000000 3.218311 23.354617 12.621168 -6.436692 26.487034 -9.578752 7.315900 -0.299520 -37.227361 0.000000 0.000000 0.000000
0.000000 0.000000 0.000000 -0.137281 -0.009946 3.150956 -14.871835 -1.986415 2.170636 -0.335107 0.696021 2.531611 0.277485 2.908996 1.508230 0.000000 0.000000 0.000000 1.326341 2.200332 5.426143 -3.385340 -7.000863 3.746094 -13.356091 -29.431768 48.054266 0.000000 0.000000 0.000000 -0.749438 -0.008161 0.673185 -3.374562 -0.519565 -2.218911 -4.909229 17.170679 -31.702563 0.000000 0.000000 0.000000 18.782821 -7.765771 9.106730 29.861501 -2.936089 20.674126 41.377857 -5.120169 38.557984 0.000000 0.000000 0.000000 7.554309 28.421462 14.862700 -4.016775 22.060121 -8.212096 5.092498 -0.868195 -21.336854 0.000000 0.000000 0.000000
0.000000 0.000000 0.000000 -0.150646 0.321302 3.787789 -14.313469 -1.884014 2.002437 -0.360609 1.152341 2.688317 0.467853 3.601866 1.888664 0.000000 0.000000 0.000000 0.387706 3.388676 7.105699 -3.288807 -8.681133 4.102269 -14.439790 -31.696983 48.097004 0.000000 0.000000 0.000000 -1.057112 -0.117463 0.553025 -2.857561 -0.182985 -1.909296 -5.675919 20.081241 -31.282106 0.000000 0.000000 0.000000 19.043586 -6.364166 9.684925 28.094186 -4.259483 20.838862 28.964768 0.002061 36.832626 0.000000 0.000000 0.000000 8.832885 29.493093 15.305800 -3.998997 22.440443 -8.460759 3.473888 -0.699151 -20.035177 0.000000 0.000000 0.000000
0.000000 0.000000 0.000000 -0.172449 0.354838 4.363327 -13.299425 -1.801239 1.912009 -0.363672 2.677676 2.514453 -0.363064 4.249315 2.079170 0.000000 0.000000 0.000000 0.207692 4.040662 8.250287 -3.295287 -10.126887 4.459673 -15.241155 -32.987834 48.632356 0.000000 0.000000 0.000000 -3.737966 -0.751256 0.686233 -2.951041 -1.052873 -1.869577 -5.545797 19.993169 -30.728935 0.000000 0.000000 0.000000 21.575018 -7.600830 10.794230 28.763179 -5.786717 22.296141 26.994183 0.869350 37.770886 0.000000 0.000000 0.000000 8.950873 29.276001 15.063544 -3.860376 22.199017 -8.400627 0.512084 -0.320484 -21.438358 0.000000 0.000000 0.000000
0.000000 0.000000 0.000000 -0.188972 0.571523 5.064497 -13.546454 -1.806284 1.903538 -0.359527 2.941860 2.434220 -1.305442 4.403587 1.999489 0.000000 0.000000 0.000000 0.855470 3.815863 8.323123 -3.296626 -9.781627 4.376534 -16.625532 -35.207372 49.452132 0.000000 0.000000 0.000000 -3.941440 -0.794470 0.712782 -2.368638 -1.593918 -1.415066 -4.886030 18.587985 -29.224419 0.000000 0.000000 0.000000 21.120864 -4.969271 11.355119 24.947188 -9.917247 23.983848 18.629162 7.343368 54.942848 0.000000 0.000000 0.000000 8.972119 29.010103 14.815956 -3.934837 22.019042 -8.240255 2.464500 -0.521909 -24.467390 0.000000 0.000000 0.000000
0.000000 0.000000 0.000000 -0.205096 0.595210 5.518583 -13.724273 -1.823468 1.924468 -0.369783 2.940371 2.534247 -2.189079 4.596094 1.945971 0.000000 0.000000 0.000000 1.289378 3.657986 8.356918 -3.421767 -10.083394 4.529838 -18.519842 -36.831709 52.178115 0.000000 0.000000 0.000000 -3.811183 -0.741768 0.778957 -2.223605 -1.925879 -1.279391 -4.557595 17.928936 -28.315958 0.000000 0.000000 0.000000 20.663526 -4.876879 11.106447 23.313590 -12.122668 25.235981 16.143022 9.994956 59.981632 0.000000 0.000000 0.000000 8.588485 28.135577 14.194606 -3.533409 21.395515 -8.120440 1.397535 -0.423045 -25.398377 0.000000 0.000000 0.000000
0.000000 0.000000 0.000000 -0.213353 0.559972 5.678708 -13.564092 -1.816676 1.922891 -0.363505 2.825874 2.490678 -2.312452 4.559079 1.907836 0.000000 0.000000 0.000000 1.613279 3.499897 8.300226 -2.791488 -9.540783 3.997377 -17.975543 -35.847573 52.116909 0.000000 0.000000 0.000000 -3.728493 -0.710283 0.814744 -2.240637 -2.174417 -1.261695 -4.362100 17.293037 -28.120934 0.000000 0.000000 0.000000 21.394567 -8.652915 10.346592 23.358818 -12.581624 25.659332 26.658359 2.735190 57.814219 0.000000 0.000000 0.000000 8.714884 27.825375 13.870522 -3.133431 20.964338 -8.122690 0.733628 -0.359258 -23.835284 0.000000 0.000000 0.000000
0.000000 0.000000 0.000000 -0.221417 0.607795 5.964358 -13.505142 -1.800773 1.895684 -0.348387 3.040222 2.309259 -2.123155 4.506860 1.914202 0.000000 0.000000 0.000000 1.734408 3.427766 8.252146 -2.118156 -9.103298 3.467312 -17.083627 -35.382367 50.429622 0.000000 0.000000 0.000000 -4.476695 -0.903255 0.797690 -2.138403 -2.519172 -1.153328 -4.339493 17.458606 -27.721784 0.000000 0.000000 0.000000 22.916850 -8.143230 11.409290 25.415568 -12.042177 25.965716 30.925903 -0.248845 51.363858 0.000000 0.000000 0.000000 9.048295 27.831266 13.737174 -2.852363 20.463115 -8.008881 2.097197 -0.515884 -20.407671 0.000000 0.000000 0.000000
0.000000 0.000000 0.000000 -0.226883 0.534683 5.987457 -13.738604 -1.778814 1.834217 -0.356247 2.910933 2.407252 -1.864117 4.263210 1.839716 0.000000 0.000000 0.000000 1.636803 3.588560 8.499065 -2.133070 -9.176189 3.494057 -17.232980 -35.437977 50.746611 0.000000 0.000000 0.000000 -4.345880 -0.763724 1.145936 -1.934107 -3.123141 -0.947301 -4.159694 16.895279 -27.481280 0.000000 0.000000 0.000000 21.688668 -8.316362 10.628533 23.897267 -12.206026 25.533122 32.570461 -1.251590 47.294545 0.000000 0.000000 0.000000 8.997675 27.715616 13.656635 -3.002121 20.746468 -8.078673 0.199327 -0.281749 -21.279905 0.000000 0.000000 0.000000
0.000000 0.000000 0.000000 -0.229971 0.548254 6.088969 -13.772437 -1.740375 1.754803 -0.375642 3.027934 2.578503 -1.504001 4.198877 1.867298 0.000000 0.000000 0.000000 1.956604 3.770294 9.131527 -2.160396 -8.975489 3.463414 -17.342881 -35.265361 51.265911 0.000000 0.000000 0.000000 -4.253885 -0.724965 1.198261 -1.634576 -3.100333 -0.752043 -4.145407 16.823378 -27.504647 0.000000 0.000000 0.000000 21.938134 -8.966299 10.560451 25.080456 -9.667225 23.828601 31.619216 -1.177347 32.905202 0.000000 0.000000 0.000000 9.349471 27.846330 13.624843 -2.735052 20.484937 -8.099247 2.122661 -0.518087 -20.556292 0.000000 0.000000 0.000000
0.000000 0.000000 0.000000 -0.234054 0.569961 6.230444 -13.575552 -1.700868 1.691591 -0.374352 3.217463 2.537376 -1.315334 3.988076 1.795259 0.000000 0.000000 0.000000 2.219427 3.955950 9.730267 -2.062538 -8.715187 3.339863 -17.432883 -34.655064 52.339613 0.000000 0.000000 0.000000 -4.874082 -0.833608 1.342725 -1.475237 -3.118471 -0.644724 -4.191552 16.814495 -27.813589 0.000000 0.000000 0.000000 24.212104 -9.213861 11.808714 29.235171 -5.462764 22.258148 38.658317 -3.316935 22.714710 0.000000 0.000000 0.000000 10.717198 28.943884 14.050042 -2.516439 19.130328 -7.453582 4.170851 -0.977852 -12.706066 0.000000 0.000000 0.000000
0.000000 0.000000 0.000000 -0.232615 0.588701 6.224589 -13.837340 -1.579964 1.428741 -0.332399 3.030108 2.154233 -1.472250 3.489379 1.527520 0.000000 0.000000 0.000000 2.588354 3.675300 9.467752 -0.559250 -7.256572 2.063003 -14.740526 -31.730599 48.943534 0.000000 0.000000 0.000000 -4.647225 -0.726622 1.508213 -1.158125 -3.762837 -0.362283 -4.152262 16.337706 -28.346069 0.000000 0.000000 0.000000 23.956829 -8.905852 11.764894 32.408524 1.019074 19.124610 39.318950 -3.179386 15.817557 0.000000 0.000000 0.000000 11.748546 29.767490 14.402014 -2.623628 19.789493 -7.764188 5.320001 -1.203129 -12.739546 0.000000 0.000000 0.000000
0.000000 0.000000 0.000000 -0.229308 0.644091 6.231950 -14.939219 -1.618715 1.411945 -0.326475 3.204666 2.062907 -1.097392 3.281302 1.483812 0.000000 0.000000 0.000000 4.172503 3.091303 9.603964 -1.201223 -5.934060 2.143517 -13.178995 -28.357021 49.143979 0.000000 0.000000 0.000000 -3.634754 -0.483692 1.494487 -1.297961 -4.806689 -0.333631 -3.559907 13.982638 -28.440122 0.000000 0.000000 0.000000 23.969242 -9.382216 11.607401 31.329178 -0.080494 19.347062 37.179881 -2.848614 19.795478 0.000000 0.000000 0.000000 11.819786 29.813070 14.416690 -2.611672 19.774676 -7.763488 4.617802 -1.061574 -12.851838 0.000000 0.000000 0.000000
0.000000 0.000000 0.000000 -0.227457 0.672792 6.232217 -15.109943 -1.589793 1.337495 -0.327796 3.223608 2.072401 -1.752290 3.096130 1.293841 0.000000 0.000000 0.000000 4.716127 2.854959 9.571167 -1.217868 -5.416003 2.029381 -13.142279 -28.501733 48.793034 0.000000 0.000000 0.000000 -3.737466 -0.418919 1.794547 -1.164127 -4.469533 -0.285316 -3.589842 14.115959 -28.407226 0.000000 0.000000 0.000000 23.763885 -10.269656 11.178335 30.492544 -0.890311 19.507306 36.119799 -2.625232 21.624706 0.000000 0.000000 0.000000 11.739685 29.708304 14.349321 -2.537251 19.566015 -7.691562 4.513681 -1.059277 -12.227201 0.000000 0.000000 0.000000
0.000000 0.000000 0.000000 -0.225899 0.696602 6.231808 -15.462489 -1.587721 1.301573 -0.318367 3.161626 1.990824 -1.577121 2.931158 1.240161 0.000000 0.000000 0.000000 4.961509 2.822621 9.717893 -1.202847 -4.979185 1.915107 -12.972318 -28.592347 48.088240 0.000000 0.000000 0.000000 -3.884713 -0.442773 1.833109 -0.931562 -4.271188 -0.156033 -3.638689 14.414491 -28.200177 0.000000 0.000000 0.000000 23.837587 -10.880710 11.006158 30.215292 -0.782627 19.296588 35.793089 -2.499752 18.388941 0.000000 0.000000 0.000000 11.786435 29.710084 14.332109 -2.751820 19.605285 -7.571439 3.957873 -0.952872 -11.996184 0.000000 0.000000 0.000000
0.000000 0.000000 0.000000 -0.224174 0.733371 6.249523 -15.491330 -1.590480 1.304689 -0.317600 3.084232 1.998555 -1.603773 2.856154 1.199761 0.000000 0.000000 0.000000 4.937110 2.808239 9.664817 -1.066871 -4.739451 1.775504 -12.206081 -27.586381 47.069650 0.000000 0.000000 0.000000 -3.885278 -0.428549 1.880902 -0.860425 -4.147853 -0.123478 -3.572407 14.265765 -27.986612 0.000000 0.000000 0.000000 23.898640 -10.804486 11.068284 29.388155 -1.336978 19.291204 33.404868 -1.947030 19.963401 0.000000 0.000000 0.000000 11.694025 29.562180 14.229215 -2.770688 19.686958 -7.606491 3.931759 -0.949251 -11.924843 0.000000 0.000000 0.000000
0.000000 0.000000 0.000000 -0.223697 0.739409 6.247240 -14.524105 -1.509963 1.227061 -0.317173 2.972131 2.016251 -1.943255 2.782006 1.113658 0.000000 0.000000 0.000000 5.076951 2.721273 9.598613 -0.972939 -5.020397 1.786545 -12.914562 -28.559527 47.947570 0.000000 0.000000 0.000000 -4.591756 -0.610274 1.842173 -0.769741 -3.852116 -0.097366 -3.914052 15.373040 -28.414562 0.000000 0.000000 0.000000 24.489275 -11.779088 11.058974 31.299760 0.558418 18.891201 38.650405 -3.087666 16.938382 0.000000 0.000000 0.000000 11.859709 29.500065 14.102886 -2.215861 18.531169 -7.312752 5.177217 -1.276121 -9.861879 0.000000 0.000000 0.000000
0.000000 0.000000 0.000000 -0.224258 0.734013 6.252896 -14.430047 -1.471783 1.158229 -0.301863 2.783950 1.905067 -2.000719 2.600771 1.017922 0.000000 0.000000 0.000000 4.962636 2.708009 9.468298 -0.841105 -4.357786 1.548359 -12.149633 -28.021835 46.196464 0.000000 0.000000 0.000000 -4.780802 -0.686932 1.741898 -0.791498 -3.849750 -0.111896 -3.872927 15.042658 -28.727262 0.000000 0.000000 0.000000 24.634370 -11.719350 11.163715 31.065088 -0.233916 19.324862 36.414348 -2.647880 18.820705 0.000000 0.000000 0.000000 11.812016 29.473974 14.097622 -2.393936 18.681213 -7.278433 4.694212 -1.156442 -10.248907 0.000000 0.000000 0.000000
0.000000 0.000000 0.000000 -0.224678 0.732995 6.262421 -13.635573 -1.344593 0.977260 -0.298232 2.671177 1.892817 -1.993883 2.210858 0.831037 0.000000 0.000000 0.000000 4.644314 2.810062 9.410485 -0.730175 -5.275564 1.701179 -13.012211 -29.447048 46.919967 0.000000 0.000000 0.000000 -4.636885 -0.693007 1.609021 -0.706796 -3.800509 -0.061865 -4.013088 15.170236 -29.480630 0.000000 0.000000 0.000000 25.058120 -11.634890 11.437764 31.578362 -0.465045 19.734115 37.671776 -2.904667 17.765443 0.000000 0.000000 0.000000 11.768569 29.434420 14.077925 -2.520693 18.759323 -7.237864 4.364624 -1.082990 -10.289232 0.000000 0.000000 0.000000
0.000000 0.000000 0.000000 -0.226051 0.736136 6.304845 -13.683479 -1.341183 0.965899 -0.307045 2.815231 1.948700 -2.038953 2.418306 0.924547 0.000000 0.000000 0.000000 4.862192 2.706497 9.376417 -1.026974 -4.685015 1.738435 -12.536921 -28.506038 46.768838 0.000000 0.000000 0.000000 -4.141739 -0.559764 1.651154 -0.736750 -4.028828 -0.055935 -3.932318 14.876026 -29.465480 0.000000 0.000000 0.000000 25.307389 -11.607395 11.591348 31.818065 -0.944935 20.181067 37.139309 -2.824658 19.232360 0.000000 0.000000 0.000000 11.797957 29.418483 14.050834 -2.376151 18.864069 -7.394760 4.373317 -1.058593 -11.233404 0.000000 0.000000 0.000000
0.000000 0.000000 0.000000 -0.232079 0.782731 6.551782 -13.517685 -1.356369 1.011848 -0.323931 3.047682 2.067880 -2.007243 2.484054 0.960764 0.000000 0.000000 0.000000 4.962784 2.711536 9.476147 -1.143635 -5.131159 1.916025 -13.560652 -29.413878 48.738724 0.000000 0.000000 0.000000 -4.052619 -0.567103 1.555436 -0.719478 -3.913651 -0.057528 -3.984956 15.034476 -29.538596 0.000000 0.000000 0.000000 26.386583 -10.755962 12.532671 31.973155 -3.342800 21.928266 37.526096 -3.226543 29.760830 0.000000 0.000000 0.000000 11.818273 29.337940 13.966353 -2.165748 18.666382 -7.423130 5.123241 -1.206354 -11.524708 0.000000 0.000000 0.000000
0.000000 0.000000 0.000000 -0.237336 0.805824 6.738239 -13.401255 -1.477123 1.262028 -0.327214 2.987433 2.111359 -1.872530 2.249733 0.866974 0.000000 0.000000 0.000000 4.233684 2.975982 9.409914 -1.383346 -4.992504 2.027121 -13.328568 -29.187322 48.337592 0.000000 0.000000 0.000000 -4.608370 -0.671294 1.656969 -0.558358 -3.531692 0.005698 -3.728311 14.308255 -29.073991 0.000000 0.000000 0.000000 26.744237 -9.538124 13.193042 31.301004 -5.312483 23.042779 37.371645 -3.510006 40.925971 0.000000 0.000000 0.000000 11.170807 28.977890 13.895143 -2.182591 19.130139 -7.676479 5.120263 -1.146511 -13.242463 0.000000 0.000000 0.000000
0.000000 0.000000 0.000000 -0.237440 0.850079 6.825826 -13.279669 -1.505447 1.328771 -0.336882 2.964806 2.209808 -1.817587 2.048430 0.777349 0.000000 0.000000 0.000000 4.067776 3.083168 9.495239 -1.565299 -5.161792 2.178063 -13.528873 -29.253779 48.882543 0.000000 0.000000 0.000000 -4.685116 -0.690071 1.656590 -0.548104 -3.640091 0.024423 -3.690876 14.260297 -28.887820 0.000000 0.000000 0.000000 26.719977 -9.247751 13.284847 30.936069 -4.509900 22.302226 37.562857 -3.444019 36.297227 0.000000 0.000000 0.000000 11.245313 29.064824 13.945379 -2.371809 19.075164 -7.518600 4.504104 -1.050697 -12.457472 0.000000 0.000000 0.000000
0.000000 0.000000 0.000000 -0.241195 0.810700 6.853125 -14.127559 -1.696148 1.637697 -0.335853 2.816187 2.225878 -0.657671 2.046459 0.939256 0.000000 0.000000 0.000000 3.848446 3.317550 9.803386 -1.662545 -4.768954 2.140968 -12.711437 -27.819079 48.433247 0.000000 0.000000 0.000000 -3.777719 -0.567640 1.330695 -0.665962 -3.845380 -0.030082 -3.550215 13.596513 -29.145088 0.000000 0.000000 0.000000 25.767529 -10.336648 12.323549 28.421971 -6.574888 22.750513 28.548347 -0.139857 31.505151 0.000000 0.000000 0.000000 10.432616 28.405868 13.675007 -3.061824 20.052406 -7.627125 1.038747 -0.365079 -14.329046 0.000000 0.000000 0.000000
0.000000 0.000000 0.000000 -0.239716 0.841509 6.872024 -14.135670 -1.710814 1.666576 -0.335457 2.803400 2.224287 -0.237938 1.884821 0.917617 0.000000 0.000000 0.000000 3.822038 3.372465 9.896778 -1.688383 -4.785188 2.160505 -12.812089 -27.954955 48.556927 0.000000 0.000000 0.000000 -3.835506 -0.617163 1.213141 -0.660868 -3.610079 -0.052947 -3.611536 13.789298 -29.226728 0.000000 0.000000 0.000000 24.199343 -9.084105 11.846299 27.775986 -5.634119 21.744059 29.544431 -0.537082 30.489072 0.000000 0.000000 0.000000 10.401222 28.399013 13.681838 -3.029564 19.650959 -7.412717 2.001417 -0.561427 -10.939268 0.000000 0.000000 0.000000
0.000000 0.000000 0.000000 -0.241837 0.822993 6.894442 -14.073719 -1.723638 1.697369 -0.346422 2.812391 2.328273 -0.348190 1.937396 0.928480 0.000000 0.000000 0.000000 3.938219 3.155430 9.536838 -1.878620 -4.174964 2.124752 -12.764043 -27.582892 48.994314 0.000000 0.000000 0.000000 -3.813913 -0.600142 1.252066 -0.663773 -3.729590 -0.041553 -3.690613 14.056941 -29.290018 0.000000 0.000000 0.000000 23.309314 -10.689365 10.769056 27.343444 -6.500298 22.225476 29.236706 -0.510872 28.915103 0.000000 0.000000 0.000000 10.299538 28.285775 13.621499 -2.621673 18.997863 -7.306864 4.267157 -1.067351 -10.077210 0.000000 0.000000 0.000000
0.000000 0.000000 0.000000 -0.242033 0.811403 6.877409 -14.295206 -1.660024 1.551000 -0.337547 2.686931 2.264190 -0.147728 1.560384 0.767321 0.000000 0.000000 0.000000 4.212716 2.945251 9.325645 -1.800162 -4.053348 2.047721 -12.481915 -27.593210 48.010678 0.000000 0.000000 0.000000 -3.381208 -0.544328 1.081377 -0.847961 -4.424744 -0.084003 -3.584858 13.563969 -29.485532 0.000000 0.000000 0.000000 22.357853 -11.868418 9.816408 26.208487 -7.616580 22.619331 30.585625 -0.932021 29.387052 0.000000 0.000000 0.000000 10.016977 28.014390 13.495138 -2.661073 18.876338 -7.210582 3.645910 -0.917271 -10.679601 0.000000 0.000000 0.000000
0.000000 0.000000 0.000000 -0.239271 0.862380 6.900428 -14.365807 -1.651529 1.527906 -0.311950 2.677675 2.022096 -0.001320 1.529843 0.771930 0.000000 0.000000 0.000000 4.097472 2.635793 8.560865 -0.888335 -3.647820 1.405140 -12.051099 -27.839111 46.138792 0.000000 0.000000 0.000000 -3.717340 -0.561934 1.300296 -0.656850 -4.707889 0.072598 -3.557133 13.543988 -29.308886 0.000000 0.000000 0.000000 22.554384 -11.405771 10.088254 27.496703 -6.187686 22.048894 36.419253 -2.820838 27.834237 0.000000 0.000000 0.000000 10.178345 28.141583 13.541893 -2.405329 17.991293 -6.879911 5.444442 -1.419094 -7.664556 0.000000 0.000000 0.000000
0.000000 0.000000 0.000000 -0.230667 0.985321 6.902898 -14.630500 -1.620798 1.442985 -0.293038 3.073416 1.759030 0.268877 1.574828 0.831615 0.000000 0.000000 0.000000 3.790858 2.722757 8.487112 0.365417 -3.818425 0.702949 -12.043228 -28.301950 45.406943 0.000000 0.000000 0.000000 -4.081229 -0.630546 1.368981 -0.413836 -4.613232 0.220243 -3.544844 13.734419 -28.820190 0.000000 0.000000 0.000000 23.049943 -10.335935 10.742137 28.892828 -3.159700 20.386650 39.198443 -3.378073 20.874031 0.000000 0.000000 0.000000 10.868941 28.589233 13.661046 -2.305411 17.792483 -6.835958 7.384728 -1.994827 -5.829461 0.000000 0.000000 0.000000
