HIERARCHY
ROOT Hips
{
  OFFSET 0.000000 0.000000 0.000000
  CHANNELS 6 Xposition Yposition Zposition Xrotation Yrotation Zrotation
  JOINT Spine
  {
    OFFSET 1.388230 22.849755 -8.157144
    CHANNELS 3 Xrotation Yrotation Zrotation
    JOINT Chest
    {
      OFFSET 1.388230 22.849755 -8.157144
      CHANNELS 3 Xrotation Yrotation Zrotation
      JOINT Neck
      {
        OFFSET 0.386562 8.498444 -3.690407
        CHANNELS 3 Xrotation Yrotation Zrotation
        JOINT Head
        {
          OFFSET 0.662911 7.396516 -7.447500
          CHANNELS 3 Xrotation Yrotation Zrotation
          End Site
          {
            OFFSET 0.198873 2.218955 -2.234250
          }
        }
      }
      JOINT LeftShoulder
      {
        OFFSET 17.248308 -1.208605 -0.261267
        CHANNELS 3 Xrotation Yrotation Zrotation
        JOINT LeftArm
        {
          OFFSET 7.635523 -21.435821 1.774202
          CHANNELS 3 Xrotation Yrotation Zrotation
          JOINT LeftForeArm
          {
            OFFSET 7.643843 -21.327462 -9.147581
            CHANNELS 3 Xrotation Yrotation Zrotation
            JOINT LeftHand
            {
              OFFSET 0.473402 -5.275506 -2.178749
              CHANNELS 3 Xrotation Yrotation Zrotation
              End Site
              {
                OFFSET 0.142021 -1.582652 -0.653625
              }
            }
          }
        }
      }
      JOINT RightShoulder
      {
        OFFSET -17.248308 1.208605 0.261267
        CHANNELS 3 Xrotation Yrotation Zrotation
        JOINT RightArm
        {
          OFFSET -12.133127 -21.363330 5.693170
          CHANNELS 3 Xrotation Yrotation Zrotation
          JOINT RightForeArm
          {
            OFFSET -7.740244 -22.047532 -5.230031
            CHANNELS 3 Xrotation Yrotation Zrotation
            JOINT RightHand
            {
              OFFSET -0.480044 -5.557554 -1.525311
              CHANNELS 3 Xrotation Yrotation Zrotation
              End Site
              {
                OFFSET -0.144013 -1.667266 -0.457593
              }
            }
          }
        }
      }
    }
  }
  JOINT LeftUpLeg
  {
    OFFSET 11.699587 -0.675443 -0.599665
    CHANNELS 3 Xrotation Yrotation Zrotation
    JOINT LeftLeg
    {
      OFFSET -6.527727 -38.483662 1.737457
      CHANNELS 3 Xrotation Yrotation Zrotation
      JOINT LeftFoot
      {
        OFFSET 3.065902 -35.809878 12.679608
        CHANNELS 3 Xrotation Yrotation Zrotation
        End Site
        {
          OFFSET 0.919771 -10.742963 3.803882
        }
      }
    }
  }
  JOINT RightUpLeg
  {
    OFFSET -11.699587 0.675443 0.599665
    CHANNELS 3 Xrotation Yrotation Zrotation
    JOINT RightLeg
    {
      OFFSET -1.173808 -37.981520 -1.210152
      CHANNELS 3 Xrotation Yrotation Zrotation
      JOINT RightFoot
      {
        OFFSET -7.846448 -39.021816 7.691272
        CHANNELS 3 Xrotation Yrotation Zrotation
        End Site
        {
          OFFSET -2.353934 -11.706545 2.307382
        }
      }
    }
  }
}
MOTION
Frames: 82
Frame Time: 0.083333
0.000000 60.000000 0.000000 -0.754759 0.036580 -0.025527 -0.754759 0.036580 -0.025527 0.000000 0.000000 0.000000 0.496996 -0.067327 -0.023415 5.000000 0.000000 0.000000 -0.027464 0.034519 0.533513 0.681685 -0.153686 0.516759 1.106403 -0.342019 0.551136 0.000000 0.000000 0.000000 2.507782 -1.334604 0.356902 3.202876 -0.437275 0.310720 2.464044 -0.322208 0.335846 0.000000 0.000000 0.000000 -2.295424 0.499936 1.262340 -0.412969 0.393010 1.184662 0.000000 0.000000 0.000000 -4.839706 0.138123 -0.216140 -3.305358 0.856089 0.702019 0.000000 0.000000 0.000000
-0.257243 60.000000 -1.638203 -0.761052 0.042716 -0.010551 -0.761052 0.042716 -0.010551 0.000000 0.000000 0.000000 0.330991 -0.041861 -0.012676 5.000000 0.000000 0.000000 -0.138342 -0.008417 0.474633 0.660185 -0.133461 0.463234 1.067883 -0.314257 0.504804 0.000000 0.000000 0.000000 2.144296 -1.137399 0.323476 2.762762 -0.375218 0.260723 2.154879 -0.277846 0.285181 0.000000 0.000000 0.000000 -2.141339 0.472996 1.176666 -0.453032 0.357501 1.086920 0.000000 0.000000 0.000000 -4.334311 0.120443 -0.222932 -2.884310 0.754126 0.634023 0.000000 0.000000 0.000000
-0.710694 60.000000 -4.164375 -2.153119 0.140919 0.022356 -2.153119 0.140919 0.022356 0.000000 0.000000 0.000000 0.511469 -0.046830 -0.001937 5.000000 0.000000 0.000000 -0.664287 -0.125368 1.238925 1.776031 -0.333076 1.181562 2.871635 -0.821095 1.310137 0.000000 0.000000 0.000000 5.053109 -2.673488 0.795579 6.485110 -0.866786 0.565223 5.167837 -0.633963 0.622832 0.000000 0.000000 0.000000 -5.512243 1.243871 3.140330 -1.295122 0.887024 2.718312 0.000000 0.000000 0.000000 -10.718983 0.290189 -0.622340 -6.820129 1.817726 1.628172 0.000000 0.000000 0.000000
-1.080862 60.000000 -5.480810 -3.047343 0.251816 0.167268 -3.047343 0.251816 0.167268 0.000000 0.000000 0.000000 -0.033841 0.083497 0.079981 5.000000 0.000000 0.000000 -1.352121 -0.321845 1.687081 2.253127 -0.402146 1.442431 3.689416 -1.032347 1.623064 0.000000 0.000000 0.000000 5.143857 -2.734845 0.741796 6.281295 -0.768707 0.314263 5.303239 -0.493843 0.354009 0.000000 0.000000 0.000000 -6.393535 1.519719 4.192241 -1.611620 0.960720 2.969724 0.000000 0.000000 0.000000 -11.695641 0.304333 -0.795532 -6.526777 1.859617 2.046549 0.000000 0.000000 0.000000
-1.402397 60.000000 -5.917965 -3.256636 0.322216 0.312844 -3.256636 0.322216 0.312844 0.000000 0.000000 0.000000 0.237301 0.121570 0.142449 5.000000 0.000000 0.000000 -0.913195 -0.119048 2.272446 2.068388 -0.481008 1.582143 3.588937 -1.093023 1.699446 0.000000 0.000000 0.000000 5.366424 -2.975434 0.164326 5.633533 -0.524787 -0.255714 4.957447 -0.115850 -0.277610 0.000000 0.000000 0.000000 -5.419806 1.376153 4.800359 -0.750591 0.838121 2.502202 0.000000 0.000000 0.000000 -10.614975 0.293684 -0.560376 -5.083530 1.624008 2.404411 0.000000 0.000000 0.000000
-1.822454 60.000000 -6.127072 -3.935158 0.445253 0.508331 -3.935158 0.445253 0.508331 0.000000 0.000000 0.000000 0.193994 0.210253 0.225652 5.000000 0.000000 0.000000 -0.537550 0.025771 2.487549 2.315889 -0.486762 1.642104 4.034461 -1.199801 1.839868 0.000000 0.000000 0.000000 5.761070 -3.362716 -0.667989 6.000954 -0.403306 -0.797614 5.401434 0.165534 -0.817867 0.000000 0.000000 0.000000 -4.973554 1.307590 5.089350 -0.434397 0.908290 2.644017 0.000000 0.000000 0.000000 -10.374373 0.296390 -0.412313 -4.926034 1.662431 2.703147 0.000000 0.000000 0.000000
-2.693350 60.000000 -5.835325 -4.811071 0.648139 0.861561 -4.811071 0.648139 0.861561 0.000000 0.000000 0.000000 -0.521543 0.472269 0.415397 5.000000 0.000000 0.000000 -1.081044 -0.164042 2.395819 3.732596 -0.682516 2.318774 5.400235 -2.102192 2.917544 0.000000 0.000000 0.000000 5.687795 -3.483041 -1.495454 6.551958 -0.458977 -0.801034 6.076574 0.175620 -0.883510 0.000000 0.000000 0.000000 -4.763362 1.267686 5.157784 -0.724578 0.847308 2.524825 0.000000 0.000000 0.000000 -10.517761 0.305501 -0.324628 -5.612714 1.841483 2.783853 0.000000 0.000000 0.000000
-3.798798 60.000000 -6.009728 -5.351215 0.824176 1.200104 -5.351215 0.824176 1.200104 0.000000 0.000000 0.000000 -1.305641 0.872406 0.731390 5.000000 0.000000 0.000000 -2.627009 -0.636445 2.562273 6.962271 -1.520120 4.583061 8.572801 -4.787124 5.834240 0.000000 0.000000 0.000000 6.485791 -4.157904 -2.866611 8.082370 -0.703893 -0.524835 6.754697 0.080951 -0.767286 0.000000 0.000000 0.000000 -4.374445 1.194607 5.306691 -1.525691 0.754267 2.402354 0.000000 0.000000 0.000000 -10.440084 0.301195 -0.361119 -6.508591 2.049675 2.782222 0.000000 0.000000 0.000000
-5.242286 60.000000 -7.419654 -5.112986 0.784519 1.147824 -5.112986 0.784519 1.147824 0.000000 0.000000 0.000000 -1.638144 0.963672 0.785627 5.000000 0.000000 0.000000 -5.237606 -1.043272 6.147242 10.670419 -3.485823 8.935707 12.523438 -9.667507 10.549539 0.000000 0.000000 0.000000 9.469929 -5.744970 -3.148465 10.370767 -1.073743 -0.142708 6.864305 -0.024269 -0.592983 0.000000 0.000000 0.000000 -3.894635 1.134492 5.832257 -2.279273 0.745090 2.504480 0.000000 0.000000 0.000000 -9.916328 0.288425 -0.315505 -6.696643 2.116602 2.869313 0.000000 0.000000 0.000000
-7.132708 60.000000 -8.927111 -5.717868 0.717574 0.881226 -5.717868 0.717574 0.881226 0.000000 0.000000 0.000000 -1.825268 1.245076 1.035186 5.000000 0.000000 0.000000 -5.509200 -0.114598 16.069772 14.458912 -5.856398 13.575334 15.683859 -14.809986 14.868623 0.000000 0.000000 0.000000 12.153124 -7.115215 -3.188574 10.937382 -1.316031 0.395352 5.622420 -0.105502 -0.348734 0.000000 0.000000 0.000000 -4.173973 1.224282 6.164026 -4.066485 0.604183 2.426637 0.000000 0.000000 0.000000 -9.447825 0.287321 -0.054821 -7.405525 2.282714 2.870009 0.000000 0.000000 0.000000
-9.223938 60.000000 -9.803641 -6.433929 0.515354 0.281114 -6.433929 0.515354 0.281114 0.000000 0.000000 0.000000 -2.173460 1.958638 1.677318 5.000000 0.000000 0.000000 -1.492384 2.081820 31.560754 17.673927 -7.824541 17.077210 16.146695 -18.405641 18.058050 0.000000 0.000000 0.000000 11.078493 -6.628597 -3.631539 8.274462 -1.180993 0.905054 3.353648 -0.153637 -0.060220 0.000000 0.000000 0.000000 -4.182945 1.265577 6.624539 -3.811522 0.543620 2.231900 0.000000 0.000000 0.000000 -8.929688 0.297887 0.446658 -8.331455 2.460814 2.724935 0.000000 0.000000 0.000000
-10.495690 60.000000 -10.236750 -7.058883 0.328262 -0.260032 -7.058883 0.328262 -0.260032 0.000000 0.000000 0.000000 -2.745660 2.519544 2.142146 5.000000 0.000000 0.000000 1.680935 3.504780 46.879697 16.901554 -8.589832 18.589734 11.672535 -19.017225 20.086798 0.000000 0.000000 0.000000 8.887490 -5.569139 -3.907657 6.766781 -1.078261 1.139062 1.820744 -0.165206 0.119619 0.000000 0.000000 0.000000 -4.428119 1.311827 6.518150 -3.384143 0.581053 2.266224 0.000000 0.000000 0.000000 -9.560468 0.345203 1.016648 -8.643704 2.509530 2.634840 0.000000 0.000000 0.000000
-10.882674 60.000000 -10.698568 -6.553367 0.185550 -0.524908 -6.553367 0.185550 -0.524908 0.000000 0.000000 0.000000 -3.075559 2.704914 2.274591 5.000000 0.000000 0.000000 0.527143 4.381733 58.741645 13.211861 -7.898549 17.825699 6.270835 -16.425036 19.588895 0.000000 0.000000 0.000000 8.325280 -5.390608 -4.563595 7.362798 -1.121688 1.048105 -1.565141 0.047313 0.082113 0.000000 0.000000 0.000000 -3.408348 1.085213 6.689635 -0.295166 0.852712 2.502333 0.000000 0.000000 0.000000 -8.433861 0.334095 1.948563 -7.060107 2.106570 2.509409 0.000000 0.000000 0.000000
-10.757514 60.000000 -9.884128 -6.055984 0.051897 -0.773745 -6.055984 0.051897 -0.773745 0.000000 0.000000 0.000000 -4.067326 2.793870 2.234088 5.000000 0.000000 0.000000 -0.155826 5.053757 66.119911 7.829121 -6.958521 16.667136 4.045154 -13.779683 17.614295 0.000000 0.000000 0.000000 8.256324 -5.535414 -5.686929 6.473401 -0.996730 0.988992 -0.661190 -0.086668 0.272083 0.000000 0.000000 0.000000 -0.753158 0.506046 7.210126 4.300963 1.292735 2.991049 0.000000 0.000000 0.000000 -6.107850 0.244458 2.727466 -4.320139 1.492892 2.577415 0.000000 0.000000 0.000000
-10.498120 60.000000 -7.102860 -5.600607 0.087834 -0.626051 -5.600607 0.087834 -0.626051 0.000000 0.000000 0.000000 -5.751887 2.543358 1.796355 5.000000 0.000000 0.000000 -0.396329 5.220306 67.491931 6.327829 -5.713847 14.051647 4.944177 -11.270659 14.399381 0.000000 0.000000 0.000000 8.252471 -5.689276 -6.647194 4.926301 -0.806855 0.967256 -1.109606 -0.143738 0.459522 0.000000 0.000000 0.000000 -1.176355 0.620197 7.448180 5.469307 1.450316 3.295801 0.000000 0.000000 0.000000 -4.645471 0.169197 2.963000 -2.552190 1.101086 2.633555 0.000000 0.000000 0.000000
-10.272721 60.000000 -2.480336 -5.477046 0.215581 -0.297475 -5.477046 0.215581 -0.297475 0.000000 0.000000 0.000000 -7.322950 2.337627 1.427945 5.000000 0.000000 0.000000 -0.290677 4.976324 65.027198 6.051428 -4.368595 10.931304 4.905973 -8.639262 11.148022 0.000000 0.000000 0.000000 7.719762 -5.573663 -7.500208 3.375806 -0.620804 0.955831 -2.546509 0.007112 0.317130 0.000000 0.000000 0.000000 -3.451939 1.151794 7.338452 5.643999 1.474147 3.341824 0.000000 0.000000 0.000000 -4.954634 0.184410 2.781988 -2.750979 1.164163 2.713195 0.000000 0.000000 0.000000
-10.160626 60.000000 1.786070 -5.212796 0.439013 0.286985 -5.212796 0.439013 0.286985 0.000000 0.000000 0.000000 -8.968176 2.394835 1.280566 5.000000 0.000000 0.000000 -1.462827 4.930505 61.670762 4.806435 -3.564634 9.052906 1.929261 -6.315738 8.619973 0.000000 0.000000 0.000000 7.562312 -5.460259 -7.264018 2.353559 -0.510296 0.988069 -2.728491 0.027423 0.294657 0.000000 0.000000 0.000000 -4.306153 1.313128 6.873774 5.114186 1.550060 3.671805 0.000000 0.000000 0.000000 -5.467569 0.206376 2.472605 -2.579969 1.161790 2.877981 0.000000 0.000000 0.000000
-10.046391 60.000000 4.201604 -4.668210 0.721567 1.076466 -4.668210 0.721567 1.076466 0.000000 0.000000 0.000000 -11.015370 3.126498 1.643070 5.000000 0.000000 0.000000 -2.283837 4.653909 56.123003 4.518706 -2.310711 6.004035 0.206970 -2.251734 3.291679 0.000000 0.000000 0.000000 7.027006 -4.854394 -5.405463 2.215436 -0.474934 0.915249 -1.987755 0.040577 0.164563 0.000000 0.000000 0.000000 -4.800612 1.357550 6.059456 4.206747 1.680492 4.244252 0.000000 0.000000 0.000000 -6.612680 0.255633 2.018053 -2.289200 1.139740 3.081481 0.000000 0.000000 0.000000
-9.925055 60.000000 4.817961 -2.510726 0.717005 1.476873 -2.510726 0.717005 1.476873 0.000000 0.000000 0.000000 -12.090641 4.312436 2.488945 5.000000 0.000000 0.000000 -0.442033 3.777696 47.653831 2.114359 -0.399400 1.455189 0.640271 -1.023874 1.516711 0.000000 0.000000 0.000000 4.607771 -2.978961 -2.456799 1.919140 -0.395947 0.742732 -0.189692 0.034315 -0.049513 0.000000 0.000000 0.000000 -4.427693 1.259829 5.902577 4.933052 1.706616 4.225293 0.000000 0.000000 0.000000 -7.547410 0.293545 1.742332 -1.393003 0.954825 3.193410 0.000000 0.000000 0.000000
-9.884510 60.000000 4.341240 2.130079 0.416736 1.620498 2.130079 0.416736 1.620498 0.000000 0.000000 0.000000 -10.123724 4.990718 3.316984 5.000000 0.000000 0.000000 1.087003 2.346417 31.529312 3.830489 -0.020218 0.952743 1.835646 -1.159385 1.720703 0.000000 0.000000 0.000000 0.326343 0.120318 1.080044 1.063342 -0.290197 0.707701 1.531296 -0.068376 -0.030310 0.000000 0.000000 0.000000 -3.345960 1.018817 5.922206 5.900202 1.679295 3.993755 0.000000 0.000000 0.000000 -6.828413 0.249684 1.369055 1.387921 0.351905 3.400593 0.000000 0.000000 0.000000
-10.008283 60.000000 3.026225 3.810363 0.244756 1.485036 3.810363 0.244756 1.485036 0.000000 0.000000 0.000000 -8.832828 5.580809 4.001981 5.000000 0.000000 0.000000 -0.921729 0.968083 15.145727 3.152183 -0.608863 2.090002 2.782328 -2.168252 3.123295 0.000000 0.000000 0.000000 -0.195519 0.618526 1.748396 0.167725 -0.315478 1.195212 0.595322 -0.385207 0.732674 0.000000 0.000000 0.000000 -2.448255 0.827483 6.068534 5.785564 1.502754 3.438931 0.000000 0.000000 0.000000 -6.195053 0.216667 1.138950 2.357241 0.141560 3.479649 0.000000 0.000000 0.000000
-10.334489 60.000000 1.685503 2.817598 0.124399 0.893674 2.817598 0.124399 0.893674 0.000000 0.000000 0.000000 -8.863767 6.090673 4.431676 5.000000 0.000000 0.000000 -1.597478 -0.081667 5.161610 2.549179 -0.815508 2.447666 3.155512 -2.498264 3.560184 0.000000 0.000000 0.000000 2.481203 -1.660836 -1.503991 1.419809 -0.938501 2.894793 0.960774 -1.613180 3.213283 0.000000 0.000000 0.000000 -2.023160 0.758422 6.492708 3.846066 1.231534 2.866709 0.000000 0.000000 0.000000 -6.001942 0.205847 0.955772 1.686244 0.323609 3.622606 0.000000 0.000000 0.000000
-10.773684 60.000000 1.115550 2.501715 -0.135635 0.049837 2.501715 -0.135635 0.049837 0.000000 0.000000 0.000000 -7.946517 6.610250 5.026277 5.000000 0.000000 0.000000 -2.040958 -0.489522 2.292967 1.050943 -1.050243 2.710391 3.150082 -2.783033 3.941529 0.000000 0.000000 0.000000 4.296307 -4.466456 -10.708170 3.576317 -2.089135 5.549418 0.930137 -3.451961 6.863350 0.000000 0.000000 0.000000 -0.445554 0.409483 6.699485 4.464740 1.100096 2.321249 0.000000 0.000000 0.000000 -4.959658 0.164939 0.704538 2.182861 0.203439 3.590853 0.000000 0.000000 0.000000
-11.011808 60.000000 1.164432 1.693852 -0.221796 -0.348381 1.693852 -0.221796 -0.348381 0.000000 0.000000 0.000000 -6.624569 6.248528 4.944701 5.000000 0.000000 0.000000 -1.745047 -0.382428 2.339621 0.336952 -1.179964 2.901108 2.588309 -2.973477 4.228918 0.000000 0.000000 0.000000 6.587956 -7.393703 -23.352208 7.288096 -3.672825 8.224535 1.203413 -4.802532 9.394984 0.000000 0.000000 0.000000 1.778192 -0.109128 6.542602 5.991015 1.057438 1.877220 0.000000 0.000000 0.000000 -2.871738 0.091245 0.093980 3.167584 -0.047942 3.467000 0.000000 0.000000 0.000000
-10.867280 60.000000 0.911363 1.051978 -0.250890 -0.540045 1.051978 -0.250890 -0.540045 0.000000 0.000000 0.000000 -4.087167 5.988809 5.178195 5.000000 0.000000 0.000000 -2.693862 -0.453784 4.639627 -2.837126 -1.514342 3.158648 0.574142 -3.124551 4.543495 0.000000 0.000000 0.000000 11.307636 -10.163546 -34.374781 9.518856 -4.793924 9.758142 0.286937 -5.033593 10.265772 0.000000 0.000000 0.000000 1.854342 -0.133560 6.286648 5.126945 0.914358 1.585403 0.000000 0.000000 0.000000 -2.092209 0.083702 -1.184594 1.943359 0.330424 3.933074 0.000000 0.000000 0.000000
-10.564409 60.000000 -0.129152 1.134419 -0.228381 -0.461297 1.134419 -0.228381 -0.461297 0.000000 0.000000 0.000000 -0.905884 6.695439 6.468672 5.000000 0.000000 0.000000 -3.274638 -0.268200 7.935886 -6.232568 -1.785179 3.249963 -1.590384 -3.036901 4.532009 0.000000 0.000000 0.000000 14.816869 -11.381461 -40.572382 13.707490 -5.887074 10.078761 -0.519838 -5.710366 11.945052 0.000000 0.000000 0.000000 3.061746 -0.405982 6.315848 3.893065 0.868262 1.702199 0.000000 0.000000 0.000000 -1.840779 0.106445 -3.226483 -0.999621 1.208209 4.764779 0.000000 0.000000 0.000000
-10.016511 60.000000 -1.629234 1.392242 -0.133565 -0.142513 1.392242 -0.133565 -0.142513 0.000000 0.000000 0.000000 1.286096 8.840504 9.053644 5.000000 0.000000 0.000000 -3.540367 0.159248 12.697543 -7.402650 -1.819979 3.119774 -1.983395 -2.526111 3.781544 0.000000 0.000000 0.000000 16.798893 -11.839240 -43.922236 18.792558 -6.408263 8.886915 -0.620576 -6.884766 14.179201 0.000000 0.000000 0.000000 4.514067 -0.735342 6.255176 1.902026 0.814829 1.948260 0.000000 0.000000 0.000000 -1.917613 0.132039 -4.756522 -4.595922 2.179400 5.134430 0.000000 0.000000 0.000000
-9.167917 60.000000 -2.998787 1.601962 0.008359 0.309809 1.601962 0.008359 0.309809 0.000000 0.000000 0.000000 2.311641 11.104758 11.590805 5.000000 0.000000 0.000000 -2.362178 0.924317 17.712370 -6.318190 -1.503638 2.402094 -1.018449 -1.908452 2.789142 0.000000 0.000000 0.000000 19.491453 -12.219607 -46.103540 23.253351 -5.935393 6.342733 0.968296 -6.608388 12.806121 0.000000 0.000000 0.000000 5.211644 -0.892478 6.159846 1.378912 0.864364 2.196674 0.000000 0.000000 0.000000 -1.271667 0.165903 -5.839459 -4.918698 2.220237 4.963461 0.000000 0.000000 0.000000
-8.360070 60.000000 -3.821218 1.735054 0.065831 0.500909 1.735054 0.065831 0.500909 0.000000 0.000000 0.000000 2.218709 12.216570 12.685956 5.000000 0.000000 0.000000 -0.496822 1.608444 21.931891 -6.402805 -1.183002 1.446920 -1.226239 -1.322267 1.896463 0.000000 0.000000 0.000000 22.546144 -12.494601 -46.576800 26.774421 -4.911158 3.504323 4.096942 -5.629749 9.812227 0.000000 0.000000 0.000000 5.742294 -1.013428 6.005016 0.569775 0.787865 2.122684 0.000000 0.000000 0.000000 1.382967 0.244727 -6.484562 -3.680456 1.855174 4.704889 0.000000 0.000000 0.000000
-7.730229 60.000000 -5.799540 1.320668 -0.058462 0.051431 1.320668 -0.058462 0.051431 0.000000 0.000000 0.000000 1.029210 12.556938 12.656154 5.000000 0.000000 0.000000 2.259536 2.207095 24.812921 -6.139731 -0.779886 0.451376 -1.205416 -0.274351 0.365970 0.000000 0.000000 0.000000 24.955217 -12.697721 -47.209838 31.935738 -3.666855 -0.025115 10.299443 -3.749334 5.288329 0.000000 0.000000 0.000000 3.392460 -0.490604 5.749623 0.200013 0.645823 1.775925 0.000000 0.000000 0.000000 5.693809 0.378284 -6.709950 -1.307469 1.076448 3.812876 0.000000 0.000000 0.000000
-7.211356 60.000000 -8.501816 1.769712 -0.526806 -1.239309 1.769712 -0.526806 -1.239309 0.000000 0.000000 0.000000 -0.173805 13.366857 13.091183 5.000000 0.000000 0.000000 5.096814 2.598210 25.733623 -1.732983 0.147471 -0.717327 0.949762 0.932632 -1.209218 0.000000 0.000000 0.000000 22.489193 -12.494625 -47.834340 32.790306 -1.278651 -4.789887 17.567661 0.918167 -1.815136 0.000000 0.000000 0.000000 2.905030 -0.392572 5.235571 1.073065 0.368282 0.802827 0.000000 0.000000 0.000000 10.187404 0.564699 -7.306827 1.506570 0.325410 3.415870 0.000000 0.000000 0.000000
-6.810377 60.000000 -10.383270 0.834345 -0.900225 -2.429468 0.834345 -0.900225 -2.429468 0.000000 0.000000 0.000000 -1.705900 12.937728 12.224792 5.000000 0.000000 0.000000 9.563376 3.129976 25.538512 3.777706 1.148415 -1.519501 3.046532 1.623016 -1.907916 0.000000 0.000000 0.000000 16.021381 -12.029997 -47.736243 25.110285 2.275798 -11.477619 20.402640 7.630096 -10.238949 0.000000 0.000000 0.000000 2.591217 -0.343708 4.405136 1.144316 0.112087 0.048358 0.000000 0.000000 0.000000 9.116586 0.664491 -8.453738 0.728371 0.414423 2.924746 0.000000 0.000000 0.000000
-6.638160 60.000000 -10.899152 -2.720337 -0.872039 -2.702851 -2.720337 -0.872039 -2.702851 0.000000 0.000000 0.000000 -2.969441 11.555811 10.553562 5.000000 0.000000 0.000000 14.287808 3.724470 24.785228 6.347643 1.624524 -1.797944 4.283005 1.841749 -2.028514 0.000000 0.000000 0.000000 8.842300 -11.612306 -48.678952 13.219415 4.087051 -16.152113 14.849968 11.315932 -15.670748 0.000000 0.000000 0.000000 2.352829 -0.326563 3.011002 0.447734 -0.136689 -0.498343 0.000000 0.000000 0.000000 9.496195 0.784740 -9.367004 1.334654 0.188576 2.464395 0.000000 0.000000 0.000000
-6.484858 60.000000 -11.639254 -6.314474 -0.826727 -2.899632 -6.314474 -0.826727 -2.899632 0.000000 0.000000 0.000000 -3.050963 10.532497 9.582468 5.000000 0.000000 0.000000 16.480649 4.060789 23.689480 6.841804 1.862371 -2.122368 4.570372 1.945235 -2.121437 0.000000 0.000000 0.000000 4.126559 -11.484815 -50.123742 9.547449 4.443080 -17.804388 12.115855 12.305597 -17.828946 0.000000 0.000000 0.000000 2.523964 -0.382898 1.964521 0.422554 -0.316167 -1.005276 0.000000 0.000000 0.000000 9.975903 0.803268 -9.310318 1.950834 0.085904 2.655300 0.000000 0.000000 0.000000
-6.355789 60.000000 -12.565306 -6.710013 -0.931638 -3.177666 -6.710013 -0.931638 -3.177666 0.000000 0.000000 0.000000 -3.289703 9.799253 8.850185 5.000000 0.000000 0.000000 15.221232 3.962646 22.474254 6.767032 1.901698 -2.215939 4.787154 1.777065 -1.882728 0.000000 0.000000 0.000000 3.491834 -11.440262 -50.106367 8.564539 4.465882 -18.085490 11.347509 12.685845 -18.608636 0.000000 0.000000 0.000000 3.827372 -0.632236 1.664705 0.607971 -0.459644 -1.455258 0.000000 0.000000 0.000000 11.271035 0.882834 -9.433312 1.785686 0.155628 2.830329 0.000000 0.000000 0.000000
-6.172309 60.000000 -13.301337 -7.262818 -1.046627 -3.486994 -7.262818 -1.046627 -3.486994 0.000000 0.000000 0.000000 -4.300665 9.080083 7.948092 5.000000 0.000000 0.000000 13.601885 3.764898 21.824475 6.465934 1.836155 -2.172566 4.750239 1.434001 -1.459297 0.000000 0.000000 0.000000 2.523978 -11.120027 -48.621854 7.708823 4.412423 -18.095084 11.468574 13.048985 -19.008884 0.000000 0.000000 0.000000 6.515593 -1.125820 1.727150 -0.386803 -0.830234 -2.219697 0.000000 0.000000 0.000000 14.023732 0.989373 -9.192590 0.838757 0.387604 2.924715 0.000000 0.000000 0.000000
-5.886711 60.000000 -13.899210 -7.680837 -1.054535 -3.532237 -7.680837 -1.054535 -3.532237 0.000000 0.000000 0.000000 -4.769422 8.972851 7.744101 5.000000 0.000000 0.000000 14.367810 3.885172 21.726622 6.731892 1.809133 -2.050729 4.683663 1.374264 -1.391756 0.000000 0.000000 0.000000 1.953792 -10.856376 -47.376494 7.633752 4.484809 -18.363598 10.961643 12.979675 -19.141004 0.000000 0.000000 0.000000 8.367368 -1.459252 1.355498 -0.660184 -0.944154 -2.454870 0.000000 0.000000 0.000000 16.749640 1.112952 -9.098386 1.230106 0.337267 3.127491 0.000000 0.000000 0.000000
-5.427739 60.000000 -14.093206 -7.694283 -0.997435 -3.398805 -7.694283 -0.997435 -3.398805 0.000000 0.000000 0.000000 -4.752100 9.307694 8.049448 5.000000 0.000000 0.000000 15.090502 3.996890 21.690717 6.730684 1.873081 -2.169594 4.648775 1.706669 -1.810276 0.000000 0.000000 0.000000 1.471152 -11.211950 -49.453970 7.642854 4.505625 -18.433558 10.716563 12.670241 -18.849996 0.000000 0.000000 0.000000 7.919199 -1.358173 0.629586 -0.426238 -0.807257 -2.148586 0.000000 0.000000 0.000000 15.213022 1.090451 -9.424207 0.842457 0.486126 3.435654 0.000000 0.000000 0.000000
-4.885921 60.000000 -13.762625 -6.858082 -0.825821 -2.932872 -6.858082 -0.825821 -2.932872 0.000000 0.000000 0.000000 -5.413551 9.676874 8.229171 5.000000 0.000000 0.000000 14.692113 3.955605 21.306649 6.856845 2.016135 -2.405464 4.766212 2.231936 -2.451619 0.000000 0.000000 0.000000 1.087615 -12.070370 -54.077716 7.492224 4.313027 -17.801374 10.141543 11.501820 -17.594973 0.000000 0.000000 0.000000 7.068281 -1.205222 0.322408 -0.772288 -0.830647 -2.113621 0.000000 0.000000 0.000000 14.885643 1.179208 -10.077540 0.371894 0.683299 3.886838 0.000000 0.000000 0.000000
-4.372963 60.000000 -13.207250 -5.450897 -0.566441 -2.184916 -5.450897 -0.566441 -2.184916 0.000000 0.000000 0.000000 -6.521151 9.764223 8.050377 5.000000 0.000000 0.000000 12.518375 3.639781 20.975375 5.787836 1.873744 -2.422706 4.851990 2.181610 -2.377338 0.000000 0.000000 0.000000 1.451562 -12.516864 -56.487935 9.196676 3.842436 -16.074196 11.609157 10.005990 -15.323142 0.000000 0.000000 0.000000 4.574040 -0.772121 0.180046 -2.077129 -0.900073 -1.921197 0.000000 0.000000 0.000000 14.379434 1.221696 -10.520703 0.116327 0.766096 4.002586 0.000000 0.000000 0.000000
-3.927883 60.000000 -12.476591 -3.233987 -0.430777 -1.604890 -3.233987 -0.430777 -1.604890 0.000000 0.000000 0.000000 -5.984290 9.442869 7.885672 5.000000 0.000000 0.000000 9.186059 3.106624 21.549772 3.983784 1.565259 -2.305443 4.618610 2.035738 -2.222663 0.000000 0.000000 0.000000 5.548874 -12.543528 -56.686165 15.772365 2.892804 -13.043363 16.492605 7.684225 -11.240752 0.000000 0.000000 0.000000 2.545989 -0.416550 0.536539 -2.180356 -0.924844 -1.958067 0.000000 0.000000 0.000000 14.176639 1.189725 -10.393207 -0.466400 0.819792 3.587232 0.000000 0.000000 0.000000
-3.569313 60.000000 -11.555628 -0.829474 -0.343116 -1.073928 -0.829474 -0.343116 -1.073928 0.000000 0.000000 0.000000 -4.032813 8.806489 7.760186 5.000000 0.000000 0.000000 6.165846 2.642407 21.899379 0.735350 1.014283 -2.070306 3.187726 1.660814 -1.931985 0.000000 0.000000 0.000000 13.872593 -12.581044 -56.727975 26.687413 1.083892 -8.410393 20.893941 3.231104 -3.961529 0.000000 0.000000 0.000000 1.514462 -0.204070 1.341369 -1.566937 -0.799495 -1.791966 0.000000 0.000000 0.000000 13.060861 1.091311 -10.176552 -0.995304 0.839929 3.076966 0.000000 0.000000 0.000000
-3.336961 60.000000 -10.516918 2.082391 -0.439021 -0.932379 2.082391 -0.439021 -0.932379 0.000000 0.000000 0.000000 -2.065556 8.758479 8.157129 5.000000 0.000000 0.000000 3.844617 2.272122 21.440631 -1.550374 0.518027 -1.629970 2.329182 1.165981 -1.392798 0.000000 0.000000 0.000000 19.628490 -12.486444 -54.885972 27.549133 -1.025542 -3.842349 9.779894 -1.475277 1.438887 0.000000 0.000000 0.000000 0.050933 0.114730 2.763628 -1.040353 -0.455887 -0.991708 0.000000 0.000000 0.000000 11.319674 0.944400 -9.853180 -0.972206 0.845325 3.124396 0.000000 0.000000 0.000000
-3.174440 60.000000 -9.686736 4.360154 -0.551519 -0.923440 4.360154 -0.551519 -0.923440 0.000000 0.000000 0.000000 -2.505848 8.827659 8.122605 5.000000 0.000000 0.000000 2.404672 1.963205 20.134802 -2.357295 0.265319 -1.244802 1.781367 0.920266 -1.113602 0.000000 0.000000 0.000000 18.686159 -11.979723 -49.263572 19.852388 -1.761346 -0.976666 6.511598 -1.594422 2.034437 0.000000 0.000000 0.000000 0.413243 0.092255 3.989265 -0.061678 0.021203 0.086025 0.000000 0.000000 0.000000 10.064868 0.853101 -9.685486 -1.478275 1.086408 3.705410 0.000000 0.000000 0.000000
-2.996210 60.000000 -8.809339 6.185287 -0.624136 -0.858439 6.185287 -0.624136 -0.858439 0.000000 0.000000 0.000000 -2.820811 8.526716 7.773694 5.000000 0.000000 0.000000 0.110810 1.388912 17.393226 -5.144065 -0.241587 -0.801885 -0.129135 0.473385 -0.696244 0.000000 0.000000 0.000000 11.632121 -10.095644 -36.994846 11.302730 -0.921509 -1.092161 2.688849 -0.659926 0.942142 0.000000 0.000000 0.000000 1.383357 -0.082746 4.606089 0.760492 0.362560 0.856746 0.000000 0.000000 0.000000 9.142306 0.796820 -9.615026 -1.878014 1.300184 4.247949 0.000000 0.000000 0.000000
-2.814467 60.000000 -8.096789 6.395601 -0.565738 -0.626774 6.395601 -0.565738 -0.626774 0.000000 0.000000 0.000000 -3.871270 8.000640 7.055852 5.000000 0.000000 0.000000 -0.257730 1.015779 13.491407 -5.483635 -0.426881 -0.409735 -0.574377 0.080701 -0.164535 0.000000 0.000000 0.000000 5.577338 -6.726697 -20.631818 3.815643 0.394076 -3.164484 1.787641 0.440547 -1.070982 0.000000 0.000000 0.000000 1.259484 -0.058389 4.563812 0.609244 0.482510 1.237128 0.000000 0.000000 0.000000 6.307694 0.623038 -9.352436 -2.098754 1.487032 4.856084 0.000000 0.000000 0.000000
-2.685215 60.000000 -7.476388 5.830029 -0.460168 -0.372935 5.830029 -0.460168 -0.372935 0.000000 0.000000 0.000000 -4.858767 7.673179 6.552317 5.000000 0.000000 0.000000 -0.389022 0.821139 11.432194 -5.558208 -0.434276 -0.409145 -1.118817 -0.068325 0.008736 0.000000 0.000000 0.000000 2.729141 -4.143071 -11.881576 0.761754 1.145222 -5.220568 2.727747 1.068191 -2.380634 0.000000 0.000000 0.000000 0.826079 0.026961 4.420830 0.856118 0.507569 1.257714 0.000000 0.000000 0.000000 4.904433 0.517639 -8.812039 -1.563859 1.366861 4.917238 0.000000 0.000000 0.000000
-2.739759 60.000000 -7.035746 4.211622 -0.372194 -0.363594 4.211622 -0.372194 -0.363594 0.000000 0.000000 0.000000 -6.628740 7.545283 6.089663 5.000000 0.000000 0.000000 -0.898422 0.702189 11.380349 -5.112474 -0.300417 -0.632948 -1.202719 0.033537 -0.149242 0.000000 0.000000 0.000000 1.167346 -2.679744 -8.653670 1.762768 1.246125 -5.874844 2.955189 1.839640 -3.879320 0.000000 0.000000 0.000000 0.573726 0.075249 4.293137 0.749618 0.612754 1.588911 0.000000 0.000000 0.000000 3.517962 0.370299 -7.865244 -0.194065 1.051472 5.059234 0.000000 0.000000 0.000000
-2.963527 60.000000 -6.617613 0.551953 -0.318249 -0.788584 0.551953 -0.318249 -0.788584 0.000000 0.000000 0.000000 -10.636527 7.563239 5.345682 5.000000 0.000000 0.000000 -2.992245 0.426521 13.473588 -4.329683 0.021854 -1.232477 -0.605124 0.387148 -0.611087 0.000000 0.000000 0.000000 -0.962874 -0.551252 -4.078860 2.484877 1.361218 -6.592287 3.204535 2.881495 -5.909641 0.000000 0.000000 0.000000 2.314797 -0.285627 4.344372 1.425467 0.850058 2.149592 0.000000 0.000000 0.000000 7.976606 0.465278 -7.087239 0.609862 0.989607 5.740287 0.000000 0.000000 0.000000
-3.100779 60.000000 -5.753372 -3.396129 -0.363956 -1.454089 -3.396129 -0.363956 -1.454089 0.000000 0.000000 0.000000 -12.842749 6.508956 4.092092 5.000000 0.000000 0.000000 -5.753025 0.364524 18.351858 -3.495120 0.518817 -2.140348 1.266362 0.892210 -1.138551 0.000000 0.000000 0.000000 -1.007024 -0.000183 -2.081122 -2.145854 1.685139 -7.193225 2.949980 3.313925 -6.764228 0.000000 0.000000 0.000000 3.651340 -0.564938 4.327357 1.797904 1.127024 2.891489 0.000000 0.000000 0.000000 11.798990 0.540301 -6.685662 -0.223080 1.248296 5.973248 0.000000 0.000000 0.000000
-2.993356 60.000000 -4.301647 -4.389964 -0.788682 -2.628183 -4.389964 -0.788682 -2.628183 0.000000 0.000000 0.000000 -12.237345 3.598150 1.905080 5.000000 0.000000 0.000000 -4.804356 1.539473 27.017776 0.306134 1.753705 -3.745186 3.295636 1.529659 -1.743453 0.000000 0.000000 0.000000 0.247401 -0.658878 -1.987075 -2.130459 1.709934 -7.329579 3.773305 3.617856 -7.211886 0.000000 0.000000 0.000000 3.592360 -0.553069 4.302187 0.886983 1.474426 4.041987 0.000000 0.000000 0.000000 11.071330 0.499532 -6.532006 -0.852003 1.373091 5.799778 0.000000 0.000000 0.000000
-2.742599 60.000000 -1.894065 -5.259086 -1.388465 -4.184548 -5.259086 -1.388465 -4.184548 0.000000 0.000000 0.000000 -13.409664 0.533429 -0.631230 5.000000 0.000000 0.000000 -2.796962 2.502319 36.098848 2.149209 3.043557 -5.683478 3.529358 2.985248 -3.576168 0.000000 0.000000 0.000000 0.536950 -0.837172 -2.072408 -0.630898 1.563637 -6.873701 4.055459 3.957870 -7.792838 0.000000 0.000000 0.000000 3.260852 -0.487585 4.128883 -1.135076 1.632770 4.754463 0.000000 0.000000 0.000000 11.261313 0.498635 -6.485409 -2.376402 1.661203 5.348331 0.000000 0.000000 0.000000
-2.599815 60.000000 0.547329 -5.587606 -1.865585 -5.358746 -5.587606 -1.865585 -5.358746 0.000000 0.000000 0.000000 -15.042090 -1.343151 -2.211667 5.000000 0.000000 0.000000 1.992199 3.287496 45.126212 4.909979 4.233937 -6.975468 3.507784 4.723653 -5.827219 0.000000 0.000000 0.000000 0.834365 -1.278005 -3.165901 0.852591 1.417530 -6.460831 4.208450 3.898876 -7.643542 0.000000 0.000000 0.000000 3.282038 -0.496454 3.780029 -3.196203 1.471835 4.548674 0.000000 0.000000 0.000000 12.059021 0.535984 -6.620217 -4.892627 2.125965 4.617010 0.000000 0.000000 0.000000
-2.450548 60.000000 1.959072 -5.712472 -2.388370 -6.639593 -5.712472 -2.388370 -6.639593 0.000000 0.000000 0.000000 -15.224402 -2.422047 -3.048970 5.000000 0.000000 0.000000 4.541546 3.334447 51.598303 5.044319 4.258163 -6.992041 2.278414 5.901963 -7.569402 0.000000 0.000000 0.000000 0.380789 -1.720976 -5.954033 0.233946 1.300402 -5.799490 2.893685 3.338345 -6.805019 0.000000 0.000000 0.000000 4.717353 -0.785772 3.203737 -3.894703 1.193607 3.883311 0.000000 0.000000 0.000000 13.472298 0.513680 -6.132817 -6.061808 2.219293 3.841382 0.000000 0.000000 0.000000
-2.278582 60.000000 1.698671 -5.002632 -2.623656 -7.220923 -5.002632 -2.623656 -7.220923 0.000000 0.000000 0.000000 -14.241193 -2.986895 -3.447279 5.000000 0.000000 0.000000 10.740874 2.602489 55.318682 9.612903 4.368211 -5.768839 4.213872 6.181332 -7.393160 0.000000 0.000000 0.000000 1.041997 -2.865761 -9.575114 -0.810448 1.184508 -5.020588 1.496093 2.680556 -5.693605 0.000000 0.000000 0.000000 8.935711 -1.616638 2.947692 -1.850857 0.979356 3.058929 0.000000 0.000000 0.000000 12.200605 0.447194 -5.543745 -8.140957 2.669461 3.647859 0.000000 0.000000 0.000000
-2.203215 60.000000 1.171288 -4.581006 -2.508551 -6.944069 -4.581006 -2.508551 -6.944069 0.000000 0.000000 0.000000 -12.591845 -3.256415 -3.610222 5.000000 0.000000 0.000000 19.025948 1.377630 56.143742 17.953453 4.377878 -3.454185 7.845161 5.921465 -6.276404 0.000000 0.000000 0.000000 3.396652 -4.845176 -14.142760 -0.901218 0.880027 -3.554939 0.927618 1.782428 -3.793537 0.000000 0.000000 0.000000 10.164823 -1.851550 2.787537 -1.352300 0.735770 2.303037 0.000000 0.000000 0.000000 3.841574 0.160471 -4.128265 -8.766981 2.649280 3.024235 0.000000 0.000000 0.000000
-2.410349 60.000000 0.427288 -4.291845 -2.158990 -6.071944 -4.291845 -2.158990 -6.071944 0.000000 0.000000 0.000000 -9.279079 -3.342240 -3.606031 5.000000 0.000000 0.000000 19.513819 1.290924 56.395177 21.512363 2.630634 -0.023687 11.379257 3.282308 -2.758640 0.000000 0.000000 0.000000 5.915947 -6.787193 -20.046385 -1.077726 0.533376 -1.926933 -1.260755 0.927698 -1.963036 0.000000 0.000000 0.000000 12.750633 -2.380853 3.098639 -0.202728 0.319114 0.959308 0.000000 0.000000 0.000000 2.172122 0.081370 -2.993064 -7.775972 2.296050 2.600263 0.000000 0.000000 0.000000
-2.842812 60.000000 -0.367926 -4.154148 -1.500974 -4.408449 -4.154148 -1.500974 -4.408449 0.000000 0.000000 0.000000 -6.976991 -3.914752 -4.038670 5.000000 0.000000 0.000000 15.683467 1.831708 57.587328 19.516138 -0.416847 4.522725 11.792345 -2.471214 3.696255 0.000000 0.000000 0.000000 10.714731 -9.031748 -24.595097 -0.257892 0.017297 -0.031731 -3.080854 0.730062 -1.449150 0.000000 0.000000 0.000000 14.125633 -2.727772 3.985392 -0.568864 -0.215398 -0.472561 0.000000 0.000000 0.000000 2.723085 0.029415 -2.023423 -7.619896 2.037257 1.771938 0.000000 0.000000 0.000000
-3.367976 60.000000 -0.673592 -4.045999 -0.601503 -2.155297 -4.045999 -0.601503 -2.155297 0.000000 0.000000 0.000000 -5.342956 -3.791295 -3.877415 5.000000 0.000000 0.000000 8.724158 2.930834 58.987533 12.957008 -3.461749 9.414266 7.487109 -8.591600 10.760031 0.000000 0.000000 0.000000 14.259400 -10.097195 -24.944711 1.750834 -0.586845 1.514998 -3.484549 0.927487 -1.935525 0.000000 0.000000 0.000000 14.492673 -2.849501 4.846601 0.134875 -0.459120 -1.342196 0.000000 0.000000 0.000000 1.841117 0.018296 -1.537114 -6.432071 1.619849 1.180349 0.000000 0.000000 0.000000
-3.796679 60.000000 -0.452687 -4.831125 0.184882 -0.301225 -4.831125 0.184882 -0.301225 0.000000 0.000000 0.000000 -2.909369 -2.642562 -2.728673 5.000000 0.000000 0.000000 1.967280 4.078076 58.723120 6.257045 -5.125219 12.687547 4.845869 -11.238996 14.359132 0.000000 0.000000 0.000000 15.916510 -10.487275 -23.863422 4.220728 -1.044541 2.075154 -1.808924 0.597428 -1.248264 0.000000 0.000000 0.000000 8.310589 -1.556414 5.934468 0.145179 -0.418257 -1.245662 0.000000 0.000000 0.000000 -0.087331 0.044667 -1.373715 -4.554452 1.102609 0.736562 0.000000 0.000000 0.000000
-4.083928 60.000000 -0.475114 -6.123182 0.672769 0.700088 -6.123182 0.672769 0.700088 0.000000 0.000000 0.000000 -0.632202 -1.327143 -1.357478 5.000000 0.000000 0.000000 -0.806102 4.452754 57.125255 6.733091 -5.542129 13.614121 6.486497 -12.273796 15.050164 0.000000 0.000000 0.000000 17.142809 -10.800292 -23.206419 6.415657 -1.277140 1.904966 -0.003454 0.067244 -0.147565 0.000000 0.000000 0.000000 1.228664 0.017936 6.624828 -1.280632 -0.134863 -0.057886 0.000000 0.000000 0.000000 -1.428341 0.070623 -1.374392 -3.047510 0.808195 0.851076 0.000000 0.000000 0.000000
-4.394682 60.000000 -0.909890 -6.360552 0.785673 0.929449 -6.360552 0.785673 0.929449 0.000000 0.000000 0.000000 -0.382309 0.012720 -0.022621 5.000000 0.000000 0.000000 -0.535910 4.313877 55.931405 7.138929 -5.677115 13.891611 7.545665 -13.003890 15.537769 0.000000 0.000000 0.000000 15.926979 -10.393365 -22.554884 6.106825 -1.158342 1.645061 0.106494 -0.167134 0.347239 0.000000 0.000000 0.000000 3.228734 -0.435645 7.060536 -0.121636 0.332114 0.995068 0.000000 0.000000 0.000000 -1.347806 0.061027 -1.008673 -2.851585 0.940560 1.621707 0.000000 0.000000 0.000000
-4.725239 60.000000 -1.324811 -7.093107 0.757582 0.738840 -7.093107 0.757582 0.738840 0.000000 0.000000 0.000000 -0.514119 0.786403 0.728417 5.000000 0.000000 0.000000 -0.314501 4.187472 54.756134 6.593459 -5.602885 13.767212 6.826899 -13.002906 15.768190 0.000000 0.000000 0.000000 13.540003 -9.647127 -22.254475 4.785529 -0.907945 1.367677 0.424379 -0.452163 0.917629 0.000000 0.000000 0.000000 6.300079 -1.151779 7.549624 2.855761 0.772352 1.618280 0.000000 0.000000 0.000000 -1.000440 0.040260 -0.415516 -2.794045 1.101396 2.389855 0.000000 0.000000 0.000000
-4.986679 60.000000 -1.655415 -7.700285 0.748808 0.617478 -7.700285 0.748808 0.617478 0.000000 0.000000 0.000000 -0.397689 1.433083 1.377026 5.000000 0.000000 0.000000 -0.445867 4.052092 52.766015 6.189869 -5.583816 13.756506 5.570435 -12.809884 15.962735 0.000000 0.000000 0.000000 13.150423 -9.521562 -22.190670 4.987467 -0.856405 1.113818 0.546654 -0.753564 1.534317 0.000000 0.000000 0.000000 11.241300 -2.319136 7.376905 5.290324 0.854336 1.350552 0.000000 0.000000 0.000000 -0.757023 0.031090 -0.305743 -2.864077 1.176910 2.654444 0.000000 0.000000 0.000000
-5.161937 60.000000 -1.785310 -7.815058 0.788882 0.690986 -7.815058 0.788882 0.690986 0.000000 0.000000 0.000000 -0.280451 1.786175 1.738001 5.000000 0.000000 0.000000 -0.276484 3.830395 50.101171 6.131919 -5.680788 13.985965 4.834740 -12.650103 16.024756 0.000000 0.000000 0.000000 13.377670 -9.590178 -22.176069 6.124469 -0.953169 0.984698 0.885955 -1.011331 2.016166 0.000000 0.000000 0.000000 13.613083 -2.857307 7.107334 5.958152 0.865341 1.230438 0.000000 0.000000 0.000000 -1.017227 0.040565 -0.400961 -2.799406 1.192779 2.790244 0.000000 0.000000 0.000000
-5.533271 60.000000 -2.192956 -7.658805 0.815067 0.776853 -7.658805 0.815067 0.776853 0.000000 0.000000 0.000000 -0.310066 1.918394 1.864751 5.000000 0.000000 0.000000 0.069001 3.569508 47.030873 6.004655 -5.738385 14.127691 4.703085 -12.973129 16.429350 0.000000 0.000000 0.000000 13.290806 -9.531483 -21.823591 6.969013 -1.018090 0.870653 0.941165 -1.104751 2.197787 0.000000 0.000000 0.000000 16.834387 -3.582576 6.762564 7.009767 0.932407 1.204412 0.000000 0.000000 0.000000 -1.813842 0.062773 -0.426062 -2.855701 1.276302 3.100316 0.000000 0.000000 0.000000
-6.147930 60.000000 -3.158486 -7.416773 0.844489 0.885582 -7.416773 0.844489 0.885582 0.000000 0.000000 0.000000 -0.419417 1.860199 1.794271 5.000000 0.000000 0.000000 0.503603 3.355869 44.232304 5.997428 -5.330795 13.239481 6.774757 -13.170568 16.019917 0.000000 0.000000 0.000000 13.277400 -9.469951 -21.296446 7.579717 -1.067122 0.794809 1.360316 -1.157916 2.224271 0.000000 0.000000 0.000000 17.211289 -3.655793 6.628141 6.631028 0.886641 1.140254 0.000000 0.000000 0.000000 -2.787668 0.089529 -0.439031 -3.259154 1.437571 3.391159 0.000000 0.000000 0.000000
-6.894714 60.000000 -4.147693 -6.739291 0.851542 1.019537 -6.739291 0.851542 1.019537 0.000000 0.000000 0.000000 -0.377781 1.726549 1.667246 5.000000 0.000000 0.000000 1.899539 3.128762 40.213646 7.919650 -4.118361 10.641090 9.210960 -10.315294 12.256138 0.000000 0.000000 0.000000 12.182894 -8.868809 -19.216083 6.712323 -0.880211 0.513928 1.828384 -1.014262 1.858093 0.000000 0.000000 0.000000 15.640231 -3.298157 6.713076 5.784770 0.833471 1.166235 0.000000 0.000000 0.000000 -3.867292 0.119028 -0.378834 -3.988922 1.627496 3.466152 0.000000 0.000000 0.000000
-7.396072 60.000000 -4.853540 -5.249502 0.798416 1.157222 -5.249502 0.798416 1.157222 0.000000 0.000000 0.000000 0.099064 1.550900 1.549281 5.000000 0.000000 0.000000 4.946854 2.894254 32.969545 12.486503 -2.057978 6.379761 11.691394 -6.048651 7.094672 0.000000 0.000000 0.000000 9.301352 -7.275782 -14.916904 5.309428 -0.580316 0.050083 2.901896 -0.659569 1.000190 0.000000 0.000000 0.000000 12.299377 -2.539711 7.000446 6.251508 0.945740 1.435310 0.000000 0.000000 0.000000 -4.591705 0.140551 -0.139817 -3.841853 1.619799 3.582107 0.000000 0.000000 0.000000
-7.600327 60.000000 -5.222134 -3.615435 0.697045 1.205888 -3.615435 0.697045 1.205888 0.000000 0.000000 0.000000 0.737286 1.430828 1.504609 5.000000 0.000000 0.000000 6.704111 2.697678 22.960697 11.656003 -0.352141 2.960861 11.027745 -1.879281 2.697243 0.000000 0.000000 0.000000 6.942902 -5.174241 -8.128938 5.169069 -0.459454 -0.320142 4.033390 -0.279284 0.106362 0.000000 0.000000 0.000000 7.201602 -1.362484 7.363666 6.051497 1.063856 1.879361 0.000000 0.000000 0.000000 -4.575155 0.146509 0.398392 -3.432344 1.554834 3.723898 0.000000 0.000000 0.000000
-7.572519 60.000000 -5.265905 -3.252079 0.641789 1.134075 -3.252079 0.641789 1.134075 0.000000 0.000000 0.000000 1.363240 1.620304 1.768931 5.000000 0.000000 0.000000 5.114344 2.143490 13.855711 6.977412 0.301240 0.830401 9.103872 0.104365 0.411711 0.000000 0.000000 0.000000 4.502815 -2.653191 -0.560089 3.165774 -0.372060 0.164808 3.142789 -0.327558 0.322945 0.000000 0.000000 0.000000 2.284501 -0.203897 7.401302 4.900837 1.044620 2.060104 0.000000 0.000000 0.000000 -5.235510 0.176175 1.018619 -3.020682 1.498224 3.904301 0.000000 0.000000 0.000000
-7.559046 60.000000 -4.798245 -3.573345 0.727099 1.291068 -3.573345 0.727099 1.291068 0.000000 0.000000 0.000000 1.657101 1.914376 2.103753 5.000000 0.000000 0.000000 2.360486 1.046912 4.877261 0.036702 0.364550 -0.888205 4.539667 0.954516 -0.906027 0.000000 0.000000 0.000000 4.901423 -1.940184 3.834993 1.529217 -0.668311 2.018768 2.208089 -1.087848 1.949734 0.000000 0.000000 0.000000 0.783699 0.140916 7.166044 4.084041 1.104825 2.413487 0.000000 0.000000 0.000000 -5.568539 0.190359 1.113960 -3.170965 1.504329 3.773848 0.000000 0.000000 0.000000
-7.724221 60.000000 -4.229643 -3.624498 0.832073 1.548670 -3.624498 0.832073 1.548670 0.000000 0.000000 0.000000 2.122548 1.954732 2.203318 5.000000 0.000000 0.000000 0.026315 -0.165141 -1.789220 -3.917747 0.446666 -2.176947 2.636017 1.573798 -1.900204 0.000000 0.000000 0.000000 4.371722 -1.613634 3.845557 -0.445345 -0.809730 3.534710 1.534213 -1.846838 3.570577 0.000000 0.000000 0.000000 -1.504142 0.661027 6.860679 2.833342 1.197283 2.930694 0.000000 0.000000 0.000000 -5.958028 0.198479 0.842627 -3.138456 1.466428 3.642778 0.000000 0.000000 0.000000
-8.058597 60.000000 -3.671116 -3.694879 0.868591 1.627183 -3.694879 0.868591 1.627183 0.000000 0.000000 0.000000 2.046607 1.896801 2.134652 5.000000 0.000000 0.000000 -1.836125 -1.163556 -4.929768 -3.671448 0.762622 -2.879098 2.329936 1.877524 -2.343040 0.000000 0.000000 0.000000 2.993768 -0.653542 4.383755 -0.501694 -0.969448 4.194556 1.898079 -1.927298 3.639105 0.000000 0.000000 0.000000 -4.100030 1.250699 6.678173 1.279687 1.250695 3.347743 0.000000 0.000000 0.000000 -7.614365 0.248729 0.396014 -3.116945 1.488918 3.760497 0.000000 0.000000 0.000000
-8.391945 60.000000 -3.300905 -4.640785 0.921682 1.573633 -4.640785 0.921682 1.573633 0.000000 0.000000 0.000000 0.357751 2.006232 2.033211 5.000000 0.000000 0.000000 -4.276715 -2.165203 -4.989790 -3.657784 0.709324 -2.747767 2.110888 1.640571 -2.059265 0.000000 0.000000 0.000000 2.316693 -0.088424 4.947745 -0.601650 -1.056983 4.595956 1.999994 -1.974478 3.706610 0.000000 0.000000 0.000000 -6.431878 1.784874 6.613372 0.333967 1.359206 3.809903 0.000000 0.000000 0.000000 -9.252441 0.304034 0.368995 -3.877253 1.696602 3.869329 0.000000 0.000000 0.000000
-8.569355 60.000000 -3.165608 -5.433871 0.970260 1.539492 -5.433871 0.970260 1.539492 0.000000 0.000000 0.000000 -0.665641 2.115105 2.014226 5.000000 0.000000 0.000000 -5.815129 -2.743259 -4.616960 -3.114221 0.695179 -2.533031 2.117880 1.702912 -2.142750 0.000000 0.000000 0.000000 1.320792 0.865128 6.227135 -1.036133 -1.064250 4.890224 1.766864 -2.141588 4.098352 0.000000 0.000000 0.000000 -5.414908 1.553027 6.648724 1.016351 1.634379 4.512995 0.000000 0.000000 0.000000 -8.315545 0.270179 0.321292 -3.549430 1.664331 4.072138 0.000000 0.000000 0.000000
-8.591564 60.000000 -3.168716 -5.147740 0.951880 1.549625 -5.147740 0.951880 1.549625 0.000000 0.000000 0.000000 -0.491782 2.109338 2.029971 5.000000 0.000000 0.000000 -5.276173 -2.373410 -3.535700 -3.811359 0.560164 -2.430886 1.644390 1.771179 -2.301090 0.000000 0.000000 0.000000 0.988684 1.300177 7.041591 -1.623809 -1.050422 5.201002 1.098378 -2.280760 4.558785 0.000000 0.000000 0.000000 -3.889605 1.199799 6.640290 1.537326 1.711538 4.676850 0.000000 0.000000 0.000000 -7.256548 0.231713 0.254991 -2.072702 1.356557 4.300472 0.000000 0.000000 0.000000
-8.461438 60.000000 -3.179422 -4.144320 0.885305 1.579859 -4.144320 0.885305 1.579859 0.000000 0.000000 0.000000 0.604075 2.013695 2.070829 5.000000 0.000000 0.000000 -4.586049 -1.995753 -2.719463 -3.908731 0.488155 -2.286079 1.398591 1.751162 -2.309273 0.000000 0.000000 0.000000 0.624607 1.567190 7.148017 -1.772776 -1.018882 5.171540 0.487763 -2.238183 4.655789 0.000000 0.000000 0.000000 -3.193502 1.030420 6.527649 1.764025 1.715357 4.662254 0.000000 0.000000 0.000000 -5.985547 0.191110 0.303857 0.442950 0.778842 4.459246 0.000000 0.000000 0.000000
-8.348035 60.000000 -3.577805 -2.699152 0.782649 1.606194 -2.699152 0.782649 1.606194 0.000000 0.000000 0.000000 1.580022 1.857791 2.036192 5.000000 0.000000 0.000000 -3.426540 -1.473745 -2.120462 -2.986963 0.619993 -2.311574 1.802267 1.938126 -2.504677 0.000000 0.000000 0.000000 0.960662 1.288975 6.939812 -1.374404 -1.068730 5.118312 0.459963 -2.270004 4.731452 0.000000 0.000000 0.000000 -3.018276 0.980662 6.401581 2.178847 1.763908 4.759349 0.000000 0.000000 0.000000 -5.728224 0.181006 0.236040 0.957649 0.629837 4.337993 0.000000 0.000000 0.000000
-8.366826 60.000000 -4.469293 -1.249724 0.667758 1.598253 -1.249724 0.667758 1.598253 0.000000 0.000000 0.000000 1.687627 1.865605 2.057344 5.000000 0.000000 0.000000 -2.550196 -1.147008 -2.179449 -1.823112 0.781892 -2.332570 1.520058 2.068726 -2.725903 0.000000 0.000000 0.000000 1.299676 1.138311 7.194888 -0.694720 -1.106223 4.840956 0.928475 -2.139270 4.321865 0.000000 0.000000 0.000000 -2.969514 0.976832 6.504776 2.993176 1.774500 4.692158 0.000000 0.000000 0.000000 -5.925803 0.183292 0.059388 0.379906 0.712101 4.051971 0.000000 0.000000 0.000000
-8.467914 60.000000 -5.597922 0.153947 0.508066 1.449382 0.153947 0.508066 1.449382 0.000000 0.000000 0.000000 1.468727 2.035412 2.203054 5.000000 0.000000 0.000000 -2.530269 -1.187648 -2.613535 -1.151151 0.805280 -2.178977 0.540904 2.000436 -2.787661 0.000000 0.000000 0.000000 0.672091 1.584028 7.321778 -0.659485 -1.026693 4.507506 0.631555 -1.926465 3.970342 0.000000 0.000000 0.000000 -2.966962 0.992791 6.736377 3.919515 1.698874 4.335406 0.000000 0.000000 0.000000 -6.643475 0.198810 -0.231896 -0.849284 0.939298 3.722433 0.000000 0.000000 0.000000
-8.512493 60.000000 -6.175658 1.259161 0.278804 1.023479 1.259161 0.278804 1.023479 0.000000 0.000000 0.000000 1.715202 2.396355 2.604501 5.000000 0.000000 0.000000 -2.804968 -1.340637 -3.043013 -1.750066 0.703274 -2.126316 -0.389020 1.868829 -2.755333 0.000000 0.000000 0.000000 0.351640 1.702441 6.990352 -1.286066 -0.862270 4.236589 -0.220759 -1.759765 3.852588 0.000000 0.000000 0.000000 -3.218589 1.080824 7.120040 4.337337 1.385494 3.310830 0.000000 0.000000 0.000000 -6.936109 0.195491 -0.590064 -1.329595 0.980013 3.384621 0.000000 0.000000 0.000000
