HIERARCHY
ROOT Hips
{
  OFFSET 0.000000 0.000000 0.000000
  CHANNELS 6 Xposition Yposition Zposition Xrotation Yrotation Zrotation
  JOINT Spine
  {
    OFFSET 1.388230 22.849755 -8.157144
    CHANNELS 3 Xrotation Yrotation Zrotation
    JOINT Chest
    {
      OFFSET 1.388230 22.849755 -8.157144
      CHANNELS 3 Xrotation Yrotation Zrotation
      JOINT Neck
      {
        OFFSET 0.386562 8.498444 -3.690407
        CHANNELS 3 Xrotation Yrotation Zrotation
        JOINT Head
        {
          OFFSET 0.662911 7.396516 -7.447500
          CHANNELS 3 Xrotation Yrotation Zrotation
          End Site
          {
            OFFSET 0.198873 2.218955 -2.234250
          }
        }
      }
      JOINT LeftShoulder
      {
        OFFSET 17.248308 -1.208605 -0.261267
        CHANNELS 3 Xrotation Yrotation Zrotation
        JOINT LeftArm
        {
          OFFSET 7.635523 -21.435821 1.774202
          CHANNELS 3 Xrotation Yrotation Zrotation
          JOINT LeftForeArm
          {
            OFFSET 7.643843 -21.327462 -9.147581
            CHANNELS 3 Xrotation Yrotation Zrotation
            JOINT LeftHand
            {
              OFFSET 0.473402 -5.275506 -2.178749
              CHANNELS 3 Xrotation Yrotation Zrotation
              End Site
              {
                OFFSET 0.142021 -1.582652 -0.653625
              }
            }
          }
        }
      }
      JOINT RightShoulder
      {
        OFFSET -17.248308 1.208605 0.261267
        CHANNELS 3 Xrotation Yrotation Zrotation
        JOINT RightArm
        {
          OFFSET -12.133127 -21.363330 5.693170
          CHANNELS 3 Xrotation Yrotation Zrotation
          JOINT RightForeArm
          {
            OFFSET -7.740244 -22.047532 -5.230031
            CHANNELS 3 Xrotation Yrotation Zrotation
            JOINT RightHand
            {
              OFFSET -0.480044 -5.557554 -1.525311
              CHANNELS 3 Xrotation Yrotation Zrotation
              End Site
              {
                OFFSET -0.144013 -1.667266 -0.457593
              }
            }
          }
        }
      }
    }
  }
  JOINT LeftUpLeg
  {
    OFFSET 11.699587 -0.675443 -0.599665
    CHANNELS 3 Xrotation Yrotation Zrotation
    JOINT LeftLeg
    {
      OFFSET -6.527727 -38.483662 1.737457
      CHANNELS 3 Xrotation Yrotation Zrotation
      JOINT LeftFoot
      {
        OFFSET 3.065902 -35.809878 12.679608
        CHANNELS 3 Xrotation Yrotation Zrotation
        End Site
        {
          OFFSET 0.919771 -10.742963 3.803882
        }
      }
    }
  }
  JOINT RightUpLeg
  {
    OFFSET -11.699587 0.675443 0.599665
    CHANNELS 3 Xrotation Yrotation Zrotation
    JOINT RightLeg
    {
      OFFSET -1.173808 -37.981520 -1.210152
      CHANNELS 3 Xrotation Yrotation Zrotation
      JOINT RightFoot
      {
        OFFSET -7.846448 -39.021816 7.691272
        CHANNELS 3 Xrotation Yrotation Zrotation
        End Site
        {
          OFFSET -2.353934 -11.706545 2.307382
        }
      }
    }
  }
}
MOTION
Frames: 82
Frame Time: 0.083333
0.000000 60.000000 0.000000 -0.754759 0.036580 -0.025527 -0.754759 0.036580 -0.025527 0.000000 0.000000 0.000000 0.496996 -0.067327 -0.023415 5.000000 0.000000 0.000000 -0.027464 0.034519 0.533513 0.681685 -0.102457 0.344506 0.000000 0.000000 0.000000 0.000000 0.000000 0.000000 2.507782 -1.334604 0.356902 3.202876 -0.291517 0.207146 0.000000 0.000000 0.000000 0.000000 0.000000 0.000000 -4.211694 0.994077 2.259371 1.523985 0.172239 0.132492 0.000000 0.000000 0.000000 -7.766452 0.230100 -0.764885 0.487046 0.097104 1.087626 0.000000 0.000000 0.000000
-0.257243 60.000000 -1.638203 -0.761052 0.042716 -0.010551 -0.761052 0.042716 -0.010551 0.000000 0.000000 0.000000 0.330991 -0.041861 -0.012676 5.000000 0.000000 0.000000 -0.138342 -0.008417 0.474633 0.660185 -0.088974 0.308823 0.000000 0.000000 0.000000 0.000000 0.000000 0.000000 2.144296 -1.137399 0.323476 2.762762 -0.250145 0.173815 0.000000 0.000000 0.000000 0.000000 0.000000 0.000000 -3.678783 0.873162 1.976271 1.103227 0.173484 0.235686 0.000000 0.000000 0.000000 -7.778959 0.222937 -0.985764 1.262424 -0.039396 1.215890 0.000000 0.000000 0.000000
-0.710694 60.000000 -4.164375 -2.153119 0.140919 0.022356 -2.153119 0.140919 0.022356 0.000000 0.000000 0.000000 0.511469 -0.046830 -0.001937 5.000000 0.000000 0.000000 -0.664287 -0.125368 1.238925 1.776031 -0.222051 0.787708 0.000000 0.000000 0.000000 0.000000 0.000000 0.000000 5.053109 -2.673488 0.795579 6.485110 -0.577857 0.376815 0.000000 0.000000 0.000000 0.000000 0.000000 0.000000 -8.814112 2.113670 4.841816 2.054006 0.477782 0.883869 0.000000 0.000000 0.000000 -10.843306 0.336444 0.088012 -4.475688 1.134663 0.944708 0.000000 0.000000 0.000000
-1.080862 60.000000 -5.480810 -3.047343 0.251816 0.167268 -3.047343 0.251816 0.167268 0.000000 0.000000 0.000000 -0.033841 0.083497 0.079981 5.000000 0.000000 0.000000 -1.352121 -0.321845 1.687081 2.253127 -0.268097 0.961621 0.000000 0.000000 0.000000 0.000000 0.000000 0.000000 5.143857 -2.734845 0.741796 6.281295 -0.512472 0.209509 0.000000 0.000000 0.000000 0.000000 0.000000 0.000000 -8.944673 2.214576 5.434418 0.995053 0.626901 1.571786 0.000000 0.000000 0.000000 -12.024988 0.344421 -0.395885 -4.661058 1.353195 1.673272 0.000000 0.000000 0.000000
-1.402397 60.000000 -5.917965 -3.256636 0.322216 0.312844 -3.256636 0.322216 0.312844 0.000000 0.000000 0.000000 0.237301 0.121570 0.142449 5.000000 0.000000 0.000000 -0.913195 -0.119048 2.272446 2.068388 -0.320672 1.054762 0.000000 0.000000 0.000000 0.000000 0.000000 0.000000 5.366424 -2.975434 0.164326 5.633533 -0.349858 -0.170476 0.000000 0.000000 0.000000 0.000000 0.000000 0.000000 -7.882560 2.034213 5.886232 1.774758 0.579569 1.275357 0.000000 0.000000 0.000000 -10.522320 0.292721 -0.535198 -5.220393 1.637399 2.332628 0.000000 0.000000 0.000000
-1.822454 60.000000 -6.127072 -3.935158 0.445253 0.508331 -3.935158 0.445253 0.508331 0.000000 0.000000 0.000000 0.193994 0.210253 0.225652 5.000000 0.000000 0.000000 -0.537550 0.025771 2.487549 2.315889 -0.324508 1.094736 0.000000 0.000000 0.000000 0.000000 0.000000 0.000000 5.761070 -3.362716 -0.667989 6.000954 -0.268871 -0.531742 0.000000 0.000000 0.000000 0.000000 0.000000 0.000000 -7.471880 1.975826 6.177484 2.150189 0.647700 1.397953 0.000000 0.000000 0.000000 -10.295483 0.295461 -0.389838 -5.015761 1.673793 2.664968 0.000000 0.000000 0.000000
-2.693350 60.000000 -5.835325 -4.811071 0.648139 0.861561 -4.811071 0.648139 0.861561 0.000000 0.000000 0.000000 -0.521543 0.472269 0.415397 5.000000 0.000000 0.000000 -1.081044 -0.164042 2.395819 3.732596 -0.455011 1.545849 0.000000 0.000000 0.000000 0.000000 0.000000 0.000000 5.687795 -3.483041 -1.495454 6.551958 -0.305984 -0.534023 0.000000 0.000000 0.000000 0.000000 0.000000 0.000000 -7.515474 2.000304 6.305367 2.125223 0.578980 1.198296 0.000000 0.000000 0.000000 -10.721952 0.308054 -0.369654 -5.413478 1.811050 2.845697 0.000000 0.000000 0.000000
-3.798798 60.000000 -6.009728 -5.351215 0.824176 1.200104 -5.351215 0.824176 1.200104 0.000000 0.000000 0.000000 -1.305641 0.872406 0.731390 5.000000 0.000000 0.000000 -2.627009 -0.636445 2.562273 6.962271 -1.013414 3.055374 0.000000 0.000000 0.000000 0.000000 0.000000 0.000000 6.485791 -4.157904 -2.866611 8.082370 -0.469262 -0.349890 0.000000 0.000000 0.000000 0.000000 0.000000 0.000000 -7.721723 2.079061 6.576115 1.917527 0.474781 0.931977 0.000000 0.000000 0.000000 -11.148454 0.310391 -0.521885 -5.832355 1.944484 2.987713 0.000000 0.000000 0.000000
-5.242286 60.000000 -7.419654 -5.112986 0.784519 1.147824 -5.112986 0.784519 1.147824 0.000000 0.000000 0.000000 -1.638144 0.963672 0.785627 5.000000 0.000000 0.000000 -5.237606 -1.043272 6.147242 10.670419 -2.323882 5.957138 0.000000 0.000000 0.000000 0.000000 0.000000 0.000000 9.469929 -5.744970 -3.148465 10.370767 -0.715829 -0.095139 0.000000 0.000000 0.000000 0.000000 0.000000 0.000000 -7.818354 2.172931 7.160956 1.718911 0.471265 0.968753 0.000000 0.000000 0.000000 -10.974396 0.303837 -0.550927 -5.713470 1.958845 3.153064 0.000000 0.000000 0.000000
-7.132708 60.000000 -8.927111 -5.717868 0.717574 0.881226 -5.717868 0.717574 0.881226 0.000000 0.000000 0.000000 -1.825268 1.245076 1.035186 5.000000 0.000000 0.000000 -5.509200 -0.114598 16.069772 14.458912 -3.904265 9.050223 0.000000 0.000000 0.000000 0.000000 0.000000 0.000000 12.153124 -7.115215 -3.188574 10.937382 -0.877354 0.263568 0.000000 0.000000 0.000000 0.000000 0.000000 0.000000 -8.701969 2.425430 7.515019 0.515037 0.332173 0.826273 0.000000 0.000000 0.000000 -11.131790 0.315557 -0.437450 -5.879504 2.037337 3.306640 0.000000 0.000000 0.000000
-9.223938 60.000000 -9.803641 -6.433929 0.515354 0.281114 -6.433929 0.515354 0.281114 0.000000 0.000000 0.000000 -2.173460 1.958638 1.677318 5.000000 0.000000 0.000000 -1.492384 2.081820 31.560754 17.673927 -5.216361 11.384807 0.000000 0.000000 0.000000 0.000000 0.000000 0.000000 11.078493 -6.628597 -3.631539 8.274462 -0.787329 0.603369 0.000000 0.000000 0.000000 0.000000 0.000000 0.000000 -8.446500 2.398158 7.784652 0.540596 0.331079 0.817701 0.000000 0.000000 0.000000 -11.365202 0.343519 -0.132297 -6.153565 2.117875 3.365399 0.000000 0.000000 0.000000
-10.495690 60.000000 -10.236750 -7.058883 0.328262 -0.260032 -7.058883 0.328262 -0.260032 0.000000 0.000000 0.000000 -2.745660 2.519544 2.142146 5.000000 0.000000 0.000000 1.680935 3.504780 46.879697 16.901554 -5.726555 12.393156 0.000000 0.000000 0.000000 0.000000 0.000000 0.000000 8.887490 -5.569139 -3.907657 6.766781 -0.718840 0.759375 0.000000 0.000000 0.000000 0.000000 0.000000 0.000000 -8.454383 2.380401 7.626539 0.618390 0.356380 0.884566 0.000000 0.000000 0.000000 -11.860858 0.392529 0.396327 -6.584128 2.205525 3.306310 0.000000 0.000000 0.000000
-10.882674 60.000000 -10.698568 -6.553367 0.185550 -0.524908 -6.553367 0.185550 -0.524908 0.000000 0.000000 0.000000 -3.075559 2.704914 2.274591 5.000000 0.000000 0.000000 0.527143 4.381733 58.741645 13.211861 -5.265699 11.883799 0.000000 0.000000 0.000000 0.000000 0.000000 0.000000 8.325280 -5.390608 -4.563595 7.362798 -0.747792 0.698737 0.000000 0.000000 0.000000 0.000000 0.000000 0.000000 -7.082859 2.043704 7.601991 2.743546 0.639128 1.287676 0.000000 0.000000 0.000000 -10.662948 0.396863 1.213663 -5.053599 1.829935 3.260497 0.000000 0.000000 0.000000
-10.757514 60.000000 -9.884128 -6.055984 0.051897 -0.773745 -6.055984 0.051897 -0.773745 0.000000 0.000000 0.000000 -4.067326 2.793870 2.234088 5.000000 0.000000 0.000000 -0.155826 5.053757 66.119911 7.829121 -4.639014 11.111424 0.000000 0.000000 0.000000 0.000000 0.000000 0.000000 8.256324 -5.535414 -5.686929 6.473401 -0.664487 0.659328 0.000000 0.000000 0.000000 0.000000 0.000000 0.000000 -4.539807 1.460096 7.896337 6.459030 1.107011 1.946323 0.000000 0.000000 0.000000 -8.288063 0.330466 1.902114 -2.340161 1.219673 3.385199 0.000000 0.000000 0.000000
-10.498120 60.000000 -7.102860 -5.600607 0.087834 -0.626051 -5.600607 0.087834 -0.626051 0.000000 0.000000 0.000000 -5.751887 2.543358 1.796355 5.000000 0.000000 0.000000 -0.396329 5.220306 67.491931 6.327829 -3.809231 9.367765 0.000000 0.000000 0.000000 0.000000 0.000000 0.000000 8.252471 -5.689276 -6.647194 4.926301 -0.537903 0.644837 0.000000 0.000000 0.000000 0.000000 0.000000 0.000000 -4.194471 1.390935 8.062937 7.404135 1.266380 2.289112 0.000000 0.000000 0.000000 -6.751678 0.266004 2.122221 -0.617535 0.830213 3.456213 0.000000 0.000000 0.000000
-10.272721 60.000000 -2.480336 -5.477046 0.215581 -0.297475 -5.477046 0.215581 -0.297475 0.000000 0.000000 0.000000 -7.322950 2.337627 1.427945 5.000000 0.000000 0.000000 -0.290677 4.976324 65.027198 6.051428 -2.912396 7.287536 0.000000 0.000000 0.000000 0.000000 0.000000 0.000000 7.719762 -5.573663 -7.500208 3.375806 -0.413870 0.637221 0.000000 0.000000 0.000000 0.000000 0.000000 0.000000 -4.550534 1.460346 7.877189 6.998911 1.294286 2.472914 0.000000 0.000000 0.000000 -6.964100 0.273036 1.997779 -0.907152 0.905323 3.491109 0.000000 0.000000 0.000000
-10.160626 60.000000 1.786070 -5.212796 0.439013 0.286985 -5.212796 0.439013 0.286985 0.000000 0.000000 0.000000 -8.968176 2.394835 1.280566 5.000000 0.000000 0.000000 -1.462827 4.930505 61.670762 4.806435 -2.376423 6.035271 0.000000 0.000000 0.000000 0.000000 0.000000 0.000000 7.562312 -5.460259 -7.264018 2.353559 -0.340198 0.658713 0.000000 0.000000 0.000000 0.000000 0.000000 0.000000 -5.409334 1.629835 7.488659 6.517515 1.304452 2.603456 0.000000 0.000000 0.000000 -7.058173 0.273543 1.865985 -1.111823 0.953278 3.491224 0.000000 0.000000 0.000000
-10.046391 60.000000 4.201604 -4.668210 0.721567 1.076466 -4.668210 0.721567 1.076466 0.000000 0.000000 0.000000 -11.015370 3.126498 1.643070 5.000000 0.000000 0.000000 -2.283837 4.653909 56.123003 4.518706 -1.540474 4.002690 0.000000 0.000000 0.000000 0.000000 0.000000 0.000000 7.027006 -4.854394 -5.405463 2.215436 -0.316623 0.610166 0.000000 0.000000 0.000000 0.000000 0.000000 0.000000 -6.157857 1.752127 6.906543 5.892832 1.341970 2.856379 0.000000 0.000000 0.000000 -7.404649 0.285530 1.729782 -1.553539 1.033345 3.379058 0.000000 0.000000 0.000000
-9.925055 60.000000 4.817961 -2.510726 0.717005 1.476873 -2.510726 0.717005 1.476873 0.000000 0.000000 0.000000 -12.090641 4.312436 2.488945 5.000000 0.000000 0.000000 -0.442033 3.777696 47.653831 2.114359 -0.266267 0.970126 0.000000 0.000000 0.000000 0.000000 0.000000 0.000000 4.607771 -2.978961 -2.456799 1.919140 -0.263965 0.495155 0.000000 0.000000 0.000000 0.000000 0.000000 0.000000 -5.520249 1.577322 6.638936 6.334729 1.396796 2.959966 0.000000 0.000000 0.000000 -7.443229 0.288898 1.803780 -1.501298 0.969480 3.122002 0.000000 0.000000 0.000000
-9.884510 60.000000 4.341240 2.130079 0.416736 1.620498 2.130079 0.416736 1.620498 0.000000 0.000000 0.000000 -10.123724 4.990718 3.316984 5.000000 0.000000 0.000000 1.087003 2.346417 31.529312 3.830489 -0.013479 0.635162 0.000000 0.000000 0.000000 0.000000 0.000000 0.000000 0.326343 0.120318 1.080044 1.063342 -0.193465 0.471801 0.000000 0.000000 0.000000 0.000000 0.000000 0.000000 -4.272537 1.281601 6.553797 7.116595 1.421271 2.897055 0.000000 0.000000 0.000000 -5.661741 0.207735 1.877489 0.253581 0.504818 2.830885 0.000000 0.000000 0.000000
-10.008283 60.000000 3.026225 3.810363 0.244756 1.485036 3.810363 0.244756 1.485036 0.000000 0.000000 0.000000 -8.832828 5.580809 4.001981 5.000000 0.000000 0.000000 -0.921729 0.968083 15.145727 3.152183 -0.405908 1.393335 0.000000 0.000000 0.000000 0.000000 0.000000 0.000000 -0.195519 0.618526 1.748396 0.167725 -0.210319 0.796808 0.000000 0.000000 0.000000 0.000000 0.000000 0.000000 -3.858431 1.221370 6.850886 7.468665 1.270920 2.288550 0.000000 0.000000 0.000000 -4.776364 0.164252 1.752618 0.970033 0.332940 2.786401 0.000000 0.000000 0.000000
-10.334489 60.000000 1.685503 2.817598 0.124399 0.893674 2.817598 0.124399 0.893674 0.000000 0.000000 0.000000 -8.863767 6.090673 4.431676 5.000000 0.000000 0.000000 -1.597478 -0.081667 5.161610 2.549179 -0.543672 1.631777 0.000000 0.000000 0.000000 0.000000 0.000000 0.000000 2.481203 -1.660836 -1.503991 1.419809 -0.625667 1.929862 0.000000 0.000000 0.000000 0.000000 0.000000 0.000000 -5.409547 1.710734 8.050750 7.499879 0.946438 1.052401 0.000000 0.000000 0.000000 -4.880698 0.166466 1.371606 0.572978 0.487599 3.123252 0.000000 0.000000 0.000000
-10.773684 60.000000 1.115550 2.501715 -0.135635 0.049837 2.501715 -0.135635 0.049837 0.000000 0.000000 0.000000 -7.946517 6.610250 5.026277 5.000000 0.000000 0.000000 -2.040958 -0.489522 2.292967 1.050943 -0.700162 1.806927 0.000000 0.000000 0.000000 0.000000 0.000000 0.000000 4.296307 -4.466456 -10.708170 3.576317 -1.392757 3.699612 0.000000 0.000000 0.000000 0.000000 0.000000 0.000000 -5.645054 1.857673 8.927340 9.860765 0.807898 -0.050148 0.000000 0.000000 0.000000 -3.994192 0.130586 1.041854 1.224036 0.351044 3.186996 0.000000 0.000000 0.000000
-11.011808 60.000000 1.164432 1.693852 -0.221796 -0.348381 1.693852 -0.221796 -0.348381 0.000000 0.000000 0.000000 -6.624569 6.248528 4.944701 5.000000 0.000000 0.000000 -1.745047 -0.382428 2.339621 0.336952 -0.786643 1.934072 0.000000 0.000000 0.000000 0.000000 0.000000 0.000000 6.587956 -7.393703 -23.352208 7.288096 -2.448550 5.483023 0.000000 0.000000 0.000000 0.000000 0.000000 0.000000 -1.484838 0.718524 7.842761 9.342202 0.933869 0.587579 0.000000 0.000000 0.000000 -2.319080 0.069216 0.284500 2.598243 0.042499 3.234039 0.000000 0.000000 0.000000
-10.867280 60.000000 0.911363 1.051978 -0.250890 -0.540045 1.051978 -0.250890 -0.540045 0.000000 0.000000 0.000000 -4.087167 5.988809 5.178195 5.000000 0.000000 0.000000 -2.693862 -0.453784 4.639627 -2.837126 -1.009561 2.105766 0.000000 0.000000 0.000000 0.000000 0.000000 0.000000 11.307636 -10.163546 -34.374781 9.518856 -3.195949 6.505428 0.000000 0.000000 0.000000 0.000000 0.000000 0.000000 -0.656012 0.488498 7.248014 7.561399 0.835081 0.699197 0.000000 0.000000 0.000000 -2.348941 0.078695 -1.117666 2.073906 0.278436 3.844589 0.000000 0.000000 0.000000
-10.564409 60.000000 -0.129152 1.134419 -0.228381 -0.461297 1.134419 -0.228381 -0.461297 0.000000 0.000000 0.000000 -0.905884 6.695439 6.468672 5.000000 0.000000 0.000000 -3.274638 -0.268200 7.935886 -6.232568 -1.190119 2.166642 0.000000 0.000000 0.000000 0.000000 0.000000 0.000000 14.816869 -11.381461 -40.572382 13.707490 -3.924716 6.719174 0.000000 0.000000 0.000000 0.000000 0.000000 0.000000 1.204830 0.049773 6.996916 5.345969 0.854737 1.270388 0.000000 0.000000 0.000000 -3.622161 0.100450 -3.068324 0.360068 0.842580 4.654514 0.000000 0.000000 0.000000
-10.016511 60.000000 -1.629234 1.392242 -0.133565 -0.142513 1.392242 -0.133565 -0.142513 0.000000 0.000000 0.000000 1.286096 8.840504 9.053644 5.000000 0.000000 0.000000 -3.540367 0.159248 12.697543 -7.402650 -1.213320 2.079849 0.000000 0.000000 0.000000 0.000000 0.000000 0.000000 16.798893 -11.839240 -43.922236 18.792558 -4.272175 5.924610 0.000000 0.000000 0.000000 0.000000 0.000000 0.000000 4.345437 -0.695127 6.305767 1.214336 0.900305 2.323228 0.000000 0.000000 0.000000 -5.483761 0.102359 -4.333637 -1.901116 1.442473 4.875205 0.000000 0.000000 0.000000
-9.167917 60.000000 -2.998787 1.601962 0.008359 0.309809 1.601962 0.008359 0.309809 0.000000 0.000000 0.000000 2.311641 11.104758 11.590805 5.000000 0.000000 0.000000 -2.362178 0.924317 17.712370 -6.318190 -1.002425 1.601396 0.000000 0.000000 0.000000 0.000000 0.000000 0.000000 19.491453 -12.219607 -46.103540 23.253351 -3.956929 4.228488 0.000000 0.000000 0.000000 0.000000 0.000000 0.000000 5.725564 -1.004659 5.994701 -0.170729 0.988956 2.824973 0.000000 0.000000 0.000000 -4.322140 0.120608 -5.409210 -2.969943 1.677004 4.721021 0.000000 0.000000 0.000000
-8.360070 60.000000 -3.821218 1.735054 0.065831 0.500909 1.735054 0.065831 0.500909 0.000000 0.000000 0.000000 2.218709 12.216570 12.685956 5.000000 0.000000 0.000000 -0.496822 1.608444 21.931891 -6.402805 -0.788668 0.964614 0.000000 0.000000 0.000000 0.000000 0.000000 0.000000 22.546144 -12.494601 -46.576800 26.774421 -3.274105 2.336215 0.000000 0.000000 0.000000 0.000000 0.000000 0.000000 5.999179 -1.059533 5.920936 -0.746575 0.903467 2.644147 0.000000 0.000000 0.000000 0.128965 0.206452 -6.320895 -3.870730 1.893295 4.662958 0.000000 0.000000 0.000000
-7.730229 60.000000 -5.799540 1.320668 -0.058462 0.051431 1.320668 -0.058462 0.051431 0.000000 0.000000 0.000000 1.029210 12.556938 12.656154 5.000000 0.000000 0.000000 2.259536 2.207095 24.812921 -6.139731 -0.519924 0.300917 0.000000 0.000000 0.000000 0.000000 0.000000 0.000000 24.955217 -12.697721 -47.209838 31.935738 -2.444570 -0.016743 0.000000 0.000000 0.000000 0.000000 0.000000 0.000000 1.177946 0.040694 6.427679 1.809734 0.684346 1.408153 0.000000 0.000000 0.000000 3.479491 0.302444 -6.549593 -1.277721 1.063166 3.742564 0.000000 0.000000 0.000000
-7.211356 60.000000 -8.501816 1.769712 -0.526806 -1.239309 1.769712 -0.526806 -1.239309 0.000000 0.000000 0.000000 -0.173805 13.366857 13.091183 5.000000 0.000000 0.000000 5.096814 2.598210 25.733623 -1.732983 0.098314 -0.478218 0.000000 0.000000 0.000000 0.000000 0.000000 0.000000 22.489193 -12.494625 -47.834340 32.790306 -0.852434 -3.193258 0.000000 0.000000 0.000000 0.000000 0.000000 0.000000 -2.996753 1.021997 7.035014 6.921638 0.319886 -0.959166 0.000000 0.000000 0.000000 6.494486 0.428546 -7.045020 2.497218 0.072253 3.284275 0.000000 0.000000 0.000000
-6.810377 60.000000 -10.383270 0.834345 -0.900225 -2.429468 0.834345 -0.900225 -2.429468 0.000000 0.000000 0.000000 -1.705900 12.937728 12.224792 5.000000 0.000000 0.000000 9.563376 3.129976 25.538512 3.777706 0.765610 -1.013001 0.000000 0.000000 0.000000 0.000000 0.000000 0.000000 16.021381 -12.029997 -47.736243 25.110285 1.517199 -7.651746 0.000000 0.000000 0.000000 0.000000 0.000000 0.000000 -4.787909 1.409289 6.671474 8.712383 0.083498 -2.378291 0.000000 0.000000 0.000000 7.372188 0.573534 -8.289366 0.824256 0.383386 2.879603 0.000000 0.000000 0.000000
-6.638160 60.000000 -10.899152 -2.720337 -0.872039 -2.702851 -2.720337 -0.872039 -2.702851 0.000000 0.000000 0.000000 -2.969441 11.555811 10.553562 5.000000 0.000000 0.000000 14.287808 3.724470 24.785228 6.347643 1.083016 -1.198629 0.000000 0.000000 0.000000 0.000000 0.000000 0.000000 8.842300 -11.612306 -48.678952 13.219415 2.724701 -10.768076 0.000000 0.000000 0.000000 0.000000 0.000000 0.000000 -4.957164 1.346038 5.404225 7.973231 -0.204507 -3.134355 0.000000 0.000000 0.000000 7.841888 0.682393 -9.197434 1.370158 0.176433 2.441726 0.000000 0.000000 0.000000
-6.484858 60.000000 -11.639254 -6.314474 -0.826727 -2.899632 -6.314474 -0.826727 -2.899632 0.000000 0.000000 0.000000 -3.050963 10.532497 9.582468 5.000000 0.000000 0.000000 16.480649 4.060789 23.689480 6.841804 1.241581 -1.414912 0.000000 0.000000 0.000000 0.000000 0.000000 0.000000 4.126559 -11.484815 -50.123742 9.547449 2.962053 -11.869592 0.000000 0.000000 0.000000 0.000000 0.000000 0.000000 -3.311050 0.864079 3.984047 6.551737 -0.415978 -3.320324 0.000000 0.000000 0.000000 8.081738 0.685474 -9.105419 2.346613 -0.015169 2.587761 0.000000 0.000000 0.000000
-6.355789 60.000000 -12.565306 -6.710013 -0.931638 -3.177666 -6.710013 -0.931638 -3.177666 0.000000 0.000000 0.000000 -3.289703 9.799253 8.850185 5.000000 0.000000 0.000000 15.221232 3.962646 22.474254 6.767032 1.267799 -1.477292 0.000000 0.000000 0.000000 0.000000 0.000000 0.000000 3.491834 -11.440262 -50.106367 8.564539 2.977255 -12.056993 0.000000 0.000000 0.000000 0.000000 0.000000 0.000000 -2.462334 0.669860 3.731054 7.240869 -0.483632 -3.833749 0.000000 0.000000 0.000000 8.353295 0.700091 -9.126045 3.191244 -0.194254 2.642048 0.000000 0.000000 0.000000
-6.172309 60.000000 -13.301337 -7.262818 -1.046627 -3.486994 -7.262818 -1.046627 -3.486994 0.000000 0.000000 0.000000 -4.300665 9.080083 7.948092 5.000000 0.000000 0.000000 13.601885 3.764898 21.824475 6.465934 1.224103 -1.448377 0.000000 0.000000 0.000000 0.000000 0.000000 0.000000 2.523978 -11.120027 -48.621854 7.708823 2.941615 -12.063389 0.000000 0.000000 0.000000 0.000000 0.000000 0.000000 -1.302542 0.444206 3.899204 7.730609 -0.653216 -4.641700 0.000000 0.000000 0.000000 9.330246 0.706050 -8.773628 3.799115 -0.344611 2.555120 0.000000 0.000000 0.000000
-5.886711 60.000000 -13.899210 -7.680837 -1.054535 -3.532237 -7.680837 -1.054535 -3.532237 0.000000 0.000000 0.000000 -4.769422 8.972851 7.744101 5.000000 0.000000 0.000000 14.367810 3.885172 21.726622 6.731892 1.206089 -1.367152 0.000000 0.000000 0.000000 0.000000 0.000000 0.000000 1.953792 -10.856376 -47.376494 7.633752 2.989873 -12.242398 0.000000 0.000000 0.000000 0.000000 0.000000 0.000000 -0.290029 0.226554 3.694797 8.258065 -0.682614 -4.983872 0.000000 0.000000 0.000000 11.720189 0.805775 -8.675958 4.410410 -0.451542 2.729639 0.000000 0.000000 0.000000
-5.427739 60.000000 -14.093206 -7.694283 -0.997435 -3.398805 -7.694283 -0.997435 -3.398805 0.000000 0.000000 0.000000 -4.752100 9.307694 8.049448 5.000000 0.000000 0.000000 15.090502 3.996890 21.690717 6.730684 1.248721 -1.446396 0.000000 0.000000 0.000000 0.000000 0.000000 0.000000 1.471152 -11.211950 -49.453970 7.642854 3.003750 -12.289039 0.000000 0.000000 0.000000 0.000000 0.000000 0.000000 -0.624107 0.273048 3.214779 8.326457 -0.653507 -4.912730 0.000000 0.000000 0.000000 10.649070 0.788147 -8.928029 3.425624 -0.175196 3.066572 0.000000 0.000000 0.000000
-4.885921 60.000000 -13.762625 -6.858082 -0.825821 -2.932872 -6.858082 -0.825821 -2.932872 0.000000 0.000000 0.000000 -5.413551 9.676874 8.229171 5.000000 0.000000 0.000000 14.692113 3.955605 21.306649 6.856845 1.344090 -1.603643 0.000000 0.000000 0.000000 0.000000 0.000000 0.000000 1.087615 -12.070370 -54.077716 7.492224 2.875352 -11.867583 0.000000 0.000000 0.000000 0.000000 0.000000 0.000000 -1.480413 0.433321 2.987930 7.915372 -0.723972 -4.981434 0.000000 0.000000 0.000000 10.081232 0.818902 -9.409670 3.047932 -0.026058 3.441523 0.000000 0.000000 0.000000
-4.372963 60.000000 -13.207250 -5.450897 -0.566441 -2.184916 -5.450897 -0.566441 -2.184916 0.000000 0.000000 0.000000 -6.521151 9.764223 8.050377 5.000000 0.000000 0.000000 12.518375 3.639781 20.975375 5.787836 1.249163 -1.615138 0.000000 0.000000 0.000000 0.000000 0.000000 0.000000 1.451562 -12.516864 -56.487935 9.196676 2.561624 -10.716131 0.000000 0.000000 0.000000 0.000000 0.000000 0.000000 -4.620825 1.056332 3.100980 7.191185 -0.863644 -5.156590 0.000000 0.000000 0.000000 9.374928 0.822355 -9.748212 3.020114 -0.011923 3.487878 0.000000 0.000000 0.000000
-3.927883 60.000000 -12.476591 -3.233987 -0.430777 -1.604890 -3.233987 -0.430777 -1.604890 0.000000 0.000000 0.000000 -5.984290 9.442869 7.885672 5.000000 0.000000 0.000000 9.186059 3.106624 21.549772 3.983784 1.043506 -1.536962 0.000000 0.000000 0.000000 0.000000 0.000000 0.000000 5.548874 -12.543528 -56.686165 15.772365 1.928536 -8.695576 0.000000 0.000000 0.000000 0.000000 0.000000 0.000000 -4.541919 1.017011 2.826523 4.962332 -0.978354 -4.554431 0.000000 0.000000 0.000000 8.518312 0.763792 -9.629125 3.047652 -0.095920 3.028580 0.000000 0.000000 0.000000
-3.569313 60.000000 -11.555628 -0.829474 -0.343116 -1.073928 -0.829474 -0.343116 -1.073928 0.000000 0.000000 0.000000 -4.032813 8.806489 7.760186 5.000000 0.000000 0.000000 6.165846 2.642407 21.899379 0.735350 0.676189 -1.380204 0.000000 0.000000 0.000000 0.000000 0.000000 0.000000 13.872593 -12.581044 -56.727975 26.687413 0.722595 -5.606929 0.000000 0.000000 0.000000 0.000000 0.000000 0.000000 -4.682510 1.087297 3.290030 4.698743 -0.843114 -4.021141 0.000000 0.000000 0.000000 6.412248 0.633883 -9.371452 3.574330 -0.316026 2.405926 0.000000 0.000000 0.000000
-3.336961 60.000000 -10.516918 2.082391 -0.439021 -0.932379 2.082391 -0.439021 -0.932379 0.000000 0.000000 0.000000 -2.065556 8.758479 8.157129 5.000000 0.000000 0.000000 3.844617 2.272122 21.440631 -1.550374 0.345351 -1.086647 0.000000 0.000000 0.000000 0.000000 0.000000 0.000000 19.628490 -12.486444 -54.885972 27.549133 -0.683695 -2.561566 0.000000 0.000000 0.000000 0.000000 0.000000 0.000000 -5.378021 1.337066 4.421607 4.456654 -0.526195 -2.890341 0.000000 0.000000 0.000000 3.248213 0.437583 -8.801976 5.265150 -0.729877 2.159793 0.000000 0.000000 0.000000
-3.174440 60.000000 -9.686736 4.360154 -0.551519 -0.923440 4.360154 -0.551519 -0.923440 0.000000 0.000000 0.000000 -2.505848 8.827659 8.122605 5.000000 0.000000 0.000000 2.404672 1.963205 20.134802 -2.357295 0.176879 -0.829868 0.000000 0.000000 0.000000 0.000000 0.000000 0.000000 18.686159 -11.979723 -49.263572 19.852388 -1.174231 -0.651111 0.000000 0.000000 0.000000 0.000000 0.000000 0.000000 -5.838434 1.596047 5.972135 6.273961 -0.081248 -2.093080 0.000000 0.000000 0.000000 0.683068 0.293112 -8.269533 6.122442 -0.878769 2.418308 0.000000 0.000000 0.000000
-2.996210 60.000000 -8.809339 6.185287 -0.624136 -0.858439 6.185287 -0.624136 -0.858439 0.000000 0.000000 0.000000 -2.820811 8.526716 7.773694 5.000000 0.000000 0.000000 0.110810 1.388912 17.393226 -5.144065 -0.161058 -0.534590 0.000000 0.000000 0.000000 0.000000 0.000000 0.000000 11.632121 -10.095644 -36.994846 11.302730 -0.614340 -0.728107 0.000000 0.000000 0.000000 0.000000 0.000000 0.000000 -6.267132 1.815397 7.152982 8.532410 0.224841 -1.871074 0.000000 0.000000 0.000000 -0.166207 0.253996 -8.001042 5.730572 -0.732299 2.827658 0.000000 0.000000 0.000000
-2.814467 60.000000 -8.096789 6.395601 -0.565738 -0.626774 6.395601 -0.565738 -0.626774 0.000000 0.000000 0.000000 -3.871270 8.000640 7.055852 5.000000 0.000000 0.000000 -0.257730 1.015779 13.491407 -5.483635 -0.284588 -0.273157 0.000000 0.000000 0.000000 0.000000 0.000000 0.000000 5.577338 -6.726697 -20.631818 3.815643 0.262718 -2.109656 0.000000 0.000000 0.000000 0.000000 0.000000 0.000000 -5.416319 1.603873 6.948728 7.417314 0.281795 -1.305234 0.000000 0.000000 0.000000 -2.368337 0.158114 -7.544421 5.097288 -0.514900 3.331458 0.000000 0.000000 0.000000
-2.685215 60.000000 -7.476388 5.830029 -0.460168 -0.372935 5.830029 -0.460168 -0.372935 0.000000 0.000000 0.000000 -4.858767 7.673179 6.552317 5.000000 0.000000 0.000000 -0.389022 0.821139 11.432194 -5.558208 -0.289517 -0.272763 0.000000 0.000000 0.000000 0.000000 0.000000 0.000000 2.729141 -4.143071 -11.881576 0.761754 0.763481 -3.480379 0.000000 0.000000 0.000000 0.000000 0.000000 0.000000 -6.879033 1.979644 7.223079 8.754310 0.283883 -1.780294 0.000000 0.000000 0.000000 -2.475029 0.152593 -7.303223 4.505692 -0.325256 3.675626 0.000000 0.000000 0.000000
-2.739759 60.000000 -7.035746 4.211622 -0.372194 -0.363594 4.211622 -0.372194 -0.363594 0.000000 0.000000 0.000000 -6.628740 7.545283 6.089663 5.000000 0.000000 0.000000 -0.898422 0.702189 11.380349 -5.112474 -0.200278 -0.421965 0.000000 0.000000 0.000000 0.000000 0.000000 0.000000 1.167346 -2.679744 -8.653670 1.762768 0.830750 -3.916563 0.000000 0.000000 0.000000 0.000000 0.000000 0.000000 -4.220334 1.239934 6.200351 5.711197 0.348231 -0.456807 0.000000 0.000000 0.000000 -1.675237 0.162230 -6.861344 3.988721 -0.107562 4.265505 0.000000 0.000000 0.000000
-2.963527 60.000000 -6.617613 0.551953 -0.318249 -0.788584 0.551953 -0.318249 -0.788584 0.000000 0.000000 0.000000 -10.636527 7.563239 5.345682 5.000000 0.000000 0.000000 -2.992245 0.426521 13.473588 -4.329683 0.014569 -0.821652 0.000000 0.000000 0.000000 0.000000 0.000000 0.000000 -0.962874 -0.551252 -4.078860 2.484877 0.907479 -4.394858 0.000000 0.000000 0.000000 0.000000 0.000000 0.000000 -4.520620 1.398641 7.133640 8.501331 0.520729 -0.753186 0.000000 0.000000 0.000000 4.072696 0.308902 -6.528705 3.418649 0.210933 5.350658 0.000000 0.000000 0.000000
-3.100779 60.000000 -5.753372 -3.396129 -0.363956 -1.454089 -3.396129 -0.363956 -1.454089 0.000000 0.000000 0.000000 -12.842749 6.508956 4.092092 5.000000 0.000000 0.000000 -5.753025 0.364524 18.351858 -3.495120 0.345878 -1.426899 0.000000 0.000000 0.000000 0.000000 0.000000 0.000000 -1.007024 -0.000183 -2.081122 -2.145854 1.123426 -4.795484 0.000000 0.000000 0.000000 0.000000 0.000000 0.000000 -5.807043 1.815110 8.347806 11.642542 0.662861 -1.260373 0.000000 0.000000 0.000000 7.756255 0.384727 -6.259104 2.483421 0.506168 5.711659 0.000000 0.000000 0.000000
-2.993356 60.000000 -4.301647 -4.389964 -0.788682 -2.628183 -4.389964 -0.788682 -2.628183 0.000000 0.000000 0.000000 -12.237345 3.598150 1.905080 5.000000 0.000000 0.000000 -4.804356 1.539473 27.017776 0.306134 1.169137 -2.496790 0.000000 0.000000 0.000000 0.000000 0.000000 0.000000 0.247401 -0.658878 -1.987075 -2.130459 1.139956 -4.886386 0.000000 0.000000 0.000000 0.000000 0.000000 0.000000 -5.441388 1.739327 8.439755 10.416611 0.826542 -0.253364 0.000000 0.000000 0.000000 7.469770 0.371846 -6.194595 1.345694 0.777497 5.621755 0.000000 0.000000 0.000000
-2.742599 60.000000 -1.894065 -5.259086 -1.388465 -4.184548 -5.259086 -1.388465 -4.184548 0.000000 0.000000 0.000000 -13.409664 0.533429 -0.631230 5.000000 0.000000 0.000000 -2.796962 2.502319 36.098848 2.149209 2.029038 -3.788986 0.000000 0.000000 0.000000 0.000000 0.000000 0.000000 0.536950 -0.837172 -2.072408 -0.630898 1.042425 -4.582467 0.000000 0.000000 0.000000 0.000000 0.000000 0.000000 -3.807259 1.256372 7.464002 6.388245 0.932875 1.300756 0.000000 0.000000 0.000000 9.005015 0.422711 -6.316037 -1.904089 1.530988 5.310581 0.000000 0.000000 0.000000
-2.599815 60.000000 0.547329 -5.587606 -1.865585 -5.358746 -5.587606 -1.865585 -5.358746 0.000000 0.000000 0.000000 -15.042090 -1.343151 -2.211667 5.000000 0.000000 0.000000 1.992199 3.287496 45.126212 4.909979 2.822625 -4.650312 0.000000 0.000000 0.000000 0.000000 0.000000 0.000000 0.834365 -1.278005 -3.165901 0.852591 0.945020 -4.307221 0.000000 0.000000 0.000000 0.000000 0.000000 0.000000 -2.266540 0.800867 6.248531 2.499910 0.883817 2.049680 0.000000 0.000000 0.000000 11.157236 0.500661 -6.556528 -6.592166 2.543586 4.621035 0.000000 0.000000 0.000000
-2.450548 60.000000 1.959072 -5.712472 -2.388370 -6.639593 -5.712472 -2.388370 -6.639593 0.000000 0.000000 0.000000 -15.224402 -2.422047 -3.048970 5.000000 0.000000 0.000000 4.541546 3.334447 51.598303 5.044319 2.838775 -4.661360 0.000000 0.000000 0.000000 0.000000 0.000000 0.000000 0.380789 -1.720976 -5.954033 0.233946 0.866935 -3.866327 0.000000 0.000000 0.000000 0.000000 0.000000 0.000000 -0.478144 0.374173 5.323860 0.699911 0.728771 1.919061 0.000000 0.000000 0.000000 13.398878 0.498949 -6.083993 -8.938660 2.883606 3.718041 0.000000 0.000000 0.000000
-2.278582 60.000000 1.698671 -5.002632 -2.623656 -7.220923 -5.002632 -2.623656 -7.220923 0.000000 0.000000 0.000000 -14.241193 -2.986895 -3.447279 5.000000 0.000000 0.000000 10.740874 2.602489 55.318682 9.612903 2.912140 -3.845893 0.000000 0.000000 0.000000 0.000000 0.000000 0.000000 1.041997 -2.865761 -9.575114 -0.810448 0.789672 -3.347058 0.000000 0.000000 0.000000 0.000000 0.000000 0.000000 5.570594 -0.931931 4.110366 0.272470 0.821815 2.237929 0.000000 0.000000 0.000000 12.851502 0.386630 -5.218775 -10.402000 3.068298 3.175597 0.000000 0.000000 0.000000
-2.203215 60.000000 1.171288 -4.581006 -2.508551 -6.944069 -4.581006 -2.508551 -6.944069 0.000000 0.000000 0.000000 -12.591845 -3.256415 -3.610222 5.000000 0.000000 0.000000 19.025948 1.377630 56.143742 17.953453 2.918586 -2.302790 0.000000 0.000000 0.000000 0.000000 0.000000 0.000000 3.396652 -4.845176 -14.142760 -0.901218 0.586685 -2.369960 0.000000 0.000000 0.000000 0.000000 0.000000 0.000000 10.151092 -1.847397 2.798434 -1.956218 0.792633 2.568414 0.000000 0.000000 0.000000 8.646510 0.096949 -3.275873 -11.960309 3.035355 1.813761 0.000000 0.000000 0.000000
-2.410349 60.000000 0.427288 -4.291845 -2.158990 -6.071944 -4.291845 -2.158990 -6.071944 0.000000 0.000000 0.000000 -9.279079 -3.342240 -3.606031 5.000000 0.000000 0.000000 19.513819 1.290924 56.395177 21.512363 1.753756 -0.015791 0.000000 0.000000 0.000000 0.000000 0.000000 0.000000 5.915947 -6.787193 -20.046385 -1.077726 0.355584 -1.284622 0.000000 0.000000 0.000000 0.000000 0.000000 0.000000 12.927467 -2.410140 3.026250 -1.329442 0.378477 1.361700 0.000000 0.000000 0.000000 3.622436 0.005785 -2.273463 -8.678583 2.189597 1.546027 0.000000 0.000000 0.000000
-2.842812 60.000000 -0.367926 -4.154148 -1.500974 -4.408449 -4.154148 -1.500974 -4.408449 0.000000 0.000000 0.000000 -6.976991 -3.914752 -4.038670 5.000000 0.000000 0.000000 15.683467 1.831708 57.587328 19.516138 -0.277898 3.015150 0.000000 0.000000 0.000000 0.000000 0.000000 0.000000 10.714731 -9.031748 -24.595097 -0.257892 0.011532 -0.021154 0.000000 0.000000 0.000000 0.000000 0.000000 0.000000 14.128178 -2.729970 3.986408 -2.089958 -0.185908 -0.022618 0.000000 0.000000 0.000000 -2.909981 0.107489 -2.861234 -3.889743 1.339883 2.342578 0.000000 0.000000 0.000000
-3.367976 60.000000 -0.673592 -4.045999 -0.601503 -2.155297 -4.045999 -0.601503 -2.155297 0.000000 0.000000 0.000000 -5.342956 -3.791295 -3.877415 5.000000 0.000000 0.000000 8.724158 2.930834 58.987533 12.957008 -2.307833 6.276177 0.000000 0.000000 0.000000 0.000000 0.000000 0.000000 14.259400 -10.097195 -24.944711 1.750834 -0.391230 1.009999 0.000000 0.000000 0.000000 0.000000 0.000000 0.000000 15.250565 -3.016162 4.577354 -1.893287 -0.438656 -0.759141 0.000000 0.000000 0.000000 -4.273516 0.112893 -2.738436 -1.832791 0.821688 2.095701 0.000000 0.000000 0.000000
-3.796679 60.000000 -0.452687 -4.831125 0.184882 -0.301225 -4.831125 0.184882 -0.301225 0.000000 0.000000 0.000000 -2.909369 -2.642562 -2.728673 5.000000 0.000000 0.000000 1.967280 4.078076 58.723120 6.257045 -3.416813 8.458365 0.000000 0.000000 0.000000 0.000000 0.000000 0.000000 15.916510 -10.487275 -23.863422 4.220728 -0.696361 1.383436 0.000000 0.000000 0.000000 0.000000 0.000000 0.000000 11.453562 -2.229760 4.728636 -2.861237 -0.242801 -0.055149 0.000000 0.000000 0.000000 -6.242612 0.126791 -2.778750 0.636914 0.236779 1.915506 0.000000 0.000000 0.000000
-4.083928 60.000000 -0.475114 -6.123182 0.672769 0.700088 -6.123182 0.672769 0.700088 0.000000 0.000000 0.000000 -0.632202 -1.327143 -1.357478 5.000000 0.000000 0.000000 -0.806102 4.452754 57.125255 6.733091 -3.694752 9.076081 0.000000 0.000000 0.000000 0.000000 0.000000 0.000000 17.142809 -10.800292 -23.206419 6.415657 -0.851427 1.269978 0.000000 0.000000 0.000000 0.000000 0.000000 0.000000 5.029647 -0.811218 4.915235 -3.861293 0.267654 1.521680 0.000000 0.000000 0.000000 -4.965230 0.126786 -2.269650 -0.028835 0.321079 1.595083 0.000000 0.000000 0.000000
-4.394682 60.000000 -0.909890 -6.360552 0.785673 0.929449 -6.360552 0.785673 0.929449 0.000000 0.000000 0.000000 -0.382309 0.012720 -0.022621 5.000000 0.000000 0.000000 -0.535910 4.313877 55.931405 7.138929 -3.784744 9.261074 0.000000 0.000000 0.000000 0.000000 0.000000 0.000000 15.926979 -10.393365 -22.554884 6.106825 -0.772228 1.096707 0.000000 0.000000 0.000000 0.000000 0.000000 0.000000 2.909856 -0.362557 7.102408 -1.023968 0.412135 1.384744 0.000000 0.000000 0.000000 -4.716270 0.128009 -1.800459 0.157002 0.432142 2.363500 0.000000 0.000000 0.000000
-4.725239 60.000000 -1.324811 -7.093107 0.757582 0.738840 -7.093107 0.757582 0.738840 0.000000 0.000000 0.000000 -0.514119 0.786403 0.728417 5.000000 0.000000 0.000000 -0.314501 4.187472 54.756134 6.593459 -3.735257 9.178142 0.000000 0.000000 0.000000 0.000000 0.000000 0.000000 13.540003 -9.647127 -22.254475 4.785529 -0.605297 0.911785 0.000000 0.000000 0.000000 0.000000 0.000000 0.000000 6.151763 -1.118166 7.524302 1.512464 0.826653 2.016289 0.000000 0.000000 0.000000 -4.460705 0.129182 -1.199508 0.345804 0.547879 3.166948 0.000000 0.000000 0.000000
-4.986679 60.000000 -1.655415 -7.700285 0.748808 0.617478 -7.700285 0.748808 0.617478 0.000000 0.000000 0.000000 -0.397689 1.433083 1.377026 5.000000 0.000000 0.000000 -0.445867 4.052092 52.766015 6.189869 -3.722544 9.171004 0.000000 0.000000 0.000000 0.000000 0.000000 0.000000 13.150423 -9.521562 -22.190670 4.987467 -0.570936 0.742545 0.000000 0.000000 0.000000 0.000000 0.000000 0.000000 10.642821 -2.156093 7.412227 4.085392 0.845414 1.575082 0.000000 0.000000 0.000000 -4.395553 0.128502 -1.110502 0.407558 0.587745 3.442750 0.000000 0.000000 0.000000
-5.161937 60.000000 -1.785310 -7.815058 0.788882 0.690986 -7.815058 0.788882 0.690986 0.000000 0.000000 0.000000 -0.280451 1.786175 1.738001 5.000000 0.000000 0.000000 -0.276484 3.830395 50.101171 6.131919 -3.787192 9.323977 0.000000 0.000000 0.000000 0.000000 0.000000 0.000000 13.377670 -9.590178 -22.176069 6.124469 -0.635446 0.656465 0.000000 0.000000 0.000000 0.000000 0.000000 0.000000 16.192858 -3.396073 6.432595 2.454483 0.842869 1.922833 0.000000 0.000000 0.000000 -4.487408 0.130281 -1.145709 0.292025 0.628079 3.509286 0.000000 0.000000 0.000000
-5.533271 60.000000 -2.192956 -7.658805 0.815067 0.776853 -7.658805 0.815067 0.776853 0.000000 0.000000 0.000000 -0.310066 1.918394 1.864751 5.000000 0.000000 0.000000 0.069001 3.569508 47.030873 6.004655 -3.825590 9.418460 0.000000 0.000000 0.000000 0.000000 0.000000 0.000000 13.290806 -9.531483 -21.823591 6.969013 -0.678727 0.580436 0.000000 0.000000 0.000000 0.000000 0.000000 0.000000 19.133767 -4.037849 6.136487 3.776726 0.892168 1.807398 0.000000 0.000000 0.000000 -4.898952 0.139926 -1.053368 -0.149498 0.769217 3.695263 0.000000 0.000000 0.000000
-6.147930 60.000000 -3.158486 -7.416773 0.844489 0.885582 -7.416773 0.844489 0.885582 0.000000 0.000000 0.000000 -0.419417 1.860199 1.794271 5.000000 0.000000 0.000000 0.503603 3.355869 44.232304 5.997428 -3.553864 8.826321 0.000000 0.000000 0.000000 0.000000 0.000000 0.000000 13.277400 -9.469951 -21.296446 7.579717 -0.711415 0.529873 0.000000 0.000000 0.000000 0.000000 0.000000 0.000000 19.295538 -4.065017 6.060443 3.480705 0.851576 1.742422 0.000000 0.000000 0.000000 -5.577726 0.156273 -0.960910 -0.856975 0.974525 3.878826 0.000000 0.000000 0.000000
-6.894714 60.000000 -4.147693 -6.739291 0.851542 1.019537 -6.739291 0.851542 1.019537 0.000000 0.000000 0.000000 -0.377781 1.726549 1.667246 5.000000 0.000000 0.000000 1.899539 3.128762 40.213646 7.919650 -2.745574 7.094060 0.000000 0.000000 0.000000 0.000000 0.000000 0.000000 12.182894 -8.868809 -19.216083 6.712323 -0.586807 0.342619 0.000000 0.000000 0.000000 0.000000 0.000000 0.000000 17.732445 -3.719218 6.144969 2.534426 0.817665 1.833393 0.000000 0.000000 0.000000 -6.546353 0.180613 -0.866656 -1.728380 1.189505 3.911388 0.000000 0.000000 0.000000
-7.396072 60.000000 -4.853540 -5.249502 0.798416 1.157222 -5.249502 0.798416 1.157222 0.000000 0.000000 0.000000 0.099064 1.550900 1.549281 5.000000 0.000000 0.000000 4.946854 2.894254 32.969545 12.486503 -1.371986 4.253174 0.000000 0.000000 0.000000 0.000000 0.000000 0.000000 9.301352 -7.275782 -14.916904 5.309428 -0.386877 0.033389 0.000000 0.000000 0.000000 0.000000 0.000000 0.000000 14.964057 -3.095339 6.158568 2.681476 0.995397 2.350838 0.000000 0.000000 0.000000 -6.975795 0.197889 -0.599156 -1.868975 1.237125 3.976463 0.000000 0.000000 0.000000
-7.600327 60.000000 -5.222134 -3.615435 0.697045 1.205888 -3.615435 0.697045 1.205888 0.000000 0.000000 0.000000 0.737286 1.430828 1.504609 5.000000 0.000000 0.000000 6.704111 2.697678 22.960697 11.656003 -0.234761 1.973907 0.000000 0.000000 0.000000 0.000000 0.000000 0.000000 6.942902 -5.174241 -8.128938 5.169069 -0.306303 -0.213428 0.000000 0.000000 0.000000 0.000000 0.000000 0.000000 9.705144 -1.907263 6.240748 3.434076 1.270113 3.033064 0.000000 0.000000 0.000000 -6.943040 0.211263 -0.110366 -1.480390 1.180586 4.147048 0.000000 0.000000 0.000000
-7.572519 60.000000 -5.265905 -3.252079 0.641789 1.134075 -3.252079 0.641789 1.134075 0.000000 0.000000 0.000000 1.363240 1.620304 1.768931 5.000000 0.000000 0.000000 5.114344 2.143490 13.855711 6.977412 0.200827 0.553601 0.000000 0.000000 0.000000 0.000000 0.000000 0.000000 4.502815 -2.653191 -0.560089 3.165774 -0.248040 0.109872 0.000000 0.000000 0.000000 0.000000 0.000000 0.000000 2.885125 -0.269541 6.664929 5.072588 1.295693 2.692367 0.000000 0.000000 0.000000 -7.033337 0.233786 0.551550 -1.547501 1.224636 4.276504 0.000000 0.000000 0.000000
-7.559046 60.000000 -4.798245 -3.573345 0.727099 1.291068 -3.573345 0.727099 1.291068 0.000000 0.000000 0.000000 1.657101 1.914376 2.103753 5.000000 0.000000 0.000000 2.360486 1.046912 4.877261 0.036702 0.243034 -0.592136 0.000000 0.000000 0.000000 0.000000 0.000000 0.000000 4.901423 -1.940184 3.834993 1.529217 -0.445541 1.345845 0.000000 0.000000 0.000000 0.000000 0.000000 0.000000 -4.323417 1.527337 8.944760 9.213860 0.965253 0.660183 0.000000 0.000000 0.000000 -7.259962 0.244575 0.642743 -1.743002 1.250320 4.175636 0.000000 0.000000 0.000000
-7.724221 60.000000 -4.229643 -3.624498 0.832073 1.548670 -3.624498 0.832073 1.548670 0.000000 0.000000 0.000000 2.122548 1.954732 2.203318 5.000000 0.000000 0.000000 0.026315 -0.165141 -1.789220 -3.917747 0.297777 -1.451298 0.000000 0.000000 0.000000 0.000000 0.000000 0.000000 4.371722 -1.613634 3.845557 -0.445345 -0.539820 2.356473 0.000000 0.000000 0.000000 0.000000 0.000000 0.000000 -7.421651 2.314946 9.021980 8.945044 0.961333 0.607593 0.000000 0.000000 0.000000 -7.379178 0.242398 0.441676 -1.922444 1.253605 3.993459 0.000000 0.000000 0.000000
-8.058597 60.000000 -3.671116 -3.694879 0.868591 1.627183 -3.694879 0.868591 1.627183 0.000000 0.000000 0.000000 2.046607 1.896801 2.134652 5.000000 0.000000 0.000000 -1.836125 -1.163556 -4.929768 -3.671448 0.508415 -1.919399 0.000000 0.000000 0.000000 0.000000 0.000000 0.000000 2.993768 -0.653542 4.383755 -0.501694 -0.646299 2.796370 0.000000 0.000000 0.000000 0.000000 0.000000 0.000000 -6.043378 1.779873 7.474154 3.398450 1.045164 2.356618 0.000000 0.000000 0.000000 -8.134750 0.262674 0.259550 -2.699502 1.409923 3.856707 0.000000 0.000000 0.000000
-8.391945 60.000000 -3.300905 -4.640785 0.921682 1.573633 -4.640785 0.921682 1.573633 0.000000 0.000000 0.000000 0.357751 2.006232 2.033211 5.000000 0.000000 0.000000 -4.276715 -2.165203 -4.989790 -3.657784 0.472882 -1.831845 0.000000 0.000000 0.000000 0.000000 0.000000 0.000000 2.316693 -0.088424 4.947745 -0.601650 -0.704655 3.063970 0.000000 0.000000 0.000000 0.000000 0.000000 0.000000 -7.868001 2.196456 7.276460 2.025895 1.105551 2.804475 0.000000 0.000000 0.000000 -9.398210 0.307368 0.333843 -3.774534 1.674321 3.882512 0.000000 0.000000 0.000000
-8.569355 60.000000 -3.165608 -5.433871 0.970260 1.539492 -5.433871 0.970260 1.539492 0.000000 0.000000 0.000000 -0.665641 2.115105 2.014226 5.000000 0.000000 0.000000 -5.815129 -2.743259 -4.616960 -3.114221 0.463452 -1.688687 0.000000 0.000000 0.000000 0.000000 0.000000 0.000000 1.320792 0.865128 6.227135 -1.036133 -0.709500 3.260149 0.000000 0.000000 0.000000 0.000000 0.000000 0.000000 -7.099704 2.036211 7.484556 3.020992 1.312966 3.264602 0.000000 0.000000 0.000000 -8.828679 0.281053 0.189354 -3.107104 1.585232 4.192635 0.000000 0.000000 0.000000
-8.591564 60.000000 -3.168716 -5.147740 0.951880 1.549625 -5.147740 0.951880 1.549625 0.000000 0.000000 0.000000 -0.491782 2.109338 2.029971 5.000000 0.000000 0.000000 -5.276173 -2.373410 -3.535700 -3.811359 0.373443 -1.620590 0.000000 0.000000 0.000000 0.000000 0.000000 0.000000 0.988684 1.300177 7.041591 -1.623809 -0.700281 3.467335 0.000000 0.000000 0.000000 0.000000 0.000000 0.000000 -6.013002 1.796825 7.682000 3.969692 1.367766 3.279106 0.000000 0.000000 0.000000 -7.503365 0.236195 0.201776 -1.887321 1.320285 4.331762 0.000000 0.000000 0.000000
-8.461438 60.000000 -3.179422 -4.144320 0.885305 1.579859 -4.144320 0.885305 1.579859 0.000000 0.000000 0.000000 0.604075 2.013695 2.070829 5.000000 0.000000 0.000000 -4.586049 -1.995753 -2.719463 -3.908731 0.325436 -1.524052 0.000000 0.000000 0.000000 0.000000 0.000000 0.000000 0.624607 1.567190 7.148017 -1.772776 -0.679255 3.447693 0.000000 0.000000 0.000000 0.000000 0.000000 0.000000 -5.521170 1.677457 7.672880 4.385838 1.363092 3.195433 0.000000 0.000000 0.000000 -5.554917 0.178523 0.427287 -0.021719 0.857326 4.286535 0.000000 0.000000 0.000000
-8.348035 60.000000 -3.577805 -2.699152 0.782649 1.606194 -2.699152 0.782649 1.606194 0.000000 0.000000 0.000000 1.580022 1.857791 2.036192 5.000000 0.000000 0.000000 -3.426540 -1.473745 -2.120462 -2.986963 0.413329 -1.541049 0.000000 0.000000 0.000000 0.000000 0.000000 0.000000 0.960662 1.288975 6.939812 -1.374404 -0.712487 3.412208 0.000000 0.000000 0.000000 0.000000 0.000000 0.000000 -5.242977 1.598523 7.548482 4.690669 1.410216 3.296696 0.000000 0.000000 0.000000 -5.095922 0.162369 0.423097 0.292879 0.742408 4.093124 0.000000 0.000000 0.000000
-8.366826 60.000000 -4.469293 -1.249724 0.667758 1.598253 -1.249724 0.667758 1.598253 0.000000 0.000000 0.000000 1.687627 1.865605 2.057344 5.000000 0.000000 0.000000 -2.550196 -1.147008 -2.179449 -1.823112 0.521262 -1.555047 0.000000 0.000000 0.000000 0.000000 0.000000 0.000000 1.299676 1.138311 7.194888 -0.694720 -0.737482 3.227304 0.000000 0.000000 0.000000 0.000000 0.000000 0.000000 -4.833261 1.495726 7.500330 5.138720 1.458498 3.379281 0.000000 0.000000 0.000000 -5.438365 0.169643 0.205968 -0.151035 0.798483 3.846539 0.000000 0.000000 0.000000
-8.467914 60.000000 -5.597922 0.153947 0.508066 1.449382 0.153947 0.508066 1.449382 0.000000 0.000000 0.000000 1.468727 2.035412 2.203054 5.000000 0.000000 0.000000 -2.530269 -1.187648 -2.613535 -1.151151 0.536854 -1.452651 0.000000 0.000000 0.000000 0.000000 0.000000 0.000000 0.672091 1.584028 7.321778 -0.659485 -0.684462 3.005004 0.000000 0.000000 0.000000 0.000000 0.000000 0.000000 -4.380577 1.385976 7.487940 5.597926 1.449695 3.276962 0.000000 0.000000 0.000000 -6.392475 0.193174 -0.160108 -1.164541 0.985619 3.587360 0.000000 0.000000 0.000000
-8.512493 60.000000 -6.175658 1.259161 0.278804 1.023479 1.259161 0.278804 1.023479 0.000000 0.000000 0.000000 1.715202 2.396355 2.604501 5.000000 0.000000 0.000000 -2.804968 -1.340637 -3.043013 -1.750066 0.468850 -1.417544 0.000000 0.000000 0.000000 0.000000 0.000000 0.000000 0.351640 1.702441 6.990352 -1.286066 -0.574846 2.824393 0.000000 0.000000 0.000000 0.000000 0.000000 0.000000 -4.121010 1.327341 7.527254 5.480161 1.244366 2.638946 0.000000 0.000000 0.000000 -6.788941 0.192760 -0.548973 -1.577448 1.011106 3.259270 0.000000 0.000000 0.000000
