HIERARCHY
ROOT Hips
{
  OFFSET 0.000000 0.000000 0.000000
  CHANNELS 6 Xposition Yposition Zposition Xrotation Yrotation Zrotation
  JOINT Spine
  {
    OFFSET 1.388230 -22.849755 -8.157144
    CHANNELS 3 Xrotation Yrotation Zrotation
    JOINT Chest
    {
      OFFSET 1.388230 -22.849755 -8.157144
      CHANNELS 3 Xrotation Yrotation Zrotation
      JOINT Neck
      {
        OFFSET 0.773124 -16.996889 -7.380814
        CHANNELS 3 Xrotation Yrotation Zrotation
        JOINT Head
        {
          OFFSET 0.829046 3.305784 -11.271278
          CHANNELS 3 Xrotation Yrotation Zrotation
          End Site
          {
            OFFSET 0.0 5.0 2.0
          }
        }
      }
      JOINT LeftShoulder
      {
        OFFSET 17.248308 1.208605 -0.261267
        CHANNELS 3 Xrotation Yrotation Zrotation
        JOINT LeftArm
        {
          OFFSET 7.635523 21.435821 1.774202
          CHANNELS 3 Xrotation Yrotation Zrotation
          JOINT LeftForeArm
          {
            OFFSET 7.643843 21.327462 -9.147581
            CHANNELS 3 Xrotation Yrotation Zrotation
            JOINT LeftHand
            {
              OFFSET 0.209327 5.896815 -2.586139
              CHANNELS 3 Xrotation Yrotation Zrotation
              End Site
              {
                OFFSET -3.0 0.0 2.0
              }
            }
          }
        }
      }
      JOINT RightShoulder
      {
        OFFSET -17.248308 -1.208605 0.261267
        CHANNELS 3 Xrotation Yrotation Zrotation
        JOINT RightArm
        {
          OFFSET -12.133127 21.363330 5.693170
          CHANNELS 3 Xrotation Yrotation Zrotation
          JOINT RightForeArm
          {
            OFFSET -7.740244 22.047532 -5.230031
            CHANNELS 3 Xrotation Yrotation Zrotation
            JOINT RightHand
            {
              OFFSET -0.130476 6.134634 -1.903036
              CHANNELS 3 Xrotation Yrotation Zrotation
              End Site
              {
                OFFSET 3.0 0.0 2.0
              }
            }
          }
        }
      }
    }
  }
  JOINT LeftUpLeg
  {
    OFFSET 11.699587 0.675443 -0.599665
    CHANNELS 3 Xrotation Yrotation Zrotation
    JOINT LeftLeg
    {
      OFFSET -6.527727 38.483662 2.000000
      CHANNELS 3 Xrotation Yrotation Zrotation
      JOINT LeftFoot
      {
        OFFSET 2.208129 30.668512 15.986089
        CHANNELS 3 Xrotation Yrotation Zrotation
        JOINT LeftToeBase
        {
          OFFSET 1.893679 11.141187 -10.580111
          CHANNELS 3 Xrotation Yrotation Zrotation
          End Site
          {
            OFFSET 0.0 -1.0 3.0
          }
        }
      }
    }
  }
  JOINT RightUpLeg
  {
    OFFSET -11.699587 -0.675443 0.599665
    CHANNELS 3 Xrotation Yrotation Zrotation
    JOINT RightLeg
    {
      OFFSET -1.173808 37.981520 2.000000
      CHANNELS 3 Xrotation Yrotation Zrotation
      JOINT RightFoot
      {
        OFFSET -5.080520 34.540695 11.520179
        CHANNELS 3 Xrotation Yrotation Zrotation
        JOINT RightToeBase
        {
          OFFSET -7.496841 8.997232 -11.583195
          CHANNELS 3 Xrotation Yrotation Zrotation
          End Site
          {
            OFFSET 0.0 -1.0 3.0
          }
        }
      }
    }
  }
}
MOTION
Frames: 82
Frame Time: 0.066260
0.000000 0.000000 0.000000 0.000000 0.000000 0.000000 0.000000 0.000000 0.000000 0.000000 0.000000 0.000000 0.000000 0.000000 0.000000 0.000000 0.000000 0.000000 0.000000 0.000000 0.000000 0.000000 0.000000 0.000000 0.000000 0.000000 0.000000 0.000000 0.000000 0.000000 0.000000 0.000000 0.000000 0.000000 0.000000 0.000000 0.000000 0.000000 0.000000 0.000000 0.000000 0.000000 -0.379081 -0.064300 0.000213 0.000000 0.000000 0.000000 86.172215 -9.625316 -9.005483 0.000000 0.000000 0.000000 -4.834565 -0.149233 0.006300 0.000000 0.000000 0.000000 89.180227 39.799485 39.277610 0.000000 0.000000 0.000000
0.000000 0.000000 0.000000 0.089041 -1.826715 -0.467869 1.509518 0.073159 0.051054 0.267329 -3.475882 -1.534823 -0.698477 -0.880183 -0.303795 0.000000 0.000000 0.000000 0.054928 0.069038 -1.067026 -1.363370 -1.024571 -3.445063 -2.656519 -1.542165 -3.512847 0.000000 0.000000 0.000000 -5.015563 -2.669208 -0.713804 -6.405752 -2.915169 -2.071464 -6.586535 -1.093237 -2.536608 0.000000 0.000000 0.000000 4.210263 0.944188 -2.528553 0.315217 0.449625 -0.900607 83.391049 -9.940634 -23.410770 0.000000 0.000000 0.000000 4.845314 0.111032 0.411046 6.323477 1.255706 -0.772497 86.164526 39.594422 30.228700 0.000000 0.000000 0.000000
0.000000 0.000000 0.000000 0.128917 -2.658355 -0.883819 3.030112 0.221904 -0.093005 0.343667 -4.087613 -2.743607 -1.689610 -2.457534 -0.806701 0.000000 0.000000 0.000000 1.534390 -0.417737 -1.326801 -2.386880 -1.134015 -4.434193 -4.670774 -2.299225 -5.061726 0.000000 0.000000 0.000000 -5.120489 -2.676613 -0.964328 -6.850222 -3.032893 -1.901995 -7.686659 -1.151382 -2.551701 0.000000 0.000000 0.000000 6.604432 1.555669 -3.835185 1.634296 0.804723 -1.712791 83.632900 -9.961074 -25.569366 0.000000 0.000000 0.000000 7.572186 0.127926 0.899107 7.403237 1.592306 -1.168197 86.705052 39.612735 29.126523 0.000000 0.000000 0.000000
0.000000 0.000000 0.000000 0.173783 -3.444435 -1.203701 2.978309 0.278651 -0.248160 0.329524 -3.866807 -3.098592 -1.915426 -3.535840 -1.116165 0.000000 0.000000 0.000000 1.267350 -0.251535 -2.115265 -2.087577 -1.636869 -5.363522 -4.196210 -2.547955 -5.595029 0.000000 0.000000 0.000000 -5.028556 -2.691113 -0.643541 -5.435179 -2.054439 -0.419133 -6.638086 -0.431359 -0.766403 0.000000 0.000000 0.000000 5.334361 1.372054 -4.603650 0.528882 0.459973 -0.945502 83.956661 -9.874402 -23.301400 0.000000 0.000000 0.000000 6.007229 0.121671 0.613214 5.385020 1.312923 -1.307325 86.874329 39.589427 26.825392 0.000000 0.000000 0.000000
0.000000 0.000000 0.000000 0.197565 -3.868813 -1.508248 3.484046 0.352566 -0.353469 0.321743 -3.672930 -3.746415 -2.520227 -4.090903 -1.290729 0.000000 0.000000 0.000000 0.385246 0.071599 -2.430219 -2.006762 -1.537806 -5.081753 -4.515628 -2.289953 -5.048321 0.000000 0.000000 0.000000 -5.833267 -3.361122 0.462156 -5.869494 -1.361883 2.449707 -7.049313 0.593178 1.969069 0.000000 0.000000 0.000000 4.670533 1.273339 -5.047916 -0.122781 0.611761 -1.160541 84.107723 -9.877954 -24.441909 0.000000 0.000000 0.000000 5.444761 0.122070 0.465194 4.728016 1.346201 -1.678066 86.597761 39.549044 25.967114 0.000000 0.000000 0.000000
0.000000 0.000000 0.000000 0.219870 -4.233516 -1.767281 4.294029 0.508098 -0.608726 0.377143 -4.149352 -4.037049 -2.561912 -4.699311 -1.457141 0.000000 0.000000 0.000000 0.662436 0.005490 -2.726777 -2.202792 -1.649563 -5.471656 -4.927171 -2.794009 -6.061952 0.000000 0.000000 0.000000 -5.770705 -3.347763 0.568917 -6.041674 -1.230754 3.088955 -7.798314 0.812324 2.541171 0.000000 0.000000 0.000000 4.493872 1.248528 -5.190966 -0.325140 0.673554 -1.257007 84.548246 -9.808032 -23.310694 0.000000 0.000000 0.000000 5.616564 0.145800 0.278075 4.995052 1.459402 -1.854831 86.246064 39.506399 25.546196 0.000000 0.000000 0.000000
0.000000 0.000000 0.000000 0.224680 -4.303312 -1.791077 5.660102 0.848471 -1.202674 0.338429 -3.881000 -3.494408 -3.039191 -4.123575 -1.317276 0.000000 0.000000 0.000000 1.103230 -0.221962 -1.839016 -5.106914 -2.127516 -8.378731 -8.241943 -5.630653 -11.263571 0.000000 0.000000 0.000000 -5.184420 -3.441513 2.632916 -6.789828 -1.723951 2.274845 -8.683638 0.642163 2.103528 0.000000 0.000000 0.000000 4.445242 1.218191 -4.980228 1.215833 0.490277 -1.081906 85.638740 -9.678332 -21.799899 0.000000 0.000000 0.000000 5.903559 0.149014 0.326100 6.686844 1.739726 -1.829695 86.740222 39.568394 26.297414 0.000000 0.000000 0.000000
0.000000 0.000000 0.000000 0.323749 -5.646790 -1.878407 4.826423 0.785083 -1.201012 0.483828 -5.367359 -3.344168 -2.770414 -3.931402 -1.256426 0.000000 0.000000 0.000000 4.074736 -1.157137 -2.445766 -8.877133 -7.558056 -21.499913 -14.355052 -15.587657 -26.889062 0.000000 0.000000 0.000000 -7.331137 -4.668730 3.243932 -9.256418 -2.870922 1.346756 -9.578542 0.439309 1.604539 0.000000 0.000000 0.000000 3.262842 1.026490 -5.745927 0.849024 0.614603 -1.274592 86.563155 -9.587398 -21.523816 0.000000 0.000000 0.000000 5.191847 0.124900 0.366838 6.553186 1.735289 -1.876001 85.568381 39.415247 24.608701 0.000000 0.000000 0.000000
0.000000 0.000000 0.000000 0.448123 -7.267986 -2.123533 5.420788 0.819867 -1.177037 0.712465 -7.692203 -3.273083 -2.088102 -3.696227 -1.167165 0.000000 0.000000 0.000000 7.398041 -1.365504 -8.428605 -12.089790 -15.623748 -38.357881 -19.815689 -28.377316 -43.268492 0.000000 0.000000 0.000000 -12.313117 -7.161991 2.902360 -12.371312 -4.593832 -0.327973 -9.827218 0.097621 0.768720 0.000000 0.000000 0.000000 3.914771 1.175039 -5.783266 4.134145 0.523630 -1.456910 85.017294 -9.724269 -20.221857 0.000000 0.000000 0.000000 5.261772 0.133565 0.298920 7.112131 1.802556 -1.803659 86.217651 39.449404 22.886718 0.000000 0.000000 0.000000
0.000000 0.000000 0.000000 0.491157 -7.823712 -2.132629 5.850934 0.621932 -0.623883 0.752268 -8.760626 -2.201886 -2.323708 -2.370170 -0.814499 0.000000 0.000000 0.000000 4.147724 1.242226 -23.273295 -17.559937 -23.682792 -52.591852 -24.648076 -38.615361 -53.446905 0.000000 0.000000 0.000000 -12.531300 -7.346716 3.546028 -9.638933 -4.264707 -2.358854 -5.150782 -0.076230 0.097008 0.000000 0.000000 0.000000 3.550773 1.173766 -6.714896 3.332601 0.306413 -0.984762 84.237877 -9.811537 -21.443428 0.000000 0.000000 0.000000 3.465565 0.129173 -0.263216 8.054218 1.862046 -1.554972 86.819598 39.524009 23.090151 0.000000 0.000000 0.000000
0.000000 0.000000 0.000000 0.486023 -7.767415 -2.086427 7.316646 0.390356 0.151205 0.698807 -8.553769 -1.623777 -3.029816 -0.391009 -0.324808 0.000000 0.000000 0.000000 -2.345843 3.047554 -40.246831 -18.066660 -29.670343 -63.286689 -20.578773 -44.974297 -65.235135 0.000000 0.000000 0.000000 -9.276063 -5.732067 3.701428 -6.161244 -3.403840 -3.966530 -6.447556 -0.397723 -0.691459 0.000000 0.000000 0.000000 3.957745 1.251949 -6.535004 3.867849 0.290101 -1.015740 82.875766 -9.923658 -20.778827 0.000000 0.000000 0.000000 4.964705 0.208079 -0.562897 9.175360 2.085981 -1.627726 83.780067 39.093473 21.122735 0.000000 0.000000 0.000000
0.000000 0.000000 0.000000 0.458452 -7.423252 -2.005248 6.785647 0.288036 0.314103 0.674597 -7.847299 -2.286948 -3.293273 -0.083278 -0.262134 0.000000 0.000000 0.000000 -0.926336 3.957510 -53.868956 -16.756097 -27.725505 -60.419331 -12.576052 -40.054874 -66.427138 0.000000 0.000000 0.000000 -8.421554 -5.340349 3.950160 -7.663097 -3.900438 -3.622614 0.854907 0.031704 0.044902 0.000000 0.000000 0.000000 4.935580 1.462105 -6.382236 3.063267 0.362865 -1.055928 83.870776 -9.831274 -20.662078 0.000000 0.000000 0.000000 4.841251 0.289654 -1.466142 8.676650 1.931171 -1.465954 85.188217 39.349478 23.693066 0.000000 0.000000 0.000000
0.000000 0.000000 0.000000 0.443868 -7.283639 -1.692547 6.378814 0.049724 0.821831 0.709558 -7.477186 -3.636664 -3.377630 -0.509472 -0.379753 0.000000 0.000000 0.000000 -0.149771 4.854257 -64.566632 -8.944413 -25.032219 -59.136220 -7.085346 -34.054672 -63.017874 0.000000 0.000000 0.000000 -8.104480 -5.390627 5.241003 -7.224113 -3.628345 -3.324248 -0.949433 -0.010122 0.031703 0.000000 0.000000 0.000000 0.702254 0.533779 -7.029751 -3.076552 1.047732 -1.702917 89.417327 -9.343216 -20.358249 0.000000 0.000000 0.000000 2.426215 0.261599 -2.520651 6.135801 1.519322 -1.513478 88.341485 39.719564 26.195496 0.000000 0.000000 0.000000
0.000000 0.000000 0.000000 0.440635 -7.240280 -1.688092 5.619330 0.037007 0.751837 0.908654 -8.079990 -6.072272 -3.437811 -1.835871 -0.730755 0.000000 0.000000 0.000000 0.731256 5.398641 -68.640439 -6.148672 -21.815424 -53.294767 -7.938821 -28.878882 -53.627041 0.000000 0.000000 0.000000 -8.603454 -5.761887 6.060359 -5.765410 -3.041522 -3.300359 -1.268139 -0.492117 -1.442056 0.000000 0.000000 0.000000 -0.676799 0.231517 -7.453726 -4.549812 1.464359 -2.427818 91.250524 -9.233641 -19.222503 0.000000 0.000000 0.000000 -0.353626 0.139700 -3.036079 3.032914 1.002919 -1.516385 92.663701 40.044893 29.833419 0.000000 0.000000 0.000000
0.000000 0.000000 0.000000 0.439287 -7.174858 -1.982181 5.627519 0.134679 0.516617 0.960406 -7.549040 -8.343669 -3.466999 -3.108352 -1.065512 0.000000 0.000000 0.000000 -0.164997 4.982207 -66.300956 -7.119408 -15.803423 -39.250119 -10.090577 -20.179990 -37.004530 0.000000 0.000000 0.000000 -7.822571 -5.590276 7.308302 -4.099344 -2.320998 -3.075958 1.668374 -0.033919 -0.235269 0.000000 0.000000 0.000000 2.606739 1.011387 -7.441411 -4.433773 1.417972 -2.340095 93.939084 -9.002316 -19.567199 0.000000 0.000000 0.000000 -0.000359 0.152214 -2.888181 3.400431 1.072109 -1.539243 91.553305 39.985357 28.671024 0.000000 0.000000 0.000000
0.000000 0.000000 0.000000 0.418715 -6.876906 -2.204440 5.341650 0.253454 0.187065 1.059241 -7.535504 -10.281583 -2.956536 -4.927075 -1.529424 0.000000 0.000000 0.000000 0.437224 4.969662 -64.343126 -4.104010 -13.116809 -33.145720 -4.960312 -19.713882 -39.754300 0.000000 0.000000 0.000000 -7.585710 -5.596442 8.020468 -2.432240 -1.740119 -3.325646 2.733742 -0.008526 -0.233080 0.000000 0.000000 0.000000 3.525831 1.229469 -7.430848 -4.309051 1.424987 -2.366600 95.133476 -8.947219 -19.038630 0.000000 0.000000 0.000000 0.131134 0.152364 -2.753840 3.273405 1.085293 -1.632315 91.104265 39.954453 28.345436 0.000000 0.000000 0.000000
0.000000 0.000000 0.000000 0.383815 -6.416048 -2.388364 4.971991 0.643636 -0.826952 1.216626 -7.990853 -11.764241 -1.250866 -7.169754 -2.121967 0.000000 0.000000 0.000000 3.000903 4.962716 -58.681128 -6.887777 -11.865720 -30.409969 -0.525049 -6.515062 -14.716169 0.000000 0.000000 0.000000 -7.560872 -5.348813 6.586578 -2.258307 -1.685395 -3.374611 2.541594 0.012224 -0.144976 0.000000 0.000000 0.000000 4.433350 1.327860 -6.177650 -2.691241 1.853156 -3.386460 93.539061 -9.092608 -18.658930 0.000000 0.000000 0.000000 0.913668 0.157327 -2.126291 2.496170 1.095821 -2.020089 90.065940 39.871799 28.189110 0.000000 0.000000 0.000000
0.000000 0.000000 0.000000 0.328863 -5.723856 -2.463286 5.339907 0.893069 -1.369804 1.033867 -7.061117 -11.355023 2.532974 -4.749775 -1.325177 0.000000 0.000000 0.000000 2.147888 4.496814 -55.323125 -0.668768 -2.832347 -7.188537 0.089308 -2.272258 -5.190353 0.000000 0.000000 0.000000 -7.395880 -4.953462 4.710642 -2.199061 -1.481722 -2.693281 1.592960 0.288691 0.864283 0.000000 0.000000 0.000000 4.572283 1.333120 -5.901489 -3.547408 1.913661 -3.452827 91.524101 -9.247086 -18.476963 0.000000 0.000000 0.000000 3.041935 0.250193 -1.965214 3.345076 1.251563 -2.050837 88.985535 39.782637 27.475796 0.000000 0.000000 0.000000
0.000000 0.000000 0.000000 0.311595 -5.510367 -2.535941 -0.586781 0.528789 -1.605486 0.204875 -2.250008 -10.185207 5.066311 -2.336264 -0.421892 0.000000 0.000000 0.000000 -2.405326 3.076163 -40.805680 -4.267728 1.234924 -0.670246 -1.663616 -0.850042 -1.995519 0.000000 0.000000 0.000000 -1.429065 -0.757113 -0.207888 -1.972041 -1.281744 -2.260829 -3.307580 0.294898 1.069565 0.000000 0.000000 0.000000 3.613609 1.120234 -5.927041 -5.065494 1.954159 -3.434202 88.977564 -9.422909 -18.654176 0.000000 0.000000 0.000000 2.467356 0.188189 -1.504582 -0.364609 0.763445 -2.468197 88.950566 39.780668 28.153789 0.000000 0.000000 0.000000
0.000000 0.000000 0.000000 0.259267 -4.856842 -2.507848 -4.512183 0.259589 -1.691617 -0.163847 0.291300 -8.049969 7.349184 -0.286928 0.447226 0.000000 0.000000 0.000000 0.598353 1.608146 -21.676275 -3.145181 -1.741416 -6.310887 -3.204033 -4.367343 -9.500585 0.000000 0.000000 0.000000 1.747750 1.653108 -2.254680 0.386292 -0.294220 -1.831917 -0.887414 0.360242 1.189846 0.000000 0.000000 0.000000 2.085045 0.770593 -5.831092 -7.450087 1.898795 -3.134147 87.828068 -9.537827 -16.421333 0.000000 0.000000 0.000000 1.351660 0.121588 -1.236470 -3.144206 0.304023 -2.510114 88.187846 39.716425 27.900250 0.000000 0.000000 0.000000
0.000000 0.000000 0.000000 0.280664 -5.125360 -2.528317 -2.857743 0.293057 -1.412695 0.196970 -2.269667 -7.902750 6.815723 -0.912366 0.183296 0.000000 0.000000 0.000000 1.100914 0.262983 -7.143955 -3.671042 -2.187829 -7.639129 -4.047800 -5.248082 -11.216152 0.000000 0.000000 0.000000 -1.473701 -0.265783 -2.260095 -0.845727 -1.660679 -5.446655 -1.831537 -1.378722 -4.081548 0.000000 0.000000 0.000000 2.096884 0.808184 -6.314101 -4.602054 1.480376 -2.457108 83.014895 -9.784710 -16.149798 0.000000 0.000000 0.000000 1.349791 0.109051 -1.043406 -1.851193 0.565212 -2.642064 87.954411 39.689001 26.956276 0.000000 0.000000 0.000000
0.000000 0.000000 0.000000 0.307554 -5.455258 -2.422411 -2.893933 -0.081319 -0.282811 0.307154 -3.307258 -5.403260 7.348296 1.330929 1.035668 0.000000 0.000000 0.000000 2.508121 -0.601344 -2.752592 -0.878558 -3.449123 -8.798588 -4.041633 -6.112207 -13.010457 0.000000 0.000000 0.000000 -3.793074 -3.062860 4.285850 -1.222792 -3.918144 -13.331216 -1.038829 -5.666762 -17.449902 0.000000 0.000000 0.000000 1.783589 0.766009 -6.732270 -4.264859 1.150240 -1.790461 80.197342 -9.919143 -15.995723 0.000000 0.000000 0.000000 1.454259 0.105534 -0.925642 -1.595223 0.641521 -2.743193 86.250287 39.489452 24.681393 0.000000 0.000000 0.000000
0.000000 0.000000 0.000000 0.308337 -5.451502 -2.113809 -2.178860 -0.199859 0.203700 0.325471 -4.220956 -1.341782 6.505032 2.067295 1.221560 0.000000 0.000000 0.000000 1.185401 -0.299273 -1.310422 -1.746874 -3.363440 -9.132444 -5.127118 -6.579618 -13.729238 0.000000 0.000000 0.000000 -4.046295 -5.685528 16.849608 -6.544709 -10.433281 -24.201808 -0.862723 -10.135647 -30.891444 0.000000 0.000000 0.000000 -2.374113 -0.193531 -6.743021 -6.947838 1.027953 -1.216847 85.108416 -9.695864 -17.984286 0.000000 0.000000 0.000000 -1.482509 -0.024979 -0.524330 -3.813447 0.175855 -2.458944 89.100002 39.793145 28.580789 0.000000 0.000000 0.000000
0.000000 0.000000 0.000000 0.313524 -5.498408 -1.600325 -1.050533 -0.249147 0.535347 0.247219 -4.261289 2.325468 6.906971 1.986108 1.231266 0.000000 0.000000 0.000000 2.423406 -0.515907 -3.300238 0.794242 -4.498360 -10.340450 -2.832679 -6.938270 -15.032307 0.000000 0.000000 0.000000 -9.135193 -9.374208 30.639034 -7.663241 -13.918992 -31.113727 0.666537 -10.398555 -33.186691 0.000000 0.000000 0.000000 -1.732021 -0.063764 -6.250601 -5.995327 0.751736 -0.726289 84.978204 -9.696399 -17.198871 0.000000 0.000000 0.000000 -2.503392 -0.079182 0.061543 -3.402687 0.238466 -2.437652 89.087690 39.791506 27.520536 0.000000 0.000000 0.000000
0.000000 0.000000 0.000000 0.327503 -5.688893 -1.447477 -0.993251 -0.261316 0.579514 0.222846 -4.197640 3.305603 5.000458 1.950274 1.037217 0.000000 0.000000 0.000000 2.840109 -0.398653 -5.639245 5.011385 -5.610504 -10.641926 1.070540 -7.043342 -16.380450 0.000000 0.000000 0.000000 -13.952510 -11.139494 38.743002 -11.099741 -18.100601 -34.582390 2.368260 -10.615095 -35.720855 0.000000 0.000000 0.000000 -2.508259 -0.236652 -6.338001 -6.037185 0.718838 -0.648459 84.028720 -9.775190 -18.401363 0.000000 0.000000 0.000000 -3.090790 -0.156294 2.378064 -2.009855 0.822015 -3.539431 87.767152 39.673989 27.151928 0.000000 0.000000 0.000000
0.000000 0.000000 0.000000 0.330973 -5.736296 -1.337360 -1.325843 -0.217044 0.397868 0.226042 -3.974417 2.675231 4.367463 3.331072 1.438647 0.000000 0.000000 0.000000 4.036844 -0.241832 -10.056470 8.187756 -6.585869 -11.413889 3.191738 -6.191809 -14.983652 0.000000 0.000000 0.000000 -15.506438 -11.622116 42.401414 -16.145073 -21.701770 -33.759949 3.646875 -14.749401 -50.097437 0.000000 0.000000 0.000000 -4.752161 -0.745914 -6.289894 -2.544718 0.554105 -0.756513 83.829573 -9.792950 -18.590700 0.000000 0.000000 0.000000 -2.926557 -0.202402 4.145212 3.429963 2.053790 -4.174148 80.113790 38.406141 17.969508 0.000000 0.000000 0.000000
0.000000 0.000000 0.000000 0.313420 -5.482490 -1.276241 -1.319606 -0.035831 -0.127939 0.207497 -3.452253 2.287015 3.813955 4.408441 1.732975 0.000000 0.000000 0.000000 3.069422 0.577548 -15.402093 6.493414 -5.616464 -9.644200 0.970048 -4.491703 -10.412517 0.000000 0.000000 0.000000 -18.113239 -12.090828 45.892613 -22.051809 -21.563155 -25.571073 1.860916 -14.922730 -47.950815 0.000000 0.000000 0.000000 -4.500767 -0.689819 -6.223738 -2.299086 0.747289 -1.177386 84.282632 -9.770008 -19.170626 0.000000 0.000000 0.000000 -2.524121 -0.242746 5.395296 4.667997 2.157013 -3.820217 78.511101 38.062221 16.749546 0.000000 0.000000 0.000000
0.000000 0.000000 0.000000 0.306716 -5.383352 -1.233930 -2.208399 0.045262 -0.532241 0.128189 -1.852503 1.511148 3.553446 4.411070 1.703271 0.000000 0.000000 0.000000 1.982505 1.248164 -20.091623 5.676373 -4.247031 -6.285879 0.605834 -3.935589 -9.064899 0.000000 0.000000 0.000000 -20.458421 -12.316041 46.329054 -23.748019 -17.935437 -17.214955 -0.229605 -13.034111 -39.871978 0.000000 0.000000 0.000000 -7.739670 -1.417945 -6.080639 -1.807004 0.717272 -1.174263 83.190347 -9.830426 -18.269903 0.000000 0.000000 0.000000 -4.526629 -0.223578 6.424086 3.656928 2.040886 -4.022862 77.583980 37.697887 14.250719 0.000000 0.000000 0.000000
0.000000 0.000000 0.000000 0.309546 -5.423218 -1.212949 -0.970441 0.169494 -0.656791 0.079944 -1.139567 0.015300 2.451460 2.163384 0.865428 0.000000 0.000000 0.000000 -1.162105 2.035226 -24.120068 7.899874 -3.975554 -3.622898 3.177370 -2.037676 -4.750721 0.000000 0.000000 0.000000 -25.341502 -12.738976 46.651413 -29.914668 -14.930677 -6.020815 -6.378170 -11.370343 -29.426485 0.000000 0.000000 0.000000 -4.059579 -0.594169 -5.976905 -0.206970 0.709889 -1.340328 81.910479 -9.896140 -17.662765 0.000000 0.000000 0.000000 -6.821180 -0.164565 6.575991 3.111488 1.432076 -2.651508 80.166632 38.296652 16.142863 0.000000 0.000000 0.000000
0.000000 0.000000 0.000000 0.306508 -5.346606 -0.707652 -1.664237 -0.246775 0.429219 -0.021663 0.164719 -0.609795 1.675716 1.505210 0.588722 0.000000 0.000000 0.000000 -3.046181 2.357865 -25.723015 5.061053 -1.554959 0.606939 1.172731 1.119143 2.719092 0.000000 0.000000 0.000000 -25.444524 -12.718783 48.073015 -35.063066 -11.260277 3.841519 -16.597575 -6.005536 -11.734121 0.000000 0.000000 0.000000 -3.449279 -0.467985 -5.501107 -1.083218 0.357415 -0.549636 85.329354 -9.662948 -15.473350 0.000000 0.000000 0.000000 -15.896502 0.100917 6.848772 -2.213631 0.325724 -2.076745 88.361016 39.693755 21.269846 0.000000 0.000000 0.000000
0.000000 0.000000 0.000000 0.264041 -4.482343 0.384090 -2.368750 -0.898891 2.267484 -0.167995 1.929135 -1.023719 1.107110 5.420133 1.723467 0.000000 0.000000 0.000000 -6.843019 2.801332 -25.853695 -2.031756 2.885402 4.684550 -1.945592 3.139458 6.668617 0.000000 0.000000 0.000000 -19.908022 -12.298494 47.467581 -32.853819 3.471486 28.349146 -31.483238 12.168505 19.861562 0.000000 0.000000 0.000000 -3.129592 -0.406805 -5.135783 -1.359239 0.050108 0.093159 89.539003 -9.533649 -13.449770 0.000000 0.000000 0.000000 -13.746089 0.104864 7.834395 -0.534540 0.495148 -1.743582 87.951937 39.641585 21.351291 0.000000 0.000000 0.000000
0.000000 0.000000 0.000000 0.244380 -3.960770 0.917682 0.135636 -0.928401 2.617150 -0.363307 3.625087 -2.326279 0.055839 4.282136 1.259365 0.000000 0.000000 0.000000 -12.423111 3.463796 -25.273884 -5.985920 4.885087 5.295699 -4.437337 3.660497 7.184604 0.000000 0.000000 0.000000 -12.220090 -11.717310 47.714453 -15.712115 12.787374 50.060803 -23.697062 25.227083 45.047600 0.000000 0.000000 0.000000 -2.794403 -0.374198 -3.677332 -0.177337 -0.176719 0.364800 90.609360 -9.591825 -11.164147 0.000000 0.000000 0.000000 -14.146447 0.243950 9.576575 -0.952490 0.052036 -0.591127 87.437290 39.551310 19.366404 0.000000 0.000000 0.000000
0.000000 0.000000 0.000000 0.236541 -3.659883 1.291957 6.156309 -0.783805 2.785253 -0.466793 3.554621 -4.686307 -2.146485 3.611412 0.827493 0.000000 0.000000 0.000000 -16.847803 4.062261 -24.395591 -6.782096 6.056005 6.842299 -4.629615 4.194336 8.225450 0.000000 0.000000 0.000000 -4.338975 -11.447421 49.819048 -10.012551 14.677341 58.587970 -17.272434 28.685342 56.792316 0.000000 0.000000 0.000000 -2.613707 -0.379249 -2.228098 0.562215 -0.529690 0.926600 90.276547 -9.644510 -9.744078 0.000000 0.000000 0.000000 -14.438135 0.236493 9.265565 -1.749509 -0.015670 -0.759179 88.006336 39.635677 19.763129 0.000000 0.000000 0.000000
0.000000 0.000000 0.000000 0.236057 -3.430288 1.773959 6.419882 -0.851018 2.966803 -0.427630 2.955596 -5.350827 -2.082138 2.820767 0.618618 0.000000 0.000000 0.000000 -16.593050 4.136724 -22.920759 -7.073351 6.458823 7.340989 -5.127188 4.219291 8.149271 0.000000 0.000000 0.000000 -4.066123 -11.575386 50.696128 -9.172879 15.078760 60.490635 -15.512552 29.516566 60.135301 0.000000 0.000000 0.000000 -2.821921 -0.436584 -1.558959 -0.614303 -0.544877 1.144079 91.350162 -9.581386 -11.272707 0.000000 0.000000 0.000000 -15.039422 0.299657 9.681324 -2.660219 -0.057748 -1.073880 87.173814 39.511669 19.220418 0.000000 0.000000 0.000000
0.000000 0.000000 0.000000 0.241651 -3.290741 2.287288 7.010759 -1.035020 3.443750 -0.388675 2.508259 -5.709777 -1.956989 2.190144 0.458121 0.000000 0.000000 0.000000 -13.263986 3.709594 -21.917149 -6.245272 6.205763 7.596698 -5.190282 3.272173 6.229376 0.000000 0.000000 0.000000 -2.827858 -11.355213 49.809882 -7.789491 14.589150 59.842434 -17.147287 31.284476 61.388617 0.000000 0.000000 0.000000 -5.419114 -0.911717 -1.795209 0.634946 -0.989897 1.784677 90.873833 -9.700068 -8.440455 0.000000 0.000000 0.000000 -16.363350 0.349357 9.439497 -0.350216 0.277147 -0.994289 86.171561 39.325183 17.218573 0.000000 0.000000 0.000000
0.000000 0.000000 0.000000 0.251100 -3.240711 2.783653 7.505958 -1.064016 3.543249 -0.340941 2.038575 -5.973118 -1.524451 1.516843 0.311070 0.000000 0.000000 0.000000 -13.856565 3.810469 -21.671775 -6.841990 6.050660 6.780255 -5.122216 2.815610 5.322802 0.000000 0.000000 0.000000 -2.224118 -10.822985 47.077346 -7.543011 14.795604 60.748546 -15.987873 30.992895 62.176786 0.000000 0.000000 0.000000 -9.015075 -1.578473 -1.804980 1.362090 -1.361607 2.350169 90.626022 -9.759015 -6.800475 0.000000 0.000000 0.000000 -22.649741 0.643955 9.204206 -1.212180 0.213185 -1.213497 86.192063 39.325954 17.100899 0.000000 0.000000 0.000000
0.000000 0.000000 0.000000 0.256114 -3.122221 3.160051 8.035624 -1.054459 3.554417 -0.335990 2.086391 -5.652771 0.318497 2.203972 0.675629 0.000000 0.000000 0.000000 -14.957236 3.969312 -21.824053 -6.411045 5.803693 6.689062 -4.958630 2.881324 5.487322 0.000000 0.000000 0.000000 -1.622472 -10.713476 46.765444 -7.855882 15.194555 61.888864 -16.146501 31.569012 62.985339 0.000000 0.000000 0.000000 -8.309624 -1.424392 -0.784043 1.178927 -1.070354 1.840750 90.795728 -9.740080 -7.404081 0.000000 0.000000 0.000000 -20.118573 0.521675 9.248032 -1.045769 0.295215 -1.385307 85.367323 39.179118 16.525785 0.000000 0.000000 0.000000
0.000000 0.000000 0.000000 0.254720 -2.951638 3.308643 7.382991 -0.984812 3.351472 -0.289142 1.850846 -5.064232 -0.090008 2.842246 0.823222 0.000000 0.000000 0.000000 -15.503801 4.060070 -21.695235 -7.356302 6.897284 7.903372 -5.048565 4.833522 9.404746 0.000000 0.000000 0.000000 -1.441204 -11.743534 52.325450 -7.308714 14.986638 61.602895 -14.788824 29.056269 60.123131 0.000000 0.000000 0.000000 -8.732865 -1.490898 -0.478548 0.409235 -1.105113 2.042760 90.902245 -9.729375 -7.731896 0.000000 0.000000 0.000000 -20.088838 0.599887 9.892430 -0.439470 0.567671 -1.915703 84.431350 38.983270 15.264458 0.000000 0.000000 0.000000
0.000000 0.000000 0.000000 0.252524 -2.874031 3.310680 6.567209 -0.632651 2.461114 -0.156526 1.363263 -2.248204 1.616784 2.858989 1.000250 0.000000 0.000000 0.000000 -14.222929 3.917512 -20.685247 -6.288694 6.564526 8.234650 -5.035070 4.675757 9.091318 0.000000 0.000000 0.000000 -0.487260 -12.512798 56.450555 -7.566293 13.863641 57.460115 -15.084309 25.377766 53.090762 0.000000 0.000000 0.000000 -6.274792 -1.062585 -0.051361 2.264060 -1.165477 1.828151 90.389479 -9.658183 -9.381947 0.000000 0.000000 0.000000 -19.145656 0.645091 10.744626 -0.403430 0.718346 -2.352275 84.457116 38.979502 15.020034 0.000000 0.000000 0.000000
0.000000 0.000000 0.000000 0.253616 -2.886633 3.338694 4.283105 -0.516755 1.954083 -0.120675 1.956449 0.507721 1.233486 4.292298 1.396937 0.000000 0.000000 0.000000 -10.797246 3.354428 -21.220300 -5.712607 6.112612 7.896787 -6.008418 4.507277 8.497692 0.000000 0.000000 0.000000 -1.165532 -12.502551 56.390984 -8.516233 12.169950 51.017559 -13.614167 22.419009 48.894698 0.000000 0.000000 0.000000 -3.209039 -0.537188 -0.280441 2.809909 -1.200290 1.797791 89.503355 -9.668283 -8.788625 0.000000 0.000000 0.000000 -19.363850 0.646415 10.637177 0.110948 0.716024 -2.085213 85.276483 39.129020 15.252315 0.000000 0.000000 0.000000
0.000000 0.000000 0.000000 0.265091 -3.345201 3.261447 2.436079 -0.299884 1.178594 0.002116 0.748919 2.517607 0.090673 4.250994 1.254210 0.000000 0.000000 0.000000 -7.636889 2.866476 -22.021472 -2.424122 4.487794 7.702892 -4.123605 4.327747 8.630284 0.000000 0.000000 0.000000 -9.858746 -12.611058 57.198634 -24.293203 7.868900 36.402099 -36.528967 13.592659 20.270128 0.000000 0.000000 0.000000 -3.006269 -0.494064 -0.612422 2.031513 -1.235122 1.995999 89.246025 -9.674888 -8.413443 0.000000 0.000000 0.000000 -18.831056 0.600987 10.531474 1.336096 0.653902 -1.314398 85.865535 39.239567 15.630978 0.000000 0.000000 0.000000
0.000000 0.000000 0.000000 0.279667 -3.914498 3.133535 -0.942025 -0.382104 0.935216 0.054952 0.081963 3.833041 -0.520024 4.828293 1.350718 0.000000 0.000000 0.000000 -4.223800 2.351858 -21.870242 1.800669 1.874179 6.037482 -2.306460 2.715694 5.675713 0.000000 0.000000 0.000000 -18.622129 -12.543660 56.570551 -31.200585 -1.081934 19.478191 -12.828318 -2.288854 -4.572253 0.000000 0.000000 0.000000 -0.467175 0.018954 -2.049023 1.418608 -1.208250 2.055105 85.848427 -9.634860 -13.712196 0.000000 0.000000 0.000000 -17.000548 0.447358 10.112131 0.882335 0.499071 -1.076443 87.156170 39.496985 18.360347 0.000000 0.000000 0.000000
0.000000 0.000000 0.000000 0.286704 -4.147286 3.128488 -3.102513 -0.487832 0.922208 0.072218 -0.128774 4.518133 0.736927 5.485483 1.696689 0.000000 0.000000 0.000000 -3.999879 2.288904 -21.127807 0.377430 1.955214 4.846029 -3.498291 2.407084 4.788056 0.000000 0.000000 0.000000 -22.245190 -12.526813 53.955782 -24.151731 -6.793190 4.554418 -10.084737 -3.972891 -9.125961 0.000000 0.000000 0.000000 -0.073995 0.169541 -3.529604 0.634830 -0.630958 1.106652 85.136233 -9.679663 -16.379192 0.000000 0.000000 0.000000 -14.790196 0.295847 9.806985 1.361283 0.823557 -1.789576 87.815653 39.602349 19.059053 0.000000 0.000000 0.000000
0.000000 0.000000 0.000000 0.291916 -4.319548 3.124022 -5.936739 -0.640837 0.957006 0.110996 -1.447865 3.892418 1.807165 4.925072 1.658348 0.000000 0.000000 0.000000 -0.346973 1.607737 -19.668182 4.957694 -0.386427 3.600068 0.099380 1.699630 3.886762 0.000000 0.000000 0.000000 -15.337313 -11.882750 46.607345 -15.794452 -5.558871 0.509383 -3.390302 -2.877711 -8.153803 0.000000 0.000000 0.000000 -1.770952 -0.133075 -4.602381 -1.468141 0.049787 0.109346 83.347563 -9.749594 -15.397620 0.000000 0.000000 0.000000 -15.825951 0.355984 9.841561 1.577273 0.962095 -2.081941 86.663988 39.412426 17.748702 0.000000 0.000000 0.000000
0.000000 0.000000 0.000000 0.286493 -4.296662 2.777160 -6.587167 -0.621805 0.782110 0.074997 -0.906575 1.594024 2.189813 2.420167 0.920985 0.000000 0.000000 0.000000 0.160440 1.149686 -14.888673 5.332443 -1.332517 1.463145 0.177774 0.521357 1.207768 0.000000 0.000000 0.000000 -7.396764 -8.371849 26.496957 -6.270718 -0.457727 5.965669 -1.762663 0.201418 0.730887 0.000000 0.000000 0.000000 -1.743027 -0.126418 -4.623081 -0.888754 0.390416 -0.639064 82.971362 -9.757316 -15.077403 0.000000 0.000000 0.000000 -11.373832 0.098258 9.603194 1.936634 1.404941 -3.156819 85.156268 39.155193 16.898746 0.000000 0.000000 0.000000
0.000000 0.000000 0.000000 0.280475 -4.216115 2.546356 -6.220717 -0.511176 0.472204 0.109159 -1.601560 -2.803444 2.498071 0.014366 0.189509 0.000000 0.000000 0.000000 0.418557 0.844142 -11.808069 5.676922 -1.537445 1.244373 1.279013 0.092592 0.323911 0.000000 0.000000 0.000000 -3.235800 -4.616131 13.015830 -0.665067 3.591158 16.356290 -4.469582 2.040577 6.046136 0.000000 0.000000 0.000000 -1.819845 -0.145994 -4.530463 -1.487903 0.398962 -0.579756 84.084617 -9.696408 -14.243869 0.000000 0.000000 0.000000 -11.803063 0.110158 9.387447 2.153065 1.508167 -3.335873 85.964209 39.291287 17.171256 0.000000 0.000000 0.000000
0.000000 0.000000 0.000000 0.275532 -4.229716 2.164135 -5.763883 -0.395982 0.171719 0.141513 -1.902173 -5.306101 3.100623 -1.526258 -0.263205 0.000000 0.000000 0.000000 0.255833 0.795553 -10.711126 5.734549 -1.577874 1.190491 1.630381 0.056324 0.269951 0.000000 0.000000 0.000000 -2.627541 -4.029481 11.426467 0.205146 4.194576 18.379737 -4.535409 3.008280 8.768802 0.000000 0.000000 0.000000 -0.087275 0.204204 -4.249897 -0.917874 0.407045 -0.667956 83.378457 -9.739270 -15.025308 0.000000 0.000000 0.000000 -6.304710 -0.173894 8.362267 0.798847 1.098656 -2.861687 85.283311 39.143601 15.736685 0.000000 0.000000 0.000000
0.000000 0.000000 0.000000 0.272233 -4.218931 1.962899 -3.239658 -0.370930 0.541216 0.442223 -3.782341 -9.725980 4.136400 -2.092493 -0.389623 0.000000 0.000000 0.000000 0.767692 0.765837 -11.886442 3.890713 -0.199692 3.023186 1.870982 0.586242 1.554922 0.000000 0.000000 0.000000 0.559253 -1.156677 5.540165 -5.809524 3.798802 20.745537 -5.226617 6.424870 18.040896 0.000000 0.000000 0.000000 -1.705195 -0.128341 -4.356406 -0.841896 0.771306 -1.389925 87.161655 -9.592744 -14.111847 0.000000 0.000000 0.000000 -9.725389 -0.060794 7.396153 -0.888403 0.967634 -3.365357 89.740547 39.894606 15.390756 0.000000 0.000000 0.000000
0.000000 0.000000 0.000000 0.270118 -4.213200 1.831833 2.902078 -0.202085 0.985315 0.756439 -4.768608 -15.547269 5.313604 -3.483635 -0.805374 0.000000 0.000000 0.000000 6.232438 -0.272940 -14.057131 5.991486 -0.334660 4.809446 1.269767 1.825975 4.390051 0.000000 0.000000 0.000000 1.884039 0.467625 2.119078 1.832505 5.442872 23.261456 -4.555179 7.999291 22.684491 0.000000 0.000000 0.000000 -4.007369 -0.609531 -4.311637 -1.397071 1.093734 -1.967105 89.837703 -9.553917 -12.550046 0.000000 0.000000 0.000000 -17.196798 0.141751 6.877885 0.565222 1.314254 -3.612009 89.871171 39.926984 13.292191 0.000000 0.000000 0.000000
0.000000 0.000000 0.000000 0.266206 -4.214520 1.555202 3.827751 -0.449602 1.734712 0.849609 -5.011951 -16.954340 3.042346 -8.544657 -2.547670 0.000000 0.000000 0.000000 4.908062 1.054063 -22.585837 0.125565 3.912979 8.983410 -2.975782 1.881660 3.771263 0.000000 0.000000 0.000000 -0.183117 -0.644019 2.064332 2.731961 5.936806 25.284941 -6.750530 8.703232 23.351644 0.000000 0.000000 0.000000 -4.144360 -0.637252 -4.365086 -1.106858 1.697300 -3.184655 90.617040 -9.531084 -12.749490 0.000000 0.000000 0.000000 -15.832272 0.089720 6.740219 1.325475 1.376037 -3.388934 91.502511 40.228221 13.225466 0.000000 0.000000 0.000000
0.000000 0.000000 0.000000 0.268986 -4.281784 1.540242 5.112307 -1.176187 3.660225 1.189665 -6.444806 -17.452261 0.140566 -11.040812 -3.275069 0.000000 0.000000 0.000000 5.997483 1.984481 -31.110456 0.150630 7.194619 16.028126 -2.820410 4.596652 9.554316 0.000000 0.000000 0.000000 -0.139447 -0.571372 1.875906 1.834452 5.472033 23.407788 -6.146196 9.854993 26.699226 0.000000 0.000000 0.000000 -3.722041 -0.551802 -4.222397 0.953755 2.310469 -4.484196 92.078106 -9.540633 -11.952144 0.000000 0.000000 0.000000 -15.941200 0.059860 6.360936 1.544855 1.272378 -2.980812 90.226672 40.007147 11.320637 0.000000 0.000000 0.000000
0.000000 0.000000 0.000000 0.272852 -4.357324 1.578632 5.306879 -1.557494 4.604793 1.088259 -6.193583 -16.368975 0.576022 -9.584674 -2.844769 0.000000 0.000000 0.000000 -1.309152 3.131811 -41.423494 -5.543050 14.081023 22.465769 -4.594589 8.169008 16.256309 0.000000 0.000000 0.000000 -1.206211 -1.160847 1.914437 -0.987461 4.969092 22.718878 -6.929961 10.467233 27.768996 0.000000 0.000000 0.000000 -3.843187 -0.578317 -4.143643 3.185461 2.344667 -4.636771 90.783765 -9.614674 -10.555461 0.000000 0.000000 0.000000 -16.174188 0.123409 7.010603 5.628411 1.725292 -2.256412 87.850717 39.492804 6.974822 0.000000 0.000000 0.000000
0.000000 0.000000 0.000000 0.302094 -4.964883 1.885203 6.129453 -2.199465 6.175395 1.285732 -7.674966 -14.077832 1.112922 -7.581130 -2.235597 0.000000 0.000000 0.000000 -2.449538 3.507464 -49.094953 -3.932716 14.307969 24.718033 -0.730913 12.070874 26.391878 0.000000 0.000000 0.000000 -0.474706 -1.350570 4.232346 -1.009247 4.380837 20.118433 -5.445360 9.071033 25.069190 0.000000 0.000000 0.000000 -2.152677 -0.255865 -3.324077 6.196306 2.279540 -4.635678 86.495235 -9.639915 -5.037961 0.000000 0.000000 0.000000 -16.771044 0.076126 6.314152 5.898501 1.186262 -0.769725 87.180548 39.313962 5.370198 0.000000 0.000000 0.000000
0.000000 0.000000 0.000000 0.319601 -5.317208 2.499194 5.233521 -2.645737 7.269786 1.303703 -8.689729 -11.196053 0.449753 -5.112991 -1.494141 0.000000 0.000000 0.000000 -4.989625 3.452037 -54.699134 -4.611977 13.477094 22.485522 -1.897150 12.490148 26.492092 0.000000 0.000000 0.000000 0.301345 -1.818474 7.633561 0.846059 4.465131 19.150080 -2.056601 7.615799 23.031141 0.000000 0.000000 0.000000 -9.104192 -1.633550 -3.088578 2.843099 2.078263 -4.140082 87.784915 -9.746548 -1.566016 0.000000 0.000000 0.000000 -22.637855 0.242155 6.460622 8.292180 1.809528 -1.332449 86.680040 39.230885 7.481432 0.000000 0.000000 0.000000
0.000000 0.000000 0.000000 0.319416 -5.302076 2.574720 4.777889 -2.630764 7.245253 0.957535 -7.302008 -9.002956 2.004260 -3.644593 -0.993024 0.000000 0.000000 0.000000 -17.991354 1.529007 -56.198731 -15.195636 16.563221 16.559857 -5.436300 13.690095 26.589560 0.000000 0.000000 0.000000 -2.743946 -4.020965 11.148559 0.654548 3.408897 14.331605 -2.687306 5.560016 16.659981 0.000000 0.000000 0.000000 -8.911434 -1.586383 -2.764883 2.694694 1.793554 -3.614682 84.230442 -9.490552 -2.236521 0.000000 0.000000 0.000000 -10.131637 -0.141947 4.752653 9.989803 1.910541 -0.902034 82.366957 38.273996 8.204206 0.000000 0.000000 0.000000
0.000000 0.000000 0.000000 0.318312 -5.260492 2.646796 4.303808 -2.428650 6.750833 0.787294 -6.896082 -6.634657 -0.784866 -4.396074 -1.318591 0.000000 0.000000 0.000000 -20.742769 1.136144 -55.952446 -21.544947 13.592879 7.134613 -11.049749 12.332166 21.020092 0.000000 0.000000 0.000000 -3.340424 -5.426960 16.869663 1.246017 2.547608 9.664868 0.670213 2.658941 8.704037 0.000000 0.000000 0.000000 -12.704262 -2.313932 -2.609130 0.231243 1.146821 -2.224003 86.485749 -9.639267 -5.119001 0.000000 0.000000 0.000000 -6.473125 -0.185537 3.594553 8.089731 1.734210 -1.233899 84.711096 39.001767 14.326407 0.000000 0.000000 0.000000
0.000000 0.000000 0.000000 0.347348 -6.078554 2.408697 4.368539 -1.963600 5.584625 0.784457 -7.465685 -5.133973 -5.058557 -4.226840 -1.411260 0.000000 0.000000 0.000000 -18.976361 1.341365 -56.594763 -22.235163 4.516228 -6.143692 -16.847426 3.171437 4.020923 0.000000 0.000000 0.000000 -8.471531 -8.327946 24.045954 1.178588 1.149237 3.303763 3.965245 1.142033 3.883891 0.000000 0.000000 0.000000 -12.950103 -2.427324 -3.622482 1.351411 0.155504 -0.472563 85.659264 -9.606533 -6.033421 0.000000 0.000000 0.000000 -7.724869 -0.203355 2.347994 8.102735 1.277101 -0.130986 84.003785 38.849671 13.657405 0.000000 0.000000 0.000000
0.000000 0.000000 0.000000 0.420182 -7.872979 2.056075 3.859730 -1.042135 3.239601 1.026699 -10.016157 -4.398384 -5.358698 -6.129079 -1.888020 0.000000 0.000000 0.000000 -12.841753 2.208551 -58.772057 -18.032231 -7.818157 -24.167720 -14.527191 -14.520477 -25.062094 0.000000 0.000000 0.000000 -13.493300 -9.932860 25.594543 -0.617818 -1.091790 -3.550468 6.018646 2.331180 8.697595 0.000000 0.000000 0.000000 -17.109446 -3.332211 -4.208198 0.761419 -0.508528 0.855590 85.781405 -9.614834 -7.170894 0.000000 0.000000 0.000000 -7.680387 -0.212230 1.702919 7.317148 0.895455 0.505127 83.807851 38.809101 13.545803 0.000000 0.000000 0.000000
0.000000 0.000000 0.000000 0.459180 -8.436760 1.341915 3.889489 -0.138984 0.956031 0.963403 -10.720588 -2.631737 -5.133967 -6.765277 -2.042540 0.000000 0.000000 0.000000 -4.087764 3.765991 -59.611868 -6.075525 -16.215890 -40.327846 -7.352129 -23.501944 -44.846734 0.000000 0.000000 0.000000 -14.837182 -10.193671 24.173544 -2.620525 -2.856612 -7.138262 4.411038 2.003974 7.119704 0.000000 0.000000 0.000000 -14.357686 -2.859523 -5.501113 -0.861860 -0.884589 1.847303 85.655526 -9.619497 -8.978472 0.000000 0.000000 0.000000 -5.738268 -0.180305 1.322117 5.940001 0.572230 0.808375 87.977609 39.639029 20.646667 0.000000 0.000000 0.000000
0.000000 0.000000 0.000000 0.486775 -8.722615 0.779034 6.123776 0.581483 -0.481950 1.023147 -11.269595 -2.726036 -6.874111 -9.816429 -2.769517 0.000000 0.000000 0.000000 0.922105 4.524917 -57.781621 -6.296575 -18.074257 -44.581891 -8.910929 -26.165000 -48.174679 0.000000 0.000000 0.000000 -17.330710 -10.879099 23.599200 -6.225061 -4.307355 -6.771093 0.177525 0.208693 0.664288 0.000000 0.000000 0.000000 -0.688132 0.182462 -6.465368 1.526684 -0.776863 1.236345 83.611859 -9.723841 -14.757585 0.000000 0.000000 0.000000 -3.427464 -0.139183 1.473286 3.487578 0.200308 0.864460 89.980290 39.881078 25.196028 0.000000 0.000000 0.000000
0.000000 0.000000 0.000000 0.514224 -8.878562 0.053517 5.995659 0.800506 -1.027234 0.983199 -10.719675 -2.881653 -6.902496 -9.064337 -2.593383 0.000000 0.000000 0.000000 0.751769 4.381490 -56.375617 -7.421151 -19.061314 -46.540380 -11.621680 -28.937305 -50.431603 0.000000 0.000000 0.000000 -17.553720 -10.900703 22.756077 -7.061921 -4.401531 -5.938295 0.160124 -0.555548 -1.810039 0.000000 0.000000 0.000000 -2.717472 -0.275045 -6.659912 1.755139 -0.496454 0.681915 85.069109 -9.719694 -20.207664 0.000000 0.000000 0.000000 -3.316190 -0.135657 1.408651 3.293725 0.391129 0.267989 90.692475 39.952520 25.304214 0.000000 0.000000 0.000000
0.000000 0.000000 0.000000 0.524662 -8.859218 -0.381436 6.690313 0.774802 -0.845758 0.834733 -9.199664 -2.851397 -6.059587 -8.137430 -2.380512 0.000000 0.000000 0.000000 0.192445 4.238925 -55.634984 -6.874868 -18.792499 -46.082020 -12.330561 -29.308723 -50.418160 0.000000 0.000000 0.000000 -13.912822 -9.767975 22.322437 -4.927635 -3.238892 -5.082206 -0.600384 -1.196233 -3.741664 0.000000 0.000000 0.000000 -3.477313 -0.429256 -7.618820 -0.715363 0.315658 -0.515096 86.920004 -9.554964 -21.187817 0.000000 0.000000 0.000000 -3.629657 -0.123067 0.528259 2.942314 0.700663 -0.726986 91.753943 40.056044 25.516807 0.000000 0.000000 0.000000
0.000000 0.000000 0.000000 0.535231 -9.012544 -0.419858 7.578880 0.724790 -0.581985 0.962454 -10.210772 -3.259149 -7.923444 -8.397143 -2.431744 0.000000 0.000000 0.000000 0.480215 4.150198 -53.977565 -6.237018 -18.495100 -45.569847 -9.941226 -29.222840 -52.363241 0.000000 0.000000 0.000000 -12.933717 -9.447415 22.110010 -4.334333 -2.656884 -3.921924 -0.740949 -1.835231 -5.723442 0.000000 0.000000 0.000000 -10.823212 -2.174493 -7.473142 -4.624534 0.433286 -0.227341 89.428039 -9.323396 -21.026208 0.000000 0.000000 0.000000 -4.089687 -0.130356 0.245741 3.215135 0.816314 -0.925574 91.606027 40.087126 22.746196 0.000000 0.000000 0.000000
0.000000 0.000000 0.000000 0.538793 -9.042099 -0.480868 7.892287 0.777305 -0.651801 0.994048 -10.399872 -3.424876 -8.214784 -8.838028 -2.527343 0.000000 0.000000 0.000000 0.473706 3.974338 -51.751572 -6.111576 -18.629571 -45.915084 -9.066759 -28.564223 -52.065562 0.000000 0.000000 0.000000 -13.502404 -9.649221 22.399745 -5.757628 -3.113434 -3.547206 -1.682427 -2.515858 -7.577458 0.000000 0.000000 0.000000 -11.822682 -2.402725 -7.308796 -4.724582 0.376035 -0.091211 89.936421 -9.290629 -20.584955 0.000000 0.000000 0.000000 -4.192567 -0.135674 0.393820 3.136817 0.798740 -0.911635 91.311424 40.061804 22.091295 0.000000 0.000000 0.000000
0.000000 0.000000 0.000000 0.540481 -9.030395 -0.567110 7.736857 0.798570 -0.725908 0.946629 -9.986224 -3.349053 -8.295089 -7.898394 -2.319879 0.000000 0.000000 0.000000 0.067304 3.675652 -48.360229 -6.192369 -19.406284 -47.692975 -7.492797 -28.617991 -53.604709 0.000000 0.000000 0.000000 -13.174210 -9.497306 21.849662 -6.361898 -3.156582 -2.908747 -1.294854 -2.639414 -8.070696 0.000000 0.000000 0.000000 -16.663888 -3.503047 -6.855728 -6.646441 0.528777 -0.141956 91.276028 -9.164250 -20.743961 0.000000 0.000000 0.000000 -3.467108 -0.116235 0.413125 3.075891 0.886555 -1.178616 90.365778 39.952348 21.253179 0.000000 0.000000 0.000000
0.000000 0.000000 0.000000 0.539042 -8.933423 -0.740542 7.594881 0.831008 -0.824018 0.911652 -9.761729 -3.174417 -8.171082 -6.986889 -2.118987 0.000000 0.000000 0.000000 -0.243320 3.460309 -45.708630 -6.011316 -19.092046 -47.018430 -10.236880 -32.681895 -57.639797 0.000000 0.000000 0.000000 -13.367848 -9.570122 21.986173 -7.770993 -3.741150 -2.999385 -1.961456 -2.907060 -8.677434 0.000000 0.000000 0.000000 -18.109815 -3.812670 -6.609526 -7.224154 0.543712 -0.089077 91.464923 -9.140242 -20.894058 0.000000 0.000000 0.000000 -2.607585 -0.093905 0.449155 2.910982 1.057441 -1.721390 89.269892 39.811212 21.004071 0.000000 0.000000 0.000000
0.000000 0.000000 0.000000 0.535229 -8.674702 -1.262329 7.368564 0.865519 -0.941913 0.853933 -9.155004 -3.209007 -7.902785 -6.318773 -1.968345 0.000000 0.000000 0.000000 -0.294923 3.274600 -43.134068 -4.587767 -17.232218 -42.984968 -11.686936 -27.754375 -48.479580 0.000000 0.000000 0.000000 -13.807064 -9.610849 20.902305 -7.860794 -3.587767 -2.417981 -2.246492 -2.830090 -8.357219 0.000000 0.000000 0.000000 -17.320403 -3.628424 -6.593993 -5.373411 0.404076 -0.056515 90.513646 -9.241434 -20.526529 0.000000 0.000000 0.000000 -1.566690 -0.065455 0.438344 4.179081 1.328105 -1.875025 88.102908 39.658546 21.019899 0.000000 0.000000 0.000000
0.000000 0.000000 0.000000 0.528764 -8.398872 -1.828209 6.316781 0.849848 -1.088032 0.649676 -6.964633 -3.479510 -7.628281 -5.390837 -1.756124 0.000000 0.000000 0.000000 -3.362089 2.948376 -38.245599 -12.212468 -10.402721 -27.939547 -16.226639 -19.055344 -31.535566 0.000000 0.000000 0.000000 -10.235277 -8.098328 17.966430 -4.906662 -2.059377 -1.100032 -3.196728 -2.215898 -6.282657 0.000000 0.000000 0.000000 -15.024979 -3.112168 -6.748318 -6.194640 0.476762 -0.093744 89.562941 -9.330454 -20.361331 0.000000 0.000000 0.000000 -0.048666 -0.019837 0.351035 4.185850 1.422447 -2.121911 87.480462 39.582506 21.490414 0.000000 0.000000 0.000000
0.000000 0.000000 0.000000 0.536638 -8.384795 -2.226125 3.983121 0.755859 -1.286131 0.391283 -4.359941 -3.686737 -6.530644 -5.011377 -1.643199 0.000000 0.000000 0.000000 -7.201447 2.859591 -27.454659 -13.300043 -2.736349 -13.694477 -14.322393 -7.085732 -12.784432 0.000000 0.000000 0.000000 -8.910429 -6.838888 12.357049 -6.318619 -2.023516 0.747795 -6.221330 -0.788913 -1.763423 0.000000 0.000000 0.000000 -10.922852 -2.188917 -7.278129 -6.635528 0.817241 -0.785818 89.909751 -9.306641 -20.164667 0.000000 0.000000 0.000000 -0.648716 -0.020425 0.008147 4.516834 1.438678 -2.014454 91.333438 40.043570 23.513177 0.000000 0.000000 0.000000
0.000000 0.000000 0.000000 0.528106 -8.212453 -2.462487 3.038845 0.609109 -1.090737 0.196380 -2.442255 -3.999246 -5.006941 -4.655409 -1.516013 0.000000 0.000000 0.000000 -6.552380 2.649687 -18.700483 -10.865330 0.837374 -5.886312 -13.899504 -1.337661 -3.145474 0.000000 0.000000 0.000000 -4.152528 -3.155971 3.856261 -3.762607 -0.611367 2.628126 -5.233059 0.130508 0.674465 0.000000 0.000000 0.000000 -3.266797 -0.381976 -7.492201 -5.602843 0.759301 -0.794644 87.456715 -9.504613 -21.173901 0.000000 0.000000 0.000000 0.143417 0.053363 -0.907339 3.427303 1.363064 -2.314250 90.574602 39.971203 22.092420 0.000000 0.000000 0.000000
0.000000 0.000000 0.000000 0.529255 -8.181057 -2.640291 3.482681 0.656563 -1.129045 0.308997 -3.398836 -4.798423 -4.309416 -3.860335 -1.293341 0.000000 0.000000 0.000000 -3.709280 1.716381 -8.847513 -3.051654 1.358469 0.541601 -6.430605 1.031874 1.571350 0.000000 0.000000 0.000000 -4.910328 -1.919334 -3.964010 -2.978308 -2.019903 -3.569062 -4.125125 -1.165930 -3.073859 0.000000 0.000000 0.000000 -2.275290 -0.151493 -7.338996 -4.881207 0.804175 -0.983807 88.866609 -9.351921 -22.032583 0.000000 0.000000 0.000000 0.805098 0.095440 -1.181065 3.630045 1.369295 -2.236331 90.581974 39.975251 21.765925 0.000000 0.000000 0.000000
0.000000 0.000000 0.000000 0.538506 -8.212356 -2.959990 3.794184 0.817053 -1.476842 0.376714 -3.881753 -5.500066 -3.879549 -3.835098 -1.271205 0.000000 0.000000 0.000000 -0.785676 0.317342 -0.502603 4.156608 0.648303 5.440735 -2.625089 2.611154 5.386971 0.000000 0.000000 0.000000 -5.264758 -2.227038 -3.519907 0.404101 -2.392294 -10.494634 -1.724621 -4.111734 -12.397050 0.000000 0.000000 0.000000 -0.000337 0.366467 -6.971546 -4.072013 0.919850 -1.326622 87.747283 -9.432563 -24.433850 0.000000 0.000000 0.000000 0.475322 0.081413 -1.173793 3.921029 1.265390 -1.824615 90.814053 40.011897 21.090169 0.000000 0.000000 0.000000
0.000000 0.000000 0.000000 0.534918 -8.154665 -3.023517 3.253532 0.845144 -1.655682 0.318922 -3.407163 -5.402889 -2.737655 -3.335496 -1.094870 0.000000 0.000000 0.000000 0.548022 -0.630127 4.853292 3.447834 2.696824 9.720583 -2.375843 4.251918 8.949760 0.000000 0.000000 0.000000 -3.207281 -0.808662 -4.293790 0.513675 -3.025508 -13.204480 -2.200574 -4.339352 -12.872438 0.000000 0.000000 0.000000 1.796062 0.769173 -6.736271 -2.733575 0.934737 -1.508604 85.870859 -9.670365 -27.531807 0.000000 0.000000 0.000000 1.348761 0.068547 -0.416149 2.924060 1.170518 -2.025602 90.305354 39.944895 21.210491 0.000000 0.000000 0.000000
0.000000 0.000000 0.000000 0.530380 -8.102271 -3.019903 4.033232 0.884480 -1.599813 0.281508 -3.139000 -4.937487 -2.255610 -3.721822 -1.180565 0.000000 0.000000 0.000000 3.010643 -1.646321 4.991404 4.258794 2.286416 9.629917 -1.837484 3.289001 7.017960 0.000000 0.000000 0.000000 -2.991694 -0.688799 -4.242955 0.443868 -3.503230 -14.924017 -2.642425 -4.156066 -12.144021 0.000000 0.000000 0.000000 6.383680 1.818378 -6.597174 -0.524944 0.860012 -1.596939 85.367246 -9.746692 -27.680673 0.000000 0.000000 0.000000 4.888467 0.189271 -0.394963 4.097657 1.360344 -1.997406 88.543890 39.706602 18.826943 0.000000 0.000000 0.000000
0.000000 0.000000 0.000000 0.527600 -8.074750 -2.997773 5.439619 0.970628 -1.539272 0.184076 -2.314668 -4.218378 -1.589530 -3.351690 -1.051677 0.000000 0.000000 0.000000 6.090169 -2.941496 5.218620 2.691439 2.544383 8.536241 -2.565805 3.293119 6.854823 0.000000 0.000000 0.000000 -1.425408 0.650659 -5.679526 0.672326 -3.535682 -15.503407 -2.657876 -4.387900 -12.817581 0.000000 0.000000 0.000000 5.961162 1.724613 -6.634882 -1.008353 1.375116 -2.558042 86.496462 -9.575287 -28.075073 0.000000 0.000000 0.000000 3.896086 0.155720 -0.403492 4.555689 1.460411 -2.053945 91.244237 40.085533 19.836795 0.000000 0.000000 0.000000
0.000000 0.000000 0.000000 0.515207 -7.923319 -3.023646 5.549905 0.977215 -1.534183 0.196023 -2.433002 -4.098299 0.121861 -3.111696 -0.909290 0.000000 0.000000 0.000000 5.504450 -2.520146 3.952319 3.547746 2.134155 8.473261 -1.899342 3.795358 8.098630 0.000000 0.000000 0.000000 -1.323541 1.035440 -6.875863 1.450757 -3.615790 -17.422056 -1.859536 -5.226293 -15.673835 0.000000 0.000000 0.000000 3.968640 1.267634 -6.681726 -1.788519 1.569032 -2.878789 86.703118 -9.542335 -28.301735 0.000000 0.000000 0.000000 3.271832 0.119488 -0.223581 4.397450 1.524205 -2.293631 91.556036 40.119412 20.401620 0.000000 0.000000 0.000000
0.000000 0.000000 0.000000 0.512911 -7.884385 -3.080280 4.871368 0.936376 -1.564914 0.174152 -2.224169 -4.169206 0.672562 -2.613772 -0.735096 0.000000 0.000000 0.000000 5.175210 -2.278400 3.149968 4.295260 1.459681 7.624042 -0.749637 3.490714 7.731971 0.000000 0.000000 0.000000 -0.535453 1.686572 -7.366054 1.866107 -3.328778 -17.166970 -0.814217 -5.000422 -15.537432 0.000000 0.000000 0.000000 2.931678 1.024256 -6.638501 -2.026086 1.545363 -2.812422 87.105640 -9.482063 -27.978838 0.000000 0.000000 0.000000 1.344839 0.062742 -0.328201 0.648430 0.945650 -2.492311 92.890988 40.299936 20.350194 0.000000 0.000000 0.000000
0.000000 0.000000 0.000000 0.504165 -7.777020 -3.106811 3.414739 0.834157 -1.595215 0.134924 -1.859644 -3.923427 1.024888 -1.840855 -0.482870 0.000000 0.000000 0.000000 4.041913 -1.714980 2.186009 3.590523 1.721187 7.513047 -1.528093 3.804599 8.217295 0.000000 0.000000 0.000000 -0.545653 1.524630 -6.812017 1.816591 -3.429905 -17.466347 0.119966 -5.300001 -16.988949 0.000000 0.000000 0.000000 2.670950 0.942689 -6.363323 -2.266214 1.647925 -3.000359 86.453771 -9.582769 -27.714253 0.000000 0.000000 0.000000 0.964969 0.048643 -0.307711 -0.602937 0.738341 -2.515710 92.566601 40.250928 20.581486 0.000000 0.000000 0.000000
0.000000 0.000000 0.000000 0.495481 -7.655988 -3.213768 2.041876 0.737165 -1.621469 0.210140 -2.540335 -4.476323 1.283538 -1.756033 -0.442280 0.000000 0.000000 0.000000 2.671358 -1.165600 1.929215 2.478760 2.443549 8.072833 -1.729445 4.354240 9.355041 0.000000 0.000000 0.000000 -1.637226 0.875801 -7.042770 0.886790 -3.744296 -16.745481 -1.006591 -5.149638 -15.892361 0.000000 0.000000 0.000000 2.543343 0.920990 -6.460164 -3.251399 1.697147 -3.025321 85.680314 -9.698222 -27.387543 0.000000 0.000000 0.000000 0.546827 0.029194 -0.213924 -0.973102 0.587860 -2.248617 92.050572 40.196114 19.881545 0.000000 0.000000 0.000000
0.000000 0.000000 0.000000 0.463341 -7.289715 -3.186423 0.357345 0.605902 -1.618855 0.201940 -2.421304 -5.264950 0.573577 -1.927413 -0.534250 0.000000 0.000000 0.000000 2.264000 -1.072252 2.493243 0.804834 2.930076 7.478005 -1.059648 4.423548 9.705882 0.000000 0.000000 0.000000 -0.995036 1.399426 -7.422672 0.292391 -3.726635 -15.480421 -1.599747 -4.492915 -13.602278 0.000000 0.000000 0.000000 2.787441 0.974980 -6.435747 -3.508886 1.693152 -2.997095 86.208549 -9.619879 -27.547624 0.000000 0.000000 0.000000 1.916931 0.052891 0.092268 1.006414 0.815948 -1.938147 90.439251 39.973947 19.854492 0.000000 0.000000 0.000000
0.000000 0.000000 0.000000 0.436421 -7.014826 -2.881697 -0.604168 0.432127 -1.334369 0.157705 -2.045605 -5.103066 -1.069133 -2.220890 -0.708432 0.000000 0.000000 0.000000 2.937564 -1.344666 2.622121 1.542090 2.357916 6.908335 0.804401 4.015034 9.354614 0.000000 0.000000 0.000000 -0.170796 1.907783 -7.298036 1.078623 -3.091283 -14.577289 -0.665941 -4.515305 -14.115229 0.000000 0.000000 0.000000 2.008038 0.848424 -7.156937 -6.156833 1.475439 -2.299922 87.793425 -9.375171 -28.068845 0.000000 0.000000 0.000000 1.412140 0.025015 0.286906 0.822526 0.763991 -1.876387 90.517999 39.979934 20.386628 0.000000 0.000000 0.000000
0.000000 0.000000 0.000000 0.425493 -6.915912 -2.601571 -1.914153 0.125480 -0.712588 0.159413 -2.062645 -5.018012 -1.903077 -1.699417 -0.607923 0.000000 0.000000 0.000000 2.672372 -1.336608 3.463905 1.958042 2.330580 7.267105 0.664292 4.028694 9.343353 0.000000 0.000000 0.000000 -0.532484 1.497098 -6.682667 1.493509 -2.657182 -13.666637 0.219887 -3.765630 -12.167661 0.000000 0.000000 0.000000 3.662902 1.231990 -7.085139 -3.559654 0.653395 -0.832230 85.965120 -9.654749 -26.693828 0.000000 0.000000 0.000000 2.792415 0.019700 0.865050 2.119819 0.742619 -1.207424 88.494106 39.698702 18.695356 0.000000 0.000000 0.000000
