HIERARCHY
ROOT Hips
{
  OFFSET 0.000000 0.000000 0.000000
  CHANNELS 6 Xposition Yposition Zposition Xrotation Yrotation Zrotation
  JOINT Spine
  {
    OFFSET 0.000000 5.000000 0.000000
    CHANNELS 3 Xrotation Yrotation Zrotation
    JOINT Chest
    {
      OFFSET 0.000000 5.000000 0.000000
      CHANNELS 3 Xrotation Yrotation Zrotation
      JOINT Neck
      {
        OFFSET 0.000000 5.000000 0.000000
        CHANNELS 3 Xrotation Yrotation Zrotation
        JOINT Head
        {
          OFFSET 0.000000 5.000000 0.000000
          CHANNELS 3 Xrotation Yrotation Zrotation
          End Site
          {
            OFFSET 0.0 5.0 2.0
          }
        }
      }
      JOINT LeftShoulder
      {
        OFFSET -5.000000 0.000000 0.000000
        CHANNELS 3 Xrotation Yrotation Zrotation
        JOINT LeftArm
        {
          OFFSET -5.000000 0.000000 0.000000
          CHANNELS 3 Xrotation Yrotation Zrotation
          JOINT LeftForeArm
          {
            OFFSET -5.000000 0.000000 0.000000
            CHANNELS 3 Xrotation Yrotation Zrotation
            JOINT LeftHand
            {
              OFFSET -5.000000 0.000000 0.000000
              CHANNELS 3 Xrotation Yrotation Zrotation
              End Site
              {
                OFFSET -3.0 0.0 2.0
              }
            }
          }
        }
      }
      JOINT RightShoulder
      {
        OFFSET 5.000000 0.000000 0.000000
        CHANNELS 3 Xrotation Yrotation Zrotation
        JOINT RightArm
        {
          OFFSET 5.000000 0.000000 0.000000
          CHANNELS 3 Xrotation Yrotation Zrotation
          JOINT RightForeArm
          {
            OFFSET 5.000000 0.000000 0.000000
            CHANNELS 3 Xrotation Yrotation Zrotation
            JOINT RightHand
            {
              OFFSET 5.000000 0.000000 0.000000
              CHANNELS 3 Xrotation Yrotation Zrotation
              End Site
              {
                OFFSET 3.0 0.0 2.0
              }
            }
          }
        }
      }
    }
  }
  JOINT LeftUpLeg
  {
    OFFSET -3.535534 -3.535534 0.000000
    CHANNELS 3 Xrotation Yrotation Zrotation
    JOINT LeftLeg
    {
      OFFSET 0.000000 -5.000000 0.000000
      CHANNELS 3 Xrotation Yrotation Zrotation
      JOINT LeftFoot
      {
        OFFSET 0.000000 -5.000000 0.000000
        CHANNELS 3 Xrotation Yrotation Zrotation
        JOINT LeftToeBase
        {
          OFFSET 0.000000 0.000000 5.000000
          CHANNELS 3 Xrotation Yrotation Zrotation
          End Site
          {
            OFFSET 0.0 -1.0 3.0
          }
        }
      }
    }
  }
  JOINT RightUpLeg
  {
    OFFSET 3.535534 -3.535534 0.000000
    CHANNELS 3 Xrotation Yrotation Zrotation
    JOINT RightLeg
    {
      OFFSET 0.000000 -5.000000 0.000000
      CHANNELS 3 Xrotation Yrotation Zrotation
      JOINT RightFoot
      {
        OFFSET 0.000000 -5.000000 0.000000
        CHANNELS 3 Xrotation Yrotation Zrotation
        JOINT RightToeBase
        {
          OFFSET 0.000000 0.000000 5.000000
          CHANNELS 3 Xrotation Yrotation Zrotation
          End Site
          {
            OFFSET 0.0 -1.0 3.0
          }
        }
      }
    }
  }
}
MOTION
Frames: 96
Frame Time: 0.083333
0.000000 0.000000 0.000000 0.000000 0.000000 0.000000 0.000000 0.000000 0.000000 0.000000 0.000000 0.000000 0.000000 0.000000 0.000000 0.000000 0.000000 0.000000 0.000000 0.000000 0.000000 0.000000 0.000000 0.000000 0.000000 0.000000 0.000000 0.000000 0.000000 0.000000 0.000000 0.000000 0.000000 0.000000 0.000000 0.000000 0.000000 0.000000 0.000000 0.000000 0.000000 0.000000 0.000000 0.000000 0.000000 0.000000 0.000000 0.000000 0.000000 0.000000 0.000000 0.000000 0.000000 0.000000 0.000000 0.000000 0.000000 0.000000 0.000000 0.000000 0.000000 0.000000 0.000000 0.000000 0.000000 0.000000
0.000000 0.000000 0.000000 0.000000 0.000000 0.000000 0.000000 0.000000 0.000000 0.000000 0.000000 0.000000 0.000000 0.000000 0.000000 0.000000 0.000000 0.000000 0.000000 0.000000 0.000000 0.000000 0.000000 0.000000 0.000000 0.000000 0.000000 0.000000 0.000000 0.000000 0.000000 0.000000 0.000000 0.000000 0.000000 0.000000 0.000000 0.000000 0.000000 0.000000 0.000000 0.000000 0.000000 0.000000 0.000000 0.000000 0.000000 0.000000 0.000000 0.000000 0.000000 0.000000 0.000000 0.000000 0.000000 0.000000 0.000000 0.000000 0.000000 0.000000 0.000000 0.000000 0.000000 0.000000 0.000000 0.000000
0.000000 0.000000 0.000000 0.000000 0.000000 0.000000 0.000000 0.000000 0.000000 0.000000 0.000000 0.000000 0.000000 0.000000 0.000000 0.000000 0.000000 0.000000 0.000000 0.000000 0.000000 0.000000 0.000000 0.000000 0.000000 0.000000 0.000000 0.000000 0.000000 0.000000 0.000000 0.000000 0.000000 0.000000 0.000000 0.000000 0.000000 0.000000 0.000000 0.000000 0.000000 0.000000 0.000000 0.000000 0.000000 0.000000 0.000000 0.000000 0.000000 0.000000 0.000000 0.000000 0.000000 0.000000 0.000000 0.000000 0.000000 0.000000 0.000000 0.000000 0.000000 0.000000 0.000000 0.000000 0.000000 0.000000
0.000000 0.000000 0.000000 0.000000 0.000000 0.000000 0.000000 0.000000 0.000000 0.000000 0.000000 0.000000 0.000000 0.000000 0.000000 0.000000 0.000000 0.000000 0.000000 0.000000 0.000000 0.000000 0.000000 0.000000 0.000000 0.000000 0.000000 0.000000 0.000000 0.000000 0.000000 0.000000 0.000000 0.000000 0.000000 0.000000 0.000000 0.000000 0.000000 0.000000 0.000000 0.000000 0.000000 0.000000 0.000000 0.000000 0.000000 0.000000 0.000000 0.000000 0.000000 0.000000 0.000000 0.000000 0.000000 0.000000 0.000000 0.000000 0.000000 0.000000 0.000000 0.000000 0.000000 0.000000 0.000000 0.000000
0.000000 0.000000 0.000000 0.000000 0.000000 0.000000 0.000000 0.000000 0.000000 0.000000 0.000000 0.000000 0.000000 0.000000 0.000000 0.000000 0.000000 0.000000 0.000000 0.000000 0.000000 0.000000 0.000000 0.000000 0.000000 0.000000 0.000000 0.000000 0.000000 0.000000 0.000000 0.000000 0.000000 0.000000 0.000000 0.000000 0.000000 0.000000 0.000000 0.000000 0.000000 0.000000 0.000000 0.000000 0.000000 0.000000 0.000000 0.000000 0.000000 0.000000 0.000000 0.000000 0.000000 0.000000 0.000000 0.000000 0.000000 0.000000 0.000000 0.000000 0.000000 0.000000 0.000000 0.000000 0.000000 0.000000
0.000000 0.000000 0.000000 0.000000 0.000000 0.000000 0.000000 0.000000 0.000000 0.000000 0.000000 0.000000 0.000000 0.000000 0.000000 0.000000 0.000000 0.000000 0.000000 0.000000 0.000000 0.000000 0.000000 0.000000 0.000000 0.000000 0.000000 0.000000 0.000000 0.000000 0.000000 0.000000 0.000000 0.000000 0.000000 0.000000 0.000000 0.000000 0.000000 0.000000 0.000000 0.000000 0.000000 0.000000 0.000000 0.000000 0.000000 0.000000 0.000000 0.000000 0.000000 0.000000 0.000000 0.000000 0.000000 0.000000 0.000000 0.000000 0.000000 0.000000 0.000000 0.000000 0.000000 0.000000 0.000000 0.000000
0.000000 0.000000 0.000000 0.000000 0.000000 0.000000 0.000000 0.000000 0.000000 0.000000 0.000000 0.000000 0.000000 0.000000 0.000000 0.000000 0.000000 0.000000 0.000000 0.000000 0.000000 0.000000 0.000000 0.000000 0.000000 0.000000 0.000000 0.000000 0.000000 0.000000 0.000000 0.000000 0.000000 0.000000 0.000000 0.000000 0.000000 0.000000 0.000000 0.000000 0.000000 0.000000 0.000000 0.000000 0.000000 0.000000 0.000000 0.000000 0.000000 0.000000 0.000000 0.000000 0.000000 0.000000 0.000000 0.000000 0.000000 0.000000 0.000000 0.000000 0.000000 0.000000 0.000000 0.000000 0.000000 0.000000
0.000000 0.000000 0.000000 0.000000 0.000000 0.000000 0.000000 0.000000 0.000000 0.000000 0.000000 0.000000 0.000000 0.000000 0.000000 0.000000 0.000000 0.000000 0.000000 0.000000 0.000000 0.000000 0.000000 0.000000 0.000000 0.000000 0.000000 0.000000 0.000000 0.000000 0.000000 0.000000 0.000000 0.000000 0.000000 0.000000 0.000000 0.000000 0.000000 0.000000 0.000000 0.000000 0.000000 0.000000 0.000000 0.000000 0.000000 0.000000 0.000000 0.000000 0.000000 0.000000 0.000000 0.000000 0.000000 0.000000 0.000000 0.000000 0.000000 0.000000 0.000000 0.000000 0.000000 0.000000 0.000000 0.000000
0.000000 0.000000 0.000000 0.000000 0.000000 0.000000 0.000000 0.000000 0.000000 0.000000 0.000000 0.000000 0.000000 0.000000 0.000000 0.000000 0.000000 0.000000 0.000000 0.000000 0.000000 0.000000 0.000000 0.000000 0.000000 0.000000 0.000000 0.000000 0.000000 0.000000 0.000000 0.000000 0.000000 0.000000 0.000000 0.000000 0.000000 0.000000 0.000000 0.000000 0.000000 0.000000 0.000000 0.000000 0.000000 0.000000 0.000000 0.000000 0.000000 0.000000 0.000000 0.000000 0.000000 0.000000 0.000000 0.000000 0.000000 0.000000 0.000000 0.000000 0.000000 0.000000 0.000000 0.000000 0.000000 0.000000
0.000000 0.000000 0.000000 0.000000 0.000000 0.000000 0.000000 0.000000 0.000000 0.000000 0.000000 0.000000 0.000000 0.000000 0.000000 0.000000 0.000000 0.000000 0.000000 0.000000 0.000000 0.000000 0.000000 0.000000 0.000000 0.000000 0.000000 0.000000 0.000000 0.000000 0.000000 0.000000 0.000000 0.000000 0.000000 0.000000 0.000000 0.000000 0.000000 0.000000 0.000000 0.000000 0.000000 0.000000 0.000000 0.000000 0.000000 0.000000 0.000000 0.000000 0.000000 0.000000 0.000000 0.000000 0.000000 0.000000 0.000000 0.000000 0.000000 0.000000 0.000000 0.000000 0.000000 0.000000 0.000000 0.000000
0.000000 0.000000 0.000000 0.000000 0.000000 0.000000 0.000000 0.000000 0.000000 0.000000 0.000000 0.000000 0.000000 0.000000 0.000000 0.000000 0.000000 0.000000 0.000000 0.000000 0.000000 0.000000 0.000000 0.000000 0.000000 0.000000 0.000000 0.000000 0.000000 0.000000 0.000000 0.000000 0.000000 0.000000 0.000000 0.000000 0.000000 0.000000 0.000000 0.000000 0.000000 0.000000 0.000000 0.000000 0.000000 0.000000 0.000000 0.000000 0.000000 0.000000 0.000000 0.000000 0.000000 0.000000 0.000000 0.000000 0.000000 0.000000 0.000000 0.000000 0.000000 0.000000 0.000000 0.000000 0.000000 0.000000
0.000000 0.000000 0.000000 0.000000 0.000000 0.000000 0.000000 0.000000 0.000000 0.000000 0.000000 0.000000 0.000000 0.000000 0.000000 0.000000 0.000000 0.000000 0.000000 0.000000 0.000000 0.000000 0.000000 0.000000 0.000000 0.000000 0.000000 0.000000 0.000000 0.000000 0.000000 0.000000 0.000000 0.000000 0.000000 0.000000 0.000000 0.000000 0.000000 0.000000 0.000000 0.000000 0.000000 0.000000 0.000000 0.000000 0.000000 0.000000 0.000000 0.000000 0.000000 0.000000 0.000000 0.000000 0.000000 0.000000 0.000000 0.000000 0.000000 0.000000 0.000000 0.000000 0.000000 0.000000 0.000000 0.000000
0.000000 0.000000 0.000000 0.000000 0.000000 0.000000 0.000000 0.000000 0.000000 0.000000 0.000000 0.000000 0.000000 0.000000 0.000000 0.000000 0.000000 0.000000 0.000000 0.000000 0.000000 0.000000 0.000000 0.000000 0.000000 0.000000 0.000000 0.000000 0.000000 0.000000 0.000000 0.000000 0.000000 0.000000 0.000000 0.000000 0.000000 0.000000 0.000000 0.000000 0.000000 0.000000 0.000000 0.000000 0.000000 0.000000 0.000000 0.000000 0.000000 0.000000 0.000000 0.000000 0.000000 0.000000 0.000000 0.000000 0.000000 0.000000 0.000000 0.000000 0.000000 0.000000 0.000000 0.000000 0.000000 0.000000
0.000000 0.000000 0.000000 -48.467225 73.292650 -152.353636 -174.039660 27.817535 1.477254 163.121657 31.627288 175.187528 -53.043122 -20.159949 -39.212694 0.000000 0.000000 0.000000 -1.843531 1.597350 -98.185840 23.053362 -17.509968 -105.883254 27.812321 -24.443822 -97.636664 0.000000 0.000000 0.000000 29.234781 34.859273 79.434354 13.479324 55.479644 25.329168 9.025605 41.781314 23.366957 0.000000 0.000000 0.000000 -1.221411 18.648478 172.571165 -148.737238 17.410810 4.906302 -42.216420 46.279357 -18.735746 0.000000 0.000000 0.000000 47.277034 -84.375128 128.446769 -117.208391 -20.482050 -12.584246 -55.576182 14.267525 -7.546787 0.000000 0.000000 0.000000
0.000000 0.000000 0.000000 -48.805607 73.707491 -152.369760 -167.792590 9.049482 0.969696 154.930444 34.371700 172.132730 -47.873308 -19.945545 -43.218473 0.000000 0.000000 0.000000 -9.170801 7.849327 -98.911689 22.755326 -17.300949 -105.818776 28.302533 -25.422378 -96.366906 0.000000 0.000000 0.000000 11.079226 12.053552 85.143568 11.952088 17.871757 67.307739 14.952924 26.628193 58.021285 0.000000 0.000000 0.000000 -4.415880 54.749458 171.483193 -149.647450 23.507741 6.460587 -47.461788 45.629431 -20.954567 0.000000 0.000000 0.000000 27.219429 -81.276659 148.493909 -92.469522 -17.609245 -16.877092 -74.651580 12.471932 -9.525668 0.000000 0.000000 0.000000
0.000000 0.000000 0.000000 -46.024410 72.516751 -150.148201 -168.032444 14.474312 1.525199 153.078641 30.726980 172.474751 -49.898512 -20.172119 -41.847736 0.000000 0.000000 0.000000 -8.141581 6.933680 -99.188247 26.967330 -20.110704 -107.031683 31.628548 -28.091971 -97.092980 0.000000 0.000000 0.000000 16.848920 15.865519 93.490757 28.469978 36.919269 74.467833 18.102946 32.828416 56.807135 0.000000 0.000000 0.000000 -131.664260 86.489577 45.765251 -149.966912 19.401302 5.251196 -47.797750 46.728023 -21.673259 0.000000 0.000000 0.000000 172.838831 -50.295188 3.365209 -88.291901 -25.656360 -26.406039 -71.415443 7.342118 -5.280840 0.000000 0.000000 0.000000
0.000000 0.000000 0.000000 -44.775528 71.865286 -149.224662 -168.173762 16.162412 1.685031 153.325220 30.554900 172.589715 -47.979609 -20.327642 -43.884547 0.000000 0.000000 0.000000 -7.217510 6.027451 -100.291064 26.033762 -17.999340 -111.170549 32.199966 -26.863003 -100.791708 0.000000 0.000000 0.000000 20.054863 19.627655 91.258605 9.850838 54.953844 18.817710 1.439143 41.967644 3.751118 0.000000 0.000000 0.000000 -176.832281 15.495487 0.431088 -150.026751 16.452601 4.432648 -49.615723 47.201564 -22.834802 0.000000 0.000000 0.000000 176.200558 -47.647003 1.678111 -95.555266 -21.256923 -19.328658 -69.896254 7.032133 -4.917628 0.000000 0.000000 0.000000
0.000000 0.000000 0.000000 -44.684012 72.524051 -148.521062 -167.003623 13.628795 1.559633 153.249382 30.162689 172.667633 -47.004122 -20.355086 -44.865179 0.000000 0.000000 0.000000 -6.231328 5.116374 -101.241092 28.902292 -19.687805 -112.093905 33.587999 -27.268751 -102.422058 0.000000 0.000000 0.000000 13.616832 13.358331 91.108297 17.639281 33.012530 55.272970 13.977844 35.130294 42.339232 0.000000 0.000000 0.000000 -176.806116 -29.563780 -0.842984 -153.418533 0.815713 0.192690 -54.468425 47.444932 -25.488540 0.000000 0.000000 0.000000 4.079690 -52.746406 171.782494 -97.274430 -40.257254 -35.770124 -69.876980 -4.975811 3.477265 0.000000 0.000000 0.000000
0.000000 0.000000 0.000000 -45.111575 74.006490 -147.720905 -165.532442 12.718849 1.620937 152.048340 29.791267 172.424916 -49.196471 -20.606396 -43.315335 0.000000 0.000000 0.000000 -9.282917 7.577969 -101.589141 29.579246 -19.328744 -114.355411 34.206921 -26.457996 -105.241685 0.000000 0.000000 0.000000 6.553459 6.007214 94.990236 21.332078 23.030018 85.505029 25.072268 36.442238 68.075035 0.000000 0.000000 0.000000 -139.892429 -85.331338 -37.189858 -154.604940 -16.451465 -3.731112 -56.131291 46.872582 -26.028334 0.000000 0.000000 0.000000 2.362276 -28.384919 170.678498 -94.071878 -50.428281 -47.358512 -66.101108 -2.626076 1.708862 0.000000 0.000000 0.000000
0.000000 0.000000 0.000000 -48.593377 77.309710 -148.881608 -160.541648 4.005293 0.687008 157.216163 32.139468 173.356398 -46.092706 -22.114938 -49.343413 0.000000 0.000000 0.000000 -13.101494 10.688690 -101.664482 24.399422 -14.310166 -119.718760 33.282759 -23.112778 -111.247870 0.000000 0.000000 0.000000 0.694244 0.564924 101.727963 16.304790 13.409024 101.256135 23.329239 24.936493 86.070551 0.000000 0.000000 0.000000 -170.731267 -45.175169 -3.862812 -152.462633 -24.101673 -5.989170 -62.122583 49.237088 -30.858832 0.000000 0.000000 0.000000 2.072596 -15.945413 165.281433 -94.073168 -54.396074 -51.151011 -65.809460 8.558830 -5.543949 0.000000 0.000000 0.000000
0.000000 0.000000 0.000000 -53.615174 81.019866 -151.202317 -162.218479 1.804363 0.282280 163.035678 33.239847 174.902338 -44.415456 -21.850472 -50.610938 0.000000 0.000000 0.000000 -9.321480 7.482563 -102.534391 21.507806 -12.351536 -120.657061 32.244687 -23.072473 -109.546214 0.000000 0.000000 0.000000 4.523254 3.256599 108.508223 13.703336 13.414042 91.233924 17.750784 23.069670 74.842744 0.000000 0.000000 0.000000 -166.377431 -53.870227 -6.945897 -152.173273 -32.171237 -8.171861 -61.395222 50.493176 -31.280662 0.000000 0.000000 0.000000 -1.805077 12.905292 164.140495 -123.639391 -49.840405 -27.955743 -64.597452 19.849952 -12.623717 0.000000 0.000000 0.000000
0.000000 0.000000 0.000000 -53.914764 81.823554 -150.816259 -163.587302 -0.258181 -0.037234 169.599843 32.163505 176.994167 -44.937007 -21.561786 -49.444316 0.000000 0.000000 0.000000 -10.555329 8.327461 -103.517456 24.366692 -14.305937 -119.664755 31.395398 -23.747268 -106.398765 0.000000 0.000000 0.000000 7.094898 4.953644 110.189923 12.935291 13.504924 87.509577 17.074658 23.187793 72.386568 0.000000 0.000000 0.000000 -165.551116 -49.379180 -6.670447 -153.745571 -31.728249 -7.583262 -60.167574 48.783034 -29.435851 0.000000 0.000000 0.000000 -5.482983 32.132982 161.120142 -140.043432 -48.443245 -18.576618 -57.744289 24.790648 -13.819390 0.000000 0.000000 0.000000
0.000000 0.000000 0.000000 -54.897977 82.160220 -151.577883 -167.222971 -3.000477 -0.336024 169.508796 33.252661 176.859190 -37.297197 -20.282733 -55.848983 0.000000 0.000000 0.000000 -13.656119 10.670252 -104.098224 27.174032 -16.636254 -117.656440 30.727397 -24.224192 -104.017403 0.000000 0.000000 0.000000 6.187895 4.152170 112.303952 14.214405 14.987202 86.935107 16.503921 22.946013 71.096058 0.000000 0.000000 0.000000 -165.433775 -55.165968 -7.639445 -153.438775 -31.241766 -7.551436 -64.691733 47.787147 -31.343208 0.000000 0.000000 0.000000 -4.926096 27.455536 160.027131 -152.503863 -40.754877 -10.385506 -52.856806 27.878166 -14.065007 0.000000 0.000000 0.000000
0.000000 0.000000 0.000000 -56.273058 82.494064 -152.754012 -168.310656 -0.681220 -0.069733 170.675279 32.890480 177.242024 -33.889279 -19.090960 -57.791176 0.000000 0.000000 0.000000 -13.446605 10.476056 -104.257431 30.053711 -18.700466 -116.953684 30.464761 -24.484682 -102.901257 0.000000 0.000000 0.000000 3.212814 2.036830 115.261125 11.967098 13.025286 85.112504 14.327463 20.614741 69.296842 0.000000 0.000000 0.000000 -161.197232 -62.877546 -11.559644 -150.868412 -34.897952 -9.338409 -67.278797 44.414960 -30.394451 0.000000 0.000000 0.000000 -2.482835 12.606946 157.801638 -161.501202 -32.308598 -5.401435 -52.199077 29.231272 -14.560007 0.000000 0.000000 0.000000
0.000000 0.000000 0.000000 -58.945138 83.013778 -155.126302 -170.052735 0.291584 0.025375 172.019061 32.963823 177.635189 -33.029795 -18.520744 -57.613631 0.000000 0.000000 0.000000 -10.726391 8.310114 -104.532565 31.564094 -19.685495 -116.911419 30.508254 -24.526763 -102.885931 0.000000 0.000000 0.000000 5.599194 3.504105 115.946397 12.571053 13.863890 84.350429 13.849780 20.505732 67.759414 0.000000 0.000000 0.000000 -147.574965 -75.012306 -25.160055 -139.516256 -50.850348 -19.885613 -67.933894 36.282273 -24.894025 0.000000 0.000000 0.000000 4.910137 -21.454148 154.494786 -14.780268 60.780765 155.058716 -43.853837 32.532825 -13.398053 0.000000 0.000000 0.000000
0.000000 0.000000 0.000000 -68.080198 84.236634 -163.529798 -171.968896 5.842259 0.410478 172.419988 32.909692 177.758210 -34.990093 -18.569664 -54.828181 0.000000 0.000000 0.000000 -11.443677 8.819625 -104.832274 33.429266 -20.990190 -116.659162 30.688066 -24.612329 -103.029645 0.000000 0.000000 0.000000 7.032130 4.388665 116.103932 13.387039 15.323779 82.200984 14.024284 21.448009 66.004692 0.000000 0.000000 0.000000 -124.996482 -76.549947 -44.663835 -140.639309 -43.624655 -16.292531 -69.756790 39.214207 -27.889655 0.000000 0.000000 0.000000 4.320180 -18.307792 153.651404 -17.827145 56.973852 147.759522 -45.460413 36.882231 -15.904714 0.000000 0.000000 0.000000
0.000000 0.000000 0.000000 -70.961436 84.654747 -166.092722 -173.766065 10.468772 0.571664 174.039365 32.731362 178.248125 -37.782575 -18.603733 -51.154175 0.000000 0.000000 0.000000 -9.501110 7.335938 -104.706970 35.920442 -23.072821 -115.603903 29.335742 -24.833811 -99.860698 0.000000 0.000000 0.000000 5.819443 3.801440 113.718253 13.329512 14.905888 83.544223 14.233309 20.665682 68.805407 0.000000 0.000000 0.000000 -133.483623 -74.113817 -35.961653 -144.314428 -33.755024 -11.155558 -69.436835 39.001787 -27.574102 0.000000 0.000000 0.000000 10.624877 -35.461704 147.568668 -0.560788 2.720063 156.705485 -41.549029 34.823258 -13.568880 0.000000 0.000000 0.000000
0.000000 0.000000 0.000000 -81.415323 85.746483 -175.644651 -173.445199 7.439126 0.426591 173.544613 32.684299 178.105324 -38.726367 -18.634531 -50.050765 0.000000 0.000000 0.000000 -9.283542 7.243356 -104.122388 35.309833 -22.803368 -115.281356 29.355340 -24.650687 -100.330830 0.000000 0.000000 0.000000 5.742530 3.851520 112.324849 12.905070 14.172818 84.588868 15.056104 21.050416 70.846532 0.000000 0.000000 0.000000 -132.660650 -71.620133 -35.099801 -147.327597 -30.427441 -9.114894 -67.485184 39.932119 -27.281782 0.000000 0.000000 0.000000 16.502115 -43.337670 139.898194 6.039580 -25.666436 153.922934 -36.236765 35.199290 -11.851419 0.000000 0.000000 0.000000
0.000000 0.000000 0.000000 -101.828745 86.783709 165.041233 -174.004231 6.011056 0.315092 173.335342 33.730382 177.977473 -37.831760 -18.444249 -50.702161 0.000000 0.000000 0.000000 -8.988176 7.033241 -103.958009 34.646223 -22.501072 -114.943868 27.351141 -24.437764 -96.662885 0.000000 0.000000 0.000000 5.410344 3.647105 112.053839 11.764895 12.978442 84.340611 15.177625 20.412638 73.002260 0.000000 0.000000 0.000000 -99.879310 -75.817155 -66.435313 -144.845807 -33.859366 -11.015327 -69.428743 39.766387 -28.133061 0.000000 0.000000 0.000000 17.039113 -43.777294 139.103799 5.351300 -26.848413 157.843600 -35.825201 35.492811 -11.811989 0.000000 0.000000 0.000000
0.000000 0.000000 0.000000 -116.620679 87.076038 150.794754 -173.988942 4.776565 0.250936 171.937491 34.386449 177.501552 -35.305323 -17.833867 -52.489766 0.000000 0.000000 0.000000 -8.154689 6.383004 -103.932989 33.780475 -22.280855 -114.068831 27.128352 -24.642110 -95.689819 0.000000 0.000000 0.000000 6.205282 4.235603 111.394530 11.094948 12.141906 84.805053 15.198140 20.268771 73.473536 0.000000 0.000000 0.000000 -82.872309 -76.338202 -83.367880 -142.117790 -37.346404 -13.231277 -69.448666 38.374848 -27.119170 0.000000 0.000000 0.000000 14.874400 -41.552452 142.026121 0.457626 -2.919497 162.186667 -38.618495 34.574710 -12.446484 0.000000 0.000000 0.000000
0.000000 0.000000 0.000000 -160.810580 86.685157 108.128575 -174.379927 20.816809 1.033129 170.597099 37.798326 176.774428 -26.768107 -15.156337 -58.422308 0.000000 0.000000 0.000000 -8.652615 6.683915 -104.672311 30.722039 -20.086847 -114.380140 26.794581 -23.993260 -96.524621 0.000000 0.000000 0.000000 6.652619 4.637084 110.275668 10.418237 11.177574 85.948583 15.663398 21.144752 72.775883 0.000000 0.000000 0.000000 -64.387185 -75.133678 -101.399178 -136.709497 -46.960715 -19.562168 -68.580165 37.916351 -26.366600 0.000000 0.000000 0.000000 14.165703 -41.373593 143.571963 -4.468514 28.279388 162.393002 -41.154427 35.765348 -13.813459 0.000000 0.000000 0.000000
0.000000 0.000000 0.000000 -178.182738 85.817433 91.689238 -174.022331 27.550784 1.466785 168.747522 38.414504 176.068770 -27.649586 -15.483279 -57.835901 0.000000 0.000000 0.000000 -8.315174 6.447702 -104.457904 31.060092 -20.316247 -114.374806 27.935669 -24.266249 -98.324360 0.000000 0.000000 0.000000 6.517928 4.733731 108.048758 11.612629 12.047113 87.880879 16.335070 21.754572 73.512355 0.000000 0.000000 0.000000 -53.185581 -73.609950 -112.430852 -133.133644 -50.561563 -23.137462 -68.702955 37.935965 -26.439419 0.000000 0.000000 0.000000 7.831777 -28.930385 150.278264 -2.913738 20.746145 164.180009 -42.951795 35.720211 -14.449723 0.000000 0.000000 0.000000
0.000000 0.000000 0.000000 178.181608 85.540910 88.317871 -174.386011 26.779704 1.337400 168.272003 40.033575 175.714485 -23.472315 -14.422442 -62.686719 0.000000 0.000000 0.000000 -7.852651 6.154442 -103.859165 30.280148 -19.756121 -114.471202 27.826098 -23.777669 -99.278892 0.000000 0.000000 0.000000 6.591331 4.894578 106.833623 10.828431 10.995303 89.118491 16.207563 20.801314 75.605996 0.000000 0.000000 0.000000 -38.366093 -70.481150 -127.564471 -117.523466 -59.146284 -37.985258 -69.165550 32.858631 -22.981898 0.000000 0.000000 0.000000 6.339799 -24.751980 151.669392 -9.174324 48.811844 159.944861 -44.436071 35.226316 -14.777120 0.000000 0.000000 0.000000
0.000000 0.000000 0.000000 177.895871 85.509172 88.054619 -174.081292 33.032150 1.756432 167.524499 40.891641 175.333162 -22.720651 -14.527308 -64.781208 0.000000 0.000000 0.000000 -8.446489 6.651653 -103.597163 29.013042 -18.938379 -114.386251 27.876611 -23.351697 -100.435202 0.000000 0.000000 0.000000 6.777580 5.065496 106.480165 9.133404 9.367406 88.544386 15.411094 20.110835 74.689445 0.000000 0.000000 0.000000 -20.032533 -61.572501 -146.975710 -110.210867 -61.668532 -45.207864 -71.717239 29.940446 -21.876884 0.000000 0.000000 0.000000 1.453065 -6.784011 155.847181 -114.228472 75.606512 53.276236 -48.416597 35.636521 -16.445356 0.000000 0.000000 0.000000
0.000000 0.000000 0.000000 -169.968451 86.194363 99.389414 -172.732985 42.358359 2.818864 167.194956 41.231340 175.165622 -23.147885 -14.960584 -65.330828 0.000000 0.000000 0.000000 -8.149200 6.524530 -102.669964 28.361413 -18.303335 -114.960085 28.260121 -22.914089 -102.326182 0.000000 0.000000 0.000000 5.583716 4.250061 105.465036 7.976660 8.314970 87.612719 14.111120 19.269813 72.188946 0.000000 0.000000 0.000000 -28.599485 -80.874575 -146.695888 -68.740080 -58.354229 -78.454702 -78.331087 23.555322 -19.278608 0.000000 0.000000 0.000000 -1.850988 11.335440 161.509715 -111.641931 71.445864 52.058953 -48.565608 32.542901 -15.003466 0.000000 0.000000 0.000000
0.000000 0.000000 0.000000 -120.438138 86.816468 146.855006 -172.070762 46.800787 3.435809 166.467264 41.843977 174.805773 -19.828295 -13.352344 -67.620276 0.000000 0.000000 0.000000 -12.251415 9.852338 -102.464589 20.221805 -12.970254 -114.968881 24.377251 -19.080483 -104.228609 0.000000 0.000000 0.000000 4.541011 3.534408 104.222042 4.281851 4.637071 85.433896 11.784407 16.680444 70.288556 0.000000 0.000000 0.000000 157.406967 -70.066634 15.944186 -44.340203 -47.284244 -94.103509 -78.197829 7.602892 -6.181543 0.000000 0.000000 0.000000 -1.925312 14.294597 164.735510 -128.758073 62.355823 32.363881 -46.020632 27.222690 -11.742371 0.000000 0.000000 0.000000
0.000000 0.000000 0.000000 -87.558787 85.469195 177.906883 -171.219387 51.818653 4.271791 166.246708 42.692769 174.603020 -19.518968 -13.193384 -67.829826 0.000000 0.000000 0.000000 -13.114005 10.594917 -102.215261 19.213284 -12.286106 -115.095933 24.489954 -18.847005 -105.187065 0.000000 0.000000 0.000000 4.438258 3.469472 103.979965 3.989830 4.594429 81.935023 10.247996 15.499852 66.760795 0.000000 0.000000 0.000000 116.852492 -73.181724 49.051583 -35.750209 -39.700048 -96.447225 -79.807183 7.557992 -6.323023 0.000000 0.000000 0.000000 -3.390100 26.020682 165.403132 -138.945909 52.096745 20.741830 -48.527382 28.904833 -13.253124 0.000000 0.000000 0.000000
0.000000 0.000000 0.000000 -69.756510 83.341426 -166.132716 -170.972311 56.779960 4.886369 166.598118 43.367334 174.650628 -18.895587 -12.846292 -68.158284 0.000000 0.000000 0.000000 -12.749239 10.344362 -101.969669 21.019569 -13.840700 -113.610543 25.988833 -20.710820 -103.252635 0.000000 0.000000 0.000000 3.727446 2.918892 103.879944 3.928602 4.752889 79.142092 9.067886 14.392285 64.261497 0.000000 0.000000 0.000000 97.570913 -67.823809 60.981933 -31.826114 -38.526277 -101.584106 -79.600929 -4.059127 3.382425 0.000000 0.000000 0.000000 -2.344285 21.802427 167.871484 -143.717722 44.865877 15.406836 -50.840285 27.785693 -13.409090 0.000000 0.000000 0.000000
0.000000 0.000000 0.000000 -66.185663 82.761292 -162.982700 -171.841408 55.465493 4.294557 167.522795 44.963621 174.819441 -18.106596 -12.451549 -68.794537 0.000000 0.000000 0.000000 -13.010638 10.630864 -101.576739 21.411981 -13.747657 -114.954660 25.366620 -20.374225 -102.788115 0.000000 0.000000 0.000000 3.841933 3.030540 103.474719 4.159273 5.307178 76.156743 9.022431 15.008503 61.839123 0.000000 0.000000 0.000000 57.737810 -69.142820 102.677575 -44.371138 -48.550341 -95.759061 -79.302110 3.766616 -3.122025 0.000000 0.000000 0.000000 -1.613472 18.582840 170.161451 -150.226070 41.725164 11.570245 -48.582386 33.555495 -15.497747 0.000000 0.000000 0.000000
0.000000 0.000000 0.000000 -66.229400 82.747502 -163.041708 -172.844757 49.904689 3.332696 167.897254 46.377511 174.799777 -17.486517 -11.997022 -68.684683 0.000000 0.000000 0.000000 -12.719216 10.648514 -100.197542 21.274480 -13.500218 -115.563051 23.467529 -18.468851 -103.895712 0.000000 0.000000 0.000000 4.776345 3.925099 101.185298 5.074589 6.692065 74.319360 9.940913 16.771767 61.077763 0.000000 0.000000 0.000000 38.322740 -65.672650 123.400843 -76.640607 -61.007207 -73.403488 -73.645547 35.563901 -27.005135 0.000000 0.000000 0.000000 -1.300192 13.063098 168.680436 -156.374942 28.374439 6.052900 -48.139299 35.617632 -16.331383 0.000000 0.000000 0.000000
0.000000 0.000000 0.000000 -65.166406 82.538044 -162.130325 -172.982421 46.453843 3.014717 168.551941 46.438216 175.075465 -18.154955 -12.481276 -68.778043 0.000000 0.000000 0.000000 -11.678949 10.069832 -98.513369 22.641547 -14.325003 -115.766607 24.662683 -19.067607 -104.932367 0.000000 0.000000 0.000000 6.234819 5.237255 99.955816 6.907527 9.406543 72.525363 11.503160 20.009202 59.449099 0.000000 0.000000 0.000000 31.876221 -60.151065 127.501332 -106.534585 -64.249256 -50.213560 -70.905469 43.891228 -32.016436 0.000000 0.000000 0.000000 43.421575 -74.986485 125.138906 -154.799927 7.652567 1.712976 -56.657011 32.720917 -17.985819 0.000000 0.000000 0.000000
0.000000 0.000000 0.000000 -65.883500 82.288069 -163.122943 -173.080034 40.979721 2.588581 168.883618 46.477862 175.214323 -17.669843 -12.189599 -68.975801 0.000000 0.000000 0.000000 -9.885027 8.760256 -96.934707 25.100510 -15.867953 -115.903575 24.197204 -18.569330 -105.337097 0.000000 0.000000 0.000000 8.347915 7.054724 99.627110 8.772427 12.483706 70.083845 11.523325 20.613853 58.046297 0.000000 0.000000 0.000000 26.225621 -55.232432 131.995870 -146.256608 -44.386665 -14.106337 -65.660697 43.686950 -29.001552 0.000000 0.000000 0.000000 31.299508 -70.967540 137.092427 -147.212432 -6.032708 -1.776311 -56.058373 32.389406 -17.578088 0.000000 0.000000 0.000000
0.000000 0.000000 0.000000 -67.531809 81.849108 -165.276095 -168.831072 20.493015 2.025175 169.425591 43.758923 175.743381 -22.412796 -14.553562 -65.604314 0.000000 0.000000 0.000000 -10.446418 9.496166 -95.483622 27.257306 -17.598570 -114.887582 26.153327 -20.197188 -105.040795 0.000000 0.000000 0.000000 10.182027 8.526056 100.161351 11.273368 16.435326 68.698923 12.649637 22.998900 57.164891 0.000000 0.000000 0.000000 10.887838 -37.282685 148.449231 -155.874801 7.190266 1.538478 -51.196330 46.995901 -23.531784 0.000000 0.000000 0.000000 -2.577671 27.378103 169.445345 -149.780086 -9.027431 -2.442156 -51.375564 27.922728 -13.638498 0.000000 0.000000 0.000000
0.000000 0.000000 0.000000 -63.411214 80.621896 -162.119802 -166.963835 14.352978 1.648420 170.979888 42.514512 176.484793 -22.352203 -14.023848 -63.807582 0.000000 0.000000 0.000000 -8.978855 8.316933 -94.400005 28.748398 -19.231804 -113.063088 25.119182 -20.349486 -102.291139 0.000000 0.000000 0.000000 8.883506 7.489219 99.767832 11.202709 16.616458 67.770817 12.855057 23.332100 57.235172 0.000000 0.000000 0.000000 10.165553 -36.409708 149.732857 -142.763016 61.758891 22.781161 -44.792616 51.437367 -22.453813 0.000000 0.000000 0.000000 -150.145928 73.241929 22.414266 -152.674483 -7.142577 -1.738373 -48.636531 25.393355 -11.626823 0.000000 0.000000 0.000000
0.000000 0.000000 0.000000 -64.052755 79.900719 -163.502278 -166.722888 14.046022 1.642883 172.008194 42.846213 176.860019 -22.648384 -13.696191 -61.901811 0.000000 0.000000 0.000000 -9.554517 9.081007 -92.923887 27.972487 -19.310869 -111.328880 24.570093 -20.447762 -100.734289 0.000000 0.000000 0.000000 7.170327 6.056363 99.649447 9.770272 14.652920 67.228214 12.196862 22.101897 57.362094 0.000000 0.000000 0.000000 5.349788 -23.798500 154.997776 -46.878373 69.660231 116.146026 -46.937283 50.932507 -23.364911 0.000000 0.000000 0.000000 -164.572370 54.884242 8.046823 -154.618624 -10.776358 -2.433530 -44.783472 23.447421 -9.773722 0.000000 0.000000 0.000000
0.000000 0.000000 0.000000 -61.944600 79.153755 -161.968079 -164.759237 11.189455 1.501734 174.239910 42.761429 177.743272 -23.585038 -14.030164 -61.030196 0.000000 0.000000 0.000000 -8.344006 8.143155 -91.400739 31.042905 -21.538379 -111.189115 26.101138 -21.809037 -100.538860 0.000000 0.000000 0.000000 6.770227 5.693740 99.891784 9.454625 14.244020 66.996474 11.676513 21.431714 56.767191 0.000000 0.000000 0.000000 2.359701 -11.590888 157.058981 -21.114402 52.053035 138.219235 -43.837527 58.097196 -25.195808 0.000000 0.000000 0.000000 -167.438789 19.350203 2.149876 -148.758343 -20.653260 -5.832896 -44.835842 21.718387 -9.049605 0.000000 0.000000 0.000000
0.000000 0.000000 0.000000 -58.265824 78.002860 -159.073770 -165.426694 10.493785 1.345502 174.560617 43.192526 177.845442 -21.749081 -13.264944 -62.370782 0.000000 0.000000 0.000000 -6.912406 6.906228 -90.051362 32.835427 -22.515803 -111.917054 27.166559 -22.640011 -100.715517 0.000000 0.000000 0.000000 7.969119 6.635261 100.464922 8.813620 13.042261 67.974390 11.444848 20.659795 57.602332 0.000000 0.000000 0.000000 1.746079 -9.293835 158.763191 -22.265955 52.815594 136.763605 -42.550662 58.407863 -24.558569 0.000000 0.000000 0.000000 -164.378753 -2.653758 -0.364085 -142.715859 -24.201946 -8.273839 -46.214125 17.795388 -7.643246 0.000000 0.000000 0.000000
0.000000 0.000000 0.000000 -52.002771 76.210101 -153.759398 -165.831300 10.613973 1.322823 174.564409 43.607017 177.824162 -20.457141 -12.782721 -63.662243 0.000000 0.000000 0.000000 -7.275061 7.381892 -89.162498 31.707132 -21.894687 -111.480538 26.555193 -22.478436 -99.798429 0.000000 0.000000 0.000000 7.678790 6.405798 100.354641 8.728962 12.655256 69.077346 11.557404 20.363575 58.800586 0.000000 0.000000 0.000000 1.702028 -10.741810 162.043412 -41.982153 67.793564 120.542659 -46.032938 50.811359 -22.814622 0.000000 0.000000 0.000000 -164.025895 -16.075741 -2.270211 -139.333325 -32.320112 -12.258016 -43.687798 14.487926 -5.833736 0.000000 0.000000 0.000000
0.000000 0.000000 0.000000 -48.627964 75.384959 -150.632547 -165.000256 10.051643 1.326646 174.549695 43.922428 177.800836 -18.895179 -11.999291 -64.552138 0.000000 0.000000 0.000000 -7.064063 7.202548 -88.884825 31.485544 -21.804796 -111.311637 26.742519 -22.701386 -99.638016 0.000000 0.000000 0.000000 7.637222 6.450261 99.656345 8.431338 11.931384 70.395986 12.758063 20.768708 62.772600 0.000000 0.000000 0.000000 -3.076891 22.966617 164.937720 -63.852152 71.918562 98.683113 -43.944762 46.960139 -19.881952 0.000000 0.000000 0.000000 -160.116681 -30.786522 -5.525584 -136.965607 -38.014208 -15.467856 -44.479573 10.983868 -4.502820 0.000000 0.000000 0.000000
0.000000 0.000000 0.000000 -47.399526 75.199561 -149.367265 -164.090207 10.070109 1.410741 173.432695 44.021097 177.342796 -20.995982 -13.024272 -63.267781 0.000000 0.000000 0.000000 -7.731108 7.799056 -89.497099 29.639741 -20.641359 -110.923204 27.220582 -23.201739 -99.411734 0.000000 0.000000 0.000000 7.678558 6.559330 99.012387 8.718375 11.510227 74.204572 15.356313 22.470749 68.327652 0.000000 0.000000 0.000000 -46.306656 76.907777 123.394897 -85.373530 71.169388 75.606277 -47.121612 46.693377 -21.319547 0.000000 0.000000 0.000000 -155.391975 -46.497708 -10.706163 -135.022977 -43.468736 -18.742098 -46.408177 10.685474 -4.591567 0.000000 0.000000 0.000000
0.000000 0.000000 0.000000 -44.795149 74.843373 -146.614603 -164.184934 12.046244 1.679239 172.519160 43.754339 176.992600 -22.073785 -13.501520 -62.505515 0.000000 0.000000 0.000000 -7.509848 7.475663 -90.262153 28.720710 -20.567691 -109.349917 26.667124 -23.812791 -96.685580 0.000000 0.000000 0.000000 7.685812 6.663728 98.169485 9.171692 11.306558 78.034337 16.704888 22.828181 72.050701 0.000000 0.000000 0.000000 -135.228237 75.708037 35.500866 -111.595141 68.279385 49.485442 -49.370805 48.029898 -23.147005 0.000000 0.000000 0.000000 -149.925483 -57.505476 -16.770162 -125.472303 -52.144634 -28.304641 -47.357882 11.422457 -5.022539 0.000000 0.000000 0.000000
0.000000 0.000000 0.000000 -42.567479 74.427899 -144.312268 -164.702049 12.920222 1.742424 171.188472 43.291706 176.497292 -21.921722 -13.373683 -62.377727 0.000000 0.000000 0.000000 -7.956865 7.873940 -90.602160 27.594337 -20.115507 -108.321766 25.182581 -23.193883 -94.850471 0.000000 0.000000 0.000000 7.451723 6.479641 98.002401 10.324915 11.919793 81.746871 18.126221 24.259161 73.165275 0.000000 0.000000 0.000000 -135.000919 78.254703 37.241772 -142.923514 52.630729 18.833144 -50.757565 45.421484 -22.459222 0.000000 0.000000 0.000000 -152.424052 -58.237698 -15.567520 -101.056549 -61.698639 -52.382424 -45.428806 5.572448 -2.334169 0.000000 0.000000 0.000000
0.000000 0.000000 0.000000 -43.183746 75.223376 -144.378510 -165.984771 17.896069 2.217559 168.506213 43.357876 175.418020 -20.868101 -12.538146 -61.636736 0.000000 0.000000 0.000000 -10.038383 9.751618 -91.668638 26.811651 -19.846368 -107.441849 26.172614 -23.990011 -95.145043 0.000000 0.000000 0.000000 6.239881 5.413743 98.123834 9.999200 11.140662 83.783518 17.855249 23.891905 73.187240 0.000000 0.000000 0.000000 -162.348409 56.194088 9.477484 -148.062568 23.232895 6.733056 -57.338983 46.661328 -26.539532 0.000000 0.000000 0.000000 -22.478594 -75.486501 -151.204925 -51.531263 -61.984569 -102.432209 -48.429970 5.502316 -2.476087 0.000000 0.000000 0.000000
0.000000 0.000000 0.000000 -44.867377 76.787000 -145.040733 -167.264681 20.058536 2.261314 168.404121 43.664333 175.341073 -21.246693 -12.526113 -60.665242 0.000000 0.000000 0.000000 -10.651040 10.315806 -91.842280 28.152156 -20.773339 -107.665268 27.645669 -24.660647 -96.763624 0.000000 0.000000 0.000000 5.057892 4.380401 98.220635 10.158031 11.438978 83.171259 17.001093 23.731783 70.851571 0.000000 0.000000 0.000000 -167.890894 45.567306 5.101777 -149.154999 3.813245 1.052313 -59.860634 45.103579 -26.892306 0.000000 0.000000 0.000000 -13.499233 -78.781341 -163.596798 -46.169507 -57.512067 -104.326629 -51.086443 3.269508 -1.562831 0.000000 0.000000 0.000000
0.000000 0.000000 0.000000 -51.666835 81.168912 -148.947182 -169.496878 28.842727 2.708003 169.437446 46.482778 175.453346 -21.618735 -12.623897 -60.170378 0.000000 0.000000 0.000000 -9.829077 9.377897 -92.703941 30.181397 -21.214443 -110.438369 29.800620 -24.105900 -102.508725 0.000000 0.000000 0.000000 5.317630 4.585417 98.467731 10.655694 12.138021 82.509375 16.732317 23.917309 69.547864 0.000000 0.000000 0.000000 -174.949485 5.049285 0.222831 -148.105388 -8.448939 -2.418312 -57.424069 44.481038 -25.250312 0.000000 0.000000 0.000000 8.434694 -67.043821 167.296403 -43.319164 -49.101694 -97.993915 -58.644818 -4.242787 2.383869 0.000000 0.000000 0.000000
0.000000 0.000000 0.000000 -63.440956 85.021408 -157.982935 -170.281864 32.095652 2.801574 169.748539 47.460253 175.483772 -21.039002 -12.144591 -59.615720 0.000000 0.000000 0.000000 -8.863436 8.404051 -93.059432 32.356711 -21.289509 -114.125340 31.175834 -23.660698 -106.199640 0.000000 0.000000 0.000000 5.960423 5.106421 98.838863 10.940727 12.552708 82.094874 16.628042 24.089013 68.813761 0.000000 0.000000 0.000000 -174.192167 -43.975912 -2.346779 -148.818426 -17.379152 -4.883900 -57.597873 46.285117 -26.445051 0.000000 0.000000 0.000000 5.279869 -45.996202 167.600076 -36.154087 -46.139586 -105.069070 -59.017770 0.650773 -0.368326 0.000000 0.000000 0.000000
0.000000 0.000000 0.000000 -99.556975 87.693067 168.175680 -170.497102 30.098708 2.560516 170.657643 48.073244 175.825948 -21.489518 -11.976395 -57.865786 0.000000 0.000000 0.000000 -9.672370 9.107933 -93.458422 30.388358 -18.486021 -118.139467 29.736366 -21.121213 -109.844081 0.000000 0.000000 0.000000 5.749425 4.914675 98.964387 10.307582 11.900639 81.742934 16.267994 23.568744 68.828843 0.000000 0.000000 0.000000 -100.735228 -86.199625 -75.553779 -148.008032 -25.834454 -7.523202 -61.393765 47.465778 -29.257368 0.000000 0.000000 0.000000 2.752077 -27.003838 168.574277 -45.092000 -50.359808 -97.107645 -56.903412 6.908268 -3.746554 0.000000 0.000000 0.000000
0.000000 0.000000 0.000000 162.110513 85.877759 73.335340 -171.012434 24.060987 1.919124 170.809462 49.321312 175.773316 -21.840489 -11.832342 -56.480134 0.000000 0.000000 0.000000 -9.965601 9.205645 -94.561270 30.730625 -17.498867 -121.496128 28.386847 -19.660289 -111.170353 0.000000 0.000000 0.000000 5.762354 4.873415 99.568937 10.306986 12.262724 80.031488 15.393364 23.318425 66.445153 0.000000 0.000000 0.000000 -6.207911 -59.358144 -169.129191 -146.674506 -40.928764 -12.746340 -62.176825 48.089946 -30.114842 0.000000 0.000000 0.000000 2.081381 -12.297023 160.856826 -46.346719 -50.677921 -95.775616 -59.637026 8.787961 -5.043323 0.000000 0.000000 0.000000
0.000000 0.000000 0.000000 156.491135 84.822294 68.475403 -171.139810 12.627682 0.982275 172.403031 48.405142 176.581380 -25.604997 -13.154270 -53.805608 0.000000 0.000000 0.000000 -9.953922 9.114074 -95.067193 32.288361 -17.717615 -123.401405 30.142481 -19.930288 -113.753167 0.000000 0.000000 0.000000 5.253971 4.433655 99.691547 9.994545 12.118515 78.959740 14.209884 22.514942 64.109750 0.000000 0.000000 0.000000 -6.619510 -56.393048 -167.686726 -148.996405 -40.509987 -11.687788 -63.273488 47.121265 -30.075820 0.000000 0.000000 0.000000 3.453718 -16.223744 156.113646 -69.751379 -57.013246 -75.853418 -60.117545 14.263553 -8.283026 0.000000 0.000000 0.000000
0.000000 0.000000 0.000000 134.859940 75.925382 54.063952 -170.097949 0.899213 0.077898 171.297263 51.964101 175.752539 -24.685804 -12.869735 -54.535025 0.000000 0.000000 0.000000 -10.502609 9.188681 -97.672383 32.628869 -17.643334 -124.132153 28.858390 -18.681338 -114.820463 0.000000 0.000000 0.000000 6.404190 5.185810 102.022289 8.662787 10.339020 79.871720 12.943217 20.453990 64.318278 0.000000 0.000000 0.000000 -8.157649 -55.362313 -164.518113 -158.503274 -41.553970 -8.238776 -60.624232 47.633783 -28.940248 0.000000 0.000000 0.000000 5.827272 -18.596016 145.461812 -69.997168 -58.883913 -77.747414 -71.016580 10.948090 -7.823265 0.000000 0.000000 0.000000
0.000000 0.000000 0.000000 128.538194 70.848287 52.156884 -171.166882 -7.147502 -0.552761 170.945082 53.697437 175.409257 -22.848705 -12.018475 -55.032227 0.000000 0.000000 0.000000 -8.602557 7.272232 -99.610870 33.261910 -17.983993 -124.173922 30.426366 -19.648899 -115.022810 0.000000 0.000000 0.000000 8.517136 6.802235 102.811918 8.506350 9.873132 81.457863 13.114886 20.666672 64.458835 0.000000 0.000000 0.000000 -10.038884 -57.596962 -161.844777 -123.925805 -70.772520 -41.439700 -63.173382 45.663074 -29.027298 0.000000 0.000000 0.000000 3.734215 -13.434208 149.057259 -145.903648 -43.162919 -13.832005 -60.281159 29.135128 -17.161359 0.000000 0.000000 0.000000
0.000000 0.000000 0.000000 127.417281 69.871952 51.919800 -171.714107 -16.729025 -1.220392 171.209629 53.423049 175.570200 -23.779237 -12.268173 -54.083574 0.000000 0.000000 0.000000 -8.072717 6.688433 -100.744187 33.614697 -18.334367 -123.772517 30.955386 -20.177434 -114.554909 0.000000 0.000000 0.000000 9.600108 7.762706 102.127064 9.275743 10.421358 83.309962 13.935418 21.512057 65.509799 0.000000 0.000000 0.000000 -9.352565 -53.278952 -161.476978 -138.873811 -60.105058 -24.491782 -63.479993 46.477982 -29.750938 0.000000 0.000000 0.000000 3.939765 -13.795719 148.258060 -163.588913 17.057565 2.477661 -50.823784 36.637248 -17.877869 0.000000 0.000000 0.000000
0.000000 0.000000 0.000000 127.483033 69.885068 51.962247 -172.125496 -18.412490 -1.278232 171.288278 53.274061 175.624141 -23.205474 -11.860052 -53.668846 0.000000 0.000000 0.000000 -8.332891 6.949645 -100.373984 33.964219 -18.569515 -123.677310 31.607303 -20.595971 -114.604065 0.000000 0.000000 0.000000 9.788237 7.957791 101.824480 9.501542 10.595158 83.738443 14.917818 22.416917 66.905267 0.000000 0.000000 0.000000 -9.237124 -49.758845 -160.236652 -130.592690 -60.027405 -29.763972 -66.018973 41.105726 -27.378502 0.000000 0.000000 0.000000 4.075675 -14.853560 149.464183 -143.931258 69.078736 25.262210 -46.976931 37.482636 -16.774999 0.000000 0.000000 0.000000
0.000000 0.000000 0.000000 128.686600 70.513843 52.489577 -171.091435 -14.841603 -1.162613 170.448934 53.821887 175.143825 -20.371666 -10.373477 -53.607280 0.000000 0.000000 0.000000 -9.696151 8.107422 -100.239337 33.059809 -18.413639 -122.717770 30.106368 -19.785202 -114.077837 0.000000 0.000000 0.000000 9.245638 7.612665 101.104733 8.580393 9.506759 84.111799 15.468575 22.944460 67.581729 0.000000 0.000000 0.000000 -15.661972 -59.099773 -152.727274 -128.161221 -57.420410 -29.811347 -66.598740 33.252957 -22.195288 0.000000 0.000000 0.000000 4.558711 -16.722853 149.694507 -7.969044 35.429210 155.396512 -40.926852 34.133328 -13.070690 0.000000 0.000000 0.000000
0.000000 0.000000 0.000000 129.721882 71.134652 52.900954 -170.230080 -12.144056 -1.041776 170.388790 53.952046 175.099395 -19.545550 -10.088711 -54.267874 0.000000 0.000000 0.000000 -10.227766 8.700504 -99.267674 32.228611 -17.697826 -123.362256 30.116408 -20.256664 -112.832880 0.000000 0.000000 0.000000 8.973163 7.445662 100.666194 8.437493 9.315076 84.317260 16.198498 23.031542 69.867100 0.000000 0.000000 0.000000 -20.359183 -63.620004 -147.709713 -127.748043 -54.257397 -28.211545 -67.251129 31.795535 -21.451128 0.000000 0.000000 0.000000 5.087156 -19.363181 150.809820 -11.286410 47.871125 154.900114 -39.407184 32.520624 -11.926201 0.000000 0.000000 0.000000
0.000000 0.000000 0.000000 130.422424 71.128619 53.453448 -169.709428 -6.076402 -0.547655 169.745575 54.727925 174.682399 -18.899436 -9.863351 -54.806823 0.000000 0.000000 0.000000 -10.111218 8.725792 -98.450510 29.324611 -16.492309 -122.035512 30.594988 -20.590581 -112.823753 0.000000 0.000000 0.000000 9.679513 8.052013 100.529859 7.706971 8.503600 84.354471 16.200865 22.561097 71.019250 0.000000 0.000000 0.000000 -16.035925 -55.815047 -150.213334 -110.696288 -62.360401 -45.396522 -66.662748 31.144152 -20.771458 0.000000 0.000000 0.000000 2.239444 -9.449893 153.390929 -17.648111 61.191007 150.579067 -43.276849 34.075153 -13.862770 0.000000 0.000000 0.000000
0.000000 0.000000 0.000000 129.042129 69.414351 53.469117 -169.753096 -1.827878 -0.163902 166.399060 55.946768 172.751923 -18.503113 -9.968394 -56.329408 0.000000 0.000000 0.000000 -9.860514 8.537010 -98.264608 27.274168 -16.191503 -119.232831 28.258003 -19.689253 -110.836509 0.000000 0.000000 0.000000 9.915709 8.379879 99.637341 7.020557 7.627192 85.244006 15.985348 21.915838 71.898670 0.000000 0.000000 0.000000 -15.882247 -54.012216 -149.386200 -82.304806 -65.957061 -73.183893 -65.434969 32.838461 -21.439466 0.000000 0.000000 0.000000 -2.578435 11.428561 154.649849 -17.369463 65.155873 153.111555 -42.073573 35.608458 -14.082242 0.000000 0.000000 0.000000
0.000000 0.000000 0.000000 125.410675 65.497337 53.278134 -169.705021 0.073076 0.006583 161.815276 57.712768 169.920650 -17.185547 -9.872366 -59.501028 0.000000 0.000000 0.000000 -9.618019 8.287353 -98.534795 23.129064 -14.559047 -116.050143 23.614638 -17.267946 -108.013336 0.000000 0.000000 0.000000 9.565061 8.194189 98.863137 6.613647 7.068643 86.181688 16.013789 21.679115 72.604108 0.000000 0.000000 0.000000 -27.804242 -62.521619 -135.636843 -52.669452 -63.773294 -102.985668 -66.031331 39.707125 -26.408650 0.000000 0.000000 0.000000 -11.361258 39.766919 149.243668 -151.479104 59.452619 16.514919 -47.133966 42.347559 -19.180516 0.000000 0.000000 0.000000
0.000000 0.000000 0.000000 125.695790 65.464321 53.508750 -168.954048 -0.057005 -0.005512 158.980368 58.593096 168.114719 -14.572113 -8.517359 -60.434420 0.000000 0.000000 0.000000 -9.242561 7.889065 -99.068008 18.722261 -13.167437 -110.006826 20.701610 -17.354834 -100.236344 0.000000 0.000000 0.000000 9.499330 8.373853 97.235441 4.852668 5.190176 86.145469 15.971365 21.111985 73.945533 0.000000 0.000000 0.000000 -28.577290 -63.398554 -135.179161 -47.204170 -61.750425 -107.682940 -66.267862 34.940903 -23.218288 0.000000 0.000000 0.000000 -10.811285 38.948949 150.037578 -144.054694 64.401134 23.091622 -46.518115 40.648423 -18.091403 0.000000 0.000000 0.000000
0.000000 0.000000 0.000000 126.284351 65.754809 53.750967 -168.233782 0.910412 0.093813 159.029771 58.805709 168.091848 -14.030691 -8.343569 -61.313728 0.000000 0.000000 0.000000 -8.815453 7.485324 -99.361095 16.408636 -12.105500 -107.335469 17.867503 -16.263733 -95.460597 0.000000 0.000000 0.000000 9.140886 8.197671 96.251330 4.228582 4.677881 84.218363 15.371082 20.670196 73.002566 0.000000 0.000000 0.000000 -30.681630 -64.605191 -133.086865 -55.938405 -62.891085 -98.058051 -66.465181 35.500332 -23.690084 0.000000 0.000000 0.000000 -8.216310 32.799276 152.570924 -153.363109 54.654607 13.948493 -47.559260 37.023542 -16.784922 0.000000 0.000000 0.000000
0.000000 0.000000 0.000000 126.786213 66.099643 53.896719 -167.975264 3.504777 0.369246 159.342772 59.456799 168.117066 -13.422509 -8.030555 -61.634541 0.000000 0.000000 0.000000 -7.156128 5.995472 -100.108706 15.203424 -11.782241 -104.581427 16.443620 -14.880145 -95.786404 0.000000 0.000000 0.000000 8.378199 7.735278 94.584788 3.975584 4.553803 82.236438 14.711942 20.605070 70.764031 0.000000 0.000000 0.000000 -18.215652 -55.947780 -146.408295 -42.589949 -59.508110 -111.422489 -64.446379 29.889818 -19.099874 0.000000 0.000000 0.000000 -9.620094 40.758082 154.473145 -153.005447 42.759722 10.736506 -50.065272 37.235312 -17.881384 0.000000 0.000000 0.000000
0.000000 0.000000 0.000000 128.442682 67.084943 54.492053 -167.706727 6.762867 0.729147 160.135498 60.502862 168.337673 -11.390006 -6.944837 -62.638232 0.000000 0.000000 0.000000 -5.933637 5.083987 -98.833006 16.438689 -12.748470 -104.564531 16.233602 -14.345424 -97.150798 0.000000 0.000000 0.000000 8.236974 7.613676 94.518144 3.196596 3.879404 78.969569 13.403255 20.123055 67.027170 0.000000 0.000000 0.000000 -42.550343 -77.048998 -127.874032 -31.655455 -48.147460 -115.206506 -67.714157 38.468549 -26.348855 0.000000 0.000000 0.000000 -14.224123 53.325049 152.091179 -152.068695 -13.276388 -3.315650 -54.742962 36.409164 -19.325422 0.000000 0.000000 0.000000
0.000000 0.000000 0.000000 134.734380 72.020351 56.283039 -167.508557 17.404823 1.919427 161.768883 59.413554 169.538796 -11.865448 -7.159081 -62.094268 0.000000 0.000000 0.000000 -5.058782 4.558271 -95.965405 18.285878 -13.799318 -106.123551 18.043834 -15.620590 -98.352974 0.000000 0.000000 0.000000 7.704665 7.453124 91.907003 2.932246 3.774402 75.677657 12.329160 19.361202 64.681630 0.000000 0.000000 0.000000 -172.751911 -54.308340 -3.721343 -34.610216 -48.122603 -110.187482 -73.685516 22.993903 -17.330088 0.000000 0.000000 0.000000 -7.474763 43.287292 161.303760 -112.179395 -58.933015 -41.594821 -57.467644 25.986536 -14.419919 0.000000 0.000000 0.000000
0.000000 0.000000 0.000000 143.064811 77.328780 60.078294 -167.316468 19.092309 2.141504 162.384191 59.091029 169.961327 -12.870868 -7.663888 -61.405725 0.000000 0.000000 0.000000 -5.040428 4.637477 -94.774055 19.463472 -14.537668 -106.722288 17.908860 -15.503237 -98.353061 0.000000 0.000000 0.000000 6.816885 6.813969 90.024575 3.008467 4.149324 71.876673 11.765482 18.984162 63.286003 0.000000 0.000000 0.000000 3.069702 -63.604384 175.051394 -43.670685 -52.612424 -101.949939 -75.604713 13.014803 -10.113470 0.000000 0.000000 0.000000 -2.890496 27.948166 168.421573 -115.954518 -50.068480 -32.565525 -61.244273 23.109437 -13.800337 0.000000 0.000000 0.000000
0.000000 0.000000 0.000000 163.504786 83.799884 75.179827 -167.978711 22.893507 2.442726 164.346606 59.644931 170.989449 -13.198420 -7.762010 -60.774352 0.000000 0.000000 0.000000 -5.431374 5.176725 -92.754187 18.840753 -14.080762 -106.674937 15.018126 -12.841296 -99.023330 0.000000 0.000000 0.000000 5.440113 5.731135 87.010726 2.279272 3.345001 68.532653 8.829795 14.722792 61.726436 0.000000 0.000000 0.000000 136.875560 -66.766584 29.191181 -26.556675 -37.449923 -110.308273 -74.837479 1.993518 -1.525257 0.000000 0.000000 0.000000 -2.306309 27.893878 170.732274 -137.554295 -10.933842 -4.256949 -63.084844 30.603441 -19.066794 0.000000 0.000000 0.000000
0.000000 0.000000 0.000000 -176.570899 85.789730 93.186075 -167.910616 23.511345 2.524811 168.300029 60.179642 173.204860 -12.705922 -7.330277 -59.826812 0.000000 0.000000 0.000000 -5.012308 4.989694 -90.259414 20.158605 -14.789518 -107.731207 16.645440 -13.475170 -102.153728 0.000000 0.000000 0.000000 5.105308 5.753982 83.152874 2.190984 3.349492 66.370786 8.909368 15.474508 59.659628 0.000000 0.000000 0.000000 145.732907 -55.800365 18.541011 -33.955437 -48.874589 -112.207319 -67.388716 8.016085 -5.349769 0.000000 0.000000 0.000000 -1.445315 15.098547 169.126403 -137.753057 -15.165634 -5.888331 -58.257370 28.623003 -16.181916 0.000000 0.000000 0.000000
0.000000 0.000000 0.000000 177.244456 85.378742 87.458130 -167.152191 26.610343 3.050393 170.524679 61.760018 174.325320 -11.287995 -6.397291 -58.975222 0.000000 0.000000 0.000000 -5.172679 5.236418 -89.297352 20.043810 -14.599922 -108.124539 15.341342 -12.258751 -102.867145 0.000000 0.000000 0.000000 4.648487 5.342485 82.042946 1.797242 2.964853 62.439850 8.387116 15.607183 56.295068 0.000000 0.000000 0.000000 138.840511 -66.544193 27.681438 -45.310312 -62.394609 -110.845686 -73.184447 30.485967 -22.875244 0.000000 0.000000 0.000000 -1.684314 16.217298 168.219016 -138.290766 -20.887823 -8.033463 -45.204442 32.506996 -13.840228 0.000000 0.000000 0.000000
0.000000 0.000000 0.000000 178.177636 85.491025 88.315668 -166.236339 29.095769 3.587903 171.313044 62.832400 174.687709 -9.993939 -5.654759 -58.919183 0.000000 0.000000 0.000000 -5.589240 5.760499 -88.268196 20.661155 -14.460737 -110.324366 14.962505 -11.625829 -104.431564 0.000000 0.000000 0.000000 4.505860 5.235281 81.425085 1.422696 2.510873 59.067666 8.305938 15.237139 56.990282 0.000000 0.000000 0.000000 23.814839 -62.194836 141.461156 -75.468398 -69.383606 -83.626892 -66.132834 36.530978 -24.254784 0.000000 0.000000 0.000000 -2.126277 20.815150 168.461277 -136.813298 -31.116257 -12.576774 -48.427808 32.379830 -14.877698 0.000000 0.000000 0.000000
0.000000 0.000000 0.000000 -177.844083 85.673955 91.999021 -166.320851 28.930471 3.544542 171.594097 62.712277 174.872062 -9.555460 -5.403209 -58.895099 0.000000 0.000000 0.000000 -6.027974 6.170102 -88.662352 20.464488 -14.139932 -111.015702 15.283710 -11.811754 -104.737185 0.000000 0.000000 0.000000 4.482843 5.329286 80.127262 1.168368 2.173314 56.520633 8.174267 15.624019 55.023130 0.000000 0.000000 0.000000 11.974437 -41.825766 149.304507 -139.407916 -58.838810 -23.560929 -62.742547 43.152389 -27.111718 0.000000 0.000000 0.000000 -13.526827 64.437702 158.684468 -135.588601 -35.694496 -14.975256 -49.688520 31.091377 -14.678543 0.000000 0.000000 0.000000
0.000000 0.000000 0.000000 -173.822706 85.838999 95.744967 -165.978329 28.728120 3.607616 172.450458 62.533605 175.411605 -9.305972 -5.218255 -58.488620 0.000000 0.000000 0.000000 -6.413928 6.715075 -87.366264 19.603188 -13.819863 -109.901128 15.632221 -11.920696 -105.488112 0.000000 0.000000 0.000000 4.362971 5.185983 80.136577 1.090279 2.080660 55.305912 8.383542 16.470027 53.716405 0.000000 0.000000 0.000000 6.937872 -30.935184 155.287478 -160.803406 11.589929 1.966453 -62.612698 47.160013 -29.732252 0.000000 0.000000 0.000000 -160.719170 59.094605 11.000002 -135.930164 -42.297074 -17.796934 -45.824266 24.374234 -10.431485 0.000000 0.000000 0.000000
0.000000 0.000000 0.000000 -178.994340 85.530371 90.930121 -165.645348 29.498696 3.797591 172.527714 63.152702 175.403216 -10.573157 -5.839280 -57.725615 0.000000 0.000000 0.000000 -6.584695 6.985175 -86.611197 20.011215 -13.796252 -111.121587 16.333673 -12.254500 -106.405134 0.000000 0.000000 0.000000 4.262396 5.100918 79.753928 1.030661 1.947967 55.762971 9.213364 17.816192 54.412574 0.000000 0.000000 0.000000 -0.716924 3.845756 158.887807 -41.666817 72.427220 125.080760 -60.558578 59.186070 -36.689940 0.000000 0.000000 0.000000 -168.101111 28.737145 3.058436 -123.740916 -56.606975 -32.122373 -48.458802 28.574207 -13.075667 0.000000 0.000000 0.000000
0.000000 0.000000 0.000000 -179.983862 85.447662 90.014904 -165.206574 27.424843 3.628620 172.337898 64.138318 175.194969 -8.666284 -4.791545 -57.811657 0.000000 0.000000 0.000000 -7.386445 7.961387 -85.696493 18.354170 -12.562996 -111.463268 15.368478 -11.351188 -107.250836 0.000000 0.000000 0.000000 3.805166 4.542419 79.896730 0.597145 1.113653 56.399674 9.233581 17.656987 54.941880 0.000000 0.000000 0.000000 -2.120056 11.381155 158.961564 -14.216180 44.181590 145.841834 -45.196036 61.331374 -27.726660 0.000000 0.000000 0.000000 -167.575015 -2.918891 -0.317805 -123.464510 -57.823760 -33.080953 -45.856558 25.261756 -10.829855 0.000000 0.000000 0.000000
0.000000 0.000000 0.000000 175.891718 85.091940 86.229130 -165.075850 23.739243 3.153808 172.040904 64.997871 174.924856 -7.355652 -4.049012 -57.615897 0.000000 0.000000 0.000000 -8.262652 8.877130 -85.878220 16.528600 -11.231594 -111.805962 14.126024 -10.467711 -107.047239 0.000000 0.000000 0.000000 3.872372 4.648196 79.585302 0.194680 0.353752 57.650550 9.570934 17.762851 56.359580 0.000000 0.000000 0.000000 -7.660794 35.810438 156.585132 -15.713796 44.983482 143.135110 -37.896561 62.775176 -23.660316 0.000000 0.000000 0.000000 -167.650369 -19.310274 -2.108944 -119.420368 -59.942530 -37.232004 -45.312004 25.696729 -10.876697 0.000000 0.000000 0.000000
0.000000 0.000000 0.000000 175.106968 85.103269 85.507814 -165.110799 24.594592 3.263142 170.222622 65.094179 173.750835 -4.865005 -2.673115 -57.553575 0.000000 0.000000 0.000000 -8.502274 9.043979 -86.449507 16.099868 -11.143406 -110.807432 14.772853 -11.315802 -105.224157 0.000000 0.000000 0.000000 4.111661 4.932441 79.618242 0.300805 0.531712 58.995920 9.973269 18.017896 57.651614 0.000000 0.000000 0.000000 -14.733528 53.512022 151.234576 -31.631549 61.573512 129.143640 -34.650664 64.039181 -22.076872 0.000000 0.000000 0.000000 -165.393849 -40.984027 -5.484260 -105.075588 -65.012897 -52.052064 -42.675720 22.155290 -8.747306 0.000000 0.000000 0.000000
0.000000 0.000000 0.000000 173.568348 85.249368 84.079727 -165.269099 24.432040 3.206093 170.235886 65.154475 173.752108 -3.633524 -2.032238 -58.425510 0.000000 0.000000 0.000000 -8.204817 8.687917 -86.711917 16.722751 -11.816235 -109.703512 17.066083 -13.438415 -103.721532 0.000000 0.000000 0.000000 5.073844 6.078662 79.687281 0.822439 1.399629 60.876374 10.045621 18.485971 56.745244 0.000000 0.000000 0.000000 -88.091916 75.287387 77.140756 -127.600645 63.141954 33.647502 -45.058537 63.759315 -28.932963 0.000000 0.000000 0.000000 -159.088057 -58.864630 -11.888725 -72.682518 -67.133439 -84.098863 -41.505979 19.842226 -7.583697 0.000000 0.000000 0.000000
0.000000 0.000000 0.000000 172.370623 85.477623 82.948717 -164.952837 23.594930 3.160209 169.862208 65.032808 173.527412 -3.468565 -1.950520 -58.691534 0.000000 0.000000 0.000000 -7.638032 8.057245 -86.930463 16.837217 -11.917930 -109.611195 17.998304 -14.152733 -103.817769 0.000000 0.000000 0.000000 5.990230 7.147411 79.910801 0.760315 1.225703 63.622235 11.589263 18.771745 63.094883 0.000000 0.000000 0.000000 -140.005295 63.750786 25.502754 -112.717751 65.467421 46.318002 -50.932038 58.488247 -29.860771 0.000000 0.000000 0.000000 -145.671111 -71.587529 -25.111343 -40.236270 -60.994335 -116.242052 -41.219646 16.488211 -6.237718 0.000000 0.000000 0.000000
0.000000 0.000000 0.000000 173.380840 85.891984 83.838272 -164.657307 23.123163 3.156775 168.137464 64.553803 172.491393 -3.732023 -2.155255 -60.001437 0.000000 0.000000 0.000000 -7.147572 7.663375 -85.999762 16.690276 -12.545555 -106.308478 18.502726 -15.388285 -100.653468 0.000000 0.000000 0.000000 6.437721 7.630326 80.284687 1.023251 1.426314 71.310683 13.502782 19.318701 69.640048 0.000000 0.000000 0.000000 -153.960566 44.555142 10.822836 -142.444880 46.160327 16.487223 -56.717756 57.029264 -32.687565 0.000000 0.000000 0.000000 -128.777881 -76.825221 -41.624151 -38.509596 -58.564411 -116.161156 -44.150685 12.351888 -5.025657 0.000000 0.000000 0.000000
0.000000 0.000000 0.000000 172.601190 86.679869 83.016910 -165.065854 26.008716 3.467617 168.381321 63.164886 172.841795 -5.677820 -3.470205 -62.839236 0.000000 0.000000 0.000000 -6.674943 7.270976 -85.093393 16.178276 -13.679824 -99.674286 18.062795 -17.457520 -91.984085 0.000000 0.000000 0.000000 7.832307 8.992426 82.082846 1.549753 1.922627 77.739972 14.674711 19.362258 74.091529 0.000000 0.000000 0.000000 -159.835760 38.791215 7.164057 -152.286316 28.107713 7.067000 -60.188458 52.435897 -31.857187 0.000000 0.000000 0.000000 -71.301388 -81.563813 -100.513318 -30.876921 -52.625914 -121.636259 -46.018123 7.532124 -3.202384 0.000000 0.000000 0.000000
0.000000 0.000000 0.000000 154.890424 85.179494 66.861876 -164.779576 30.104646 4.115673 168.287676 64.383987 172.611115 -5.576265 -3.405244 -62.796864 0.000000 0.000000 0.000000 -5.857630 6.628476 -82.920596 16.905160 -13.988775 -100.915281 18.951781 -17.364229 -95.090697 0.000000 0.000000 0.000000 8.418671 9.327133 84.115431 1.528694 1.860924 78.802570 14.515367 19.203568 73.945579 0.000000 0.000000 0.000000 -163.144458 30.199724 4.578579 -155.607936 8.408790 1.820551 -61.447109 51.184715 -31.777952 0.000000 0.000000 0.000000 -96.699633 -83.836315 -77.216831 -29.027520 -49.260928 -121.098719 -48.135597 3.864487 -1.726587 0.000000 0.000000 0.000000
0.000000 0.000000 0.000000 143.355971 83.503946 57.066915 -164.561831 38.917855 5.483543 168.867152 65.311502 172.851727 -6.104624 -3.757087 -63.190307 0.000000 0.000000 0.000000 -4.554652 5.140861 -83.071782 19.119592 -14.912489 -104.298502 20.289699 -17.570596 -98.365872 0.000000 0.000000 0.000000 8.814780 9.400851 86.298852 1.438621 1.758495 78.571596 13.467185 18.130198 73.003309 0.000000 0.000000 0.000000 -165.698651 -17.715179 -2.240046 -155.845975 -9.971299 -2.138630 -60.194238 45.386499 -27.248871 0.000000 0.000000 0.000000 -177.227563 2.495302 0.060393 -23.640520 -40.727688 -121.169167 -50.062366 -4.974241 2.323965 0.000000 0.000000 0.000000
0.000000 0.000000 0.000000 138.849039 80.929628 54.488593 -165.044086 39.961977 5.464830 166.129511 65.170435 171.108826 -6.384581 -4.002196 -64.130938 0.000000 0.000000 0.000000 -4.070873 4.161376 -88.739173 21.190852 -14.702608 -110.813469 21.594524 -17.506586 -102.167459 0.000000 0.000000 0.000000 8.814336 9.225479 87.378005 1.766859 2.250165 76.276195 12.728025 18.217098 69.649036 0.000000 0.000000 0.000000 -167.344185 -12.753003 -1.420028 -151.833008 -26.134731 -6.665159 -62.361225 43.290023 -27.007671 0.000000 0.000000 0.000000 -3.273753 37.131235 170.273666 -25.873738 -37.907407 -112.444814 -55.775291 -3.890179 2.059239 0.000000 0.000000 0.000000
0.000000 0.000000 0.000000 135.791024 75.817605 54.897893 -165.942092 32.257973 4.084100 165.697516 64.945768 170.869635 -5.887599 -3.822789 -65.964262 0.000000 0.000000 0.000000 -4.139428 3.842617 -94.262537 22.217059 -15.287248 -111.294603 21.934550 -17.773044 -102.204329 0.000000 0.000000 0.000000 7.871712 8.180032 87.791998 2.449749 3.159111 75.578341 12.852065 18.884080 68.215383 0.000000 0.000000 0.000000 -161.465487 -33.315126 -5.590094 -149.226560 -22.487138 -6.262819 -63.415681 43.801762 -27.896159 0.000000 0.000000 0.000000 -1.826525 16.777160 167.660580 -27.235479 -36.374768 -107.192508 -57.854221 -4.733885 2.617202 0.000000 0.000000 0.000000
0.000000 0.000000 0.000000 135.720814 75.035338 55.302764 -166.966387 22.976150 2.659898 165.782312 64.190484 171.055079 -7.121723 -4.603717 -65.720727 0.000000 0.000000 0.000000 -4.291773 3.922766 -95.148517 22.828290 -15.196073 -113.093191 22.197339 -17.429814 -103.991122 0.000000 0.000000 0.000000 7.607266 7.765726 88.815316 2.551483 3.318341 75.107273 13.211714 19.375167 68.304932 0.000000 0.000000 0.000000 -163.450649 -30.398372 -4.525275 -145.222513 -32.809307 -10.535236 -63.206810 46.788570 -29.811317 0.000000 0.000000 0.000000 -2.552500 19.538177 165.254399 -50.528063 -49.020335 -88.025508 -62.351841 5.756936 -3.485077 0.000000 0.000000 0.000000
0.000000 0.000000 0.000000 128.617429 69.599690 53.024509 -167.990795 9.132297 0.962601 163.912223 67.610710 169.188851 -6.202796 -4.124586 -67.215494 0.000000 0.000000 0.000000 -5.249045 4.729778 -95.965112 24.629284 -15.399664 -116.457368 22.483234 -16.702649 -107.102770 0.000000 0.000000 0.000000 7.363816 7.287411 90.599209 2.230214 3.002527 73.202751 12.335379 19.185451 65.190327 0.000000 0.000000 0.000000 -159.750309 -47.764852 -9.041695 -144.768561 -52.149658 -17.663857 -58.389961 45.820699 -26.574064 0.000000 0.000000 0.000000 -3.381427 17.377587 158.136138 -78.827903 -53.467778 -63.007981 -66.483775 14.868361 -9.776384 0.000000 0.000000 0.000000
0.000000 0.000000 0.000000 116.611657 59.706961 50.971816 -168.047186 12.384445 1.301517 162.296735 70.058436 167.540240 -4.391426 -2.971483 -68.154808 0.000000 0.000000 0.000000 -6.180805 5.468558 -97.009466 27.743018 -15.902737 -121.014301 25.796960 -17.583960 -111.931033 0.000000 0.000000 0.000000 7.028246 6.862417 91.371301 1.486417 2.045554 72.005891 11.843605 18.949323 63.723712 0.000000 0.000000 0.000000 -163.156904 -38.767601 -5.963696 -156.397375 -44.738867 -9.829131 -56.284163 56.921110 -32.338758 0.000000 0.000000 0.000000 -3.745888 16.196706 154.114674 -90.825976 -55.990397 -55.308455 -64.573707 30.013222 -19.227316 0.000000 0.000000 0.000000
0.000000 0.000000 0.000000 106.657092 52.214681 49.906434 -168.362643 0.257019 0.026192 159.345455 73.901291 164.390366 -3.622593 -2.489120 -68.977288 0.000000 0.000000 0.000000 -5.867682 5.231002 -96.576607 30.472152 -15.789467 -126.037343 30.554228 -17.418682 -121.428887 0.000000 0.000000 0.000000 7.753702 7.239790 93.937369 1.022182 1.441821 70.668205 11.075185 19.299261 59.384114 0.000000 0.000000 0.000000 -167.121467 -1.407799 -0.158895 -131.963316 -70.934746 -35.226109 -64.435525 58.643316 -38.982459 0.000000 0.000000 0.000000 -4.006445 14.433202 149.116670 -94.318752 -66.384099 -62.485576 -74.764983 45.652429 -35.655417 0.000000 0.000000 0.000000
