HIERARCHY
ROOT Hips
{
  OFFSET 0.000000 0.000000 0.000000
  CHANNELS 6 Xposition Yposition Zposition Zrotation Yrotation Xrotation
  JOINT Spine
  {
    OFFSET 0.762862 23.197727 -6.058858
    CHANNELS 3 Zrotation Yrotation Xrotation
    JOINT Chest
    {
      OFFSET 0.762862 23.197727 -6.058858
      CHANNELS 3 Zrotation Yrotation Xrotation
      JOINT Neck
      {
        OFFSET -0.270074 9.229822 -3.797407
        CHANNELS 3 Zrotation Yrotation Xrotation
        JOINT Head
        {
          OFFSET 0.225285 8.430608 -7.939136
          CHANNELS 3 Zrotation Yrotation Xrotation
          End Site
          {
            OFFSET 0.067585 2.529182 -2.381741
          }
        }
      }
      JOINT LeftShoulder
      {
        OFFSET 17.595006 0.044015 0.996102
        CHANNELS 3 Zrotation Yrotation Xrotation
        JOINT LeftArm
        {
          OFFSET 3.473531 -23.049457 3.982832
          CHANNELS 3 Zrotation Yrotation Xrotation
          JOINT LeftForeArm
          {
            OFFSET 3.218371 -22.980839 -10.241008
            CHANNELS 3 Zrotation Yrotation Xrotation
            JOINT LeftHand
            {
              OFFSET -0.008887 -5.924601 -2.989147
              CHANNELS 3 Zrotation Yrotation Xrotation
              End Site
              {
                OFFSET -0.002666 -1.777380 -0.896744
              }
            }
          }
        }
      }
      JOINT RightShoulder
      {
        OFFSET -17.595006 -0.044015 -0.996102
        CHANNELS 3 Zrotation Yrotation Xrotation
        JOINT RightArm
        {
          OFFSET -5.553442 -24.118242 6.751946
          CHANNELS 3 Zrotation Yrotation Xrotation
          JOINT RightForeArm
          {
            OFFSET -3.099014 -24.977112 -8.059516
            CHANNELS 3 Zrotation Yrotation Xrotation
            JOINT RightHand
            {
              OFFSET 0.298828 -5.701374 -2.573080
              CHANNELS 3 Zrotation Yrotation Xrotation
              End Site
              {
                OFFSET 0.089648 -1.710412 -0.771924
              }
            }
          }
        }
      }
    }
  }
  JOINT LeftUpLeg
  {
    OFFSET 11.990773 -0.614304 0.788698
    CHANNELS 3 Zrotation Yrotation Xrotation
    JOINT LeftLeg
    {
      OFFSET -5.144974 -41.347031 -0.530598
      CHANNELS 3 Zrotation Yrotation Xrotation
      JOINT LeftFoot
      {
        OFFSET 2.709190 -35.138144 18.775504
        CHANNELS 3 Zrotation Yrotation Xrotation
        End Site
        {
          OFFSET 0.812757 -10.541443 5.632651
        }
      }
    }
  }
  JOINT RightUpLeg
  {
    OFFSET -11.990773 0.614304 -0.788698
    CHANNELS 3 Zrotation Yrotation Xrotation
    JOINT RightLeg
    {
      OFFSET 0.284998 -37.357294 5.081156
      CHANNELS 3 Zrotation Yrotation Xrotation
      JOINT RightFoot
      {
        OFFSET 4.690763 -28.563407 28.545631
        CHANNELS 3 Zrotation Yrotation Xrotation
        End Site
        {
          OFFSET 1.407229 -8.569022 8.563689
        }
      }
    }
  }
}
MOTION
Frames: 96
Frame Time: 0.083333
0.000000 60.000000 0.000000 0.120223 0.021387 0.285476 0.120223 0.021387 0.285476 0.584058 0.260355 1.170290 0.228659 0.180996 1.019628 0.000000 0.000000 0.000000 0.565117 0.129908 0.231044 -0.251217 0.045205 -0.461196 -1.827886 0.912971 -0.245659 0.000000 0.000000 0.000000 0.132051 -0.131334 0.725345 -0.003949 0.047125 -0.370535 -0.025961 0.004451 -0.137335 0.000000 0.000000 0.000000 -0.151881 0.302253 -2.466583 0.021952 0.090555 1.038821 0.000000 0.000000 0.000000 0.788435 0.113359 -0.956645 -1.316804 0.230807 8.380182 0.000000 0.000000 0.000000
0.000000 60.000000 0.000000 0.100002 0.013591 0.358990 0.100002 0.013591 0.358990 0.530310 0.235686 1.090969 0.204334 0.159993 0.950964 0.000000 0.000000 0.000000 0.569899 0.132174 0.248185 -0.263568 0.076098 -0.287922 -1.717590 0.862806 -0.129482 0.000000 0.000000 0.000000 0.160802 -0.128463 0.742418 -0.036078 0.047991 -0.294997 -0.065767 0.024598 -0.096146 0.000000 0.000000 0.000000 -0.152708 0.291020 -2.388325 -0.003059 0.076065 1.014258 0.000000 0.000000 0.000000 0.885285 0.123468 -0.626817 -1.282914 0.242027 8.064399 0.000000 0.000000 0.000000
0.000000 60.000000 0.000000 0.228120 0.017409 1.211854 0.228120 0.017409 1.211854 1.379080 0.608599 2.848836 0.522047 0.404566 2.499763 0.000000 0.000000 0.000000 1.751557 0.398497 0.733054 -0.860803 0.341736 -0.310201 -4.670888 2.368028 0.025618 0.000000 0.000000 0.000000 0.530548 -0.362645 2.173488 -0.191193 0.136889 -0.614120 -0.291636 0.121985 -0.180203 0.000000 0.000000 0.000000 -0.450801 0.789594 -6.527909 -0.109203 0.164326 2.857660 0.000000 0.000000 0.000000 2.788237 0.377135 -0.816037 -3.560387 0.709573 21.979007 0.000000 0.000000 0.000000
0.000000 60.000000 0.000000 0.219008 -0.017053 2.135311 0.219008 -0.017053 2.135311 1.797525 0.777339 3.539952 0.655285 0.500609 3.183041 0.000000 0.000000 0.000000 3.059717 0.665836 1.141137 -1.859351 0.983670 0.873996 -6.909260 3.597835 1.161915 0.000000 0.000000 0.000000 0.902761 -0.540174 3.342956 -0.434542 0.185933 -0.382693 -0.620353 0.273179 -0.116535 0.000000 0.000000 0.000000 -0.744669 1.048333 -8.811356 -0.483966 0.087180 4.240912 0.000000 0.000000 0.000000 4.552332 0.585998 0.975966 -4.978998 1.048523 29.619947 0.000000 0.000000 0.000000
0.000000 60.000000 0.000000 0.249676 -0.022733 2.507267 0.249676 -0.022733 2.507267 2.213242 0.933639 3.720533 0.807314 0.622944 3.510999 0.000000 0.000000 0.000000 4.422376 0.930699 1.607621 -3.808267 2.231191 2.581898 -10.201084 5.539160 2.835554 0.000000 0.000000 0.000000 0.971611 -0.679966 4.006820 -0.367056 0.130557 -0.105900 -0.662015 0.282924 -0.268739 0.000000 0.000000 0.000000 -1.050063 1.072947 -9.197939 -1.038964 -0.101385 5.204483 0.000000 0.000000 0.000000 4.962528 0.600876 2.001340 -5.435954 1.059569 31.239513 0.000000 0.000000 0.000000
0.000000 60.000000 0.000000 0.328100 -0.038643 3.473210 0.328100 -0.038643 3.473210 2.607557 1.082606 4.421712 1.015177 0.773938 4.285942 0.000000 0.000000 0.000000 5.552331 1.248097 3.098510 -6.678845 4.391038 6.148086 -14.939315 8.496439 5.343354 0.000000 0.000000 0.000000 1.164524 -0.807436 4.741390 -0.092872 -0.025535 0.439653 -0.728873 0.310527 -0.312231 0.000000 0.000000 0.000000 -1.334280 1.068162 -9.320336 -1.618153 -0.343248 5.630213 0.000000 0.000000 0.000000 5.484932 0.616637 3.095067 -5.628736 0.999666 31.535013 0.000000 0.000000 0.000000
0.000000 60.000000 0.000000 0.546515 -0.030038 4.592905 0.546515 -0.030038 4.592905 2.948293 1.208245 5.219460 1.400421 1.069164 5.221383 0.000000 0.000000 0.000000 7.166615 1.638897 4.869179 -8.892498 6.441206 9.801783 -17.680207 10.420092 7.270932 0.000000 0.000000 0.000000 1.550391 -0.770209 4.969891 0.343654 -0.250043 1.090210 -0.627483 0.255561 -0.487639 0.000000 0.000000 0.000000 -1.375804 0.981545 -8.578731 -1.818269 -0.526640 4.673614 0.000000 0.000000 0.000000 6.556150 0.701172 3.756943 -5.481010 0.772879 29.766097 0.000000 0.000000 0.000000
0.000000 60.000000 0.000000 1.111603 0.094154 4.599382 1.111603 0.094154 4.599382 3.413864 1.376886 5.123863 1.830048 1.430673 5.400903 0.000000 0.000000 0.000000 7.942827 1.812719 5.841972 -10.281760 7.770932 11.800211 -18.475117 10.915834 7.371170 0.000000 0.000000 0.000000 2.143641 -0.520875 4.520959 0.947780 -0.441161 1.006199 -0.189936 0.039443 -0.855377 0.000000 0.000000 0.000000 -1.391169 0.965230 -8.442744 -1.812869 -0.558632 4.312697 0.000000 0.000000 0.000000 7.369851 0.760518 4.195101 -5.212971 0.864306 29.435101 0.000000 0.000000 0.000000
0.000000 60.000000 0.000000 1.873280 0.271932 4.371429 1.873280 0.271932 4.371429 3.854241 1.538479 4.660351 2.172741 1.737561 5.157525 0.000000 0.000000 0.000000 7.839071 1.902666 7.142035 -10.872044 8.155523 11.894147 -17.368853 10.089388 6.471557 0.000000 0.000000 0.000000 2.799204 -0.254356 4.080748 1.512588 -0.640734 1.091438 -0.088853 -0.016671 -1.070681 0.000000 0.000000 0.000000 -1.317031 0.993656 -8.655812 -1.743957 -0.338629 6.333516 0.000000 0.000000 0.000000 7.691218 0.775717 4.485285 -4.466092 1.566252 30.965808 0.000000 0.000000 0.000000
0.000000 60.000000 0.000000 2.439359 0.407871 4.167607 2.439359 0.407871 4.167607 3.796002 1.519274 4.444891 2.128532 1.704907 5.065063 0.000000 0.000000 0.000000 6.723256 1.727766 6.564726 -9.349103 6.745244 9.944246 -14.748249 8.309495 4.962512 0.000000 0.000000 0.000000 3.213607 -0.121416 3.953942 1.942032 -0.736253 0.765831 0.071219 -0.101132 -1.361818 0.000000 0.000000 0.000000 -0.889066 0.964675 -8.200432 -1.536606 -0.072365 8.183407 0.000000 0.000000 0.000000 7.739648 0.795272 4.243011 -3.826487 1.708059 29.547301 0.000000 0.000000 0.000000
0.000000 60.000000 0.000000 2.598912 0.458161 3.904561 2.598912 0.458161 3.904561 3.671613 1.474698 4.305477 2.158888 1.735320 4.988923 0.000000 0.000000 0.000000 5.001106 1.396689 5.290918 -7.764969 5.101407 6.860169 -12.568198 6.761890 2.811719 0.000000 0.000000 0.000000 3.159353 -0.153493 4.027442 2.382304 -0.738490 -0.202151 0.625500 -0.363461 -1.797978 0.000000 0.000000 0.000000 0.376133 0.934744 -7.425401 -0.602574 0.262472 6.661847 0.000000 0.000000 0.000000 8.058703 0.841234 4.026955 -3.185760 1.924604 28.466907 0.000000 0.000000 0.000000
0.000000 60.000000 0.000000 2.623655 0.480972 3.598961 2.623655 0.480972 3.598961 3.419244 1.382385 4.197921 1.939219 1.547686 4.948576 0.000000 0.000000 0.000000 3.594032 0.983615 3.145190 -6.695102 3.703865 3.164584 -10.993771 5.677818 0.917174 0.000000 0.000000 0.000000 2.915651 -0.245629 4.154710 2.692362 -0.654517 -1.449418 1.231554 -0.629798 -1.889116 0.000000 0.000000 0.000000 2.449431 0.911636 -6.445582 1.306410 0.822331 1.342057 0.000000 0.000000 0.000000 8.562482 0.933447 3.456318 -2.550766 1.925974 25.809187 0.000000 0.000000 0.000000
0.000000 60.000000 0.000000 2.654155 0.475053 3.825692 2.654155 0.475053 3.825692 3.265507 1.326240 4.159949 1.828404 1.453202 4.930056 0.000000 0.000000 0.000000 2.801465 0.718202 1.901913 -5.637507 2.713736 0.852067 -8.707214 4.416650 0.012655 0.000000 0.000000 0.000000 2.549942 -0.294994 4.000945 2.555089 -0.594598 -1.564470 1.096612 -0.563181 -1.656512 0.000000 0.000000 0.000000 3.869758 0.996895 -6.585403 2.054589 0.833607 -4.756024 0.000000 0.000000 0.000000 9.269876 1.094369 2.268111 -1.932007 1.705933 21.594332 0.000000 0.000000 0.000000
0.000000 60.000000 0.000000 2.706024 0.457954 4.340299 2.706024 0.457954 4.340299 3.151808 1.282039 4.572306 1.783810 1.401004 5.185535 0.000000 0.000000 0.000000 2.339235 0.484169 0.637119 -4.604020 1.858740 -1.132449 -5.337762 2.662446 -0.454064 0.000000 0.000000 0.000000 2.165258 -0.398919 4.038421 2.589650 -0.697937 -0.949202 1.529216 -0.721389 -0.799669 0.000000 0.000000 0.000000 3.767859 1.012884 -6.713509 1.502040 0.601303 -3.263226 0.000000 0.000000 0.000000 9.441863 1.190138 1.255643 -1.785464 1.710578 20.952953 0.000000 0.000000 0.000000
0.000000 60.000000 0.000000 2.917203 0.551541 3.580825 2.917203 0.551541 3.580825 2.862878 1.174502 3.939418 1.688871 1.345945 4.643757 0.000000 0.000000 0.000000 1.520148 0.294257 0.239024 -3.696246 1.137592 -2.992999 -3.566082 1.797835 0.355604 0.000000 0.000000 0.000000 1.666300 -0.378890 3.452738 3.017468 -0.992483 0.055532 2.205839 -0.995737 0.245978 0.000000 0.000000 0.000000 3.440393 0.890864 -6.012798 1.477250 0.897697 1.931316 0.000000 0.000000 0.000000 9.461059 1.190292 1.281554 -1.660820 2.054101 22.781307 0.000000 0.000000 0.000000
0.000000 60.000000 0.000000 3.328186 0.723650 2.317685 3.328186 0.723650 2.317685 2.424259 1.009983 2.925445 1.509481 1.229749 3.839941 0.000000 0.000000 0.000000 1.310452 0.191806 -0.247255 -2.541732 0.314601 -4.998648 -1.759288 0.919369 1.577976 0.000000 0.000000 0.000000 0.657853 -0.510677 2.972093 4.267591 -1.704798 1.834732 3.564691 -1.592927 1.972089 0.000000 0.000000 0.000000 2.999614 0.639179 -4.436736 1.627731 1.327697 8.301409 0.000000 0.000000 0.000000 9.267100 1.206417 0.750112 -1.464154 2.313521 23.711675 0.000000 0.000000 0.000000
0.000000 60.000000 0.000000 3.599658 0.812737 1.944085 3.599658 0.812737 1.944085 2.395562 0.997511 2.594660 1.382346 1.125232 3.681646 0.000000 0.000000 0.000000 1.274739 0.189679 -0.220202 -1.201582 -0.149260 -4.537832 -0.444619 0.224635 0.992284 0.000000 0.000000 0.000000 -1.059093 -1.071672 3.608986 6.006563 -2.749825 4.177408 5.567164 -2.571591 3.758448 0.000000 0.000000 0.000000 2.331479 0.312160 -2.359398 2.152778 1.684540 10.552460 0.000000 0.000000 0.000000 9.130781 1.168575 1.021494 -1.223306 2.474679 23.711108 0.000000 0.000000 0.000000
0.000000 60.000000 0.000000 3.528962 0.778085 2.216069 3.528962 0.778085 2.216069 2.281355 0.952682 2.446889 1.341749 1.095133 3.555588 0.000000 0.000000 0.000000 1.739812 0.246656 -0.406296 -0.240059 -0.415317 -3.707266 0.238801 -0.131242 0.834044 0.000000 0.000000 0.000000 -2.317686 -1.677961 5.035812 6.785290 -3.784847 8.041487 8.258949 -3.927564 5.929398 0.000000 0.000000 0.000000 1.854771 0.329876 -2.512570 2.461275 1.703729 8.126803 0.000000 0.000000 0.000000 8.857528 1.132641 1.044653 0.190438 3.351434 23.229699 0.000000 0.000000 0.000000
0.000000 60.000000 0.000000 3.367484 0.698226 2.858956 3.367484 0.698226 2.858956 1.871007 0.795808 2.588930 1.285138 1.041394 3.632339 0.000000 0.000000 0.000000 2.669846 0.367978 -0.722413 -0.041282 -0.402661 -3.035275 -1.314114 0.660327 -0.032902 0.000000 0.000000 0.000000 -2.847255 -1.848364 5.281126 7.006060 -4.047821 8.893455 8.952747 -4.275809 5.715987 0.000000 0.000000 0.000000 1.323868 0.344797 -2.665719 2.864248 1.804531 6.318462 0.000000 0.000000 0.000000 8.167876 1.027105 1.320142 2.263348 4.572981 21.991818 0.000000 0.000000 0.000000
0.000000 60.000000 0.000000 3.161846 0.622980 3.290954 3.161846 0.622980 3.290954 1.696495 0.733273 2.979367 1.364428 1.102976 3.819412 0.000000 0.000000 0.000000 3.105608 0.469364 -0.537102 -0.223873 -0.290297 -2.767085 -2.187657 1.094272 -0.460118 0.000000 0.000000 0.000000 -2.649984 -1.797278 5.254409 6.448169 -3.599924 7.768731 8.439783 -3.971656 4.449912 0.000000 0.000000 0.000000 0.612396 0.379057 -2.978151 3.218095 1.925386 5.182853 0.000000 0.000000 0.000000 6.787122 0.847285 1.465212 3.108079 5.121096 21.631187 0.000000 0.000000 0.000000
0.000000 60.000000 0.000000 3.012293 0.578919 3.445353 3.012293 0.578919 3.445353 1.392217 0.619222 3.147989 1.249629 1.004773 3.744966 0.000000 0.000000 0.000000 2.481418 0.394766 -0.263458 0.001111 -0.371011 -2.670881 -1.729500 0.858597 -0.886680 0.000000 0.000000 0.000000 -2.141224 -1.516851 4.452253 5.522053 -2.775283 5.361446 7.324008 -3.372080 2.557214 0.000000 0.000000 0.000000 0.098109 0.345320 -2.745306 3.438991 1.959758 3.297735 0.000000 0.000000 0.000000 5.536350 0.685032 1.693962 4.724700 6.116764 19.651287 0.000000 0.000000 0.000000
0.000000 60.000000 0.000000 2.957549 0.572006 3.350451 2.957549 0.572006 3.350451 1.150751 0.525065 2.982599 1.083566 0.872212 3.421636 0.000000 0.000000 0.000000 1.865122 0.341237 0.144108 0.391704 -0.505160 -2.459841 -1.118763 0.551506 -1.215778 0.000000 0.000000 0.000000 -0.924179 -1.166367 4.152051 4.326507 -2.029794 3.666483 5.563996 -2.525059 1.180282 0.000000 0.000000 0.000000 -0.534488 0.211587 -1.696167 3.447023 1.956845 3.083514 0.000000 0.000000 0.000000 4.193885 0.507561 1.984934 6.830448 7.382930 15.695985 0.000000 0.000000 0.000000
0.000000 60.000000 0.000000 2.862330 0.552131 3.318386 2.862330 0.552131 3.318386 1.003102 0.470362 3.067921 0.940982 0.747687 3.370358 0.000000 0.000000 0.000000 1.439164 0.307308 0.428457 0.327831 -0.419023 -2.049517 -1.336963 0.663574 -1.105922 0.000000 0.000000 0.000000 0.124230 -0.881510 3.995968 3.389751 -1.413758 1.987501 4.007582 -1.808592 -0.108863 0.000000 0.000000 0.000000 -0.806973 0.098193 -0.748706 2.854795 1.696337 3.900917 0.000000 0.000000 0.000000 2.318976 0.290454 1.286994 6.604535 7.038010 11.935444 0.000000 0.000000 0.000000
0.000000 60.000000 0.000000 2.511357 0.457682 3.598162 2.511357 0.457682 3.598162 0.954290 0.455546 3.275877 0.871227 0.685451 3.366632 0.000000 0.000000 0.000000 1.301342 0.338617 0.825101 -0.798648 0.244170 -0.840789 -2.705513 1.369255 -0.202915 0.000000 0.000000 0.000000 0.309435 -0.788725 3.785640 3.036627 -1.138494 1.000777 3.483977 -1.583675 -0.790542 0.000000 0.000000 0.000000 -0.731445 0.091569 -0.696297 2.414928 1.505032 4.439026 0.000000 0.000000 0.000000 0.901832 0.122394 0.205612 4.910869 5.613364 9.863173 0.000000 0.000000 0.000000
0.000000 60.000000 0.000000 1.722744 0.242419 4.379376 1.722744 0.242419 4.379376 1.086875 0.514596 3.811877 1.222356 0.984927 3.618142 0.000000 0.000000 0.000000 1.530800 0.487469 1.665355 -2.927978 1.487948 0.819324 -5.605030 2.899337 0.820835 0.000000 0.000000 0.000000 0.252590 -0.660710 3.160468 2.314536 -0.867589 0.809953 2.960471 -1.362038 -1.264800 0.000000 0.000000 0.000000 -0.522918 0.083695 -0.643799 1.985895 1.286398 4.222302 0.000000 0.000000 0.000000 -0.092212 -0.010059 0.311388 3.240445 4.488374 12.905527 0.000000 0.000000 0.000000
0.000000 60.000000 0.000000 0.715824 -0.021555 5.357567 0.715824 -0.021555 5.357567 1.470728 0.665937 4.434927 1.768150 1.440875 4.143390 0.000000 0.000000 0.000000 2.649833 0.818975 3.051353 -5.378999 3.398219 4.479563 -8.204078 4.478558 2.913559 0.000000 0.000000 0.000000 -0.159713 -0.669777 2.749767 1.840561 -0.708861 0.800618 2.620368 -1.225917 -1.794699 0.000000 0.000000 0.000000 -0.336580 0.069196 -0.524941 1.967042 1.288925 4.535881 0.000000 0.000000 0.000000 -1.269810 -0.160645 0.891434 2.127914 4.143783 17.608871 0.000000 0.000000 0.000000
0.000000 60.000000 0.000000 0.168587 -0.158436 5.983398 0.168587 -0.158436 5.983398 1.931770 0.840750 5.164129 2.008462 1.609614 4.885579 0.000000 0.000000 0.000000 4.876067 1.409967 5.942214 -7.822309 6.065096 10.438238 -13.060658 7.534659 5.888758 0.000000 0.000000 0.000000 0.034798 -0.788652 3.470427 1.545313 -0.594176 0.697467 2.061417 -0.984653 -1.858531 0.000000 0.000000 0.000000 0.077886 0.194497 -1.526141 2.565301 1.651365 6.462337 0.000000 0.000000 0.000000 -0.549255 -0.049284 2.677353 -0.217502 3.549568 26.365107 0.000000 0.000000 0.000000
0.000000 60.000000 0.000000 0.017899 -0.225917 7.075339 0.017899 -0.225917 7.075339 2.245070 0.962632 6.380768 2.218669 1.725762 6.031902 0.000000 0.000000 0.000000 7.760945 2.117850 10.282510 -10.307872 9.011685 15.959793 -17.756023 10.686742 8.226974 0.000000 0.000000 0.000000 1.190603 -0.705073 4.336730 0.593676 -0.375644 1.433179 1.078987 -0.537645 -1.353763 0.000000 0.000000 0.000000 0.661658 0.438649 -3.407430 3.569753 2.247369 9.894931 0.000000 0.000000 0.000000 0.293756 0.061515 4.372600 -3.790281 2.254718 32.864780 0.000000 0.000000 0.000000
0.000000 60.000000 0.000000 0.109450 -0.224397 7.576293 0.109450 -0.224397 7.576293 2.490718 1.049195 6.803957 2.450070 1.881486 6.663397 0.000000 0.000000 0.000000 9.150902 2.494240 14.051192 -11.779529 11.202442 19.978046 -20.806940 12.847798 9.525000 0.000000 0.000000 0.000000 2.134873 -0.414131 4.074411 -0.322631 -0.147103 2.069296 -0.382109 0.138904 -0.677416 0.000000 0.000000 0.000000 1.097911 0.583226 -4.451873 3.953257 2.469745 11.663928 0.000000 0.000000 0.000000 0.554343 0.088098 4.672613 -7.044876 0.590409 33.662795 0.000000 0.000000 0.000000
0.000000 60.000000 0.000000 0.289727 -0.195715 7.778678 0.289727 -0.195715 7.778678 3.101890 1.258771 7.029991 3.006790 2.303493 7.351570 0.000000 0.000000 0.000000 9.578825 2.669891 16.519572 -12.897383 12.483120 21.501170 -22.129086 13.858549 10.248111 0.000000 0.000000 0.000000 2.277495 -0.151110 3.161366 -0.628754 -0.069822 2.295232 -2.102241 0.928746 -0.286923 0.000000 0.000000 0.000000 1.048248 0.623157 -4.756122 3.832321 2.399196 11.012172 0.000000 0.000000 0.000000 0.984827 0.130157 4.458450 -8.023619 -0.166390 32.463294 0.000000 0.000000 0.000000
0.000000 60.000000 0.000000 0.787175 -0.061964 6.910056 0.787175 -0.061964 6.910056 3.716054 1.468908 6.907309 3.314141 2.554284 7.399747 0.000000 0.000000 0.000000 9.920667 2.670888 16.363663 -13.789017 12.594284 19.987278 -22.053003 13.635557 9.541418 0.000000 0.000000 0.000000 2.850341 0.161128 2.520067 -0.689449 -0.019283 2.040796 -2.244190 1.012983 -0.029130 0.000000 0.000000 0.000000 1.155473 0.801442 -6.040010 3.690324 2.277178 9.134602 0.000000 0.000000 0.000000 1.602378 0.196984 3.819358 -7.803367 -0.147961 31.931217 0.000000 0.000000 0.000000
0.000000 60.000000 0.000000 1.556521 0.194643 4.679631 1.556521 0.194643 4.679631 3.862018 1.523518 5.898141 3.225387 2.537536 6.532352 0.000000 0.000000 0.000000 9.839330 2.372042 11.784913 -14.149846 11.353761 15.464602 -20.362971 12.067240 7.186620 0.000000 0.000000 0.000000 3.824282 0.664229 1.554529 -0.916594 0.161114 1.166447 -2.728895 1.235888 0.033994 0.000000 0.000000 0.000000 1.527651 1.077132 -7.946181 3.609592 2.116801 5.387964 0.000000 0.000000 0.000000 2.391993 0.293179 2.489266 -7.289882 -0.103444 30.645105 0.000000 0.000000 0.000000
0.000000 60.000000 0.000000 1.999377 0.422263 1.959573 1.999377 0.422263 1.959573 3.305168 1.340714 3.825048 2.690202 2.208964 4.747714 0.000000 0.000000 0.000000 8.494637 1.882871 6.189246 -12.429572 8.572736 9.799638 -15.726867 8.853041 4.267755 0.000000 0.000000 0.000000 4.274520 0.710903 1.834888 -0.776576 0.293254 -0.360763 -2.710600 1.161443 -0.798756 0.000000 0.000000 0.000000 2.215126 1.108079 -7.907101 3.551106 1.946757 2.033141 0.000000 0.000000 0.000000 3.402641 0.423494 1.826269 -6.300710 0.132755 28.729318 0.000000 0.000000 0.000000
0.000000 60.000000 0.000000 2.024035 0.458982 1.356494 2.024035 0.458982 1.356494 2.904957 1.194599 3.110208 2.448614 2.061351 3.777955 0.000000 0.000000 0.000000 6.408557 1.377146 3.295323 -10.122544 5.168398 2.097296 -9.442632 4.902429 1.062853 0.000000 0.000000 0.000000 3.934836 0.300109 3.047265 -0.462201 0.318067 -1.415563 -2.331304 0.944662 -1.436273 0.000000 0.000000 0.000000 3.171226 1.092337 -7.407600 3.160101 1.384861 -5.486717 0.000000 0.000000 0.000000 5.263786 0.662111 1.511944 -4.359786 0.774185 25.704360 0.000000 0.000000 0.000000
0.000000 60.000000 0.000000 1.946912 0.437279 1.405267 1.946912 0.437279 1.405267 2.422212 1.012646 3.657172 2.104726 1.759702 3.744039 0.000000 0.000000 0.000000 4.960423 0.818718 -0.255288 -7.132760 3.012008 -0.955129 -6.239324 3.164857 0.222271 0.000000 0.000000 0.000000 3.223429 -0.216062 4.328974 0.197665 0.136455 -1.596364 -1.694122 0.641668 -1.775084 0.000000 0.000000 0.000000 3.663129 1.245695 -8.223638 2.652728 0.556697 -16.671207 0.000000 0.000000 0.000000 6.893013 0.894303 0.828134 -3.283175 0.958584 22.664546 0.000000 0.000000 0.000000
0.000000 60.000000 0.000000 2.030247 0.452126 1.516927 2.030247 0.452126 1.516927 1.847781 0.798350 3.739629 1.612355 1.329383 3.656556 0.000000 0.000000 0.000000 4.012094 0.472689 -1.872908 -5.388117 2.059192 -1.862926 -5.799320 2.933022 0.095326 0.000000 0.000000 0.000000 2.137848 -0.429632 4.133362 1.387817 -0.259608 -1.415778 -1.027527 0.353768 -1.683791 0.000000 0.000000 0.000000 4.037188 1.242151 -8.073480 2.325354 0.488536 -13.916086 0.000000 0.000000 0.000000 7.001995 0.947513 0.085593 -3.077894 0.506069 18.997538 0.000000 0.000000 0.000000
0.000000 60.000000 0.000000 2.274317 0.499581 1.749384 2.274317 0.499581 1.749384 1.046599 0.498873 3.733911 0.933338 0.731907 3.597957 0.000000 0.000000 0.000000 2.777917 0.202692 -2.279970 -3.977074 1.320760 -2.479431 -5.509342 2.779198 0.025247 0.000000 0.000000 0.000000 0.918716 -0.651408 3.833773 2.667902 -0.822269 -0.347283 0.263609 -0.167425 -0.717496 0.000000 0.000000 0.000000 4.473871 0.868308 -5.649567 1.944094 0.813160 -3.172342 0.000000 0.000000 0.000000 6.711556 0.945304 -0.626902 -3.023301 0.326601 17.665270 0.000000 0.000000 0.000000
0.000000 60.000000 0.000000 2.688859 0.576641 2.174105 2.688859 0.576641 2.174105 0.473562 0.282682 3.644293 0.466738 0.318241 3.638312 0.000000 0.000000 0.000000 1.134291 0.123865 -0.568800 -1.982578 0.733254 -0.872406 -4.741282 2.443099 0.984770 0.000000 0.000000 0.000000 -0.485676 -0.996494 3.858097 3.997698 -1.556160 1.521380 2.943752 -1.334682 0.658934 0.000000 0.000000 0.000000 4.613186 -0.003818 -0.352191 2.368536 1.808265 12.512228 0.000000 0.000000 0.000000 6.252832 0.857113 -0.121508 -3.544223 0.899910 23.408841 0.000000 0.000000 0.000000
0.000000 60.000000 0.000000 2.932178 0.597965 2.814782 2.932178 0.597965 2.814782 0.500532 0.287443 3.407752 0.332005 0.193932 3.803121 0.000000 0.000000 0.000000 -0.075590 0.099500 0.738189 -0.069137 0.086565 0.412427 -3.541650 1.817982 0.907941 0.000000 0.000000 0.000000 -2.194212 -1.430911 3.979100 5.496558 -2.365796 3.101982 6.783929 -3.135164 1.956734 0.000000 0.000000 0.000000 4.736400 -0.500804 2.637394 3.579138 2.561687 18.684710 0.000000 0.000000 0.000000 6.217632 0.752452 1.974516 -3.746587 1.767398 29.633242 0.000000 0.000000 0.000000
0.000000 60.000000 0.000000 2.981419 0.587248 3.187283 2.981419 0.587248 3.187283 0.728356 0.370990 3.325765 0.389149 0.240142 3.916463 0.000000 0.000000 0.000000 -0.341607 0.135905 1.272028 0.645331 -0.156809 0.975720 -1.711129 0.886607 1.200252 0.000000 0.000000 0.000000 -4.318276 -2.012233 4.394107 7.524217 -3.422869 4.822755 11.258238 -5.288006 3.301290 0.000000 0.000000 0.000000 4.643581 -0.519970 2.763912 4.294974 2.681138 14.541949 0.000000 0.000000 0.000000 6.124064 0.717473 2.476009 -3.335625 1.877520 28.776464 0.000000 0.000000 0.000000
0.000000 60.000000 0.000000 3.010500 0.561409 3.728553 3.010500 0.561409 3.728553 0.972569 0.472430 3.863303 0.573758 0.383066 4.445873 0.000000 0.000000 0.000000 -0.132692 0.241279 1.756909 0.980047 -0.342963 0.716004 -0.268980 0.136875 0.824546 0.000000 0.000000 0.000000 -5.576925 -2.488161 5.484753 8.380200 -3.877350 5.438735 12.097185 -5.698237 3.349860 0.000000 0.000000 0.000000 4.262279 -0.285773 1.397531 4.100896 2.538932 11.840644 0.000000 0.000000 0.000000 5.615249 0.672472 1.567655 -2.977278 1.567711 25.302348 0.000000 0.000000 0.000000
0.000000 60.000000 0.000000 3.041675 0.538938 4.221154 3.041675 0.538938 4.221154 1.090267 0.540152 5.139762 0.792755 0.537225 5.503104 0.000000 0.000000 0.000000 0.224417 0.478246 2.975843 0.990889 -0.471961 -0.239829 0.002453 -0.003174 0.090146 0.000000 0.000000 0.000000 -5.955430 -2.953970 7.702275 8.624629 -4.198599 6.495066 11.966161 -5.625922 3.197286 0.000000 0.000000 0.000000 3.325025 -0.105745 0.420154 3.581864 2.367615 12.691710 0.000000 0.000000 0.000000 3.688356 0.481109 -2.246219 -2.380487 0.394134 15.344200 0.000000 0.000000 0.000000
0.000000 60.000000 0.000000 3.039084 0.597626 3.238329 3.039084 0.597626 3.238329 1.000390 0.508006 5.167175 0.869009 0.605772 5.433486 0.000000 0.000000 0.000000 0.322686 0.643449 4.000668 1.016329 -0.652796 -1.565023 -0.008813 0.006950 -1.280166 0.000000 0.000000 0.000000 -4.959558 -2.811642 8.086268 7.876096 -4.101934 7.365832 10.753982 -5.022287 2.610919 0.000000 0.000000 0.000000 2.306616 -0.127421 0.669491 2.452738 1.977829 14.446606 0.000000 0.000000 0.000000 0.228310 -0.016775 -6.721275 -2.211262 -1.185287 4.981311 0.000000 0.000000 0.000000
0.000000 60.000000 0.000000 3.025401 0.684487 1.750074 3.025401 0.684487 1.750074 0.946175 0.474725 4.431992 0.955605 0.707290 4.710652 0.000000 0.000000 0.000000 0.297275 0.628191 3.919770 1.333983 -0.875210 -2.255973 0.565160 -0.273152 -1.567762 0.000000 0.000000 0.000000 -3.424473 -2.262485 6.789227 6.566280 -3.080798 4.831053 7.547648 -3.453361 1.093967 0.000000 0.000000 0.000000 1.706309 -0.069505 0.331587 1.986668 1.706732 12.460445 0.000000 0.000000 0.000000 -1.310775 -0.332032 -7.875444 -3.547727 -1.018450 12.382766 0.000000 0.000000 0.000000
0.000000 60.000000 0.000000 3.013759 0.707390 1.325767 3.013759 0.707390 1.325767 0.828265 0.430216 4.391778 0.890601 0.659427 4.472064 0.000000 0.000000 0.000000 0.428978 0.638516 3.864369 1.803756 -1.086078 -2.368329 0.959781 -0.465389 -1.556698 0.000000 0.000000 0.000000 -1.158381 -1.681308 6.330609 5.015468 -2.051109 2.356480 4.475885 -2.019514 -0.274112 0.000000 0.000000 0.000000 1.140230 0.000272 -0.111727 1.884993 1.509205 9.590891 0.000000 0.000000 0.000000 -1.355989 -0.344371 -8.021020 -3.119880 -0.565459 12.862429 0.000000 0.000000 0.000000
0.000000 60.000000 0.000000 2.922744 0.706668 0.961305 2.922744 0.706668 0.961305 0.537153 0.312880 3.921365 0.685597 0.507520 3.733521 0.000000 0.000000 0.000000 1.087701 0.695282 3.622119 1.466795 -1.019339 -2.965173 -0.015707 0.012421 -1.387654 0.000000 0.000000 0.000000 1.039655 -1.084841 5.795430 3.751008 -1.320045 0.627183 2.921863 -1.329045 -0.518659 0.000000 0.000000 0.000000 0.862944 0.016477 -0.208933 1.368785 1.041901 5.372671 0.000000 0.000000 0.000000 -1.300525 -0.299503 -6.259024 -1.852211 -0.074766 9.722068 0.000000 0.000000 0.000000
0.000000 60.000000 0.000000 2.557966 0.600543 1.227054 2.557966 0.600543 1.227054 0.041703 0.131376 3.991799 0.430633 0.287840 3.569932 0.000000 0.000000 0.000000 2.578355 0.895060 3.577232 -0.078272 -0.402129 -3.196661 -1.399180 0.705068 -0.736267 0.000000 0.000000 0.000000 2.377274 -0.846943 6.054513 2.616577 -0.873583 0.175529 2.459125 -1.131113 -0.840959 0.000000 0.000000 0.000000 0.781026 0.056105 -0.504318 1.156166 0.656869 0.627098 0.000000 0.000000 0.000000 -1.038399 -0.188041 -2.380138 -0.326672 1.291181 10.521921 0.000000 0.000000 0.000000
0.000000 60.000000 0.000000 1.856325 0.388071 2.237364 1.856325 0.388071 2.237364 -0.360460 -0.005009 4.388119 0.449661 0.299626 3.693954 0.000000 0.000000 0.000000 4.370589 1.192324 4.088147 -2.607686 0.875678 -2.033153 -3.678803 1.926748 0.683482 0.000000 0.000000 0.000000 2.696076 -0.870905 6.433660 1.881457 -0.656978 0.354942 1.847130 -0.871300 -1.107932 0.000000 0.000000 0.000000 0.680093 0.129488 -1.047998 1.441174 0.746658 -0.314821 0.000000 0.000000 0.000000 -0.103196 -0.019698 1.162190 -0.194413 2.367777 17.568837 0.000000 0.000000 0.000000
0.000000 60.000000 0.000000 0.564097 -0.035218 5.463662 0.564097 -0.035218 5.463662 -0.220810 0.062249 4.903356 1.067447 0.830044 4.108661 0.000000 0.000000 0.000000 5.985908 1.563020 5.864108 -5.916505 3.052480 1.501015 -8.860015 4.799092 2.503990 0.000000 0.000000 0.000000 1.939772 -1.171128 6.954378 1.452309 -0.664409 1.407563 0.654781 -0.373853 -1.554833 0.000000 0.000000 0.000000 0.469504 0.069639 -0.529571 2.084032 1.146319 0.629309 0.000000 0.000000 0.000000 1.428965 0.154586 5.141873 -0.693431 3.125607 26.203827 0.000000 0.000000 0.000000
0.000000 60.000000 0.000000 -0.299579 -0.377007 10.184637 -0.299579 -0.377007 10.184637 0.659020 0.375363 4.836377 1.825131 1.481961 4.268617 0.000000 0.000000 0.000000 7.972145 2.028029 8.776225 -8.374325 5.662395 7.662085 -16.714065 9.328097 4.406956 0.000000 0.000000 0.000000 0.464695 -1.263022 6.020081 1.350994 -0.746763 2.242371 -0.966403 0.282298 -2.545440 0.000000 0.000000 0.000000 -0.010737 -0.359133 2.899625 2.604770 1.431702 0.925287 0.000000 0.000000 0.000000 1.720940 0.145583 11.681744 -1.460812 2.784234 27.549710 0.000000 0.000000 0.000000
0.000000 60.000000 0.000000 -0.381988 -0.436223 11.694902 -0.381988 -0.436223 11.694902 1.600299 0.723088 5.680089 2.274688 1.807633 5.301705 0.000000 0.000000 0.000000 9.518395 2.334247 11.299942 -10.253103 8.213456 13.258857 -23.212153 13.441420 5.837998 0.000000 0.000000 0.000000 -0.257452 -1.500292 6.373689 1.460959 -0.884002 2.947985 -2.722194 1.056303 -2.160847 0.000000 0.000000 0.000000 -0.490584 -0.473999 4.028275 2.543119 1.417602 1.725551 0.000000 0.000000 0.000000 1.364890 0.127945 12.891335 -2.395617 1.239248 20.444372 0.000000 0.000000 0.000000
0.000000 60.000000 0.000000 0.157155 -0.384939 12.647801 0.157155 -0.384939 12.647801 2.814012 1.162673 6.822525 2.865945 2.225733 6.772970 0.000000 0.000000 0.000000 10.463301 2.534367 13.714464 -11.316525 10.508870 18.843868 -26.317615 16.227681 9.273277 0.000000 0.000000 0.000000 -0.967745 -1.728160 6.697673 1.762770 -1.067671 3.491634 -4.234715 1.722976 -2.031612 0.000000 0.000000 0.000000 -1.370752 -0.560140 5.165655 1.565787 0.712387 -0.733934 0.000000 0.000000 0.000000 0.536243 0.111852 13.059616 -2.637042 0.028107 12.900752 0.000000 0.000000 0.000000
0.000000 60.000000 0.000000 1.178000 -0.251893 13.068501 1.178000 -0.251893 13.068501 3.812461 1.506229 6.506703 2.820813 2.194115 6.676885 0.000000 0.000000 0.000000 11.105559 2.649287 15.326797 -12.649778 11.486766 19.055919 -26.056163 16.285404 10.024641 0.000000 0.000000 0.000000 -1.258729 -1.698360 6.263974 2.438063 -1.286028 3.321905 -4.875353 2.085202 -1.153108 0.000000 0.000000 0.000000 -2.142206 -0.583777 5.785360 -0.075156 -0.450787 -5.099131 0.000000 0.000000 0.000000 0.077127 0.105133 13.779474 0.000000 0.000000 0.000000 0.000000 0.000000 0.000000
0.000000 60.000000 0.000000 1.893322 -0.145812 13.013519 1.893322 -0.145812 13.013519 3.986335 1.566694 6.463726 2.698805 2.093698 6.647481 0.000000 0.000000 0.000000 11.138785 2.631784 14.997893 -12.954890 11.226260 17.586304 -23.369918 14.738623 10.485238 0.000000 0.000000 0.000000 -0.904457 -1.906058 7.567271 3.022146 -1.571035 3.810092 -4.438040 1.996392 -0.102352 0.000000 0.000000 0.000000 -1.843542 -0.602925 5.786234 0.183347 -0.116342 -2.747427 0.000000 0.000000 0.000000 -0.086129 0.099727 13.362370 0.000000 0.000000 0.000000 0.000000 0.000000 0.000000
0.000000 60.000000 0.000000 2.306840 -0.031141 11.972837 2.306840 -0.031141 11.972837 4.119767 1.613250 6.407822 2.850514 2.226413 6.571675 0.000000 0.000000 0.000000 9.816119 2.498409 13.835508 -12.323348 9.771015 14.205071 -20.800345 12.502004 7.931528 0.000000 0.000000 0.000000 -0.045414 -2.131437 9.415395 3.020552 -1.659819 4.372454 -4.092917 1.908942 0.607828 0.000000 0.000000 0.000000 -0.883483 -0.608077 5.334860 0.453602 0.235970 -0.087222 0.000000 0.000000 0.000000 0.188136 0.099779 12.298856 0.000000 0.000000 0.000000 0.000000 0.000000 0.000000
0.000000 60.000000 0.000000 2.550245 0.131573 9.623876 2.550245 0.131573 9.623876 4.161033 1.638668 5.427783 2.879537 2.311590 5.697655 0.000000 0.000000 0.000000 8.392559 2.145540 10.052583 -10.955475 7.351288 8.697570 -17.520873 9.683840 3.599238 0.000000 0.000000 0.000000 0.781308 -1.896684 9.096047 2.890653 -1.460689 3.380617 -3.833941 1.764081 0.335951 0.000000 0.000000 0.000000 0.773665 -0.534765 4.053352 0.569955 0.301164 -0.048280 0.000000 0.000000 0.000000 1.028038 0.127377 11.592684 0.000000 0.000000 0.000000 0.000000 0.000000 0.000000
0.000000 60.000000 0.000000 2.455266 0.258600 6.956195 2.455266 0.258600 6.956195 4.148762 1.658392 3.748961 3.102636 2.609579 4.193495 0.000000 0.000000 0.000000 7.183233 1.638627 4.853982 -8.609301 4.916996 4.118477 -11.292975 5.885779 1.122739 0.000000 0.000000 0.000000 1.072304 -1.502770 7.611373 2.569613 -1.073628 1.616003 -4.003894 1.735575 -0.801611 0.000000 0.000000 0.000000 1.482214 -0.222087 1.488585 0.000000 0.000000 0.000000 0.000000 0.000000 0.000000 2.474913 0.181461 10.986700 0.000000 0.000000 0.000000 0.000000 0.000000 0.000000
0.000000 60.000000 0.000000 2.242949 0.241378 6.494821 2.242949 0.241378 6.494821 4.611201 1.841978 3.116240 3.506570 3.007641 3.639269 0.000000 0.000000 0.000000 6.113185 1.435003 4.087310 -5.591818 2.749107 1.096422 -8.100288 4.054776 -0.413302 0.000000 0.000000 0.000000 0.199842 -1.593288 7.213974 2.761335 -0.986893 0.626243 -4.011911 1.653242 -1.725071 0.000000 0.000000 0.000000 1.982677 -0.219251 1.368885 0.000000 0.000000 0.000000 0.000000 0.000000 0.000000 2.785282 0.190312 11.252103 0.000000 0.000000 0.000000 0.000000 0.000000 0.000000
0.000000 60.000000 0.000000 2.240935 0.251997 6.285706 2.240935 0.251997 6.285706 4.826154 1.944597 2.106608 3.742572 3.287184 2.811636 0.000000 0.000000 0.000000 5.267865 1.308794 3.962625 -3.788070 1.607109 -0.512633 -8.413324 4.144964 -1.154783 0.000000 0.000000 0.000000 -0.519688 -1.658506 6.813129 3.433644 -1.072901 -0.251221 -4.023687 1.488407 -3.542648 0.000000 0.000000 0.000000 1.804836 -0.399070 2.679547 0.000000 0.000000 0.000000 0.000000 0.000000 0.000000 2.502293 0.154547 12.890462 0.000000 0.000000 0.000000 0.000000 0.000000 0.000000
0.000000 60.000000 0.000000 2.324767 0.285561 5.974374 2.324767 0.285561 5.974374 5.108729 2.075969 1.061910 4.065594 3.650384 1.972752 0.000000 0.000000 0.000000 5.181299 1.237984 3.383698 -2.777477 1.024066 -1.302227 -8.864635 4.323139 -1.618459 0.000000 0.000000 0.000000 -1.594113 -1.740023 6.115163 4.540579 -1.436047 -0.223174 -3.971062 1.466706 -3.536215 0.000000 0.000000 0.000000 1.679457 -0.656296 4.555424 0.000000 0.000000 0.000000 0.000000 0.000000 0.000000 2.581615 0.134958 14.173419 0.000000 0.000000 0.000000 0.000000 0.000000 0.000000
0.000000 60.000000 0.000000 2.492817 0.300356 6.330407 2.492817 0.300356 6.330407 5.071019 2.064881 0.839981 4.236054 3.825815 1.752664 0.000000 0.000000 0.000000 4.990288 1.197824 3.225039 -2.474061 0.692044 -2.518310 -9.289817 4.494596 -2.019676 0.000000 0.000000 0.000000 -2.955486 -2.002256 5.942266 5.854802 -1.990116 0.385371 -2.786525 0.964834 -3.596540 0.000000 0.000000 0.000000 1.446453 -0.817153 5.823784 0.000000 0.000000 0.000000 0.000000 0.000000 0.000000 3.104068 0.130812 14.766630 0.000000 0.000000 0.000000 0.000000 0.000000 0.000000
0.000000 60.000000 0.000000 2.624013 0.229099 8.061610 2.624013 0.229099 8.061610 4.802510 1.982533 -0.614032 4.014828 3.703079 0.845736 0.000000 0.000000 0.000000 4.298242 1.300872 4.934271 -1.783107 0.373686 -2.727293 -9.418325 4.728590 -0.315066 0.000000 0.000000 0.000000 -4.865606 -2.454152 6.226412 7.399828 -3.114611 3.290102 1.933256 -0.973428 -3.042319 0.000000 0.000000 0.000000 0.883831 -0.940875 7.030313 0.000000 0.000000 0.000000 0.000000 0.000000 0.000000 2.887563 0.128961 15.229074 0.000000 0.000000 0.000000 0.000000 0.000000 0.000000
0.000000 60.000000 0.000000 2.798882 0.053625 11.722335 2.798882 0.053625 11.722335 4.394099 1.849103 -3.106831 3.546897 3.389392 -0.636440 0.000000 0.000000 0.000000 3.254396 1.660263 9.108010 -0.804780 -0.183572 -3.700874 -9.323062 4.946984 2.250256 0.000000 0.000000 0.000000 -7.061425 -3.169611 7.743688 9.142760 -4.869220 8.426308 10.888753 -4.805435 -2.429046 0.000000 0.000000 0.000000 -0.062380 -0.954210 7.658747 0.000000 0.000000 0.000000 0.000000 0.000000 0.000000 1.255783 0.137297 16.372578 0.000000 0.000000 0.000000 0.000000 0.000000 0.000000
0.000000 60.000000 0.000000 3.002390 -0.015838 13.495638 3.002390 -0.015838 13.495638 3.937074 1.681830 -5.630748 2.774041 2.779588 -2.247281 0.000000 0.000000 0.000000 2.496516 1.985448 12.373010 -0.246235 -0.416776 -3.719434 -9.118388 5.082754 4.692067 0.000000 0.000000 0.000000 -8.919256 -3.591417 8.016464 10.254872 -6.207694 12.173809 17.036130 -7.639480 -0.411878 0.000000 0.000000 0.000000 -1.118281 -0.757858 6.725388 0.000000 0.000000 0.000000 0.000000 0.000000 0.000000 -1.746227 0.164440 17.638163 0.000000 0.000000 0.000000 0.000000 0.000000 0.000000
0.000000 60.000000 0.000000 3.059366 0.078522 11.990646 3.059366 0.078522 11.990646 3.712873 1.579618 -5.942620 2.106970 2.149774 -2.629962 0.000000 0.000000 0.000000 1.882217 1.774176 11.035076 0.868823 -0.793210 -3.149746 -7.814752 4.300821 4.047321 0.000000 0.000000 0.000000 -9.292066 -3.443100 6.404063 10.301013 -6.658326 13.934364 17.142838 -7.972735 1.922264 0.000000 0.000000 0.000000 -1.300495 -0.632673 5.731986 0.000000 0.000000 0.000000 0.000000 0.000000 0.000000 -2.691076 0.168215 17.179537 0.000000 0.000000 0.000000 0.000000 0.000000 0.000000
0.000000 60.000000 0.000000 2.784712 0.163309 9.712944 2.784712 0.163309 9.712944 3.859557 1.658136 -6.894394 2.013940 2.111048 -3.465003 0.000000 0.000000 0.000000 1.548986 1.515269 9.274086 1.820263 -1.209006 -3.442929 -6.705740 3.599002 2.943103 0.000000 0.000000 0.000000 -9.318365 -3.348229 5.684709 10.691422 -6.238475 11.451766 14.948634 -6.880195 1.264046 0.000000 0.000000 0.000000 -1.735248 -0.536054 5.076245 0.000000 0.000000 0.000000 0.000000 0.000000 0.000000 -3.352761 0.150720 16.489669 0.000000 0.000000 0.000000 0.000000 0.000000 0.000000
0.000000 60.000000 0.000000 2.285172 0.186910 7.597646 2.285172 0.186910 7.597646 4.157135 1.794649 -6.536245 2.047733 2.145956 -3.489392 0.000000 0.000000 0.000000 1.131059 1.310657 8.132655 3.153162 -1.917390 -5.002581 -6.710295 3.527936 1.852858 0.000000 0.000000 0.000000 -8.710007 -3.053612 4.577218 10.165277 -5.343524 8.578305 12.133613 -5.479218 -0.236691 0.000000 0.000000 0.000000 -2.409049 -0.374740 3.924462 0.000000 0.000000 0.000000 0.000000 0.000000 0.000000 -4.986295 0.142034 16.033511 0.000000 0.000000 0.000000 0.000000 0.000000 0.000000
0.000000 60.000000 0.000000 1.866235 0.219557 5.384937 1.866235 0.219557 5.384937 4.692716 2.028120 -5.362534 2.355871 2.426434 -3.093433 0.000000 0.000000 0.000000 -0.112501 0.893846 6.076185 4.290477 -2.425552 -5.616250 -5.797990 2.997380 1.109229 0.000000 0.000000 0.000000 -6.760926 -2.530525 4.004902 8.691658 -3.768783 4.346324 8.128822 -3.590792 -2.028454 0.000000 0.000000 0.000000 -3.197704 -0.312845 3.703084 0.000000 0.000000 0.000000 0.000000 0.000000 0.000000 -6.817943 0.158435 15.952541 0.000000 0.000000 0.000000 0.000000 0.000000 0.000000
0.000000 60.000000 0.000000 1.690397 0.188933 5.278620 1.690397 0.188933 5.278620 5.175007 2.231468 -4.334872 2.632183 2.664971 -2.576158 0.000000 0.000000 0.000000 -0.507152 0.852492 6.139375 4.604922 -2.449667 -4.585085 -6.181323 3.205451 1.182774 0.000000 0.000000 0.000000 -4.465771 -2.179639 5.065811 7.191078 -3.032767 3.535117 3.027029 -1.389802 -1.972218 0.000000 0.000000 0.000000 -5.306026 -0.236814 4.044276 0.000000 0.000000 0.000000 0.000000 0.000000 0.000000 -9.224522 0.290603 17.140774 0.000000 0.000000 0.000000 0.000000 0.000000 0.000000
0.000000 60.000000 0.000000 1.476194 0.097301 6.351901 1.476194 0.097301 6.351901 5.540194 2.412004 -4.766361 2.821517 2.885253 -3.003427 0.000000 0.000000 0.000000 0.488033 1.138558 7.413576 3.450309 -1.888781 -3.532768 -8.029025 4.235761 2.146188 0.000000 0.000000 0.000000 -2.739278 -1.965278 5.984394 5.882775 -2.689542 4.226748 -1.564491 0.576406 -1.828733 0.000000 0.000000 0.000000 -8.085792 -0.170696 4.984116 0.000000 0.000000 0.000000 0.000000 0.000000 0.000000 -11.456798 0.495469 18.991805 0.000000 0.000000 0.000000 0.000000 0.000000 0.000000
0.000000 60.000000 0.000000 0.987533 -0.063126 7.737380 0.987533 -0.063126 7.737380 5.723185 2.531154 -5.986199 2.827647 2.970286 -4.027030 0.000000 0.000000 0.000000 2.735631 1.572545 8.829056 1.111658 -0.899062 -3.230215 -11.490154 5.993657 1.529521 0.000000 0.000000 0.000000 -2.138069 -2.012462 6.869784 5.301453 -2.430922 3.969153 -3.964907 1.540435 -2.726002 0.000000 0.000000 0.000000 -6.806233 -0.366182 6.673774 0.000000 0.000000 0.000000 0.000000 0.000000 0.000000 -11.053859 0.453848 18.682552 0.000000 0.000000 0.000000 0.000000 0.000000 0.000000
0.000000 60.000000 0.000000 0.552936 -0.138550 7.574102 0.552936 -0.138550 7.574102 5.805314 2.558958 -5.629114 2.928751 3.045378 -3.682992 0.000000 0.000000 0.000000 4.300031 1.654368 8.299077 -1.548890 0.269074 -2.769833 -15.338854 7.875252 0.729731 0.000000 0.000000 0.000000 -1.242217 -1.866349 7.104704 4.917230 -2.042985 2.563547 -7.154307 2.853430 -2.944357 0.000000 0.000000 0.000000 -5.052010 -0.673363 9.181100 0.000000 0.000000 0.000000 0.000000 0.000000 0.000000 -9.806423 0.359075 18.082639 0.000000 0.000000 0.000000 0.000000 0.000000 0.000000
0.000000 60.000000 0.000000 -0.148257 -0.289696 8.182090 -0.148257 -0.289696 8.182090 6.015159 2.670361 -6.012614 3.336880 3.472983 -3.868727 0.000000 0.000000 0.000000 5.708680 1.850694 9.073447 -5.391113 2.131744 -1.836132 -19.484884 9.938317 -0.016999 0.000000 0.000000 0.000000 0.242590 -1.382187 6.365880 3.662517 -1.560849 2.402047 -8.263429 3.248427 -3.554428 0.000000 0.000000 0.000000 -4.659513 -0.829679 10.615634 0.000000 0.000000 0.000000 0.000000 0.000000 0.000000 -9.252561 0.356397 18.206226 0.000000 0.000000 0.000000 0.000000 0.000000 0.000000
0.000000 60.000000 0.000000 -0.385353 -0.373528 9.499122 -0.385353 -0.373528 9.499122 6.035900 2.700283 -6.619296 3.743719 3.894105 -4.020756 0.000000 0.000000 0.000000 6.775482 2.208020 12.123214 -9.349188 4.851591 2.018172 -24.233117 12.944242 1.972744 0.000000 0.000000 0.000000 1.934982 -0.837447 5.609721 2.200361 -1.330281 4.208423 -7.396195 3.111954 -1.866679 0.000000 0.000000 0.000000 -4.143272 -1.052954 12.342431 0.000000 0.000000 0.000000 0.000000 0.000000 0.000000 -8.692391 0.407054 19.030085 0.000000 0.000000 0.000000 0.000000 0.000000 0.000000
0.000000 60.000000 0.000000 -0.275049 -0.336516 8.936964 -0.275049 -0.336516 8.936964 6.146752 2.729102 -5.943053 4.096126 4.175525 -3.293458 0.000000 0.000000 0.000000 7.851700 2.452881 14.219204 -12.854035 8.015745 7.477318 -26.100132 14.874083 5.282901 0.000000 0.000000 0.000000 2.152820 -0.754604 5.478269 1.823272 -1.361206 5.355869 -7.408858 3.152691 -1.578666 0.000000 0.000000 0.000000 -3.217457 -1.592394 16.458750 0.000000 0.000000 0.000000 0.000000 0.000000 0.000000 -6.646968 0.420874 20.131189 0.000000 0.000000 0.000000 0.000000 0.000000 0.000000
0.000000 60.000000 0.000000 0.251952 -0.193701 7.753790 0.251952 -0.193701 7.753790 6.368581 2.804088 -5.097115 4.379481 4.386829 -2.569169 0.000000 0.000000 0.000000 8.210652 2.387411 13.122260 -13.888347 9.235028 9.623804 -25.406957 14.673540 6.004491 0.000000 0.000000 0.000000 2.399752 -0.621861 5.177675 1.616665 -1.311197 5.565929 -7.756871 3.508667 0.070743 0.000000 0.000000 0.000000 -2.326127 -2.341081 22.505510 0.000000 0.000000 0.000000 0.000000 0.000000 0.000000 -3.292714 0.291467 19.998566 0.000000 0.000000 0.000000 0.000000 0.000000 0.000000
0.000000 60.000000 0.000000 1.452464 0.098114 6.319540 1.452464 0.098114 6.319540 6.464948 2.815112 -4.213121 4.165187 4.145287 -2.243068 0.000000 0.000000 0.000000 8.829946 2.328441 11.815219 -13.670569 8.706989 8.193466 -21.672133 12.591909 5.697687 0.000000 0.000000 0.000000 3.306836 -0.493358 5.479705 0.973453 -0.758126 3.363034 -8.220575 3.691983 0.188642 0.000000 0.000000 0.000000 -2.058571 -2.385492 22.531222 0.000000 0.000000 0.000000 0.000000 0.000000 0.000000 -0.830903 0.219864 19.001500 0.000000 0.000000 0.000000 0.000000 0.000000 0.000000
0.000000 60.000000 0.000000 2.422039 0.272067 6.595402 2.422039 0.272067 6.595402 6.578823 2.699082 0.096893 4.385579 4.041996 0.871068 0.000000 0.000000 0.000000 8.423260 2.036994 8.185098 -11.281649 6.274106 3.986682 -15.474478 8.285192 -0.201417 0.000000 0.000000 0.000000 3.487740 -1.155490 8.253224 1.453288 -0.136140 -2.505086 -11.102060 4.013250 -6.179511 0.000000 0.000000 0.000000 -2.289107 -3.132396 30.287095 0.000000 0.000000 0.000000 0.000000 0.000000 0.000000 3.694249 0.075147 15.521100 0.000000 0.000000 0.000000 0.000000 0.000000 0.000000
0.000000 60.000000 0.000000 2.433277 0.109331 9.641989 2.433277 0.109331 9.641989 6.958910 2.729297 3.232408 5.032226 4.400196 3.230668 0.000000 0.000000 0.000000 7.372688 1.807181 6.680506 -7.728518 3.195090 -2.007096 -7.627924 3.198611 -9.037641 0.000000 0.000000 0.000000 2.880396 -1.764069 10.159739 1.390266 0.307637 -5.584813 -12.250615 3.421227 -12.463076 0.000000 0.000000 0.000000 -2.972213 -3.774230 37.805252 0.000000 0.000000 0.000000 0.000000 0.000000 0.000000 4.465732 0.023221 9.617253 0.000000 0.000000 0.000000 0.000000 0.000000 0.000000
0.000000 60.000000 0.000000 2.343302 0.229682 7.062814 2.343302 0.229682 7.062814 7.675853 3.031024 2.606599 5.747475 5.064601 3.004637 0.000000 0.000000 0.000000 6.176233 1.472629 4.535354 -2.222193 -0.056077 -7.044636 -4.666478 1.820268 -11.161844 0.000000 0.000000 0.000000 2.118190 -1.605056 8.913964 2.304089 0.132729 -6.051469 -13.527714 4.199656 -10.400845 0.000000 0.000000 0.000000 -1.986690 -2.364627 21.957908 0.000000 0.000000 0.000000 0.000000 0.000000 0.000000 0.000000 0.000000 0.000000 0.000000 0.000000 0.000000 0.000000 0.000000 0.000000
0.000000 60.000000 0.000000 2.258521 0.443839 2.768172 2.258521 0.443839 2.768172 8.149003 3.271308 1.515956 5.802480 5.211297 2.167382 0.000000 0.000000 0.000000 4.743595 1.119668 2.831376 1.235716 -1.799930 -10.266209 -4.385127 1.785083 -9.551885 0.000000 0.000000 0.000000 1.121080 -1.474806 7.539954 3.674483 0.032659 -7.867479 -13.857975 4.468198 -9.609764 0.000000 0.000000 0.000000 -2.121109 -1.202330 11.530951 0.000000 0.000000 0.000000 0.000000 0.000000 0.000000 0.000000 0.000000 0.000000 0.000000 0.000000 0.000000 0.000000 0.000000 0.000000
0.000000 60.000000 0.000000 2.343928 0.608225 0.078237 2.343928 0.608225 0.078237 8.408865 3.467168 -0.214261 5.636152 5.257444 0.461432 0.000000 0.000000 0.000000 3.524478 1.014391 3.434071 2.286223 -2.217301 -10.771190 -4.781347 1.939894 -9.673069 0.000000 0.000000 0.000000 0.004039 -1.686244 7.450217 5.707287 -0.585739 -7.161350 -14.068075 5.207356 -6.134557 0.000000 0.000000 0.000000 -2.151360 -0.470253 5.431293 0.000000 0.000000 0.000000 0.000000 0.000000 0.000000 0.000000 0.000000 0.000000 0.000000 0.000000 0.000000 0.000000 0.000000 0.000000
0.000000 60.000000 0.000000 2.261233 0.647852 -1.042648 2.261233 0.647852 -1.042648 7.986826 3.415551 -2.512569 5.286944 5.163992 -1.555543 0.000000 0.000000 0.000000 2.823710 1.046455 4.507252 2.564889 -2.218453 -9.886044 -4.447489 1.829668 -9.108746 0.000000 0.000000 0.000000 -0.281770 -1.746303 7.458841 6.572004 -0.794027 -7.268949 -14.641816 5.588348 -5.337322 0.000000 0.000000 0.000000 0.000000 0.000000 0.000000 0.000000 0.000000 0.000000 0.000000 0.000000 0.000000 0.000000 0.000000 0.000000 0.000000 0.000000 0.000000 0.000000 0.000000 0.000000
0.000000 60.000000 0.000000 2.218501 0.607156 -0.517437 2.218501 0.607156 -0.517437 7.393232 3.157518 -2.544376 4.966952 4.852819 -1.540085 0.000000 0.000000 0.000000 2.151357 1.020561 4.995204 3.184358 -2.320941 -8.761527 -2.626388 1.105093 -9.116722 0.000000 0.000000 0.000000 -1.103341 -2.001076 7.887989 7.007583 -1.181479 -5.798401 -13.631281 5.334530 -4.528692 0.000000 0.000000 0.000000 0.000000 0.000000 0.000000 0.000000 0.000000 0.000000 0.000000 0.000000 0.000000 0.000000 0.000000 0.000000 0.000000 0.000000 0.000000 0.000000 0.000000 0.000000
0.000000 60.000000 0.000000 2.440994 0.644073 -0.149992 2.440994 0.644073 -0.149992 7.338321 3.108496 -2.032143 4.890798 4.696595 -0.782842 0.000000 0.000000 0.000000 1.133870 0.906657 5.084427 3.861725 -2.377893 -6.819385 -0.114951 0.065933 -10.718575 0.000000 0.000000 0.000000 -3.001144 -2.584978 8.948729 7.548367 -1.676134 -4.047000 -12.065736 4.636036 -4.717599 0.000000 0.000000 0.000000 0.000000 0.000000 0.000000 0.000000 0.000000 0.000000 0.000000 0.000000 0.000000 0.000000 0.000000 0.000000 0.000000 0.000000 0.000000 0.000000 0.000000 0.000000
0.000000 60.000000 0.000000 2.952099 0.711778 1.035486 2.952099 0.711778 1.035486 7.417344 3.092863 -0.942309 4.740782 4.452421 0.173657 0.000000 0.000000 0.000000 0.162558 0.859720 5.614821 4.115456 -2.222130 -4.177905 2.121567 -0.813617 -11.448966 0.000000 0.000000 0.000000 -5.400404 -3.254325 10.180347 8.877684 -2.424807 -2.275232 -8.481317 3.346819 -3.553339 0.000000 0.000000 0.000000 0.000000 0.000000 0.000000 0.000000 0.000000 0.000000 0.000000 0.000000 0.000000 0.000000 0.000000 0.000000 0.000000 0.000000 0.000000 0.000000 0.000000 0.000000
0.000000 60.000000 0.000000 3.519838 0.897286 0.349335 3.519838 0.897286 0.349335 6.966702 2.908810 -1.009321 4.286533 3.993205 0.515601 0.000000 0.000000 0.000000 0.013577 0.839780 5.598231 3.991314 -2.183888 -4.311710 4.629489 -1.800255 -10.718660 0.000000 0.000000 0.000000 -6.889657 -3.747986 11.610660 10.397326 -3.013885 -1.715805 -5.605693 2.170845 -3.350909 0.000000 0.000000 0.000000 0.000000 0.000000 0.000000 0.000000 0.000000 0.000000 0.000000 0.000000 0.000000 0.000000 0.000000 0.000000 0.000000 0.000000 0.000000 0.000000 0.000000 0.000000
0.000000 60.000000 0.000000 3.928837 1.001432 0.374308 3.928837 1.001432 0.374308 6.286378 2.598289 -0.143193 3.725212 3.424029 1.121346 0.000000 0.000000 0.000000 0.530319 0.803122 4.896360 4.343657 -2.396939 -5.144359 5.017381 -1.989020 -9.971358 0.000000 0.000000 0.000000 -8.092122 -4.042126 12.240666 11.805850 -3.428789 -1.861177 -2.396241 0.790403 -3.317979 0.000000 0.000000 0.000000 0.000000 0.000000 0.000000 0.000000 0.000000 0.000000 0.000000 0.000000 0.000000 0.000000 0.000000 0.000000 0.000000 0.000000 0.000000 0.000000 0.000000 0.000000
0.000000 60.000000 0.000000 4.566305 1.198041 -0.030638 4.566305 1.198041 -0.030638 5.211203 2.107492 1.740908 2.633281 2.319770 2.451240 0.000000 0.000000 0.000000 1.771954 0.955069 4.880785 4.607558 -2.521295 -5.481620 4.992393 -2.179925 -6.216438 0.000000 0.000000 0.000000 -8.893338 -4.108135 11.816551 13.303876 -4.021202 -1.367653 1.902152 -0.917089 -0.875507 0.000000 0.000000 0.000000 0.000000 0.000000 0.000000 0.000000 0.000000 0.000000 0.000000 0.000000 0.000000 0.000000 0.000000 0.000000 0.000000 0.000000 0.000000 0.000000 0.000000 0.000000
0.000000 60.000000 0.000000 4.611928 1.316445 -1.434121 4.611928 1.316445 -1.434121 4.019460 1.632319 3.617973 1.375276 1.140434 3.578470 0.000000 0.000000 0.000000 2.365121 1.232245 6.443982 3.119194 -1.746931 -3.742885 5.969592 -2.878435 -2.178158 0.000000 0.000000 0.000000 -8.730105 -4.048419 11.573677 12.254783 -3.939621 -0.304574 3.853326 -1.725890 3.255355 0.000000 0.000000 0.000000 0.000000 0.000000 0.000000 0.000000 0.000000 0.000000 0.000000 0.000000 0.000000 0.000000 0.000000 0.000000 0.000000 0.000000 0.000000 0.000000 0.000000 0.000000
0.000000 60.000000 0.000000 4.327831 1.268385 -1.785552 4.327831 1.268385 -1.785552 2.151197 0.956376 6.337767 -0.004637 -0.120793 5.476404 0.000000 0.000000 0.000000 2.667117 1.524487 8.541897 0.713690 -0.563157 -1.864817 9.807017 -4.714698 -1.872173 0.000000 0.000000 0.000000 -9.069330 -4.111401 11.629787 11.063803 -3.964983 1.541029 4.750483 -2.126043 8.811979 0.000000 0.000000 0.000000 0.000000 0.000000 0.000000 0.000000 0.000000 0.000000 0.000000 0.000000 0.000000 0.000000 0.000000 0.000000 0.000000 0.000000 0.000000 0.000000 0.000000 0.000000
0.000000 60.000000 0.000000 3.859065 1.002876 0.111757 3.859065 1.002876 0.111757 1.040061 0.596781 9.350767 -0.606038 -0.699488 8.149369 0.000000 0.000000 0.000000 3.984775 1.686397 8.864137 0.815320 -0.539234 -1.351848 13.147555 -6.147061 -3.546318 0.000000 0.000000 0.000000 -9.376102 -4.144489 11.500030 8.844621 -3.660480 3.615510 5.045922 -2.277773 11.414342 0.000000 0.000000 0.000000 0.000000 0.000000 0.000000 0.000000 0.000000 0.000000 0.000000 0.000000 0.000000 0.000000 0.000000 0.000000 0.000000 0.000000 0.000000 0.000000 0.000000 0.000000
0.000000 60.000000 0.000000 3.601895 0.862978 1.200045 3.601895 0.862978 1.200045 1.409037 0.714365 9.316806 -0.048939 -0.247186 8.303850 0.000000 0.000000 0.000000 5.544060 1.832946 8.924183 1.052441 -0.681143 -1.684809 12.876664 -5.943846 -4.103500 0.000000 0.000000 0.000000 -9.120157 -3.977992 10.565542 6.755309 -2.837730 3.271400 5.035140 -2.269312 8.956406 0.000000 0.000000 0.000000 0.000000 0.000000 0.000000 0.000000 0.000000 0.000000 0.000000 0.000000 0.000000 0.000000 0.000000 0.000000 0.000000 0.000000 0.000000 0.000000 0.000000 0.000000
0.000000 60.000000 0.000000 3.234672 0.745137 1.600090 3.234672 0.745137 1.600090 1.983957 0.897583 9.039473 0.579770 0.272831 8.099271 0.000000 0.000000 0.000000 6.938432 1.978573 9.125339 1.581908 -1.050090 -2.855202 12.241668 -5.466071 -5.524396 0.000000 0.000000 0.000000 -9.178101 -3.732125 8.730690 5.006274 -1.978729 1.918027 4.409328 -1.973781 6.396434 0.000000 0.000000 0.000000 0.000000 0.000000 0.000000 0.000000 0.000000 0.000000 0.000000 0.000000 0.000000 0.000000 0.000000 0.000000 0.000000 0.000000 0.000000 0.000000 0.000000 0.000000
0.000000 60.000000 0.000000 2.592628 0.592956 1.440708 2.592628 0.592956 1.440708 2.894042 1.171163 7.899584 1.301935 0.892657 7.112759 0.000000 0.000000 0.000000 6.489340 1.825857 8.334071 2.080361 -1.271981 -3.027049 9.622016 -4.259526 -5.377697 0.000000 0.000000 0.000000 -7.633265 -3.142529 7.053573 2.577082 -0.895689 0.423819 1.310935 -0.417938 4.619585 0.000000 0.000000 0.000000 0.000000 0.000000 0.000000 0.000000 0.000000 0.000000 0.000000 0.000000 0.000000 0.000000 0.000000 0.000000 0.000000 0.000000 0.000000 0.000000 0.000000 0.000000
0.000000 60.000000 0.000000 1.281207 0.289922 0.794943 1.281207 0.289922 0.794943 1.962856 0.764940 4.005038 0.957990 0.696865 3.740512 0.000000 0.000000 0.000000 3.535736 0.983350 4.422774 1.469313 -0.825395 -1.606427 4.574320 -2.010780 -3.035230 0.000000 0.000000 0.000000 -3.607326 -1.580194 3.708609 0.397998 -0.181539 0.401049 0.184265 0.027438 2.237190 0.000000 0.000000 0.000000 0.000000 0.000000 0.000000 0.000000 0.000000 0.000000 0.000000 0.000000 0.000000 0.000000 0.000000 0.000000 0.000000 0.000000 0.000000 0.000000 0.000000 0.000000
