HIERARCHY
ROOT Hips
{
  OFFSET 0.000000 0.000000 0.000000
  CHANNELS 6 Xposition Yposition Zposition Xrotation Yrotation Zrotation
  JOINT Spine
  {
    OFFSET -0.253123 22.424799 -5.826726
    CHANNELS 3 Xrotation Yrotation Zrotation
    JOINT Chest
    {
      OFFSET -0.253123 22.424799 -5.826726
      CHANNELS 3 Xrotation Yrotation Zrotation
      JOINT Neck
      {
        OFFSET -0.414624 8.444968 -3.906957
        CHANNELS 3 Xrotation Yrotation Zrotation
        JOINT Head
        {
          OFFSET 1.548801 7.462384 -7.473342
          CHANNELS 3 Xrotation Yrotation Zrotation
          End Site
          {
            OFFSET 0.464640 2.238715 -2.242003
          }
        }
      }
      JOINT LeftShoulder
      {
        OFFSET 13.662297 0.510576 9.925918
        CHANNELS 3 Xrotation Yrotation Zrotation
        JOINT LeftArm
        {
          OFFSET 2.909997 -23.619063 6.772514
          CHANNELS 3 Xrotation Yrotation Zrotation
          JOINT LeftForeArm
          {
            OFFSET 10.595922 -20.254781 -9.669280
            CHANNELS 3 Xrotation Yrotation Zrotation
            JOINT LeftHand
            {
              OFFSET 1.581981 -5.350896 -2.487129
              CHANNELS 3 Xrotation Yrotation Zrotation
              End Site
              {
                OFFSET 0.474594 -1.605269 -0.746139
              }
            }
          }
        }
      }
      JOINT RightShoulder
      {
        OFFSET -13.662297 -0.510576 -9.925918
        CHANNELS 3 Xrotation Yrotation Zrotation
        JOINT RightArm
        {
          OFFSET -4.505415 -25.725713 1.183158
          CHANNELS 3 Xrotation Yrotation Zrotation
          JOINT RightForeArm
          {
            OFFSET 1.284607 -25.866169 -6.340377
            CHANNELS 3 Xrotation Yrotation Zrotation
            JOINT RightHand
            {
              OFFSET 1.107533 -5.748622 -2.637041
              CHANNELS 3 Xrotation Yrotation Zrotation
              End Site
              {
                OFFSET 0.332260 -1.724587 -0.791112
              }
            }
          }
        }
      }
    }
  }
  JOINT LeftUpLeg
  {
    OFFSET 7.835943 -0.406958 8.407790
    CHANNELS 3 Xrotation Yrotation Zrotation
    JOINT LeftLeg
    {
      OFFSET -10.219194 -43.459642 4.926588
      CHANNELS 3 Xrotation Yrotation Zrotation
      JOINT LeftFoot
      {
        OFFSET -2.855798 -40.158022 7.920695
        CHANNELS 3 Xrotation Yrotation Zrotation
        End Site
        {
          OFFSET -0.856739 -12.047407 2.376208
        }
      }
    }
  }
  JOINT RightUpLeg
  {
    OFFSET -7.835943 0.406958 -8.407790
    CHANNELS 3 Xrotation Yrotation Zrotation
    JOINT RightLeg
    {
      OFFSET 16.076752 -38.072424 -7.886398
      CHANNELS 3 Xrotation Yrotation Zrotation
      JOINT RightFoot
      {
        OFFSET 13.657580 -42.081873 -7.100000
        CHANNELS 3 Xrotation Yrotation Zrotation
        End Site
        {
          OFFSET 4.097274 -12.624562 -2.130000
        }
      }
    }
  }
}
MOTION
Frames: 96
Frame Time: 0.083333
1.317324 60.044495 2.114183 5.271002 0.466742 2.008439 0.000000 0.000000 0.000000 -2.258441 -1.116939 -4.527115 3.456732 -3.916296 -3.135824 5.000000 0.000000 0.000000 0.000000 0.000000 0.000000 0.000000 0.000000 0.000000 0.000000 0.000000 0.000000 0.000000 0.000000 0.000000 0.405307 0.456836 17.966391 -15.521013 4.005939 -11.597302 -12.405616 -23.929100 98.140204 0.000000 0.000000 0.000000 17.723443 -7.818359 13.563378 -18.793528 16.812790 13.935955 0.000000 0.000000 0.000000 -11.114572 1.484562 -28.941049 -9.059536 -13.952211 13.618251 0.000000 0.000000 0.000000
3.016868 60.259415 3.897264 5.344769 0.469057 2.034002 0.000000 0.000000 0.000000 -2.321353 -1.110766 -4.554189 3.463895 -3.920518 -3.143757 5.000000 0.000000 0.000000 0.000000 0.000000 0.000000 0.000000 0.000000 0.000000 0.000000 0.000000 0.000000 0.000000 0.000000 0.000000 0.456001 0.387925 18.087200 -16.108782 4.252320 -11.592743 -7.463180 -27.575935 92.655801 0.000000 0.000000 0.000000 16.900267 -7.688394 13.521372 -18.146669 16.403800 13.376079 0.000000 0.000000 0.000000 -11.631894 1.605142 -29.322446 -9.271185 -14.317013 14.568441 0.000000 0.000000 0.000000
7.456034 60.424540 6.095158 5.346903 0.469175 2.035176 0.000000 0.000000 0.000000 -2.323103 -1.110554 -4.555409 3.464089 -3.920674 -3.144042 5.000000 0.000000 0.000000 0.000000 0.000000 0.000000 0.000000 0.000000 0.000000 0.000000 0.000000 0.000000 0.000000 0.000000 0.000000 2.698259 -0.452266 18.068693 -18.938815 5.945175 -11.796138 -17.928026 -14.364399 97.032373 0.000000 0.000000 0.000000 10.324439 -7.387925 13.246395 -14.003672 13.585209 7.388623 0.000000 0.000000 0.000000 -16.475711 2.073136 -27.551830 -6.618124 -9.882483 0.669818 0.000000 0.000000 0.000000
12.011575 60.371667 6.479562 10.934136 0.550145 2.965623 0.000000 0.000000 0.000000 -7.477024 -0.760456 -5.431013 3.440466 -3.989704 -3.269942 5.000000 0.000000 0.000000 0.000000 0.000000 0.000000 0.000000 0.000000 0.000000 0.000000 0.000000 0.000000 0.000000 0.000000 0.000000 4.325309 -1.321474 18.444655 -23.403558 8.101029 -12.063750 -20.186847 -11.999136 92.633776 0.000000 0.000000 0.000000 1.532751 -6.204137 10.402216 -7.946702 9.042654 1.662461 0.000000 0.000000 0.000000 -22.195132 2.909045 -28.965603 -6.364430 -9.254404 -5.724851 0.000000 0.000000 0.000000
14.840064 60.167794 6.173399 16.817098 0.706540 4.837134 0.000000 0.000000 0.000000 -12.295979 -0.256694 -7.458238 4.203294 -4.403451 -4.007709 5.000000 0.000000 0.000000 0.000000 0.000000 0.000000 0.000000 0.000000 0.000000 0.000000 0.000000 0.000000 0.000000 0.000000 0.000000 4.823779 -1.454296 17.424366 -22.798601 7.766518 -11.809459 -17.998014 -13.938922 92.236715 0.000000 0.000000 0.000000 -1.491662 -4.869201 4.045085 -6.334952 6.576327 3.137174 0.000000 0.000000 0.000000 -22.941733 2.738085 -29.743242 -7.988828 -10.718987 -12.656888 0.000000 0.000000 0.000000
16.426320 60.234897 6.094786 16.628034 0.941459 6.913726 0.000000 0.000000 0.000000 -11.902990 -0.104005 -9.676130 4.571152 -4.606849 -4.436060 5.000000 0.000000 0.000000 0.000000 0.000000 0.000000 0.000000 0.000000 0.000000 0.000000 0.000000 0.000000 0.000000 0.000000 0.000000 6.417932 -1.566683 14.872520 -19.342085 6.448075 -9.817696 75.591725 -25.041646 24.702142 0.000000 0.000000 0.000000 -4.873216 -3.009943 -0.544890 -3.865034 4.168220 4.104063 0.000000 0.000000 0.000000 -22.593689 1.824908 -26.035273 -11.005601 -12.442152 -21.113063 0.000000 0.000000 0.000000
17.230102 60.805537 6.072808 15.602783 1.086493 7.828062 0.000000 0.000000 0.000000 -11.313311 -0.169561 -10.593043 4.478005 -4.458055 -4.219573 5.000000 0.000000 0.000000 0.000000 0.000000 0.000000 0.000000 0.000000 0.000000 0.000000 0.000000 0.000000 0.000000 0.000000 0.000000 7.957841 -1.321926 11.729329 -11.640113 4.225511 -7.898496 78.535361 -22.302135 22.178000 0.000000 0.000000 0.000000 -4.640045 -2.174038 -0.045929 -0.614900 2.433916 2.229378 0.000000 0.000000 0.000000 -19.923346 -0.223393 -16.278584 -12.125487 -9.476430 -29.185850 0.000000 0.000000 0.000000
18.507838 61.245972 5.707542 12.674114 1.065945 6.703987 0.000000 0.000000 0.000000 -9.711019 -0.635931 -9.360566 3.732529 -3.775089 -3.116551 5.000000 0.000000 0.000000 0.000000 0.000000 0.000000 0.000000 0.000000 0.000000 0.000000 0.000000 0.000000 0.000000 0.000000 0.000000 6.565235 -0.781253 7.517445 -9.206003 2.504010 -4.694780 81.885715 -17.694141 19.952979 0.000000 0.000000 0.000000 -0.970861 -2.258033 2.386612 1.250383 1.653015 0.964221 0.000000 0.000000 0.000000 -14.786095 -1.674973 -9.430910 -7.103660 -2.363934 -22.588562 0.000000 0.000000 0.000000
20.882983 61.069725 4.177825 8.148819 0.939705 4.628667 0.000000 0.000000 0.000000 -6.067768 -1.143089 -6.797531 1.946644 -2.944519 -1.782194 5.000000 0.000000 0.000000 0.000000 0.000000 0.000000 0.000000 0.000000 0.000000 -3.177546 -22.025736 61.869825 0.000000 0.000000 0.000000 4.751412 -0.666323 3.501382 -7.598064 1.485129 -1.700754 84.448188 -14.381708 17.805700 0.000000 0.000000 0.000000 -0.351140 -2.002213 3.465976 1.138989 1.645285 1.426866 0.000000 0.000000 0.000000 -11.164738 -0.978562 -7.082898 -2.766016 0.086775 -11.063196 0.000000 0.000000 0.000000
23.805210 60.647898 1.405726 7.310489 0.653625 2.960889 0.000000 0.000000 0.000000 -5.351065 -0.823021 -4.377098 2.012211 -2.651974 -1.747867 5.000000 0.000000 0.000000 0.000000 0.000000 0.000000 0.000000 0.000000 0.000000 -6.637119 -21.531933 63.366501 0.000000 0.000000 0.000000 2.566329 -0.399604 1.776650 -3.649327 0.779435 -0.497387 87.338914 -9.047452 15.630890 0.000000 0.000000 0.000000 -2.055032 -1.332948 3.518359 1.100675 0.988680 -0.988890 0.000000 0.000000 0.000000 -11.859514 -1.512740 -3.871943 0.443318 0.656615 -1.387297 0.000000 0.000000 0.000000
25.773483 60.785915 -0.773373 7.521283 0.426430 1.805499 0.000000 0.000000 0.000000 -5.690754 -0.565269 -2.869270 1.767415 -2.293889 -1.468193 5.000000 0.000000 0.000000 0.000000 0.000000 0.000000 0.000000 0.000000 0.000000 -7.633127 -20.855628 62.390855 0.000000 0.000000 0.000000 1.337727 -0.250879 1.090011 -2.491325 0.547825 -0.187949 89.901770 -3.099108 13.743136 0.000000 0.000000 0.000000 -3.520960 -0.737066 3.481174 0.572164 0.441794 -2.588423 0.000000 0.000000 0.000000 -9.247531 -0.953610 -1.105059 1.320496 0.870996 -0.792747 0.000000 0.000000 0.000000
27.690091 61.012033 -2.280008 7.198051 0.255942 0.901293 0.000000 0.000000 0.000000 -5.446097 -0.437297 -1.790672 1.309331 -1.889012 -1.066966 5.000000 0.000000 0.000000 0.000000 0.000000 0.000000 0.000000 0.000000 0.000000 0.507649 -21.792198 57.432989 0.000000 0.000000 0.000000 0.531107 -0.144279 0.866515 -2.783757 0.427827 -0.312058 91.075760 0.162254 12.784918 0.000000 0.000000 0.000000 -5.086667 -0.454209 1.804549 0.097702 -0.098867 -3.547412 0.000000 0.000000 0.000000 -4.505096 0.469987 2.112232 -1.816766 0.582594 -6.941931 0.000000 0.000000 0.000000
30.113750 61.022137 -7.076672 7.263830 0.147369 0.345512 0.000000 0.000000 0.000000 -5.605276 -0.339273 -1.116396 1.207773 -1.615046 -0.825366 5.000000 0.000000 0.000000 0.000000 0.000000 0.000000 0.000000 0.000000 0.000000 20.580685 -21.708673 44.870656 0.000000 0.000000 0.000000 1.056725 -0.291712 0.616280 -3.144998 0.513255 -0.467696 0.000000 0.000000 0.000000 0.000000 0.000000 0.000000 -5.347078 -0.470141 -2.009441 0.621311 -0.889275 -4.900844 0.000000 0.000000 0.000000 -2.917454 0.390605 3.059385 -6.153102 0.301463 -12.815391 0.000000 0.000000 0.000000
33.354391 60.721168 -15.453719 6.081424 0.135954 0.331232 0.000000 0.000000 0.000000 -4.658204 -0.241029 -0.832250 0.731653 -1.219380 -0.606333 5.000000 0.000000 0.000000 0.000000 0.000000 0.000000 0.000000 0.000000 0.000000 26.161456 -20.413103 39.529743 0.000000 0.000000 0.000000 1.709914 -0.482040 1.254739 -2.910803 0.642673 -1.436929 0.000000 0.000000 0.000000 0.000000 0.000000 0.000000 -4.566952 -0.353610 -2.516810 1.455310 -1.596792 -7.989415 0.000000 0.000000 0.000000 -5.921948 -1.063591 0.153972 -4.099497 0.645899 -9.991921 0.000000 0.000000 0.000000
37.898370 60.461245 -21.001990 4.407707 0.179664 0.590795 0.000000 0.000000 0.000000 -3.329206 -0.143730 -0.710956 0.370111 -0.804682 -0.450947 5.000000 0.000000 0.000000 0.000000 0.000000 0.000000 0.000000 0.000000 0.000000 17.770075 -20.907691 45.052227 0.000000 0.000000 0.000000 3.436726 -0.835937 3.131356 -5.805268 1.176974 -2.879511 86.952091 -9.592245 16.063329 0.000000 0.000000 0.000000 -2.134832 -0.691419 0.259966 -2.308776 -1.894618 -14.592425 0.000000 0.000000 0.000000 -13.559616 -3.313117 -7.671512 1.139823 1.340682 -0.497979 0.000000 0.000000 0.000000
42.358547 60.392115 -20.833418 3.988964 0.391442 1.584669 0.000000 0.000000 0.000000 -2.645251 -0.303824 -1.752327 0.580686 -1.044607 -0.613442 5.000000 0.000000 0.000000 0.000000 0.000000 0.000000 0.000000 0.000000 0.000000 0.000000 0.000000 0.000000 0.000000 0.000000 0.000000 4.031433 -0.781884 7.087314 -7.667380 1.725599 -5.300560 50.194745 -38.348720 44.541873 0.000000 0.000000 0.000000 -0.484064 -1.308918 4.403522 -6.201026 -0.820090 -18.172083 0.000000 0.000000 0.000000 -15.627659 -2.741592 -16.226422 0.432685 0.216411 8.576824 0.000000 0.000000 0.000000
45.875672 60.464704 -18.976519 5.217624 0.733414 3.222854 0.000000 0.000000 0.000000 -3.541694 -0.738172 -4.007640 1.037556 -1.565478 -0.778484 5.000000 0.000000 0.000000 0.000000 0.000000 0.000000 0.000000 0.000000 0.000000 0.000000 0.000000 0.000000 0.000000 0.000000 0.000000 4.294550 -0.851674 11.906321 -8.670619 2.395867 -8.260680 45.317023 -41.700605 47.831115 0.000000 0.000000 0.000000 -0.961337 -1.861243 5.885862 -4.592440 1.675155 -7.937879 0.000000 0.000000 0.000000 -16.759428 -1.613804 -18.743516 0.998637 0.289700 7.957369 0.000000 0.000000 0.000000
48.715409 60.343175 -18.762603 7.679497 0.827755 3.924280 0.000000 0.000000 0.000000 -5.672655 -0.756317 -5.054704 1.476359 -1.982077 -1.021536 5.000000 0.000000 0.000000 0.000000 0.000000 0.000000 0.000000 0.000000 0.000000 0.000000 0.000000 0.000000 0.000000 0.000000 0.000000 4.729480 -1.075895 15.300508 -9.597377 3.314919 -10.766767 15.214170 -39.675215 72.636753 0.000000 0.000000 0.000000 -2.646224 -2.038265 6.608788 1.318177 2.171705 4.703172 0.000000 0.000000 0.000000 -18.877479 -0.830053 -19.971331 0.469429 -0.193031 7.100254 0.000000 0.000000 0.000000
52.058275 60.173816 -19.482518 10.552014 0.760359 3.922189 0.000000 0.000000 0.000000 -8.182661 -0.539388 -5.180745 1.625684 -2.312451 -1.310958 5.000000 0.000000 0.000000 0.000000 0.000000 0.000000 0.000000 0.000000 0.000000 0.000000 0.000000 0.000000 0.000000 0.000000 0.000000 4.122871 -0.839375 16.913849 -11.774870 3.928242 -12.036412 -2.429176 -34.017133 87.772386 0.000000 0.000000 0.000000 -4.743515 -1.748009 7.496710 6.551162 0.937200 13.622315 0.000000 0.000000 0.000000 -20.816305 -0.599886 -20.330235 -0.054706 -0.401254 4.570580 0.000000 0.000000 0.000000
55.968532 60.426033 -20.698476 12.568726 0.647239 3.493944 0.000000 0.000000 0.000000 -10.412573 -0.365358 -4.747118 1.790963 -2.518754 -1.614255 5.000000 0.000000 0.000000 0.000000 0.000000 0.000000 0.000000 0.000000 0.000000 0.000000 0.000000 0.000000 0.000000 0.000000 0.000000 3.226912 -0.552286 16.628326 -12.351595 3.732616 -11.892442 0.304879 -33.649974 85.268666 0.000000 0.000000 0.000000 -4.917718 -1.895213 7.983135 8.700319 -0.072786 14.378857 0.000000 0.000000 0.000000 -21.837244 -0.668314 -20.654335 -0.835079 -0.843316 1.752316 0.000000 0.000000 0.000000
59.925256 61.337020 -21.889440 13.352688 0.551852 2.946989 0.000000 0.000000 0.000000 -11.366475 -0.278396 -4.062347 1.762957 -2.539525 -1.729106 5.000000 0.000000 0.000000 0.000000 0.000000 0.000000 0.000000 0.000000 0.000000 0.000000 0.000000 0.000000 0.000000 0.000000 0.000000 4.146652 -0.809576 18.158209 -13.355250 4.736611 -13.656992 5.802495 -35.217817 80.676646 0.000000 0.000000 0.000000 -7.359874 -1.586232 7.267746 8.220536 0.011511 11.555549 0.000000 0.000000 0.000000 -23.897711 -0.299174 -21.883101 -1.958682 -1.588040 -2.842916 0.000000 0.000000 0.000000
64.811833 62.087720 -23.804184 15.344403 0.583671 3.495722 0.000000 0.000000 0.000000 -13.429134 -0.075316 -4.599484 1.902411 -2.704777 -1.960212 5.000000 0.000000 0.000000 0.000000 0.000000 0.000000 0.000000 0.000000 0.000000 0.000000 0.000000 0.000000 0.000000 0.000000 0.000000 4.896059 -1.223461 18.154030 -14.099602 5.392062 -13.846377 18.694600 -38.143495 70.683273 0.000000 0.000000 0.000000 -8.153581 -1.753194 5.410271 6.484777 0.635283 7.196788 0.000000 0.000000 0.000000 -24.891537 0.431780 -23.724781 -3.533537 -3.179992 -7.360991 0.000000 0.000000 0.000000
70.199829 62.086414 -27.150059 16.569423 0.721040 4.861584 0.000000 0.000000 0.000000 -14.302852 0.217684 -5.896853 1.998167 -2.977744 -2.289062 5.000000 0.000000 0.000000 0.000000 0.000000 0.000000 0.000000 0.000000 0.000000 0.000000 0.000000 0.000000 0.000000 0.000000 0.000000 4.684018 -1.204161 17.146125 -13.491188 5.048498 -13.609172 37.423060 -37.316007 55.734593 0.000000 0.000000 0.000000 -5.036097 -2.968239 4.917324 -0.286927 3.393410 1.684506 0.000000 0.000000 0.000000 -24.257630 0.787335 -26.213839 -5.694075 -6.075963 -11.931782 0.000000 0.000000 0.000000
75.407885 61.627403 -31.772342 15.584053 0.940157 6.450933 0.000000 0.000000 0.000000 -13.472428 0.375102 -7.286224 1.584645 -2.883025 -2.280159 5.000000 0.000000 0.000000 0.000000 0.000000 0.000000 0.000000 0.000000 0.000000 0.000000 0.000000 0.000000 0.000000 0.000000 0.000000 3.480829 -0.818017 13.310812 -10.799553 3.418267 -11.021731 74.640498 -25.502260 25.920106 0.000000 0.000000 0.000000 0.483803 -4.781435 6.425321 -9.692189 6.819915 -6.261633 0.000000 0.000000 0.000000 -23.465481 -0.238182 -26.821909 -8.350150 -9.445703 -16.398771 0.000000 0.000000 0.000000
78.603589 61.422500 -35.386539 12.962036 1.124900 7.126083 0.000000 0.000000 0.000000 -11.111899 0.147640 -7.856895 1.031235 -2.586779 -2.046741 5.000000 0.000000 0.000000 0.000000 0.000000 0.000000 0.000000 0.000000 0.000000 0.000000 0.000000 0.000000 0.000000 0.000000 0.000000 1.997557 -0.275737 8.335869 -4.590156 1.034061 -7.136489 81.989604 -18.681766 19.440138 0.000000 0.000000 0.000000 2.667864 -3.725276 6.451956 -9.641271 5.154246 -7.956739 0.000000 0.000000 0.000000 -16.897384 -1.640543 -17.486605 -11.806245 -10.044648 -23.865384 0.000000 0.000000 0.000000
81.267838 61.161415 -37.079426 7.686658 1.073157 5.497700 0.000000 0.000000 0.000000 -6.616737 -0.492617 -6.058357 0.188881 -1.707132 -1.314688 5.000000 0.000000 0.000000 0.000000 0.000000 0.000000 0.000000 0.000000 0.000000 13.013164 -23.265089 51.414403 0.000000 0.000000 0.000000 2.080658 -0.251762 4.334878 -0.181791 0.154172 -3.786527 82.311269 -18.129630 19.337764 0.000000 0.000000 0.000000 6.045969 -2.654869 4.954612 -10.278939 3.639079 -4.664020 0.000000 0.000000 0.000000 -9.745111 -2.654393 -5.695700 -11.262675 -4.744042 -29.469520 0.000000 0.000000 0.000000
83.611921 60.845482 -38.428376 2.646768 0.718221 3.062106 0.000000 0.000000 0.000000 -2.888368 -0.499076 -3.053449 -0.150333 -0.636101 -0.744158 5.000000 0.000000 0.000000 0.000000 0.000000 0.000000 0.000000 0.000000 0.000000 7.826705 -23.478264 54.736941 0.000000 0.000000 0.000000 0.925571 -0.095680 1.054801 1.034450 -0.247131 -1.034790 85.103026 -13.612006 17.388861 0.000000 0.000000 0.000000 12.051345 -3.422046 2.574754 -17.774575 5.917106 2.936063 0.000000 0.000000 0.000000 -3.130643 -1.645911 -1.236820 -8.335618 -1.707626 -18.382297 0.000000 0.000000 0.000000
86.299758 60.619261 -40.298282 -0.311045 0.306568 1.179196 0.000000 0.000000 0.000000 -0.739923 -0.104838 -0.716959 -0.018164 -0.070534 -0.574653 5.000000 0.000000 0.000000 0.000000 0.000000 0.000000 0.000000 0.000000 0.000000 7.427667 -23.109092 54.791441 0.000000 0.000000 0.000000 0.492037 -0.150199 -0.025453 0.504802 -0.086436 0.018232 87.049080 -10.327211 15.962867 0.000000 0.000000 0.000000 7.009985 -1.881764 -2.445348 -9.784346 3.496610 10.924102 0.000000 0.000000 0.000000 -0.797076 -0.547817 0.180346 -4.086329 -0.474150 -7.221065 0.000000 0.000000 0.000000
89.064287 60.857282 -41.782377 -0.113933 0.072904 0.278190 0.000000 0.000000 0.000000 -0.320881 0.076249 0.067719 -0.041128 0.016645 -0.285907 5.000000 0.000000 0.000000 0.031405 -0.031221 -0.132820 -0.026591 0.052491 0.102982 8.615603 -22.785036 53.517128 0.000000 0.000000 0.000000 -0.211582 0.010126 0.071752 0.660644 -0.078084 0.108242 89.713679 -3.765557 13.898349 0.000000 0.000000 0.000000 0.878549 -0.600063 -3.142286 -1.090224 1.776446 9.476793 0.000000 0.000000 0.000000 0.471348 0.070155 1.364010 -2.320345 -0.385925 -1.961869 0.000000 0.000000 0.000000
92.306788 61.024430 -43.241567 0.333474 -0.012466 -0.063970 0.000000 0.000000 0.000000 -0.255083 0.029738 0.094681 -0.017345 0.005157 0.005158 5.000000 0.000000 0.000000 0.239323 -0.188623 -0.809260 -0.089046 0.329879 0.611182 18.371178 -22.538506 47.694905 0.000000 0.000000 0.000000 -0.066597 0.008333 -0.038280 0.151518 0.013399 0.024739 90.874293 -0.457315 12.944679 0.000000 0.000000 0.000000 0.277341 -0.522029 -4.190562 -0.034580 1.182383 7.685379 0.000000 0.000000 0.000000 2.905196 0.911360 1.234198 -5.377917 -1.188128 -4.417952 0.000000 0.000000 0.000000
95.264627 61.055890 -47.533492 -0.055726 0.008683 0.035629 0.000000 0.000000 0.000000 0.107940 -0.018009 -0.061476 -0.046695 0.012345 0.029302 5.000000 0.000000 0.000000 0.850726 -0.480559 -2.122827 -0.152986 0.928818 1.440526 27.892277 -21.340092 41.685826 0.000000 0.000000 0.000000 -0.190662 0.034806 -0.162600 0.613733 0.008658 0.108469 90.546564 -1.280648 13.217772 0.000000 0.000000 0.000000 -0.249193 -0.507210 -5.088079 0.153920 0.500632 4.945532 0.000000 0.000000 0.000000 2.781505 1.256446 -1.030181 -5.593561 -1.736893 -3.176690 0.000000 0.000000 0.000000
97.802390 61.031611 -54.336107 -0.169890 0.029637 0.120510 0.000000 0.000000 0.000000 0.183916 -0.043004 -0.151447 -0.165563 0.118834 0.100760 5.000000 0.000000 0.000000 1.712118 -0.576219 -2.744351 -0.430431 1.363670 1.283398 42.851335 -14.034979 31.239785 0.000000 0.000000 0.000000 -0.250580 0.068772 -0.201285 1.101878 -0.066156 0.111260 89.989204 -2.959744 13.671158 0.000000 0.000000 0.000000 0.432187 -0.653249 -4.023720 -1.686073 0.232262 0.772531 0.000000 0.000000 0.000000 -1.449760 -0.203437 -3.706062 -2.810962 -0.680352 -1.546818 0.000000 0.000000 0.000000
100.779611 60.978534 -59.359381 -0.231290 0.066989 0.266240 0.000000 0.000000 0.000000 -0.036765 -0.050587 -0.205194 -0.313175 0.340609 0.163278 5.000000 0.000000 0.000000 2.474197 -0.620749 -3.273838 -1.941070 1.643739 0.889021 42.945105 -13.020865 30.867463 0.000000 0.000000 0.000000 -0.104703 0.049114 0.483937 0.545447 -0.145663 -0.404152 86.091698 -12.117010 16.739008 0.000000 0.000000 0.000000 3.687168 -1.205809 2.730669 -8.236394 0.802435 -11.266780 0.000000 0.000000 0.000000 -7.850647 -2.326252 -7.858039 1.391151 0.675022 3.357723 0.000000 0.000000 0.000000
104.332813 60.779552 -60.649113 0.105457 0.123651 0.477223 0.000000 0.000000 0.000000 -0.389074 -0.072424 -0.351173 -0.361781 0.320173 0.092087 5.000000 0.000000 0.000000 3.011034 -0.867938 -4.690931 -2.903260 1.851116 2.245948 40.469811 -15.108736 32.628351 0.000000 0.000000 0.000000 0.337618 -0.019388 1.989194 -0.276472 -0.183077 -1.267028 73.159351 -28.785775 26.413725 0.000000 0.000000 0.000000 8.189638 -2.089537 14.647207 -15.767880 2.947067 -27.452912 0.000000 0.000000 0.000000 -8.805025 -1.761921 -11.479324 -2.362079 -1.712407 6.405552 0.000000 0.000000 0.000000
107.841949 60.686429 -60.343935 1.295998 0.187889 0.714304 0.000000 0.000000 0.000000 -1.297839 -0.129524 -0.643733 -0.477299 0.169483 0.024930 5.000000 0.000000 0.000000 3.343753 -0.953910 -5.623121 -3.090349 1.996322 3.539901 0.000000 0.000000 0.000000 0.000000 0.000000 0.000000 0.978180 -0.018471 5.001560 -1.272461 -0.170695 -3.277476 56.930939 -37.424953 38.309529 0.000000 0.000000 0.000000 7.516002 -2.678113 15.789268 -13.080063 5.569299 -18.462715 0.000000 0.000000 0.000000 -10.150503 -1.359057 -13.315735 -2.144394 -1.801626 5.583069 0.000000 0.000000 0.000000
110.911215 60.810583 -61.734483 3.072280 0.316036 1.232689 0.000000 0.000000 0.000000 -2.680083 -0.316490 -1.436249 -0.678728 -0.014695 0.055485 5.000000 0.000000 0.000000 2.595641 -1.643673 -7.978931 -3.308126 2.870774 5.855871 0.000000 0.000000 0.000000 0.000000 0.000000 0.000000 1.149043 0.213320 8.505318 -1.384318 -0.326873 -6.045820 52.361452 -39.343144 41.673207 0.000000 0.000000 0.000000 8.412167 -3.847198 15.275562 -8.002811 6.452284 -9.262801 0.000000 0.000000 0.000000 -11.142149 -1.006421 -14.930955 -3.240366 -2.588510 3.591593 0.000000 0.000000 0.000000
113.857449 60.898609 -64.297509 4.419753 0.453491 1.855301 0.000000 0.000000 0.000000 -4.097840 -0.507972 -2.346956 -0.631364 -0.104322 0.118479 5.000000 0.000000 0.000000 3.581687 -2.332667 -11.477644 0.767845 5.585072 8.804872 0.000000 0.000000 0.000000 0.000000 0.000000 0.000000 0.399291 0.637593 10.258797 -0.276407 -0.868204 -7.405512 43.976216 -40.759312 48.011266 0.000000 0.000000 0.000000 8.530309 -4.700422 17.277220 -5.761484 7.553590 -4.833226 0.000000 0.000000 0.000000 -13.079034 -1.153608 -15.825092 -4.020106 -2.972754 0.742113 0.000000 0.000000 0.000000
116.749834 60.813044 -65.632692 5.795191 0.532105 2.276313 0.000000 0.000000 0.000000 -5.818870 -0.580197 -2.937004 -0.572154 -0.061898 0.174501 5.000000 0.000000 0.000000 5.306990 -2.039807 -12.038225 7.003671 7.976456 9.200066 0.000000 0.000000 0.000000 0.000000 0.000000 0.000000 -0.323594 0.874610 10.977096 0.706652 -1.311019 -8.022528 51.101027 -40.239042 42.347509 0.000000 0.000000 0.000000 11.826908 -7.094140 18.808675 -11.583169 12.327740 -3.754687 0.000000 0.000000 0.000000 -15.933794 -1.643093 -16.767474 -4.738380 -3.398127 -1.598246 0.000000 0.000000 0.000000
119.675467 60.857991 -65.561835 7.308616 0.594202 2.668220 0.000000 0.000000 0.000000 -7.401722 -0.535059 -3.341391 -0.570663 -0.059755 0.160673 5.000000 0.000000 0.000000 2.419257 -1.746142 -8.491839 3.516455 5.036828 6.786100 0.000000 0.000000 0.000000 0.000000 0.000000 0.000000 -0.215488 0.774180 11.069154 1.568578 -1.433748 -8.275102 62.223576 -37.125104 33.954456 0.000000 0.000000 0.000000 16.228319 -9.584550 16.372719 -20.991478 17.678844 -1.344125 0.000000 0.000000 0.000000 -17.172274 -1.670393 -18.279183 -5.842311 -4.521552 -4.151344 0.000000 0.000000 0.000000
121.969092 61.106242 -65.964219 8.043471 0.666029 3.100956 0.000000 0.000000 0.000000 -8.043834 -0.455363 -3.667258 -0.640583 0.024813 0.189048 5.000000 0.000000 0.000000 0.000000 0.000000 0.000000 0.000000 0.000000 0.000000 0.000000 0.000000 0.000000 0.000000 0.000000 0.000000 0.149402 0.613786 10.578400 1.802075 -1.345383 -8.221933 63.258579 -36.268814 33.417234 0.000000 0.000000 0.000000 14.874262 -8.982604 14.140599 -18.871767 15.069286 -1.944928 0.000000 0.000000 0.000000 -17.556779 -1.546743 -21.211685 -7.970762 -7.279845 -5.413703 0.000000 0.000000 0.000000
124.161925 61.228266 -67.901459 8.047878 0.757010 3.582344 0.000000 0.000000 0.000000 -8.185517 -0.381663 -3.946045 -0.677037 0.206166 0.201513 5.000000 0.000000 0.000000 0.094799 -0.120794 -0.424219 -0.150052 0.142793 0.248668 0.000000 0.000000 0.000000 0.000000 0.000000 0.000000 0.842733 0.211910 8.250786 1.135798 -0.784840 -6.701226 78.745712 -24.144071 21.978957 0.000000 0.000000 0.000000 14.196044 -8.273833 13.936371 -18.173298 13.684708 -5.353070 0.000000 0.000000 0.000000 -15.288656 -0.840504 -23.863787 -13.590088 -13.793091 -6.860517 0.000000 0.000000 0.000000
126.819566 60.949939 -70.723220 6.781208 0.817453 3.776324 0.000000 0.000000 0.000000 -7.043448 -0.322656 -3.782835 -0.776177 0.368427 0.096144 5.000000 0.000000 0.000000 0.576866 -0.586822 -2.090274 -0.934483 0.692942 1.172991 34.772542 -17.722538 36.838720 0.000000 0.000000 0.000000 0.192881 0.085990 5.723662 2.032447 -0.687363 -5.310859 85.584454 -12.958752 16.908012 0.000000 0.000000 0.000000 15.790861 -8.055899 13.618838 -21.458106 14.069438 -6.263188 0.000000 0.000000 0.000000 -8.673135 0.940883 -18.346573 -24.737594 -23.166439 -16.071668 0.000000 0.000000 0.000000
130.549320 60.632784 -73.307265 5.119698 0.743975 3.235341 0.000000 0.000000 0.000000 -5.297090 -0.255931 -2.879699 -0.846396 0.549165 0.067356 5.000000 0.000000 0.000000 1.551686 -1.145232 -4.145756 -2.394206 1.355028 2.112332 25.930508 -20.048241 42.681524 0.000000 0.000000 0.000000 0.389707 -0.009041 3.183176 2.335843 -0.371134 -3.567246 90.673026 -0.403877 13.160120 0.000000 0.000000 0.000000 14.816439 -6.629505 9.757791 -19.974307 11.064695 -2.907915 0.000000 0.000000 0.000000 -7.373875 0.198812 -16.005189 -25.053301 -21.266694 -17.485939 0.000000 0.000000 0.000000
134.044602 60.511649 -75.084752 3.463159 0.732926 3.041859 0.000000 0.000000 0.000000 -4.164011 -0.283814 -2.546002 -0.640683 0.792066 0.125791 5.000000 0.000000 0.000000 2.089895 -0.593050 -2.229137 -2.504716 0.723161 0.407067 25.856273 -20.436093 42.572473 0.000000 0.000000 0.000000 -0.492155 0.163401 1.188546 3.962897 -0.385892 -1.899930 89.590355 -3.474855 13.936172 0.000000 0.000000 0.000000 14.341856 -5.583820 4.913404 -18.518548 8.529339 1.641586 0.000000 0.000000 0.000000 -3.189496 0.165782 -11.183286 -24.854491 -17.087999 -22.654935 0.000000 0.000000 0.000000
136.737269 60.586290 -76.228411 1.279109 0.766960 3.055976 0.000000 0.000000 0.000000 -2.446422 -0.407973 -2.538623 -0.390045 1.082730 0.322024 5.000000 0.000000 0.000000 2.564469 -0.543713 -1.764709 -1.319284 0.752438 -0.328280 26.316538 -20.172625 42.072849 0.000000 0.000000 0.000000 -2.238156 0.467034 -0.333715 7.031909 -0.768111 -0.371965 89.498325 -3.830824 14.001388 0.000000 0.000000 0.000000 11.247010 -3.617118 0.980485 -9.726166 4.667061 5.633719 0.000000 0.000000 0.000000 -2.596616 -0.618753 -9.700784 -13.068160 -7.258344 -15.445716 0.000000 0.000000 0.000000
138.495217 60.988038 -78.296232 -0.717201 0.634393 2.432271 0.000000 0.000000 0.000000 -1.132060 -0.261662 -1.671453 -0.117613 1.416366 0.367195 5.000000 0.000000 0.000000 3.490297 -0.346757 -1.349376 -1.455220 0.740592 -0.908900 33.590679 -18.308588 37.463287 0.000000 0.000000 0.000000 -4.193571 0.967248 -0.158950 9.976161 -1.271455 -0.317885 89.660976 -3.302353 13.856293 0.000000 0.000000 0.000000 7.049674 -1.818813 -0.224843 -1.750322 2.294737 6.621107 0.000000 0.000000 0.000000 -0.478380 -0.387861 -6.834486 -9.501967 -4.217516 -8.865751 0.000000 0.000000 0.000000
140.228012 61.707907 -80.654224 -1.741418 0.427180 1.598402 0.000000 0.000000 0.000000 -0.518761 -0.140436 -0.873639 0.011821 1.673357 0.530950 5.000000 0.000000 0.000000 4.067818 -0.150829 -1.442510 -1.972512 0.970478 -0.755344 38.534928 -15.863893 34.022358 0.000000 0.000000 0.000000 -5.465089 1.373222 0.699514 11.767214 -1.586139 -0.624131 89.566352 -3.573109 13.928293 0.000000 0.000000 0.000000 2.301709 -0.833903 -0.394498 1.208517 1.304767 5.785748 0.000000 0.000000 0.000000 -1.521335 -0.158262 -4.293621 -6.624989 -2.559274 -3.054005 0.000000 0.000000 0.000000
142.053728 62.384429 -82.787400 0.152389 0.250337 0.951156 0.000000 0.000000 0.000000 -2.116991 -0.140603 -0.639941 -0.030089 1.854422 0.990943 5.000000 0.000000 0.000000 2.802624 -0.124800 -1.441887 -1.609615 1.307417 -0.830120 46.932458 -10.965326 28.236058 0.000000 0.000000 0.000000 -6.801159 1.575809 1.091952 12.098370 -1.673066 -0.718605 90.420098 -1.007515 13.323876 0.000000 0.000000 0.000000 -1.840106 -0.096884 -0.464545 2.999572 0.576183 4.770306 0.000000 0.000000 0.000000 -1.928071 0.324715 -3.432579 -4.508142 -1.699611 -1.776415 0.000000 0.000000 0.000000
143.666570 62.682482 -83.711467 1.656655 0.169143 0.614946 0.000000 0.000000 0.000000 -2.770605 -0.197411 -0.629876 -0.475302 1.821716 1.286675 5.000000 0.000000 0.000000 3.370030 -0.096502 -1.838195 -2.586756 1.400424 -0.674152 78.636413 -26.031944 35.010319 0.000000 0.000000 0.000000 -6.657536 1.504408 1.261450 11.435703 -1.554643 -1.031283 92.435721 5.742767 11.837159 0.000000 0.000000 0.000000 -2.591235 0.028518 -0.944558 2.654596 0.233415 3.176943 0.000000 0.000000 0.000000 -2.096909 0.291004 -3.221419 -5.544005 -1.989675 -2.884903 0.000000 0.000000 0.000000
144.520536 62.674911 -83.976871 1.709395 0.138515 0.490655 0.000000 0.000000 0.000000 -2.478182 -0.192329 -0.573684 -0.664458 1.809219 1.374746 5.000000 0.000000 0.000000 5.317279 -0.097471 -2.790160 -5.028711 1.266879 -0.018931 80.872580 -23.298500 33.421772 0.000000 0.000000 0.000000 -6.214498 1.458445 1.295087 10.625000 -1.474102 -1.354559 92.372939 5.377001 11.888224 0.000000 0.000000 0.000000 -0.914610 0.061449 -0.646605 0.946685 -0.090759 0.452372 0.000000 0.000000 0.000000 -0.675483 0.301284 -3.711612 -6.342408 -2.287210 -4.399465 0.000000 0.000000 0.000000
144.856462 62.633777 -83.949160 0.024881 0.108102 0.414414 0.000000 0.000000 0.000000 -0.983050 -0.159796 -0.438106 -0.593464 1.862061 1.347665 5.000000 0.000000 0.000000 5.939344 -0.207315 -3.488472 -6.649447 1.163335 0.420487 80.768677 -23.124389 33.422264 0.000000 0.000000 0.000000 -6.428990 1.523715 1.266809 10.846838 -1.554877 -1.350218 91.923696 3.792201 12.255606 0.000000 0.000000 0.000000 3.516265 -0.210516 2.103355 -5.279075 0.145345 -5.738311 0.000000 0.000000 0.000000 1.717278 0.435691 -4.702074 -7.421655 -3.028473 -5.332076 0.000000 0.000000 0.000000
145.494802 62.378163 -85.008843 -2.526707 0.090210 0.420664 0.000000 0.000000 0.000000 1.405321 -0.145710 -0.398628 -0.465750 1.903598 1.343365 5.000000 0.000000 0.000000 5.919551 -0.360678 -4.015826 -7.385450 1.015663 0.990102 46.606153 -10.251287 28.108819 0.000000 0.000000 0.000000 -5.618043 1.309641 1.014742 10.049942 -1.341286 -1.195615 91.762341 3.204251 12.351233 0.000000 0.000000 0.000000 11.604514 -1.734574 7.515403 -17.846978 3.042038 -13.036180 0.000000 0.000000 0.000000 3.773057 1.294920 -6.933152 -10.710761 -5.735368 -2.306333 0.000000 0.000000 0.000000
146.570312 61.822157 -90.121348 -3.830990 0.056460 0.337865 0.000000 0.000000 0.000000 2.762987 -0.078893 -0.240243 -0.398924 1.903591 1.337507 5.000000 0.000000 0.000000 5.211337 -0.545952 -4.245407 -6.831684 1.082414 1.301979 46.127891 -10.560921 28.458855 0.000000 0.000000 0.000000 -5.907585 1.294104 0.841947 10.217357 -1.365427 -1.067681 91.928656 3.811799 12.199531 0.000000 0.000000 0.000000 18.894475 -3.962404 10.217497 -26.986136 9.195298 -7.197210 0.000000 0.000000 0.000000 2.431258 1.177879 -8.847124 -9.784779 -5.942328 0.309245 0.000000 0.000000 0.000000
147.620924 61.218970 -96.376590 -3.602120 0.027395 0.232804 0.000000 0.000000 0.000000 2.650391 0.005070 -0.048936 -0.324284 1.878482 1.325019 5.000000 0.000000 0.000000 4.702181 -0.651943 -4.295020 -6.863671 1.094756 1.301426 45.080568 -10.938244 29.091804 0.000000 0.000000 0.000000 -6.135682 1.353639 1.103681 10.643378 -1.506245 -1.328861 92.262771 5.139784 11.982714 0.000000 0.000000 0.000000 17.150081 -3.371223 10.466584 -21.970151 9.459878 -2.089954 0.000000 0.000000 0.000000 -1.507558 -0.584421 -10.826834 -6.633535 -4.482572 4.789501 0.000000 0.000000 0.000000
148.340266 60.905064 -99.748699 -3.735209 0.042651 0.287129 0.000000 0.000000 0.000000 2.790993 0.008231 -0.058568 -0.234615 1.861114 1.314105 5.000000 0.000000 0.000000 4.371954 -0.849829 -4.650590 -7.683165 1.009136 1.474760 46.696820 -9.541136 27.745010 0.000000 0.000000 0.000000 -6.252463 1.447683 1.605604 11.299354 -1.777548 -1.804116 90.816147 0.194078 13.044365 0.000000 0.000000 0.000000 15.842835 -2.782784 9.972915 -11.229939 6.829688 0.688219 0.000000 0.000000 0.000000 -3.262670 -1.638982 -13.186963 -9.210175 -6.542795 8.110020 0.000000 0.000000 0.000000
149.287985 60.667949 -100.219652 -4.565464 0.106141 0.520708 0.000000 0.000000 0.000000 3.435814 -0.028762 -0.184510 -0.101508 1.854326 1.229078 5.000000 0.000000 0.000000 4.587277 -1.043703 -5.382196 -8.288994 1.095498 1.825085 83.782356 -19.448881 31.130650 0.000000 0.000000 0.000000 -6.199860 1.477317 2.093341 11.686950 -2.067817 -2.029812 87.118617 -9.800018 15.597608 0.000000 0.000000 0.000000 16.754546 -3.315578 8.638343 -5.879316 5.021704 1.826391 0.000000 0.000000 0.000000 0.310946 0.419570 -15.994352 -14.472878 -11.598783 11.773474 0.000000 0.000000 0.000000
150.495672 60.485320 -101.603257 -4.772553 0.257431 1.023546 0.000000 0.000000 0.000000 3.592282 -0.163079 -0.575324 -0.074995 1.781436 1.098477 5.000000 0.000000 0.000000 4.509888 -1.309340 -6.233901 -8.811333 1.233099 2.244317 0.000000 0.000000 0.000000 0.000000 0.000000 0.000000 -6.406348 1.554556 2.723573 12.344367 -2.475913 -2.326784 85.307094 -13.882624 16.851123 0.000000 0.000000 0.000000 18.417768 -4.069700 6.185646 -8.253046 5.603584 4.662408 0.000000 0.000000 0.000000 -0.208619 0.455245 -19.044022 -12.672374 -11.680434 15.564611 0.000000 0.000000 0.000000
151.635718 60.430618 -103.044211 -4.818158 0.375219 1.408286 0.000000 0.000000 0.000000 3.670489 -0.248399 -0.838117 -0.106440 1.744062 1.003932 5.000000 0.000000 0.000000 4.302800 -1.560332 -6.803761 -9.160228 1.251429 2.603569 0.000000 0.000000 0.000000 0.000000 0.000000 0.000000 -6.451659 1.619162 3.170268 12.497103 -2.766041 -2.724266 84.590439 -15.144274 17.347365 0.000000 0.000000 0.000000 19.556824 -4.441388 2.312585 -13.507436 6.954079 11.163665 0.000000 0.000000 0.000000 -1.588691 -0.492183 -20.501988 -10.514738 -10.251988 16.062691 0.000000 0.000000 0.000000
152.630307 60.609517 -103.037911 -5.272126 0.459503 1.675950 0.000000 0.000000 0.000000 3.963459 -0.294377 -0.959733 -0.114314 1.757787 0.886763 5.000000 0.000000 0.000000 4.707820 -1.586514 -6.934964 -10.075475 0.971341 2.745443 53.470640 -2.750093 21.492154 0.000000 0.000000 0.000000 -6.450182 1.697349 3.589999 12.424303 -2.959287 -3.236786 86.670682 -11.317488 15.984384 0.000000 0.000000 0.000000 18.998636 -4.117258 0.129209 -11.717018 6.048255 13.631254 0.000000 0.000000 0.000000 -2.545719 -1.805506 -20.382832 -8.519459 -8.048946 13.156244 0.000000 0.000000 0.000000
153.310047 60.869612 -102.213272 -6.302334 0.531360 1.887712 0.000000 0.000000 0.000000 4.784226 -0.372709 -1.079821 -0.146298 1.805663 0.810950 5.000000 0.000000 0.000000 5.613144 -1.382744 -6.595237 -10.918853 0.605187 2.512196 50.618786 -5.901715 24.273254 0.000000 0.000000 0.000000 -6.176176 1.674222 3.847200 11.804450 -2.920376 -3.785778 89.565991 -3.870262 13.932741 0.000000 0.000000 0.000000 19.922218 -4.179296 -0.153621 -10.862295 5.648305 12.996822 0.000000 0.000000 0.000000 -0.485729 -1.339345 -20.096474 -10.193187 -9.360645 10.525533 0.000000 0.000000 0.000000
153.738967 61.273534 -101.782192 -7.321006 0.564656 1.970602 0.000000 0.000000 0.000000 5.708526 -0.420250 -1.100565 -0.181176 1.837758 0.772314 5.000000 0.000000 0.000000 5.811571 -1.096595 -5.640642 -10.289308 0.437359 2.034955 64.501009 -31.592014 45.594117 0.000000 0.000000 0.000000 -6.214167 1.668156 3.823735 11.293372 -2.751795 -4.193921 92.107226 4.482609 12.051453 0.000000 0.000000 0.000000 20.983114 -4.390134 0.505218 -11.359082 5.697240 11.288274 0.000000 0.000000 0.000000 3.368959 0.502841 -18.918350 -16.736680 -14.175472 6.674753 0.000000 0.000000 0.000000
154.397704 61.466462 -102.027478 -7.570264 0.554219 1.933462 0.000000 0.000000 0.000000 6.021725 -0.421786 -1.073613 -0.185689 1.826715 0.788637 5.000000 0.000000 0.000000 5.529452 -0.734753 -4.086508 -9.401582 0.207264 1.128797 54.234596 -34.986006 53.562161 0.000000 0.000000 0.000000 -6.394492 1.657469 3.528305 11.089991 -2.546093 -4.323587 93.436257 9.692825 11.050154 0.000000 0.000000 0.000000 20.577208 -4.242322 0.277084 -11.233270 5.542366 11.285601 0.000000 0.000000 0.000000 8.114299 2.960378 -17.463416 -27.861258 -22.315553 2.653731 0.000000 0.000000 0.000000
155.405719 61.263237 -101.751645 -7.538894 0.535530 1.877796 0.000000 0.000000 0.000000 6.078893 -0.404724 -1.033989 -0.186729 1.817839 0.816386 5.000000 0.000000 0.000000 5.634644 -0.416776 -2.857451 -9.440064 -0.001551 0.074696 47.804557 -35.676329 58.548518 0.000000 0.000000 0.000000 -6.505936 1.598013 2.773388 11.065889 -2.237387 -3.970014 95.791155 21.068170 9.050338 0.000000 0.000000 0.000000 20.325690 -4.104940 0.463738 -10.392512 5.057592 9.441195 0.000000 0.000000 0.000000 7.033957 2.286127 -17.544052 -27.172853 -21.898952 1.602592 0.000000 0.000000 0.000000
156.136315 60.962093 -100.957939 -7.707490 0.525385 1.844089 0.000000 0.000000 0.000000 6.217022 -0.396116 -0.999572 -0.252345 1.835359 0.801183 5.000000 0.000000 0.000000 5.713485 -0.200054 -1.945554 -9.438047 -0.037566 -0.929553 52.836623 -34.760432 54.549530 0.000000 0.000000 0.000000 -6.701609 1.584791 1.846435 11.277023 -1.936594 -3.383676 95.956929 22.042740 8.870577 0.000000 0.000000 0.000000 21.126386 -4.184313 0.705950 -10.946973 4.694637 6.748238 0.000000 0.000000 0.000000 6.192321 1.643345 -17.351601 -23.233139 -19.360420 -0.392373 0.000000 0.000000 0.000000
156.383215 60.884504 -100.158888 -7.982989 0.498494 1.759573 0.000000 0.000000 0.000000 6.264007 -0.377053 -0.936461 -0.234996 1.887993 0.790352 5.000000 0.000000 0.000000 6.395007 -0.010552 -1.270081 -8.945139 0.143511 -1.988853 0.000000 0.000000 0.000000 0.000000 0.000000 0.000000 -7.239508 1.714872 1.217090 12.453710 -1.965210 -2.715987 46.417193 20.675619 -7.259659 0.000000 0.000000 0.000000 23.571535 -4.600142 0.079214 -15.122441 5.384071 7.747815 0.000000 0.000000 0.000000 8.305348 2.533101 -15.270960 -23.058699 -18.111613 -4.340042 0.000000 0.000000 0.000000
156.488873 60.785060 -98.408237 -8.090019 0.389514 1.432948 0.000000 0.000000 0.000000 5.929869 -0.225723 -0.606239 -0.163375 1.983983 0.743379 5.000000 0.000000 0.000000 8.177157 0.175359 -1.124596 -9.777432 0.402977 -2.989714 94.523374 -8.244554 24.488441 0.000000 0.000000 0.000000 -7.310202 1.747425 0.903957 13.660191 -1.959719 -2.401724 96.041106 20.922234 9.835929 0.000000 0.000000 0.000000 22.646687 -4.085914 0.898244 -13.978913 5.202576 6.897871 0.000000 0.000000 0.000000 6.943653 1.878451 -13.698011 -12.348074 -9.697148 -3.730847 0.000000 0.000000 0.000000
156.622494 60.838807 -96.175915 -7.862157 0.231590 0.952661 0.000000 0.000000 0.000000 5.393454 0.000921 -0.107900 -0.154301 2.036792 0.670950 5.000000 0.000000 0.000000 9.907778 0.214672 -1.793946 -12.360238 0.721493 -3.689095 106.785411 11.777035 19.498795 0.000000 0.000000 0.000000 -7.231834 1.686920 1.392070 14.446782 -2.025550 -3.091859 45.955178 22.262614 -7.252292 0.000000 0.000000 0.000000 20.888947 -3.548936 1.906781 -12.537925 4.977588 5.608003 0.000000 0.000000 0.000000 6.990921 2.333732 -10.896019 -10.136396 -6.858330 -4.363554 0.000000 0.000000 0.000000
156.814465 61.058590 -94.731115 -6.662044 0.050602 0.396244 0.000000 0.000000 0.000000 4.594867 0.297141 0.503675 -0.307654 1.991416 0.666839 5.000000 0.000000 0.000000 9.724417 0.053268 -2.480626 -13.459665 1.083759 -4.102056 110.401146 16.862358 18.878255 0.000000 0.000000 0.000000 -7.030036 1.665382 2.068758 14.436767 -2.178117 -3.851978 45.726573 22.760341 -7.478760 0.000000 0.000000 0.000000 24.108656 -3.793351 1.939775 -14.702865 5.287069 6.423459 0.000000 0.000000 0.000000 6.713376 2.158697 -9.573025 -12.210045 -7.876584 -4.924250 0.000000 0.000000 0.000000
156.968808 60.908007 -94.092562 -6.947270 -0.152688 -0.226773 0.000000 0.000000 0.000000 5.119429 0.575694 1.149274 -0.299340 2.033173 0.758542 5.000000 0.000000 0.000000 9.471724 -0.156084 -3.594967 -14.032127 1.099012 -3.220875 108.154379 13.285335 19.125629 0.000000 0.000000 0.000000 -6.823830 1.634004 2.482799 14.090190 -2.169372 -4.324233 96.866561 23.216813 10.047198 0.000000 0.000000 0.000000 26.423913 -3.688527 -0.104253 -21.682847 5.634462 11.568486 0.000000 0.000000 0.000000 6.180087 2.216587 -8.374559 -11.956369 -7.415898 -5.559323 0.000000 0.000000 0.000000
157.008580 60.367086 -93.207761 -6.718292 -0.387821 -0.959715 0.000000 0.000000 0.000000 5.121292 0.848071 1.797825 -0.376744 2.034301 0.845685 5.000000 0.000000 0.000000 9.334957 -0.456063 -4.886155 -14.084137 0.972615 -1.756177 105.536271 9.010346 19.758094 0.000000 0.000000 0.000000 -6.662049 1.613518 2.553158 13.445838 -2.108260 -4.559350 97.455751 28.003272 8.906363 0.000000 0.000000 0.000000 25.530329 -2.962857 -4.526021 -25.399414 5.395814 21.012814 0.000000 0.000000 0.000000 6.139943 2.444543 -8.002232 -10.173539 -6.324493 -5.614039 0.000000 0.000000 0.000000
156.931961 60.124301 -92.729644 -6.882361 -0.592835 -1.578868 0.000000 0.000000 0.000000 5.243702 1.110227 2.392452 -0.341756 2.029852 0.845055 5.000000 0.000000 0.000000 8.430007 -0.572295 -4.997806 -12.544356 1.130708 -1.170629 100.186154 0.235692 22.324016 0.000000 0.000000 0.000000 -6.333826 1.509375 2.352168 12.025475 -1.866660 -4.466919 97.635580 28.584420 8.593328 0.000000 0.000000 0.000000 14.307069 -0.959117 -5.591995 -11.292602 4.478698 23.447988 0.000000 0.000000 0.000000 5.949695 2.418760 -8.207578 -9.047681 -5.759986 -4.440258 0.000000 0.000000 0.000000
156.914426 60.288720 -92.901939 -6.985945 -0.635996 -1.703566 0.000000 0.000000 0.000000 5.432229 1.141970 2.452617 -0.337777 1.960736 0.847321 5.000000 0.000000 0.000000 6.801477 -0.709825 -4.984099 -9.633282 1.328147 -0.095010 85.703340 -18.224639 30.019479 0.000000 0.000000 0.000000 -6.527098 1.440566 1.858557 11.311461 -1.628105 -3.914257 97.224148 29.215800 8.145084 0.000000 0.000000 0.000000 11.077414 -0.458996 -3.894524 -8.604669 4.093319 21.489634 0.000000 0.000000 0.000000 4.743662 2.111874 -8.443714 -9.477095 -6.156001 -3.523814 0.000000 0.000000 0.000000
157.010573 60.547198 -93.005697 -6.307382 -0.603324 -1.662302 0.000000 0.000000 0.000000 5.108331 1.049583 2.313891 -0.388184 1.877135 0.930648 5.000000 0.000000 0.000000 5.976191 -0.751156 -4.794324 -8.721217 0.960883 0.856027 78.120126 -24.069188 35.183930 0.000000 0.000000 0.000000 -6.828408 1.365118 0.565943 11.223445 -1.287965 -2.491199 96.697327 33.251645 6.731945 0.000000 0.000000 0.000000 6.369692 0.441887 -2.037470 0.668692 3.692070 20.538815 0.000000 0.000000 0.000000 4.091749 1.464604 -8.958539 -9.723750 -6.403074 -2.290842 0.000000 0.000000 0.000000
157.127113 60.784488 -92.867175 -6.934740 -0.592438 -1.577635 0.000000 0.000000 0.000000 5.762276 1.008733 2.144960 -0.283506 1.849808 0.990929 5.000000 0.000000 0.000000 4.942690 -0.778786 -4.313976 -8.320916 0.876229 0.736546 46.748287 -9.494784 27.698504 0.000000 0.000000 0.000000 -6.993255 1.359839 -0.181980 11.385000 -1.123452 -1.581429 96.551535 28.185359 7.932270 0.000000 0.000000 0.000000 16.303040 -1.433041 -1.904133 -9.082934 5.689960 21.114871 0.000000 0.000000 0.000000 2.779749 0.343561 -10.607045 -9.166211 -6.415113 1.558758 0.000000 0.000000 0.000000
157.294203 60.796024 -93.077956 -7.912781 -0.525192 -1.296699 0.000000 0.000000 0.000000 6.587403 0.891653 1.791022 -0.148489 1.831022 1.005161 5.000000 0.000000 0.000000 4.749002 -0.680148 -3.866028 -8.265619 0.780016 0.470902 45.106488 -10.868579 29.053666 0.000000 0.000000 0.000000 -7.168068 1.436005 -0.071744 12.263875 -1.230764 -1.397136 95.757774 20.183634 9.682664 0.000000 0.000000 0.000000 27.043724 -3.847730 0.811210 -20.016257 7.169417 14.638573 0.000000 0.000000 0.000000 2.414522 0.112304 -13.229650 -6.730176 -5.679513 6.884024 0.000000 0.000000 0.000000
157.865271 60.804516 -93.902416 -8.118453 -0.313778 -0.660080 0.000000 0.000000 0.000000 6.739860 0.578141 1.125465 -0.083288 1.794157 1.004100 5.000000 0.000000 0.000000 4.771974 -0.632120 -3.570386 -8.430212 0.738446 0.169524 79.667826 -22.670599 33.991431 0.000000 0.000000 0.000000 -7.314443 1.643050 0.641320 13.418799 -1.605994 -1.759114 94.546347 13.988390 10.665091 0.000000 0.000000 0.000000 27.957367 -4.792661 0.803809 -18.639470 7.080936 12.947004 0.000000 0.000000 0.000000 5.598308 1.504003 -15.985017 -11.172092 -10.082180 9.818751 0.000000 0.000000 0.000000
158.901430 61.040974 -94.953641 -8.696267 0.044595 0.411708 0.000000 0.000000 0.000000 6.958690 0.061689 0.067050 -0.008708 1.782010 0.920040 5.000000 0.000000 0.000000 4.955538 -0.855588 -4.343150 -8.736836 0.917825 0.670859 85.222922 -18.232940 30.056856 0.000000 0.000000 0.000000 -7.009267 1.769156 1.194710 13.677929 -1.895805 -2.022951 93.541729 9.975844 11.299546 0.000000 0.000000 0.000000 26.839597 -4.846050 -0.222475 -16.987602 6.591509 13.435378 0.000000 0.000000 0.000000 5.364225 1.046784 -19.451561 -9.475280 -9.947866 14.257325 0.000000 0.000000 0.000000
160.068030 61.527035 -95.882777 -9.563502 0.293741 1.152214 0.000000 0.000000 0.000000 7.333426 -0.306920 -0.656220 0.029748 1.766171 0.773854 5.000000 0.000000 0.000000 5.387816 -1.066399 -5.477734 -9.196941 0.992376 1.759095 83.488404 -19.663112 31.260910 0.000000 0.000000 0.000000 -7.015260 1.867809 1.929739 13.593944 -2.180903 -2.529636 93.775984 11.314112 10.969606 0.000000 0.000000 0.000000 23.846027 -4.403880 -1.084265 -13.494557 5.787021 13.958715 0.000000 0.000000 0.000000 3.279360 0.025485 -21.409251 -6.141337 -7.555104 15.364576 0.000000 0.000000 0.000000
160.846781 61.974349 -97.880408 -9.410259 0.429859 1.541103 0.000000 0.000000 0.000000 7.215530 -0.508666 -1.065506 -0.058656 1.818926 0.827969 5.000000 0.000000 0.000000 5.638329 -1.035037 -5.585586 -9.501281 0.920341 1.925344 79.782014 -22.105610 33.860436 0.000000 0.000000 0.000000 -6.818664 1.903111 2.453436 13.175090 -2.309842 -2.965647 94.369943 14.912214 10.244256 0.000000 0.000000 0.000000 22.470165 -4.177621 -1.864953 -12.490362 5.402539 14.515233 0.000000 0.000000 0.000000 1.315023 -1.146600 -20.897524 -4.393749 -5.214356 12.209593 0.000000 0.000000 0.000000
161.235699 62.582913 -101.443438 -9.158827 0.466936 1.650170 0.000000 0.000000 0.000000 6.981518 -0.575354 -1.214441 -0.104686 1.856589 0.876679 5.000000 0.000000 0.000000 5.579426 -0.954661 -5.361084 -9.660024 0.837939 1.764148 73.743492 -25.776371 38.297931 0.000000 0.000000 0.000000 -6.633325 1.868555 2.756912 12.553105 -2.327921 -3.228773 93.513788 10.199313 11.002436 0.000000 0.000000 0.000000 19.533851 -3.566491 -2.494291 -9.895056 4.743824 14.736799 0.000000 0.000000 0.000000 0.667618 -1.444147 -21.488956 -5.850772 -6.456614 12.963780 0.000000 0.000000 0.000000
161.397923 63.193474 -105.401802 -9.027044 0.525058 1.819935 0.000000 0.000000 0.000000 7.019605 -0.662401 -1.399770 -0.148062 1.822586 0.902519 5.000000 0.000000 0.000000 5.448129 -0.850063 -5.031956 -9.833779 0.688325 1.525467 71.442631 -27.253600 40.063287 0.000000 0.000000 0.000000 -6.831541 1.749824 2.395999 11.986250 -2.177905 -2.874589 92.982050 7.890471 11.466004 0.000000 0.000000 0.000000 15.479464 -2.698590 -2.175457 -6.775819 3.970363 12.723303 0.000000 0.000000 0.000000 -0.475977 -2.023578 -22.559456 -7.582280 -7.959954 14.892536 0.000000 0.000000 0.000000
161.639166 63.589756 -107.228354 -8.934161 0.603303 2.049164 0.000000 0.000000 0.000000 7.358096 -0.742976 -1.573049 -0.251759 1.743577 0.918160 5.000000 0.000000 0.000000 5.230162 -0.760560 -4.675168 -10.020751 0.552902 1.156156 72.131354 -27.147114 39.578546 0.000000 0.000000 0.000000 -7.474150 1.698993 2.112601 11.717510 -2.137855 -2.706932 93.811323 11.560258 10.533565 0.000000 0.000000 0.000000 12.788784 -2.116044 -2.734939 -5.363753 3.641230 13.303270 0.000000 0.000000 0.000000 -1.169059 -2.344292 -23.052289 -8.605873 -8.815494 15.147547 0.000000 0.000000 0.000000
162.037430 63.908076 -107.144182 -8.794798 0.642292 2.165259 0.000000 0.000000 0.000000 7.748438 -0.741541 -1.582044 -0.358276 1.684012 0.948560 5.000000 0.000000 0.000000 4.878926 -0.654710 -3.990507 -9.583900 0.630805 0.322852 80.064616 -22.214236 33.695245 0.000000 0.000000 0.000000 -7.940499 1.755551 2.000681 11.202047 -2.170241 -2.760942 94.475599 14.212882 9.829334 0.000000 0.000000 0.000000 10.923679 -1.467174 -2.607913 -1.497275 2.904281 13.254267 0.000000 0.000000 0.000000 -0.811996 -2.239792 -22.410441 -7.203849 -7.482573 13.838565 0.000000 0.000000 0.000000
162.401577 64.650866 -106.647332 -8.965324 0.567964 1.941732 0.000000 0.000000 0.000000 7.990329 -0.616182 -1.307628 -0.327844 1.717105 0.975504 5.000000 0.000000 0.000000 5.070455 -0.468342 -3.278397 -9.306794 0.779848 -0.838080 86.948349 -16.749742 29.104035 0.000000 0.000000 0.000000 -8.113310 1.756236 2.211951 10.972136 -2.243498 -3.168387 94.094279 12.311427 10.424238 0.000000 0.000000 0.000000 10.698695 -1.431877 -2.310693 -1.322013 2.888701 13.214136 0.000000 0.000000 0.000000 0.325127 -1.154853 -20.322856 -9.295466 -8.713395 10.485664 0.000000 0.000000 0.000000
162.453058 65.520317 -105.867118 -8.028594 0.436082 1.565378 0.000000 0.000000 0.000000 7.225378 -0.359115 -0.856484 -0.305226 1.750870 1.006266 5.000000 0.000000 0.000000 5.754442 -0.274981 -2.848711 -9.115232 1.025918 -1.840285 97.990515 -3.131019 22.980670 0.000000 0.000000 0.000000 -7.381814 1.618512 3.115482 11.014135 -2.346512 -4.109673 92.623020 6.349867 11.872549 0.000000 0.000000 0.000000 8.720782 -1.218236 -2.189927 -0.986649 2.868140 13.524199 0.000000 0.000000 0.000000 3.335088 1.104445 -16.395634 -16.781369 -12.985516 2.615141 0.000000 0.000000 0.000000
162.291586 66.008381 -104.561604 -6.178568 0.339511 1.285479 0.000000 0.000000 0.000000 5.663709 -0.141078 -0.514593 -0.317872 1.730951 1.024697 5.000000 0.000000 0.000000 6.394571 -0.079084 -2.394527 -9.652442 1.239719 -2.974989 102.768991 4.400432 21.191648 0.000000 0.000000 0.000000 -6.448987 1.492408 4.148477 10.997533 -2.437557 -5.132281 93.343924 9.202847 11.448133 0.000000 0.000000 0.000000 9.425574 -1.439886 -2.028827 -2.985626 3.341441 14.081134 0.000000 0.000000 0.000000 8.185505 3.681789 -12.578615 -27.803203 -19.373539 -5.376597 0.000000 0.000000 0.000000
162.124128 66.129955 -103.176020 -5.357016 0.242813 0.980500 0.000000 0.000000 0.000000 4.960311 0.010679 -0.206625 -0.291399 1.722259 1.052292 5.000000 0.000000 0.000000 6.455191 -0.202149 -2.931713 -9.979463 1.448901 -2.846604 103.961275 6.317429 20.775967 0.000000 0.000000 0.000000 -6.121932 1.529368 4.858219 11.141855 -2.578278 -5.896552 93.526704 9.849298 11.379416 0.000000 0.000000 0.000000 11.060239 -1.623159 -1.659928 -4.005577 3.597417 14.261313 0.000000 0.000000 0.000000 7.960525 3.569184 -11.985289 -25.788750 -17.862083 -5.523749 0.000000 0.000000 0.000000
161.992180 66.058186 -102.788885 -5.509346 0.135238 0.635862 0.000000 0.000000 0.000000 4.986071 0.135073 0.108574 -0.237839 1.712578 1.029592 5.000000 0.000000 0.000000 6.795461 -0.332442 -3.774117 -10.434528 1.442295 -1.979292 99.755668 -0.368480 22.468809 0.000000 0.000000 0.000000 -6.147119 1.541059 4.646210 11.265473 -2.488755 -5.718016 47.409472 18.872679 -4.932402 0.000000 0.000000 0.000000 11.732016 -1.567159 -0.869230 -5.388389 3.748496 13.259363 0.000000 0.000000 0.000000 7.186187 3.356238 -11.970126 -22.626870 -15.897755 -4.354254 0.000000 0.000000 0.000000
161.789921 65.861073 -103.299289 -5.543900 0.031405 0.304198 0.000000 0.000000 0.000000 4.974193 0.234501 0.363183 -0.247165 1.693844 1.031860 5.000000 0.000000 0.000000 7.050377 -0.446099 -4.452643 -10.414696 1.378794 -1.076515 95.598824 -6.191953 24.511993 0.000000 0.000000 0.000000 -6.305220 1.525051 4.111046 11.368998 -2.316023 -5.354373 95.919296 21.514972 9.503820 0.000000 0.000000 0.000000 11.625360 -1.248826 1.299345 -6.721316 3.493718 8.851403 0.000000 0.000000 0.000000 7.388835 3.435980 -11.642477 -19.884702 -13.872649 -4.021995 0.000000 0.000000 0.000000
161.289551 65.660807 -104.609516 -5.689630 -0.031945 0.105783 0.000000 0.000000 0.000000 5.119839 0.306795 0.539556 -0.223256 1.733098 1.085046 5.000000 0.000000 0.000000 7.061529 -0.510327 -4.872000 -10.045202 1.279854 -0.233423 90.918371 -12.146368 26.950045 0.000000 0.000000 0.000000 -6.251570 1.359469 2.897993 11.182080 -1.835813 -4.354385 95.785501 21.201760 9.593289 0.000000 0.000000 0.000000 9.769624 -0.509171 4.238271 -7.690140 3.049366 2.903850 0.000000 0.000000 0.000000 10.614844 4.803914 -10.587515 -26.818494 -17.697129 -6.294902 0.000000 0.000000 0.000000
160.321501 65.626547 -104.996844 -5.909016 -0.034040 0.106661 0.000000 0.000000 0.000000 5.471845 0.295617 0.504486 -0.225203 1.713463 1.129115 5.000000 0.000000 0.000000 6.859387 -0.584114 -5.268549 -9.648885 1.096574 0.733407 82.825374 -20.263989 31.993448 0.000000 0.000000 0.000000 -6.151681 1.076730 0.996853 11.183639 -1.183351 -2.478733 95.874955 21.685137 9.504178 0.000000 0.000000 0.000000 11.532810 -0.994761 3.736431 -14.897096 5.174740 6.271724 0.000000 0.000000 0.000000 8.770006 3.956947 -11.010992 -24.341897 -16.336376 -4.101661 0.000000 0.000000 0.000000
159.329094 65.880784 -104.662952 -5.816076 -0.034365 0.104244 0.000000 0.000000 0.000000 5.649815 0.294207 0.484757 -0.228609 1.668478 1.187806 5.000000 0.000000 0.000000 7.199483 -0.626282 -5.909234 -9.370081 0.942751 1.892467 82.131146 -22.112489 32.620466 0.000000 0.000000 0.000000 -6.193251 0.893390 -0.501869 11.884695 -0.704556 -0.866629 94.623803 16.474866 10.787788 0.000000 0.000000 0.000000 14.860356 -2.655217 2.732320 -21.964512 7.930196 10.546778 0.000000 0.000000 0.000000 4.390523 3.098807 -12.127331 -21.461246 -15.233320 -0.232898 0.000000 0.000000 0.000000
158.833365 66.335778 -104.168900 -3.491173 -0.001920 0.139822 0.000000 0.000000 0.000000 3.555866 0.254777 0.407411 -0.231713 1.622903 1.244708 5.000000 0.000000 0.000000 7.463989 -0.648602 -6.395674 -8.455361 1.056002 2.728274 82.717106 -22.104178 32.216554 0.000000 0.000000 0.000000 -6.039005 0.734101 -1.661270 13.231797 -0.319777 0.607100 94.088375 14.583824 11.063118 0.000000 0.000000 0.000000 10.763278 -2.765659 5.055291 -15.325838 6.651767 5.413628 0.000000 0.000000 0.000000 2.542308 4.440985 -13.022305 -26.305530 -18.788267 1.775730 0.000000 0.000000 0.000000
158.886387 67.249907 -104.130089 0.612376 0.093081 0.340123 0.000000 0.000000 0.000000 -0.408769 0.140550 0.142576 -0.243810 1.593258 1.297071 5.000000 0.000000 0.000000 6.921505 -0.813037 -6.594285 -7.640906 1.241494 3.097914 82.074074 -22.644997 32.626892 0.000000 0.000000 0.000000 -5.885533 0.788853 -1.526479 13.688515 -0.414525 0.692259 92.872435 8.493687 12.009868 0.000000 0.000000 0.000000 9.819954 -2.686847 4.275088 -13.848570 6.225548 6.298743 0.000000 0.000000 0.000000 2.505404 4.463482 -13.595730 -26.125982 -18.882318 2.312370 0.000000 0.000000 0.000000
159.261563 68.186672 -104.234624 0.753534 0.175342 0.660527 0.000000 0.000000 0.000000 -0.858460 0.040332 -0.211595 -0.206625 1.651259 1.279290 5.000000 0.000000 0.000000 6.995778 -0.804989 -6.511260 -7.958909 1.156222 2.994951 84.164345 -20.704114 31.191302 0.000000 0.000000 0.000000 -5.660075 0.803872 -1.242481 13.483790 -0.554140 0.564820 91.986287 5.036426 12.403585 0.000000 0.000000 0.000000 9.487981 -2.654594 3.140840 -12.442311 5.886489 8.215487 0.000000 0.000000 0.000000 2.721512 4.437767 -13.927118 -25.496603 -18.643595 2.314112 0.000000 0.000000 0.000000
159.514373 68.756182 -104.375320 0.585660 0.229847 0.876873 0.000000 0.000000 0.000000 -0.824576 -0.012204 -0.418930 -0.208375 1.680157 1.256167 5.000000 0.000000 0.000000 6.967848 -0.823848 -6.350926 -8.166412 1.151728 2.749393 83.784149 -20.654624 31.393604 0.000000 0.000000 0.000000 -5.749453 0.971154 -0.538646 13.536153 -0.928503 0.113483 91.904545 4.761189 12.374152 0.000000 0.000000 0.000000 10.125803 -2.574898 1.973164 -12.108355 5.720361 10.124325 0.000000 0.000000 0.000000 3.906497 4.314724 -13.471907 -25.336721 -18.206054 1.129557 0.000000 0.000000 0.000000
