HIERARCHY
ROOT Hips
{
  OFFSET 0.000000 0.000000 0.000000
  CHANNELS 6 Xposition Yposition Zposition Zrotation Xrotation Yrotation
  JOINT Spine
  {
    OFFSET 0.000000 10.000000 0.000000
    CHANNELS 3 Zrotation Xrotation Yrotation
    JOINT Chest
    {
      OFFSET 0.000000 15.000000 0.000000
      CHANNELS 3 Zrotation Xrotation Yrotation
      JOINT Neck
      {
        OFFSET 0.000000 15.000000 0.000000
        CHANNELS 3 Zrotation Xrotation Yrotation
        JOINT Head
        {
          OFFSET 0.000000 10.000000 0.000000
          CHANNELS 3 Zrotation Xrotation Yrotation
          End Site
          {
            OFFSET 0.0 0.0 0.0
          }
        }
      }
      JOINT LeftShoulder
      {
        OFFSET 20.000000 15.000000 0.000000
        CHANNELS 3 Zrotation Xrotation Yrotation
        JOINT LeftArm
        {
          OFFSET 15.000000 0.000000 0.000000
          CHANNELS 3 Zrotation Xrotation Yrotation
          JOINT LeftForeArm
          {
            OFFSET 25.000000 0.000000 0.000000
            CHANNELS 3 Zrotation Xrotation Yrotation
            JOINT LeftHand
            {
              OFFSET 20.000000 0.000000 0.000000
              CHANNELS 3 Zrotation Xrotation Yrotation
              End Site
              {
                OFFSET 0.0 0.0 0.0
              }
            }
          }
        }
      }
      JOINT RightShoulder
      {
        OFFSET -20.000000 15.000000 0.000000
        CHANNELS 3 Zrotation Xrotation Yrotation
        JOINT RightArm
        {
          OFFSET -15.000000 0.000000 0.000000
          CHANNELS 3 Zrotation Xrotation Yrotation
          JOINT RightForeArm
          {
            OFFSET -25.000000 0.000000 0.000000
            CHANNELS 3 Zrotation Xrotation Yrotation
            JOINT RightHand
            {
              OFFSET -20.000000 0.000000 0.000000
              CHANNELS 3 Zrotation Xrotation Yrotation
              End Site
              {
                OFFSET 0.0 0.0 0.0
              }
            }
          }
        }
      }
    }
  }
  JOINT LeftUpLeg
  {
    OFFSET 10.000000 -10.000000 0.000000
    CHANNELS 3 Zrotation Xrotation Yrotation
    JOINT LeftLeg
    {
      OFFSET 0.000000 -45.000000 0.000000
      CHANNELS 3 Zrotation Xrotation Yrotation
      JOINT LeftFoot
      {
        OFFSET 0.000000 -45.000000 0.000000
        CHANNELS 3 Zrotation Xrotation Yrotation
        JOINT LeftToeBase
        {
          OFFSET 0.000000 0.000000 10.000000
          CHANNELS 3 Zrotation Xrotation Yrotation
          End Site
          {
            OFFSET 0.0 0.0 0.0
          }
        }
      }
    }
  }
  JOINT RightUpLeg
  {
    OFFSET -10.000000 -10.000000 0.000000
    CHANNELS 3 Zrotation Xrotation Yrotation
    JOINT RightLeg
    {
      OFFSET 0.000000 -45.000000 0.000000
      CHANNELS 3 Zrotation Xrotation Yrotation
      JOINT RightFoot
      {
        OFFSET 0.000000 -45.000000 0.000000
        CHANNELS 3 Zrotation Xrotation Yrotation
        JOINT RightToeBase
        {
          OFFSET 0.000000 0.000000 10.000000
          CHANNELS 3 Zrotation Xrotation Yrotation
          End Site
          {
            OFFSET 0.0 0.0 0.0
          }
        }
      }
    }
  }
}
MOTION
Frames: 73
Frame Time: 0.033333
17.751145 1.988613 7.000256 0.000000 0.000000 0.000000 0.000000 0.000000 0.000000 0.000000 0.000000 0.000000 0.000000 0.000000 0.000000 0.000000 0.000000 0.000000 -64.716369 5.579333 -8.795473 -76.737333 5.995275 -7.568550 -100.916771 10.319705 -8.526838 -100.916771 10.319705 -8.526838 75.885140 -23.919223 -30.398293 -176.358997 172.137837 -49.644217 -171.103491 158.546721 -44.652129 -171.103491 158.546721 -44.652129 7.723746 -17.977735 1.223590 -18.012626 -22.373026 -3.590646 -178.860175 -179.640827 34.979607 -178.860175 -179.640827 34.979607 5.884536 14.742220 -0.761909 -0.316013 -16.068315 -0.044605 -0.521503 132.213564 -0.231026 -0.521503 132.213564 -0.231026
17.630306 1.979692 6.999827 0.000000 0.000000 0.000000 0.000000 0.000000 0.000000 0.000000 0.000000 0.000000 0.000000 0.000000 0.000000 0.000000 0.000000 0.000000 -65.160989 4.957051 -7.749946 -75.917338 4.026152 -5.159544 -97.345557 6.581985 -5.789401 -97.345557 6.581985 -5.789401 74.399798 -26.843763 -34.905678 -171.689342 163.136305 -52.219906 -172.845418 163.263525 -46.050288 -172.845418 163.263525 -46.050288 7.987421 -17.497124 1.231124 -17.805334 -22.322344 -3.540434 -163.102538 -173.951969 39.156645 -163.102538 -173.951969 39.156645 6.371031 9.905048 -0.552639 -0.614737 -14.605236 -0.078779 1.043327 134.430052 0.438262 1.043327 134.430052 0.438262
17.600783 1.965640 6.996175 0.000000 0.000000 0.000000 0.000000 0.000000 0.000000 0.000000 0.000000 0.000000 0.000000 0.000000 0.000000 0.000000 0.000000 0.000000 -64.921775 4.734506 -7.436673 -73.724094 3.265158 -4.353870 -91.050355 7.289818 -7.157737 -91.050355 7.289818 -7.157737 74.216107 -28.469973 -37.076585 -167.398366 155.719225 -54.340736 -168.568621 154.627130 -47.942200 -168.568621 154.627130 -47.942200 9.492381 -15.404530 1.286693 -17.233053 -18.730891 -2.863263 -140.575695 -166.142115 37.472011 -140.575695 -166.142115 37.472011 6.386708 10.127553 -0.566511 -0.295636 -14.171238 -0.036748 5.765871 136.005756 2.330872 5.765871 136.005756 2.330872
17.616852 1.961393 6.972718 0.000000 0.000000 0.000000 0.000000 0.000000 0.000000 0.000000 0.000000 0.000000 0.000000 0.000000 0.000000 0.000000 0.000000 0.000000 -63.711993 4.836717 -7.776496 -69.925391 2.941107 -4.205197 -83.370968 7.129573 -8.003447 -83.370968 7.129573 -8.003447 76.069563 -29.691614 -37.437482 -165.867954 151.926657 -52.744604 -169.125721 155.235896 -46.879202 -169.125721 155.235896 -46.879202 10.925653 -16.314656 1.570770 -15.429812 -19.112299 -2.612973 -131.813017 -164.557039 33.734725 -131.813017 -164.557039 33.734725 6.497555 9.987153 -0.568333 -0.061297 -14.121852 -0.007593 7.835239 135.952473 3.173560 7.835239 135.952473 3.173560
17.604211 1.953604 6.817478 0.000000 0.000000 0.000000 0.000000 0.000000 0.000000 0.000000 0.000000 0.000000 0.000000 0.000000 0.000000 0.000000 0.000000 0.000000 -60.442385 4.699885 -8.059556 -68.427001 3.134515 -4.608626 -83.378176 7.042535 -7.904807 -83.378176 7.042535 -7.904807 76.980994 -28.111820 -34.954132 175.224724 -170.005134 -50.987043 177.442701 -173.880253 -45.325815 177.442701 -173.880253 -45.325815 12.183273 -16.603382 1.784299 -14.902522 -19.409190 -2.562603 -126.226098 -164.026483 30.934893 -126.226098 -164.026483 30.934893 6.818507 9.919870 -0.592432 -0.165623 -13.884222 -0.020166 7.057424 135.691041 2.876577 7.057424 135.691041 2.876577
17.605261 1.806240 6.194315 0.000000 0.000000 0.000000 0.000000 0.000000 0.000000 0.000000 0.000000 0.000000 0.000000 0.000000 0.000000 0.000000 0.000000 0.000000 -56.347960 4.745787 -8.847960 -65.584409 2.965682 -4.601765 -77.073650 5.813538 -7.295381 -77.073650 5.813538 -7.295381 77.891677 -23.628388 -29.019869 168.253056 -155.949832 -51.555053 175.526862 -169.048224 -44.332179 175.526862 -169.048224 -44.332179 13.057315 -17.210807 1.984391 -14.853572 -20.578169 -2.711126 -125.151767 -165.216257 28.074948 -125.151767 -165.216257 28.074948 6.885736 5.133566 -0.309051 -0.107850 -15.941164 -0.015101 6.619700 134.076193 2.807265 6.619700 134.076193 2.807265
17.619233 1.656965 5.291442 0.000000 0.000000 0.000000 0.000000 0.000000 0.000000 0.000000 0.000000 0.000000 0.000000 0.000000 0.000000 0.000000 0.000000 0.000000 -53.598679 3.801862 -7.518578 -64.569770 1.800122 -2.848823 -73.767686 3.152482 -4.200357 -73.767686 3.152482 -4.200357 78.055898 -22.089874 -27.078640 168.495524 -158.391043 -55.654022 176.197691 -171.390480 -47.592135 176.197691 -171.390480 -47.592135 14.094500 -17.348112 2.160884 -14.780498 -20.753835 -2.721173 -117.611148 -165.660875 23.472406 -117.611148 -165.660875 23.472406 6.620696 3.394163 -0.196379 0.066777 -15.879701 0.009313 6.234376 134.201821 2.635523 6.234376 134.201821 2.635523
17.645281 1.535791 4.375498 0.000000 0.000000 0.000000 0.000000 0.000000 0.000000 0.000000 0.000000 0.000000 0.000000 0.000000 0.000000 0.000000 0.000000 0.000000 -52.553215 3.564779 -7.212990 -62.922335 1.322891 -2.161889 -70.430792 2.491335 -3.529119 -70.430792 2.491335 -3.529119 78.897676 -20.400179 -24.669436 173.627272 -169.327728 -61.591291 -178.898277 177.694008 -51.069064 -178.898277 177.694008 -51.069064 15.485277 -17.550797 2.404745 -15.016628 -20.954451 -2.792447 -94.463095 -166.520699 14.561112 -94.463095 -166.520699 14.561112 6.186767 3.512853 -0.189902 -0.258099 -15.481828 -0.035084 2.652795 134.028519 1.125431 2.652795 134.028519 1.125431
17.662126 1.424714 3.814060 0.000000 0.000000 0.000000 0.000000 0.000000 0.000000 0.000000 0.000000 0.000000 0.000000 0.000000 0.000000 0.000000 0.000000 0.000000 -51.741584 2.713462 -5.592015 -61.870212 -0.028817 0.048082 -68.227722 0.277360 -0.409444 -68.227722 0.277360 -0.409444 79.220447 -20.280878 -24.390461 174.381065 -171.041882 -64.131729 -177.947988 175.816880 -52.244846 -177.947988 175.816880 -52.244846 17.849689 -17.531195 2.774241 -13.979633 -20.593012 -2.551902 -59.272720 -169.108346 6.209110 -59.272720 -169.108346 6.209110 5.760450 1.828889 -0.092023 -1.047736 -16.537036 -0.152264 -0.895035 133.317719 -0.386231 -0.895035 133.317719 -0.386231
17.664751 1.278429 3.417340 0.000000 0.000000 0.000000 0.000000 0.000000 0.000000 0.000000 0.000000 0.000000 0.000000 0.000000 0.000000 0.000000 0.000000 0.000000 -51.413482 1.840005 -3.821009 -61.356031 -0.130863 0.220591 -66.225770 -0.316481 0.485241 -66.225770 -0.316481 0.485241 78.393571 -20.381985 -24.862954 169.374077 -163.741344 -66.130705 177.651951 -175.374337 -53.807269 177.651951 -175.374337 -53.807269 22.078740 -13.024759 2.551624 -11.579283 -15.823436 -1.614565 44.966376 -170.603650 -3.896103 44.966376 -170.603650 -3.896103 5.531940 2.052251 -0.099161 -2.800696 -15.776005 -0.388107 -5.458532 133.511241 -2.345983 -5.458532 133.511241 -2.345983
17.666901 1.100886 2.900518 0.000000 0.000000 0.000000 0.000000 0.000000 0.000000 0.000000 0.000000 0.000000 0.000000 0.000000 0.000000 0.000000 0.000000 0.000000 -51.564780 1.300570 -2.692090 -62.572288 -0.137407 0.226117 -67.097733 -1.892918 2.854263 -67.097733 -1.892918 2.854263 77.172134 -19.235287 -23.980356 160.420541 -152.029052 -69.427660 169.361737 -160.463464 -56.809056 169.361737 -160.463464 -56.809056 24.396520 -11.270792 2.443990 -10.888182 -14.027151 -1.343504 110.788504 -171.000260 -13.013712 110.788504 -171.000260 -13.013712 5.193523 3.138128 -0.142359 -3.591604 -15.071011 -0.475261 -6.118491 133.098132 -2.656217 -6.118491 133.098132 -2.656217
17.664198 0.853541 1.800219 0.000000 0.000000 0.000000 0.000000 0.000000 0.000000 0.000000 0.000000 0.000000 0.000000 0.000000 0.000000 0.000000 0.000000 0.000000 -52.653303 0.237140 -0.479253 -65.163919 -1.057232 1.654227 -70.806461 -6.981418 9.810766 -70.806461 -6.981418 9.810766 75.816265 -18.000441 -22.994165 152.251282 -142.980435 -72.838838 164.372112 -153.034444 -59.570685 164.372112 -153.034444 -59.570685 25.470849 -11.906680 2.700249 -10.745514 -15.631454 -1.479214 126.114562 -171.836356 -15.984471 126.114562 -171.836356 -15.984471 3.274630 4.507591 -0.128913 -4.020911 -14.547266 -0.513417 -7.299112 134.548268 -3.060571 -7.299112 134.548268 -3.060571
17.627069 0.631954 0.768397 0.000000 0.000000 0.000000 0.000000 0.000000 0.000000 0.000000 0.000000 0.000000 0.000000 0.000000 0.000000 0.000000 0.000000 0.000000 -53.960320 0.733819 -1.441378 -66.217783 -0.536049 0.822011 -76.098451 -3.144570 4.017109 -76.098451 -3.144570 4.017109 74.017775 -16.215172 -21.403623 137.507134 -126.265142 -75.009706 161.084384 -149.245928 -62.409404 161.084384 -149.245928 -62.409404 26.720232 -10.550467 2.512418 -11.261173 -13.562426 -1.343335 143.403250 -172.182080 -23.349588 143.403250 -172.182080 -23.349588 2.109186 5.680583 -0.104655 -4.835154 -13.560329 -0.575196 -7.638007 134.414896 -3.213473 -7.638007 134.414896 -3.213473
17.513626 0.399360 -0.471675 0.000000 0.000000 0.000000 0.000000 0.000000 0.000000 0.000000 0.000000 0.000000 0.000000 0.000000 0.000000 0.000000 0.000000 0.000000 -55.815292 0.460473 -0.869390 -73.764271 4.039975 -5.382507 -88.524689 -8.150168 8.362031 -88.524689 -8.150168 8.362031 70.931876 -13.848315 -19.348259 120.940463 -106.142484 -74.008051 159.577370 -146.895660 -62.439211 159.577370 -146.895660 -62.439211 25.958413 -9.062965 2.093020 -12.087933 -10.562047 -1.121453 142.223804 -170.332809 -27.765492 142.223804 -170.332809 -27.765492 0.453652 6.546545 -0.025945 -5.854834 -12.184137 -0.625420 -10.721156 134.712094 -4.483246 -10.721156 134.712094 -4.483246
17.376202 0.213216 -0.532648 0.000000 0.000000 0.000000 0.000000 0.000000 0.000000 0.000000 0.000000 0.000000 0.000000 0.000000 0.000000 0.000000 0.000000 0.000000 -58.201352 0.084370 -0.151579 -89.564254 2.917760 -2.940026 -106.610541 -22.154361 16.601869 -106.610541 -22.154361 16.601869 69.530667 -14.021407 -20.093155 103.355997 -85.832466 -72.622860 161.874081 -151.480549 -64.227205 161.874081 -151.480549 -64.227205 26.661492 -9.485565 2.252525 -11.978654 -10.969448 -1.154359 150.675957 -169.471992 -38.798728 150.675957 -169.471992 -38.798728 -2.053827 6.858384 0.123083 -6.786246 -9.587291 -0.569761 -13.700000 135.134707 -5.678317 -13.700000 135.134707 -5.678317
17.342869 -0.024709 -0.423685 0.000000 0.000000 0.000000 0.000000 0.000000 0.000000 0.000000 0.000000 0.000000 0.000000 0.000000 0.000000 0.000000 0.000000 0.000000 -63.510289 -0.201259 0.325165 -100.488694 -1.418531 1.180035 -121.706086 -39.733716 22.785952 -121.706086 -39.733716 22.785952 69.258745 -13.122951 -18.911864 80.533307 -65.076024 -73.973823 160.033520 -150.470179 -67.476754 160.033520 -150.470179 -67.476754 25.181763 -10.400121 2.329043 -16.745306 -12.680971 -1.873868 144.514117 -166.593178 -40.339593 144.514117 -166.593178 -40.339593 -3.539663 7.022749 0.217269 -10.173132 -8.776394 -0.782717 -21.996220 134.699455 -9.272922 -21.996220 134.699455 -9.272922
17.338332 -0.265752 -0.288449 0.000000 0.000000 0.000000 0.000000 0.000000 0.000000 0.000000 0.000000 0.000000 0.000000 0.000000 0.000000 0.000000 0.000000 0.000000 -71.434885 -0.601125 0.836010 -108.771435 -1.951596 1.398008 -127.576296 -56.361099 29.552012 -127.576296 -56.361099 29.552012 67.492041 -8.826185 -13.179077 64.177621 -45.078165 -66.999112 152.099239 -137.166430 -64.693567 152.099239 -137.166430 -64.693567 23.042637 -10.289173 2.102762 -19.698607 -10.762652 -1.873919 142.927161 -166.753187 -38.202788 142.927161 -166.753187 -38.202788 -3.783433 7.352708 0.243184 -15.334240 -7.213966 -0.972413 -33.901023 135.695827 -14.146651 -33.901023 135.695827 -14.146651
17.257375 -0.649679 -0.547952 0.000000 0.000000 0.000000 0.000000 0.000000 0.000000 0.000000 0.000000 0.000000 0.000000 0.000000 0.000000 0.000000 0.000000 0.000000 -76.453859 -2.127321 2.700540 -118.101397 -1.528794 0.916787 -135.306764 -54.986879 24.151114 -135.306764 -54.986879 24.151114 65.761361 -0.937763 -1.450588 57.949984 -25.428198 -44.336437 128.893630 -92.736341 -53.268677 128.893630 -92.736341 -53.268677 18.427319 -10.033029 1.631512 -23.438519 -11.683116 -2.431620 144.080251 -168.135735 -35.547117 144.080251 -168.135735 -35.547117 -4.863572 8.046650 0.342288 -17.144116 -4.082346 -0.615615 -39.651629 137.295037 -16.045505 -39.651629 137.295037 -16.045505
17.112348 -1.024724 -1.769869 0.000000 0.000000 0.000000 0.000000 0.000000 0.000000 0.000000 0.000000 0.000000 0.000000 0.000000 0.000000 0.000000 0.000000 0.000000 -85.032827 -13.816696 15.055826 -124.991450 -14.796067 7.735078 -135.961689 -49.220590 20.989429 -135.961689 -49.220590 20.989429 67.699366 1.025403 1.528810 57.874064 -16.727691 -29.783400 99.201261 -51.538047 -44.670134 99.201261 -51.538047 -44.670134 16.322068 -13.168834 1.896702 -23.993434 -14.067425 -3.003700 144.525065 -167.864880 -36.765427 144.525065 -167.864880 -36.765427 -6.515414 6.649877 0.378929 -16.117141 -9.821823 -1.393954 -38.677341 134.428008 -16.772965 -38.677341 134.428008 -16.772965
16.835445 -1.379815 -2.752210 0.000000 0.000000 0.000000 0.000000 0.000000 0.000000 0.000000 0.000000 0.000000 0.000000 0.000000 0.000000 0.000000 0.000000 0.000000 -84.797723 -18.037538 19.722132 -131.196983 -18.983320 8.674863 -142.533108 -52.568503 19.016824 -142.533108 -52.568503 19.016824 70.650300 2.602379 3.671427 58.771606 -13.120656 -23.083862 94.339606 -43.273467 -40.377838 94.339606 -43.273467 -40.377838 14.995127 -14.724444 1.948421 -24.322916 -14.487609 -3.138089 147.879100 -169.267098 -36.142791 147.879100 -169.267098 -36.142791 -7.386951 6.834845 0.441730 -15.561112 -11.693284 -1.603202 -38.466507 133.798135 -16.929259 -38.466507 133.798135 -16.929259
16.229655 -1.569385 -4.249685 0.000000 0.000000 0.000000 0.000000 0.000000 0.000000 0.000000 0.000000 0.000000 0.000000 0.000000 0.000000 0.000000 0.000000 0.000000 -86.352943 -20.561216 21.881834 -134.777307 -16.280240 6.818526 -143.880824 -51.989800 18.068692 -143.880824 -51.989800 18.068692 74.909660 1.167901 1.524489 57.245910 -13.958701 -25.286367 97.480118 -46.086528 -40.927807 97.480118 -46.086528 -40.927807 14.425117 -15.474013 1.970065 -25.506453 -14.059653 -3.197442 151.756774 -169.768985 -39.173932 151.756774 -169.768985 -39.173932 -7.563371 3.923039 0.259409 -13.657500 -13.255370 -1.594369 -34.110756 133.575286 -14.990457 -34.110756 133.575286 -14.990457
15.273119 -1.704540 -6.586445 0.000000 0.000000 0.000000 0.000000 0.000000 0.000000 0.000000 0.000000 0.000000 0.000000 0.000000 0.000000 0.000000 0.000000 0.000000 -88.569732 -19.091428 19.564841 -134.069515 5.162040 -2.188676 -142.345255 -42.845249 15.239177 -142.345255 -42.845249 15.239177 81.801205 2.368741 2.734362 48.406650 -10.198191 -22.456609 113.621824 -56.077929 -38.413311 113.621824 -56.077929 -38.413311 14.166042 -16.567372 2.072828 -25.505502 -13.862356 -3.152030 155.043547 -169.694718 -44.339861 155.043547 -169.694718 -44.339861 -8.523247 2.533190 0.188796 -9.785226 -12.811866 -1.101259 -26.910735 133.664043 -11.691898 -26.910735 133.664043 -11.691898
14.004520 -1.702988 -8.978449 0.000000 0.000000 0.000000 0.000000 0.000000 0.000000 0.000000 0.000000 0.000000 0.000000 0.000000 0.000000 0.000000 0.000000 0.000000 -89.770758 -17.863225 17.933678 -131.702730 18.216939 -8.222758 -140.006617 -31.718518 11.804691 -140.006617 -31.718518 11.804691 84.712383 2.407401 2.640414 51.085713 -11.707259 -24.216150 88.305790 -41.962068 -43.107521 88.305790 -41.962068 -43.107521 14.166205 -14.476063 1.808234 -25.914185 -11.390077 -2.628827 156.178554 -168.327193 -51.710663 156.178554 -168.327193 -51.710663 -9.653679 4.484171 0.378854 2.309398 -12.402358 0.250963 -2.238152 133.454355 -0.962742 -2.238152 133.454355 -0.962742
11.919172 -1.627862 -10.792362 0.000000 0.000000 0.000000 0.000000 0.000000 0.000000 0.000000 0.000000 0.000000 0.000000 0.000000 0.000000 0.000000 0.000000 0.000000 -88.320740 -11.627065 11.970457 -133.338949 39.842875 -17.768128 -146.073431 17.711130 -5.441767 -146.073431 17.711130 -5.441767 88.785154 3.529165 3.604750 54.044514 -12.467281 -24.176619 90.939817 -43.180583 -42.541282 90.939817 -43.180583 -42.541282 15.972354 -10.961799 1.542499 -22.722687 -9.379782 -1.888761 164.677256 -171.548027 -57.560121 164.677256 -171.548027 -57.560121 -11.188557 3.245313 0.317963 10.593455 -11.964294 1.113218 12.350124 133.461050 5.327823 12.350124 133.461050 5.327823
9.278721 -1.375909 -11.827863 0.000000 0.000000 0.000000 0.000000 0.000000 0.000000 0.000000 0.000000 0.000000 0.000000 0.000000 0.000000 0.000000 0.000000 0.000000 -81.269968 -7.737378 9.011312 -129.938203 54.439010 -27.011844 -142.577101 34.322858 -11.942463 -142.577101 34.322858 -11.942463 96.705269 3.440564 3.059958 59.331539 -15.479552 -26.840890 103.287010 -54.792680 -44.600518 103.287010 -54.792680 -44.600518 14.086426 -14.362293 1.783671 -24.163326 -17.774347 -3.833917 166.093275 -171.076929 -65.220411 166.093275 -171.076929 -65.220411 -8.139062 -3.331606 -0.237098 11.276661 -13.629758 1.351935 10.437829 132.835297 4.566571 10.437829 132.835297 4.566571
7.525596 -0.808416 -12.563446 0.000000 0.000000 0.000000 0.000000 0.000000 0.000000 0.000000 0.000000 0.000000 0.000000 0.000000 0.000000 0.000000 0.000000 0.000000 -78.414724 -6.795065 8.324490 -120.563487 50.969853 -30.441103 -138.604402 33.391591 -12.930649 -138.604402 33.391591 -12.930649 105.531305 3.477116 2.642904 75.500615 -16.209359 -20.842284 117.162243 -54.242892 -34.747595 117.162243 -54.242892 -34.747595 14.049932 -13.701670 1.696383 -23.607538 -16.424685 -3.455076 169.147570 -172.846534 -66.693125 169.147570 -172.846534 -66.693125 -9.011754 -0.439315 -0.034620 21.213637 -12.609136 2.370527 38.109717 135.713988 16.001486 38.109717 135.713988 16.001486
5.230426 -0.526529 -13.204504 0.000000 0.000000 0.000000 0.000000 0.000000 0.000000 0.000000 0.000000 0.000000 0.000000 0.000000 0.000000 0.000000 0.000000 0.000000 -75.980191 -7.507779 9.604171 -114.857396 50.051364 -33.212937 -137.253980 31.973710 -12.794722 -137.253980 31.973710 -12.794722 104.480337 2.839725 2.199710 68.007735 -12.997507 -19.169015 109.898213 -53.187865 -38.703387 109.898213 -53.187865 -38.703387 9.711604 -16.534251 1.414396 -27.751531 -18.923714 -4.714953 -172.403970 174.527436 -71.503429 -172.403970 174.527436 -71.503429 -7.363779 -4.970987 -0.320081 32.179216 -11.622143 3.362852 65.169592 138.955045 26.910764 65.169592 138.955045 26.910764
3.182789 -0.125362 -13.343598 0.000000 0.000000 0.000000 0.000000 0.000000 0.000000 0.000000 0.000000 0.000000 0.000000 0.000000 0.000000 0.000000 0.000000 0.000000 -71.640660 -8.852811 12.243210 -107.922705 42.337951 -31.470796 -129.728373 30.484626 -14.571488 -129.728373 30.484626 -14.571488 104.668884 1.546164 1.193557 70.191140 -13.913489 -19.701578 115.018499 -50.487006 -33.426507 115.018499 -50.487006 -33.426507 29.767546 -18.518374 4.961936 11.142567 -26.161703 2.596778 -98.846589 131.279874 -55.731020 -98.846589 131.279874 -55.731020 -1.196562 -5.821653 -0.060844 16.920679 -10.036674 1.496633 18.939661 131.613674 8.571421 18.939661 131.613674 8.571421
2.058078 0.158069 -13.567813 0.000000 0.000000 0.000000 0.000000 0.000000 0.000000 0.000000 0.000000 0.000000 0.000000 0.000000 0.000000 0.000000 0.000000 0.000000 -73.168472 -9.546549 12.837691 -100.832105 34.307757 -28.633509 -119.897323 21.793169 -12.710203 -119.897323 21.793169 -12.710203 106.255863 0.614233 0.460713 72.286368 -13.142412 -17.925886 112.597277 -47.199271 -32.490012 112.597277 -47.199271 -32.490012 33.391738 -16.211184 4.892039 10.756632 -22.770726 2.172182 -103.173081 121.602420 -70.349097 -103.173081 121.602420 -70.349097 -1.448670 -6.108982 -0.077307 18.317321 -11.832051 1.914244 21.210159 131.852747 9.563502 21.210159 131.852747 9.563502
-1.344736 0.150876 -14.219524 0.000000 0.000000 0.000000 0.000000 0.000000 0.000000 0.000000 0.000000 0.000000 0.000000 0.000000 0.000000 0.000000 0.000000 0.000000 -68.143180 -8.604169 12.693674 -95.355603 31.577791 -28.879296 -117.996896 24.694185 -14.986686 -117.996896 24.694185 -14.986686 107.777083 -0.596643 -0.435264 76.222833 -11.976188 -15.232997 118.212657 -49.716065 -30.987446 118.212657 -49.716065 -30.987446 20.725294 -18.041042 3.325591 -16.765924 -22.068390 -3.291975 -118.751804 131.570684 -74.448936 -118.751804 131.570684 -74.448936 8.231618 -6.926993 0.499059 39.022183 -9.380903 3.330503 76.078136 141.549886 30.522127 76.078136 141.549886 30.522127
-3.856926 -0.012100 -15.170034 0.000000 0.000000 0.000000 0.000000 0.000000 0.000000 0.000000 0.000000 0.000000 0.000000 0.000000 0.000000 0.000000 0.000000 0.000000 -62.303242 -8.687880 14.325278 -94.805314 31.813192 -29.366212 -126.511648 31.012701 -15.917628 -126.511648 31.012701 -15.917628 106.684061 -0.334465 -0.248921 76.035182 -13.614713 -17.363307 116.202799 -46.761003 -30.121932 116.202799 -46.761003 -30.121932 23.918851 -17.914536 3.824393 -13.082403 -23.704940 -2.757021 -103.535435 117.834791 -74.843965 -103.535435 117.834791 -74.843965 16.087977 -11.621918 1.647995 43.770124 -5.151427 2.070470 86.101064 145.229149 32.607205 86.101064 145.229149 32.607205
-4.091711 -0.003589 -15.285576 0.000000 0.000000 0.000000 0.000000 0.000000 0.000000 0.000000 0.000000 0.000000 0.000000 0.000000 0.000000 0.000000 0.000000 0.000000 -56.786041 -7.071031 13.041437 -87.835805 26.816522 -27.809699 -92.854570 15.728514 -14.972677 -92.854570 15.728514 -14.972677 109.431049 -0.573430 -0.405780 83.337068 -13.504443 -15.155475 126.034034 -50.736817 -27.145157 126.034034 -50.736817 -27.145157 21.348084 -22.082940 4.212657 -13.764056 -25.863537 -3.174897 -108.646944 121.706464 -75.675886 -108.646944 121.706464 -75.675886 27.498431 -9.973841 2.446248 39.832523 -5.186971 1.880438 74.211773 143.257720 28.203612 74.211773 143.257720 28.203612
-4.300626 0.012398 -15.174123 0.000000 0.000000 0.000000 0.000000 0.000000 0.000000 0.000000 0.000000 0.000000 0.000000 0.000000 0.000000 0.000000 0.000000 0.000000 -53.515239 -6.456928 12.766561 -80.587762 22.324664 -26.201898 -78.930474 8.907501 -10.808705 -78.930474 8.907501 -10.808705 113.345976 -0.753845 -0.495697 92.397076 -12.827935 -12.306294 133.307832 -55.120115 -25.389502 133.307832 -55.120115 -25.389502 19.741715 -21.777094 3.834153 -15.949348 -22.936996 -3.255982 -129.891541 140.144836 -75.590819 -129.891541 140.144836 -75.590819 33.226510 -9.080710 2.714542 37.465056 -6.137497 2.083075 64.782388 141.583614 24.926790 64.782388 141.583614 24.926790
-4.075135 0.117687 -15.261273 0.000000 0.000000 0.000000 0.000000 0.000000 0.000000 0.000000 0.000000 0.000000 0.000000 0.000000 0.000000 0.000000 0.000000 0.000000 -51.840391 -5.962303 12.232280 -78.072043 23.486234 -28.758942 -83.543724 10.053160 -11.247670 -83.543724 10.053160 -11.247670 117.010151 -0.403135 -0.246993 94.179586 -13.947646 -12.974268 134.248462 -61.817936 -28.353004 134.248462 -61.817936 -28.353004 20.742093 -19.620173 3.625023 -15.497314 -21.843076 -3.008028 166.072764 -169.128340 -75.844014 166.072764 -169.128340 -75.844014 30.024211 -7.905511 2.123193 37.181869 -7.255059 2.443215 62.070703 141.079008 24.005489 62.070703 141.079008 24.005489
-4.310267 0.115564 -15.306635 0.000000 0.000000 0.000000 0.000000 0.000000 0.000000 0.000000 0.000000 0.000000 0.000000 0.000000 0.000000 0.000000 0.000000 0.000000 -51.346542 -5.754333 11.937610 -77.649392 22.918381 -28.277183 -88.534175 10.176236 -10.438529 -88.534175 10.176236 -10.438529 118.053255 0.245219 0.147188 92.380499 -13.233845 -12.699617 138.616479 -67.470095 -28.313009 138.616479 -67.470095 -28.313009 19.531535 -18.567782 3.223205 -16.205608 -19.072828 -2.740251 160.288083 -163.803730 -78.634207 160.288083 -163.803730 -78.634207 33.007554 -6.870775 2.037937 37.091537 -7.628263 2.562518 61.742114 141.030265 23.885786 61.742114 141.030265 23.885786
-4.039108 0.117175 -15.264586 0.000000 0.000000 0.000000 0.000000 0.000000 0.000000 0.000000 0.000000 0.000000 0.000000 0.000000 0.000000 0.000000 0.000000 0.000000 -52.001794 -6.245947 12.765211 -77.714652 21.775299 -26.854989 -91.946156 6.864541 -6.635767 -91.946156 6.864541 -6.635767 118.652594 0.357373 0.211971 91.544150 -13.656580 -13.296695 140.202929 -67.911347 -27.396563 140.202929 -67.911347 -27.396563 19.067612 -18.662113 3.161492 -16.595015 -18.815851 -2.768492 170.053638 -171.699264 -79.650276 170.053638 -171.699264 -79.650276 33.015711 -6.678724 1.981371 36.565492 -7.862054 2.601136 59.955508 140.860550 23.176576 59.955508 140.860550 23.176576
-3.976004 0.111956 -15.230643 0.000000 0.000000 0.000000 0.000000 0.000000 0.000000 0.000000 0.000000 0.000000 0.000000 0.000000 0.000000 0.000000 0.000000 0.000000 -52.710647 -7.115699 14.306287 -78.780107 20.379725 -24.694962 -90.993674 0.893387 -0.878027 -90.993674 0.893387 -0.878027 117.795657 0.029780 0.017966 93.137511 -14.567855 -13.798886 139.865912 -65.507430 -26.449073 139.865912 -65.507430 -26.449073 19.433237 -18.774590 3.243016 -15.566765 -19.253792 -2.656325 -139.495741 146.003684 -79.285478 -139.495741 146.003684 -79.285478 33.090538 -6.941406 2.064407 37.121037 -7.491391 2.518570 62.894124 140.522906 24.751864 62.894124 140.522906 24.751864
-3.961184 0.105783 -15.164859 0.000000 0.000000 0.000000 0.000000 0.000000 0.000000 0.000000 0.000000 0.000000 0.000000 0.000000 0.000000 0.000000 0.000000 0.000000 -54.200054 -7.351543 14.311030 -80.635410 20.362507 -23.898768 -93.029330 0.645522 -0.612264 -93.029330 0.645522 -0.612264 116.778888 -1.153772 -0.710113 91.047480 -10.470117 -10.281457 135.248244 -63.689698 -28.686128 135.248244 -63.689698 -28.686128 19.706758 -21.425536 3.764019 -15.483140 -21.901291 -3.013449 -134.558165 142.172733 -78.585124 -134.558165 142.172733 -78.585124 32.321883 -9.530893 2.767784 37.165028 -6.928445 2.331846 64.703935 141.338130 25.056603 64.703935 141.338130 25.056603
-3.920594 0.103988 -15.117690 0.000000 0.000000 0.000000 0.000000 0.000000 0.000000 0.000000 0.000000 0.000000 0.000000 0.000000 0.000000 0.000000 0.000000 0.000000 -54.954331 -7.884222 15.096221 -82.980032 20.043577 -22.599455 -96.995632 -0.791117 0.699978 -96.995632 -0.791117 0.699978 116.583494 -2.167113 -1.338966 87.266443 -8.705468 -9.129278 134.420903 -63.358148 -29.070700 134.420903 -63.358148 -29.070700 20.283968 -21.057475 3.808407 -15.331138 -22.454749 -3.060820 -127.537396 136.139007 -78.504260 -127.537396 136.139007 -78.504260 30.773172 -9.284350 2.560177 36.810456 -7.072662 2.356139 67.951958 141.570318 26.435213 67.951958 141.570318 26.435213
-3.873088 0.057481 -15.080633 0.000000 0.000000 0.000000 0.000000 0.000000 0.000000 0.000000 0.000000 0.000000 0.000000 0.000000 0.000000 0.000000 0.000000 0.000000 -58.243492 -8.041200 14.382035 -88.155807 22.860129 -23.587405 -110.299912 0.652283 -0.454196 -110.299912 0.652283 -0.454196 113.048030 -2.255860 -1.491870 86.274364 -8.777417 -9.365018 126.598724 -49.484477 -26.099814 126.598724 -49.484477 -26.099814 20.275990 -22.740973 4.118807 -14.959359 -25.079710 -3.345410 -120.628189 130.188535 -78.324311 -120.628189 130.188535 -78.324311 29.395310 -10.026228 2.636160 38.061813 -7.253974 2.505070 76.439977 144.085544 28.634817 76.439977 144.085544 28.634817
-3.434042 0.049479 -15.052163 0.000000 0.000000 0.000000 0.000000 0.000000 0.000000 0.000000 0.000000 0.000000 0.000000 0.000000 0.000000 0.000000 0.000000 0.000000 -66.318407 -8.403368 12.830884 -94.119770 28.665918 -26.749471 -120.934813 10.051049 -5.704092 -120.934813 10.051049 -5.704092 111.001910 -2.441380 -1.677988 82.143417 -11.865339 -13.599714 117.688404 -46.631492 -29.209060 117.688404 -46.631492 -29.209060 20.009384 -21.396097 3.817587 -14.682171 -25.706119 -3.367492 -106.093322 120.527573 -74.421049 -106.093322 120.527573 -74.421049 28.479026 -8.347684 2.121928 38.522652 -7.694693 2.692367 79.326394 144.959830 29.335518 79.326394 144.959830 29.335518
-1.929161 0.051005 -14.993867 0.000000 0.000000 0.000000 0.000000 0.000000 0.000000 0.000000 0.000000 0.000000 0.000000 0.000000 0.000000 0.000000 0.000000 0.000000 -74.144586 -9.038221 11.944114 -97.607059 29.794754 -26.216934 -122.745899 8.785753 -4.802136 -122.745899 8.785753 -4.802136 108.039844 -2.291986 -1.664113 78.010493 -14.300518 -17.608679 111.879176 -49.875147 -34.900879 111.879176 -49.875147 -34.900879 19.716242 -16.677191 2.918081 -14.747589 -20.915416 -2.736654 -109.071391 129.441613 -67.084650 -109.071391 129.441613 -67.084650 23.599567 -5.379098 1.124521 40.387497 -9.348992 3.445212 84.814771 143.011243 33.976554 84.814771 143.011243 33.976554
0.447546 0.014713 -14.687100 0.000000 0.000000 0.000000 0.000000 0.000000 0.000000 0.000000 0.000000 0.000000 0.000000 0.000000 0.000000 0.000000 0.000000 0.000000 -80.819055 -8.979653 10.539326 -101.355791 31.860814 -26.319493 -127.750339 10.541184 -5.180837 -127.750339 10.541184 -5.180837 103.681725 -1.868306 -1.468105 73.117407 -15.798929 -21.196273 107.254102 -52.471293 -39.900736 107.254102 -52.471293 -39.900736 21.823808 -12.833086 2.484034 -11.417317 -17.155840 -1.727797 -121.169314 141.393836 -63.698273 -121.169314 141.393836 -63.698273 15.793928 -0.050242 0.006969 38.387067 -10.898372 3.803918 81.015517 142.596949 32.259209 81.015517 142.596949 32.259209
4.398438 -0.019261 -13.989019 0.000000 0.000000 0.000000 0.000000 0.000000 0.000000 0.000000 0.000000 0.000000 0.000000 0.000000 0.000000 0.000000 0.000000 0.000000 -85.664813 -5.529762 5.964072 -110.487279 36.266233 -25.605175 -135.019751 11.201226 -4.649711 -135.019751 11.201226 -4.649711 99.300854 0.307186 0.260970 71.649966 -16.651611 -22.919948 106.803294 -58.224032 -44.934253 106.803294 -58.224032 -44.934253 16.186920 -14.472744 2.068880 -18.919235 -16.905940 -2.836873 -132.567971 149.630724 -63.416466 -132.567971 149.630724 -63.416466 1.428470 6.634629 -0.082802 41.824782 -9.763515 3.738471 81.937099 142.011379 33.281897 81.937099 142.011379 33.281897
7.556797 -0.218695 -13.563553 0.000000 0.000000 0.000000 0.000000 0.000000 0.000000 0.000000 0.000000 0.000000 0.000000 0.000000 0.000000 0.000000 0.000000 0.000000 -85.650163 -5.189612 5.598724 -122.570810 38.429176 -21.618312 -127.166970 9.480502 -4.717676 -127.166970 9.480502 -4.717676 94.628876 1.576289 1.453836 72.519222 -21.294769 -28.752103 108.872982 -63.047694 -47.358904 108.872982 -63.047694 -47.358904 13.393522 -13.434046 1.584533 -23.360757 -14.929525 -3.103248 -150.554816 161.074924 -64.773197 -150.554816 161.074924 -64.773197 -4.085631 8.200632 0.293008 38.533011 -12.870996 4.515590 78.962426 141.994265 31.677101 78.962426 141.994265 31.677101
10.097202 -0.573681 -12.451725 0.000000 0.000000 0.000000 0.000000 0.000000 0.000000 0.000000 0.000000 0.000000 0.000000 0.000000 0.000000 0.000000 0.000000 0.000000 -88.697207 -6.916199 7.074876 -130.080871 39.011193 -18.724849 -131.412404 6.018435 -2.718634 -131.412404 6.018435 -2.718634 92.889688 3.138407 2.984056 66.648993 -18.874753 -28.375236 99.811929 -55.318179 -47.618076 99.811929 -55.318179 -47.618076 12.286073 -12.418606 1.341797 -25.810760 -13.840101 -3.185863 -156.644457 165.792750 -62.175681 -156.644457 165.792750 -62.175681 -10.427138 9.464877 0.865584 37.862662 -15.773033 5.440291 86.623004 146.968642 31.234587 86.623004 146.968642 31.234587
11.679219 -0.930157 -10.967409 0.000000 0.000000 0.000000 0.000000 0.000000 0.000000 0.000000 0.000000 0.000000 0.000000 0.000000 0.000000 0.000000 0.000000 0.000000 -90.480661 -7.964243 7.897920 -133.888406 30.710727 -13.332954 -150.884116 -7.643237 1.987673 -150.884116 -7.643237 1.987673 89.640659 2.220410 2.234376 64.141877 -18.045251 -28.440740 95.835583 -54.395462 -49.786047 95.835583 -54.395462 -49.786047 8.749700 -10.106593 0.775197 -27.715703 -9.831573 -2.430998 -170.023849 174.436637 -58.208865 -170.023849 174.436637 -58.208865 -9.206525 10.924755 0.882268 31.000247 -16.048507 4.477730 62.663648 138.773129 25.795010 62.663648 138.773129 25.795010
13.036826 -1.147211 -9.294579 0.000000 0.000000 0.000000 0.000000 0.000000 0.000000 0.000000 0.000000 0.000000 0.000000 0.000000 0.000000 0.000000 0.000000 0.000000 -86.643150 -10.679147 11.319822 -133.363659 8.995674 -3.884029 -147.690606 -30.918377 9.160406 -147.690606 -30.918377 9.160406 86.370712 -0.413547 -0.440608 65.337160 -18.514174 -28.523433 94.601250 -50.925242 -47.440605 94.601250 -50.925242 -47.440605 9.873928 -11.352542 0.983831 -26.065445 -14.617053 -3.400879 -168.671039 173.596905 -58.840904 -168.671039 173.596905 -58.840904 -6.689779 14.489662 0.851386 18.223724 -16.416534 2.650678 27.478392 132.061148 12.407557 27.478392 132.061148 12.407557
14.057995 -1.456227 -7.844263 0.000000 0.000000 0.000000 0.000000 0.000000 0.000000 0.000000 0.000000 0.000000 0.000000 0.000000 0.000000 0.000000 0.000000 0.000000 -85.081318 -11.247872 12.250063 -131.559189 -11.580066 5.223430 -144.762495 -37.269339 12.225143 -144.762495 -37.269339 12.225143 83.207378 -0.143795 -0.161939 67.953056 -17.683224 -25.994664 95.389318 -48.214381 -44.316696 95.389318 -48.214381 -44.316696 8.579801 -14.668674 1.106358 -26.958886 -12.199207 -2.934597 -172.740386 176.434041 -52.274943 -172.740386 176.434041 -52.274943 -6.483010 11.531362 0.655289 10.494151 -16.963175 1.569205 9.754568 131.718453 4.380218 9.754568 131.718453 4.380218
14.916233 -1.545810 -6.203795 0.000000 0.000000 0.000000 0.000000 0.000000 0.000000 0.000000 0.000000 0.000000 0.000000 0.000000 0.000000 0.000000 0.000000 0.000000 -81.523904 -11.704962 13.562289 -127.160582 -22.976789 11.532029 -139.080698 -42.757775 16.618686 -139.080698 -42.757775 16.618686 81.085680 -0.254024 -0.296974 67.173532 -15.263028 -22.814798 94.613646 -45.895883 -42.672390 94.613646 -45.895883 -42.672390 7.344924 -18.931553 1.226242 -27.966730 -15.288532 -3.828471 -160.753654 172.120804 -44.211039 -160.753654 172.120804 -44.211039 -6.484978 9.280456 0.526911 4.245609 -16.368660 0.610890 -4.383520 130.739884 -2.010489 -4.383520 130.739884 -2.010489
14.953195 -1.609333 -5.906819 0.000000 0.000000 0.000000 0.000000 0.000000 0.000000 0.000000 0.000000 0.000000 0.000000 0.000000 0.000000 0.000000 0.000000 0.000000 -79.037501 -12.875564 15.578235 -121.564732 -18.352420 10.324872 -135.253139 -40.011378 17.046578 -135.253139 -40.011378 17.046578 79.574214 -0.651116 -0.781848 67.794723 -13.572580 -20.086838 93.003526 -41.599399 -39.643388 93.003526 -41.599399 -39.643388 8.027620 -17.205426 1.216397 -29.149969 -10.571567 -2.756052 -173.153385 176.977906 -47.592707 -173.153385 176.977906 -47.592707 -5.205360 7.953772 0.362132 0.516396 -15.616804 0.070815 -11.583106 130.324037 -5.375855 -11.583106 130.324037 -5.375855
15.196575 -1.652866 -5.050978 0.000000 0.000000 0.000000 0.000000 0.000000 0.000000 0.000000 0.000000 0.000000 0.000000 0.000000 0.000000 0.000000 0.000000 0.000000 -75.715747 -10.171195 13.062905 -118.416380 -15.382690 9.202572 -136.401178 -32.523160 13.308694 -136.401178 -32.523160 13.308694 78.560705 -0.085384 -0.104391 67.332838 -11.467523 -17.145284 92.798141 -40.333361 -38.555201 92.798141 -40.333361 -38.555201 8.077460 -17.430020 1.240197 -29.580280 -11.939079 -3.162895 -168.957557 175.135198 -47.446598 -168.957557 175.135198 -47.446598 -4.184110 5.833997 0.213297 -0.561900 -14.837955 -0.073168 -13.416464 130.333567 -6.231095 -13.416464 130.333567 -6.231095
15.547019 -1.702858 -4.051839 0.000000 0.000000 0.000000 0.000000 0.000000 0.000000 0.000000 0.000000 0.000000 0.000000 0.000000 0.000000 0.000000 0.000000 0.000000 -73.382689 -6.918844 9.276253 -111.785297 -13.572371 9.215035 -125.242873 -30.370665 16.002322 -125.242873 -30.370665 16.002322 77.718884 0.347378 0.431133 67.390262 -11.437474 -17.082440 93.579980 -40.135927 -37.881666 93.579980 -40.135927 -37.881666 8.153533 -16.743842 1.201911 -29.519110 -11.866933 -3.136860 -168.164685 175.321556 -43.019566 -168.164685 175.321556 -43.019566 -3.112787 4.152802 0.112885 -0.969898 -15.398902 -0.131129 -13.136745 129.006749 -6.286233 -13.136745 129.006749 -6.286233
15.998887 -1.768289 -2.236037 0.000000 0.000000 0.000000 0.000000 0.000000 0.000000 0.000000 0.000000 0.000000 0.000000 0.000000 0.000000 0.000000 0.000000 0.000000 -70.548335 -0.614903 0.869282 -95.919137 5.122433 -4.619384 -109.432771 -0.541525 0.383190 -109.432771 -0.541525 0.383190 77.741135 0.960180 1.191200 66.979854 -10.119675 -15.244318 93.803227 -42.294037 -39.795537 93.803227 -42.294037 -39.795537 7.799999 -15.253658 1.046047 -29.467600 -8.324758 -2.192801 -168.091264 176.105175 -36.112288 -168.091264 176.105175 -36.112288 -2.325911 1.870753 0.037980 -2.226980 -16.099446 -0.314992 -14.941615 128.130653 -7.298015 -14.941615 128.130653 -7.298015
16.162380 -1.783361 -1.807140 0.000000 0.000000 0.000000 0.000000 0.000000 0.000000 0.000000 0.000000 0.000000 0.000000 0.000000 0.000000 0.000000 0.000000 0.000000 -67.915281 0.287318 -0.426645 -89.128587 5.135426 -5.214023 -98.949895 0.292332 -0.249896 -98.949895 0.292332 -0.249896 78.257454 0.331186 0.407106 67.165191 -10.543295 -15.823022 94.435126 -44.681338 -41.645480 94.435126 -44.681338 -41.645480 8.117548 -14.701303 1.048903 -29.460564 -8.835939 -2.327352 -170.066165 176.641646 -37.280722 -170.066165 176.641646 -37.280722 -1.677911 1.235503 0.018093 -2.449214 -16.653801 -0.358530 -15.554435 128.180860 -7.591663 -15.554435 128.180860 -7.591663
16.425835 -1.778705 -1.168345 0.000000 0.000000 0.000000 0.000000 0.000000 0.000000 0.000000 0.000000 0.000000 0.000000 0.000000 0.000000 0.000000 0.000000 0.000000 -66.443091 0.891370 -1.361002 -82.303035 5.334197 -6.102255 -88.645642 -0.117986 0.120808 -88.645642 -0.117986 0.120808 77.606386 -0.101283 -0.125957 67.705355 -11.628297 -17.263589 96.555041 -47.235112 -42.600340 96.555041 -47.235112 -42.600340 7.742474 -14.344828 0.975777 -29.050841 -9.339832 -2.424877 -175.092511 178.665947 -30.399177 -175.092511 178.665947 -30.399177 -1.044331 0.763719 0.006960 -1.537972 -16.600311 -0.224383 -14.869913 128.395858 -7.220116 -14.869913 128.395858 -7.220116
16.490209 -1.770779 -0.991432 0.000000 0.000000 0.000000 0.000000 0.000000 0.000000 0.000000 0.000000 0.000000 0.000000 0.000000 0.000000 0.000000 0.000000 0.000000 -63.678519 0.997299 -1.605956 -77.364029 4.905155 -6.124481 -81.432071 -0.227936 0.264850 -81.432071 -0.227936 0.264850 77.482092 -0.251137 -0.313010 66.827150 -12.319062 -18.580905 96.322492 -48.107779 -43.566466 96.322492 -48.107779 -43.566466 7.821564 -15.150842 1.041794 -28.806286 -11.045737 -2.844943 173.266583 -178.171122 -30.360347 173.266583 -178.171122 -30.360347 0.000000 0.000000 0.000000 -0.518338 -17.912511 -0.081692 -12.280308 128.294335 -5.967992 -12.280308 128.294335 -5.967992
16.489010 -1.758111 -1.065836 0.000000 0.000000 0.000000 0.000000 0.000000 0.000000 0.000000 0.000000 0.000000 0.000000 0.000000 0.000000 0.000000 0.000000 0.000000 -62.742001 0.675641 -1.108117 -75.790223 5.155700 -6.621049 -77.651287 -0.181384 0.225390 -77.651287 -0.181384 0.225390 76.778037 -0.138765 -0.175146 66.709927 -12.406397 -18.752291 96.046425 -47.241087 -42.953389 96.046425 -47.241087 -42.953389 8.254648 -12.849824 0.931132 -28.550337 -7.674939 -1.955511 168.416800 -176.887776 -29.987725 168.416800 -176.887776 -29.987725 1.562474 0.670063 -0.009137 -0.669591 -16.675284 -0.098133 -12.370372 129.549902 -5.845331 -12.370372 129.549902 -5.845331
16.392227 -1.728541 -1.226812 0.000000 0.000000 0.000000 0.000000 0.000000 0.000000 0.000000 0.000000 0.000000 0.000000 0.000000 0.000000 0.000000 0.000000 0.000000 -60.889442 -0.061683 0.104948 -75.392119 4.846722 -6.269297 -77.789553 -0.850732 1.054510 -77.789553 -0.850732 1.054510 77.132424 -0.552005 -0.692318 66.362223 -12.884726 -19.594330 94.998727 -46.758993 -43.222136 94.998727 -46.758993 -43.222136 9.104475 -10.724979 0.856400 -27.725913 -5.300356 -1.308946 156.604367 -173.457033 -30.866418 156.604367 -173.457033 -30.866418 2.908685 1.455296 -0.036950 -0.869109 -14.825159 -0.113074 -11.636474 130.874753 -5.332918 -11.636474 130.874753 -5.332918
16.384461 -1.656821 -1.198388 0.000000 0.000000 0.000000 0.000000 0.000000 0.000000 0.000000 0.000000 0.000000 0.000000 0.000000 0.000000 0.000000 0.000000 0.000000 -60.250251 0.040844 -0.070388 -75.248834 4.847936 -6.287066 -77.018146 -1.043858 1.311862 -77.018146 -1.043858 1.311862 77.127587 -0.624639 -0.783482 65.076702 -12.347981 -19.246073 94.537105 -45.422997 -42.277755 94.537105 -45.422997 -42.277755 8.110117 -12.750828 0.907669 -27.486186 -8.022179 -1.965009 144.344230 -173.019858 -21.476155 144.344230 -173.019858 -21.476155 3.116490 1.397842 -0.038028 -0.828611 -14.881577 -0.108219 -11.456056 130.757171 -5.264027 -11.456056 130.757171 -5.264027
16.398365 -1.558602 -1.082114 0.000000 0.000000 0.000000 0.000000 0.000000 0.000000 0.000000 0.000000 0.000000 0.000000 0.000000 0.000000 0.000000 0.000000 0.000000 -59.464704 0.189010 -0.330934 -75.848456 5.285002 -6.779856 -78.007072 -1.485513 1.834170 -78.007072 -1.485513 1.834170 76.637609 -0.930488 -1.177392 64.592199 -12.404714 -19.511523 95.293277 -44.743253 -41.134225 95.293277 -44.743253 -41.134225 7.403807 -11.772936 0.764394 -27.521539 -7.090148 -1.738446 131.968574 -172.622284 -16.467022 131.968574 -172.622284 -16.467022 3.103928 2.506857 -0.067930 -0.991513 -14.168973 -0.123230 -11.437672 131.732014 -5.138103 -11.437672 131.732014 -5.138103
16.341975 -1.501877 -1.186427 0.000000 0.000000 0.000000 0.000000 0.000000 0.000000 0.000000 0.000000 0.000000 0.000000 0.000000 0.000000 0.000000 0.000000 0.000000 -58.034495 -0.256271 0.461996 -77.777617 5.735354 -7.107558 -80.183110 -1.940808 2.305382 -80.183110 -1.940808 2.305382 76.893126 -0.790694 -0.995935 63.734602 -12.561271 -20.079481 94.687309 -43.792954 -40.641202 94.687309 -43.792954 -40.641202 7.434940 -12.037412 0.784987 -27.596225 -7.441433 -1.829949 124.566716 -172.000085 -15.162518 124.566716 -172.000085 -15.162518 3.052943 2.554627 -0.068088 -0.688250 -14.052833 -0.084830 -10.368462 131.490928 -4.681823 -10.368462 131.490928 -4.681823
16.302459 -1.453310 -1.253761 0.000000 0.000000 0.000000 0.000000 0.000000 0.000000 0.000000 0.000000 0.000000 0.000000 0.000000 0.000000 0.000000 0.000000 0.000000 -58.171046 -0.660963 1.188193 -79.729949 5.742776 -6.874326 -84.096730 -3.485860 3.864600 -84.096730 -3.485860 3.864600 77.093184 -1.949744 -2.446941 63.893387 -13.792633 -21.953440 95.250779 -45.682790 -42.041238 95.250779 -45.682790 -42.041238 7.329548 -11.929480 0.766841 -27.791427 -7.579547 -1.877718 107.087019 -171.317196 -11.734148 107.087019 -171.317196 -11.734148 3.126055 3.029514 -0.082685 -0.718733 -13.662008 -0.086099 -10.631896 132.127111 -4.730401 -10.631896 132.127111 -4.730401
16.270465 -1.436014 -1.406397 0.000000 0.000000 0.000000 0.000000 0.000000 0.000000 0.000000 0.000000 0.000000 0.000000 0.000000 0.000000 0.000000 0.000000 0.000000 -57.078845 -1.408235 2.589086 -81.999486 6.023744 -6.927526 -87.542508 -5.449770 5.688294 -87.542508 -5.449770 5.688294 76.891810 -1.428609 -1.799438 63.380650 -14.342106 -23.037228 95.951579 -48.106760 -43.823230 95.951579 -48.106760 -43.823230 7.495608 -9.961046 0.654139 -28.163509 -5.461087 -1.370854 118.308313 -170.233525 -16.282881 118.308313 -170.233525 -16.282881 2.998327 3.444249 -0.090168 -0.472084 -12.138729 -0.050196 -10.098878 132.896791 -4.411188 -10.098878 132.896791 -4.411188
15.937799 -1.429626 -2.288153 0.000000 0.000000 0.000000 0.000000 0.000000 0.000000 0.000000 0.000000 0.000000 0.000000 0.000000 0.000000 0.000000 0.000000 0.000000 -58.083496 -1.159722 2.088443 -86.768785 8.268904 -8.747082 -91.681465 -5.374775 5.219529 -91.681465 -5.374775 5.219529 75.467179 -0.393128 -0.508031 63.067110 -13.997391 -22.627069 95.986686 -47.903823 -43.610128 95.986686 -47.903823 -43.610128 8.529627 -9.887681 0.739177 -28.751836 -5.522454 -1.416476 120.076402 -167.728286 -21.127070 120.076402 -167.728286 -21.127070 2.684038 3.524202 -0.082587 -0.445802 -12.081882 -0.047178 -8.990943 131.954928 -4.013865 -8.990943 131.954928 -4.013865
15.043491 -1.410782 -4.445821 0.000000 0.000000 0.000000 0.000000 0.000000 0.000000 0.000000 0.000000 0.000000 0.000000 0.000000 0.000000 0.000000 0.000000 0.000000 -59.330039 -1.614142 2.833521 -90.322039 10.975877 -10.914731 -95.423257 -4.181239 3.803375 -95.423257 -4.181239 3.803375 75.300928 0.532941 0.690775 58.101227 -13.314202 -23.732693 92.782563 -47.752621 -45.725739 92.782563 -47.752621 -45.725739 10.834643 -7.427319 0.705333 -26.725934 -3.613751 -0.858718 132.662763 -162.896901 -37.870596 132.662763 -162.896901 -37.870596 2.027574 3.363481 -0.059536 0.393023 -11.673119 0.040175 -8.411066 132.204921 -3.732226 -8.411066 132.204921 -3.732226
14.413971 -1.407344 -5.731295 0.000000 0.000000 0.000000 0.000000 0.000000 0.000000 0.000000 0.000000 0.000000 0.000000 0.000000 0.000000 0.000000 0.000000 0.000000 -60.316272 -1.267641 2.181517 -93.313758 10.019483 -9.458761 -100.345210 -4.648755 3.877612 -100.345210 -4.648755 3.877612 76.872065 0.799113 1.006919 56.690139 -13.486620 -24.725325 91.352092 -48.458613 -47.454440 91.352092 -48.458613 -47.454440 12.457012 -7.341503 0.802323 -25.228763 -3.874742 -0.867443 132.579746 -160.283468 -43.176029 132.579746 -160.283468 -43.176029 1.715626 2.884782 -0.043202 0.350125 -11.901048 0.036494 -9.091004 131.946561 -4.059481 -9.091004 131.946561 -4.059481
13.702505 -1.444811 -7.233166 0.000000 0.000000 0.000000 0.000000 0.000000 0.000000 0.000000 0.000000 0.000000 0.000000 0.000000 0.000000 0.000000 0.000000 0.000000 -62.340576 -3.400011 5.617807 -95.229029 12.501225 -11.416933 -103.188132 -13.540389 10.752830 -103.188132 -13.540389 10.752830 79.553047 3.079328 3.698610 54.958921 -11.929171 -22.716672 88.804299 -44.710363 -45.557866 88.804299 -44.710363 -45.557866 13.933242 -7.221747 0.883601 -24.569382 -3.491652 -0.760550 137.210966 -160.235832 -47.944254 137.210966 -160.235832 -47.944254 1.207794 0.986125 -0.010394 0.171631 -12.231453 0.018390 -10.611395 131.153259 -4.829721 -10.611395 131.153259 -4.829721
13.273612 -1.617916 -8.212659 0.000000 0.000000 0.000000 0.000000 0.000000 0.000000 0.000000 0.000000 0.000000 0.000000 0.000000 0.000000 0.000000 0.000000 0.000000 -65.583704 -3.707464 5.751828 -99.111703 14.807392 -12.640962 -111.039795 -20.356028 14.057884 -111.039795 -20.356028 14.057884 79.991619 3.943325 4.699390 56.176552 -11.818427 -21.951201 90.887038 -45.825477 -45.192683 90.887038 -45.825477 -45.192683 15.091654 -9.063883 1.203125 -24.466921 -5.005608 -1.085969 145.027025 -162.869913 -51.102375 145.027025 -162.869913 -51.102375 0.664648 -0.531650 0.003084 -0.445104 -13.403749 -0.052303 -13.197940 129.149943 -6.295457 -13.197940 129.149943 -6.295457
12.813193 -1.720786 -8.981173 0.000000 0.000000 0.000000 0.000000 0.000000 0.000000 0.000000 0.000000 0.000000 0.000000 0.000000 0.000000 0.000000 0.000000 0.000000 -69.950795 -4.010500 5.730386 -99.997858 16.520185 -13.891008 -111.633600 -21.144155 14.448659 -111.633600 -21.144155 14.448659 81.815585 4.700030 5.423363 56.211087 -11.238329 -20.876279 93.868392 -43.713746 -41.103630 93.868392 -43.713746 -41.103630 17.003274 -11.394493 1.708760 -22.127886 -10.291555 -2.017617 150.562747 -164.243744 -55.555722 150.562747 -164.243744 -55.555722 0.551312 -3.852931 0.018544 -1.288937 -14.276816 -0.161430 -16.990158 127.995837 -8.333960 -16.990158 127.995837 -8.333960
12.013644 -1.832679 -9.841003 0.000000 0.000000 0.000000 0.000000 0.000000 0.000000 0.000000 0.000000 0.000000 0.000000 0.000000 0.000000 0.000000 0.000000 0.000000 -71.527458 -5.251840 7.286852 -100.580409 17.110122 -14.242793 -111.741232 -21.753132 14.840424 -111.741232 -21.753132 14.840424 86.104597 4.245964 4.544612 57.776820 -11.593217 -20.849928 95.094334 -49.733580 -45.953887 95.094334 -49.733580 -45.953887 18.031046 -14.561685 2.322587 -21.657630 -14.602467 -2.807837 154.819770 -165.414877 -59.623145 154.819770 -165.414877 -59.623145 0.382722 -7.597535 0.025412 -1.581678 -14.388200 -0.199659 -16.130092 127.741900 -7.952079 -16.130092 127.741900 -7.952079
11.264504 -1.844886 -10.567936 0.000000 0.000000 0.000000 0.000000 0.000000 0.000000 0.000000 0.000000 0.000000 0.000000 0.000000 0.000000 0.000000 0.000000 0.000000 -72.565435 -7.058563 9.604770 -101.974334 16.625016 -13.501318 -112.935139 -25.959537 17.369583 -112.935139 -25.959537 17.369583 90.292075 4.468935 4.446234 57.506660 -11.047468 -19.991394 96.358683 -56.242036 -51.111928 96.358683 -56.242036 -51.111928 19.837387 -16.086077 2.830926 -21.034718 -16.583450 -3.099677 158.236609 -167.100235 -60.917025 158.236609 -167.100235 -60.917025 -0.424797 -7.286947 -0.027050 -1.437507 -13.462038 -0.169666 -15.933331 128.402338 -7.740301 -15.933331 128.402338 -7.740301
9.920048 -1.847294 -11.621143 0.000000 0.000000 0.000000 0.000000 0.000000 0.000000 0.000000 0.000000 0.000000 0.000000 0.000000 0.000000 0.000000 0.000000 0.000000 -71.357473 -7.650278 10.640005 -103.134751 20.085419 -15.998622 -113.603267 -21.730566 14.317169 -113.603267 -21.730566 14.317169 94.843728 4.236880 3.893304 58.736856 -11.795658 -20.803657 101.824665 -58.549678 -48.967533 101.824665 -58.549678 -48.967533 22.649223 -17.301651 3.490433 -22.363825 -16.965347 -3.377405 164.641096 -170.277982 -64.479921 164.641096 -170.277982 -64.479921 -1.776449 -7.175585 -0.111394 -1.338802 -12.034989 -0.141133 -16.126419 129.382725 -7.665190 -16.126419 129.382725 -7.665190
