HIERARCHY
ROOT Hips
{
  OFFSET 0.000000 0.000000 0.000000
  CHANNELS 6 Xposition Yposition Zposition Xrotation Yrotation Zrotation
  JOINT Spine
  {
    OFFSET 1.029272 24.139234 -3.309675
    CHANNELS 3 Xrotation Yrotation Zrotation
    JOINT Chest
    {
      OFFSET 1.029272 24.139234 -3.309675
      CHANNELS 3 Xrotation Yrotation Zrotation
      JOINT Neck
      {
        OFFSET 0.000000 6.442996 0.000000
        CHANNELS 3 Xrotation Yrotation Zrotation
        JOINT Head
        {
          OFFSET 0.000000 7.107403 0.000000
          CHANNELS 3 Xrotation Yrotation Zrotation
          End Site
          {
            OFFSET 0.000000 2.132221 0.000000
          }
        }
      }
      JOINT LeftCollar
      {
        OFFSET 3.000000 4.000000 0.000000
        CHANNELS 3 Xrotation Yrotation Zrotation
        JOINT LeftShoulder
        {
          OFFSET 15.824782 -3.385161 -4.490161
          CHANNELS 3 Xrotation Yrotation Zrotation
          JOINT LeftArm
          {
            OFFSET 6.638871 -21.899489 2.577768
            CHANNELS 3 Xrotation Yrotation Zrotation
            JOINT LeftForeArm
            {
              OFFSET 1.662469 -23.769893 2.728891
              CHANNELS 3 Xrotation Yrotation Zrotation
              JOINT LeftHand
              {
                OFFSET -1.157011 -3.989585 -0.720753
                CHANNELS 3 Xrotation Yrotation Zrotation
                End Site
                {
                  OFFSET -0.347103 -1.196876 -0.216226
                }
              }
            }
          }
        }
      }
      JOINT RightCollar
      {
        OFFSET -3.000000 4.000000 0.000000
        CHANNELS 3 Xrotation Yrotation Zrotation
        JOINT RightShoulder
        {
          OFFSET -15.824782 3.385161 4.490161
          CHANNELS 3 Xrotation Yrotation Zrotation
          JOINT RightArm
          {
            OFFSET -4.830150 -29.706995 -0.659229
            CHANNELS 3 Xrotation Yrotation Zrotation
            JOINT RightForeArm
            {
              OFFSET -6.735460 -18.902062 -7.831287
              CHANNELS 3 Xrotation Yrotation Zrotation
              JOINT RightHand
              {
                OFFSET 1.562441 -2.563879 -3.933201
                CHANNELS 3 Xrotation Yrotation Zrotation
                End Site
                {
                  OFFSET 0.468732 -0.769164 -1.179960
                }
              }
            }
          }
        }
      }
    }
  }
  JOINT LeftUpLeg
  {
    OFFSET 8.875314 -0.675327 -0.291526
    CHANNELS 3 Xrotation Yrotation Zrotation
    JOINT LeftLeg
    {
      OFFSET -2.390302 -38.516964 -5.036820
      CHANNELS 3 Xrotation Yrotation Zrotation
      JOINT LeftFoot
      {
        OFFSET -8.730226 -38.998584 -0.067483
        CHANNELS 3 Xrotation Yrotation Zrotation
        End Site
        {
          OFFSET -2.619068 -11.699575 -0.020245
        }
      }
    }
  }
  JOINT RightUpLeg
  {
    OFFSET -8.875314 0.675327 0.291526
    CHANNELS 3 Xrotation Yrotation Zrotation
    JOINT RightLeg
    {
      OFFSET 8.015065 -34.486904 0.724164
      CHANNELS 3 Xrotation Yrotation Zrotation
      JOINT RightFoot
      {
        OFFSET 4.389306 -41.028927 12.321156
        CHANNELS 3 Xrotation Yrotation Zrotation
        End Site
        {
          OFFSET 1.316792 -12.308678 3.696347
        }
      }
    }
  }
}
MOTION
Frames: 96
Frame Time: 0.083333
0.123758 0.139774 0.105676 2.003830 -0.021022 0.526331 0.000000 0.000000 0.000000 -5.712725 40.902109 -9.978273 -57.711376 -22.223272 -16.326842 0.000000 0.000000 0.000000 10.416718 -15.589306 13.154325 6.083363 -20.603216 -0.545685 -8.440004 -6.612609 -24.150746 4.926815 15.390961 -12.290654 0.000000 0.000000 0.000000 10.416718 -15.589306 13.154325 0.000000 0.000000 0.000000 0.000000 0.000000 0.000000 0.000000 0.000000 0.000000 0.000000 0.000000 0.000000 -15.270245 0.841214 7.959885 -1.870014 6.066754 7.502266 0.000000 0.000000 0.000000 -3.544898 -1.102861 -21.962990 14.832201 3.085644 -6.863030 0.000000 0.000000 0.000000
0.124982 0.138530 0.108307 1.978502 -0.019808 0.519184 0.000000 0.000000 0.000000 -5.707744 40.970625 -9.852612 -57.798122 -22.115960 -16.475509 0.000000 0.000000 0.000000 10.449692 -15.586711 13.197370 6.046945 -20.661676 -0.546908 -8.257416 -6.511812 -23.964585 4.997523 15.154708 -12.171058 0.000000 0.000000 0.000000 10.449692 -15.586711 13.197370 0.000000 0.000000 0.000000 0.000000 0.000000 0.000000 0.000000 0.000000 0.000000 0.000000 0.000000 0.000000 -15.562024 0.881620 7.948074 -1.532351 6.002115 7.048770 0.000000 0.000000 0.000000 -3.397137 -1.054648 -21.871617 14.476868 2.855817 -6.632012 0.000000 0.000000 0.000000
0.130044 0.135250 0.116202 3.671359 -0.136506 0.170004 0.000000 0.000000 0.000000 -5.812351 39.598291 -9.952072 -57.098197 -22.148655 -14.259074 0.000000 0.000000 0.000000 9.017635 -15.551010 13.381563 5.107687 -19.729257 -0.279587 -6.339224 -5.437331 -23.311804 4.033629 12.547633 -11.151684 0.000000 0.000000 0.000000 9.017635 -15.551010 13.381563 0.000000 0.000000 0.000000 0.000000 0.000000 0.000000 0.000000 0.000000 0.000000 0.000000 0.000000 0.000000 -15.275726 0.593325 10.157236 -11.800863 13.017334 10.581690 0.000000 0.000000 0.000000 -3.966476 -0.418265 -19.695083 12.919730 1.666762 -5.419254 0.000000 0.000000 0.000000
0.137664 0.131538 0.127015 4.494678 -0.212597 -0.222475 0.000000 0.000000 0.000000 -5.927480 37.940399 -8.842105 -56.748234 -20.745457 -12.572626 0.000000 0.000000 0.000000 8.268741 -15.516288 13.693132 4.289836 -18.335029 -0.074277 -2.573165 -3.691356 -19.571935 3.851212 7.703799 -8.981596 0.000000 0.000000 0.000000 8.268741 -15.516288 13.693132 0.000000 0.000000 0.000000 0.000000 0.000000 0.000000 0.000000 0.000000 0.000000 0.000000 0.000000 0.000000 -16.104097 0.543859 11.326049 -18.031401 17.900286 11.046520 0.000000 0.000000 0.000000 -4.205403 -0.047685 -16.752357 10.883170 0.514909 -2.863851 0.000000 0.000000 0.000000
0.142073 0.129539 0.135358 4.082127 -0.224630 -0.508497 0.000000 0.000000 0.000000 -6.159917 34.245195 -7.530957 -55.608400 -18.252384 -9.470054 0.000000 0.000000 0.000000 8.281050 -15.518201 13.526565 3.796393 -14.912214 -0.102854 1.771495 -2.220942 -13.065361 3.325203 2.487490 -6.504985 0.000000 0.000000 0.000000 8.281050 -15.518201 13.526565 0.000000 0.000000 0.000000 0.000000 0.000000 0.000000 0.000000 0.000000 0.000000 0.000000 0.000000 0.000000 -14.803999 0.374568 10.857640 -20.758817 18.821782 11.108049 0.000000 0.000000 0.000000 -5.412976 -0.609679 -13.654783 11.979588 1.767224 -1.462447 0.000000 0.000000 0.000000
0.142972 0.129703 0.127706 3.134904 -0.185638 -0.485253 0.000000 0.000000 0.000000 -6.473562 28.825237 -7.044348 -53.922458 -15.795175 -5.691043 0.000000 0.000000 0.000000 8.589201 -15.528180 12.941770 2.551189 -10.170137 -0.319787 4.671076 -1.320296 -7.254763 1.501487 -0.811056 -4.691935 0.000000 0.000000 0.000000 8.589201 -15.528180 12.941770 0.000000 0.000000 0.000000 0.000000 0.000000 0.000000 0.000000 0.000000 0.000000 0.000000 0.000000 0.000000 -12.476536 0.203532 9.817246 -18.008321 14.842886 8.075270 0.000000 0.000000 0.000000 -5.476453 -0.906169 -10.929553 12.026292 1.848051 -1.376662 0.000000 0.000000 0.000000
0.143476 0.131372 0.106159 2.071111 -0.125004 -0.319902 0.000000 0.000000 0.000000 -6.750384 23.548986 -7.517243 -52.750950 -14.202240 -2.910687 0.000000 0.000000 0.000000 8.972274 -15.523155 12.415489 1.446968 -5.528395 0.249700 4.531677 -0.873761 -4.072549 1.691842 -1.504626 -3.865601 0.000000 0.000000 0.000000 8.972274 -15.523155 12.415489 0.000000 0.000000 0.000000 0.000000 0.000000 0.000000 0.000000 0.000000 0.000000 0.000000 0.000000 0.000000 -9.793246 0.056201 8.232760 -9.999277 8.296465 4.558840 0.000000 0.000000 0.000000 -4.526468 -0.899623 -9.027050 12.044945 1.875758 -0.707131 0.000000 0.000000 0.000000
0.146492 0.133011 0.082420 0.734127 -0.048791 -0.137971 0.000000 0.000000 0.000000 -6.963762 19.198224 -8.177773 -51.574848 -12.858506 -0.219683 0.000000 0.000000 0.000000 9.712205 -15.516053 12.141205 1.363891 -1.459602 0.507353 2.774513 -0.646303 -2.645696 1.261710 -1.148918 -2.731457 0.000000 0.000000 0.000000 9.712205 -15.516053 12.141205 0.000000 0.000000 0.000000 0.000000 0.000000 0.000000 0.000000 0.000000 0.000000 0.000000 0.000000 0.000000 -7.239908 0.011099 5.752170 -0.140170 2.163235 2.785614 0.000000 0.000000 0.000000 -2.577672 -0.695670 -7.887847 12.472712 2.373717 1.306653 0.000000 0.000000 0.000000
0.151081 0.132848 0.068566 -0.238229 0.000565 -0.067278 0.000000 0.000000 0.000000 -7.061702 17.115594 -9.022147 -50.976859 -13.033526 0.599520 0.000000 0.000000 0.000000 10.375086 -15.510875 12.078362 1.460653 0.477395 0.084466 0.654434 -0.423438 -0.974090 0.364762 -0.560610 -0.980926 0.000000 0.000000 0.000000 10.375086 -15.510875 12.078362 -0.005738 0.122911 0.114496 -0.101642 -0.003991 0.126150 0.112236 -0.125674 -0.069133 0.000000 0.000000 0.000000 -6.910211 0.197350 3.579078 2.646724 0.993432 0.533565 0.000000 0.000000 0.000000 -2.351221 -0.942508 -7.308134 9.538689 2.449319 4.593741 0.000000 0.000000 0.000000
0.153734 0.130359 0.061502 -0.707683 0.004484 -0.166700 0.000000 0.000000 0.000000 -7.100030 16.282474 -10.163840 -51.008704 -14.438788 0.207818 0.000000 0.000000 0.000000 10.715629 -15.511818 12.105869 0.539857 0.978730 -0.218968 -0.263602 0.006340 0.645736 -0.041191 0.161965 -0.327070 0.000000 0.000000 0.000000 10.715629 -15.511818 12.105869 0.049849 1.063631 0.732747 -0.743312 0.012913 0.741335 0.739213 -0.694286 -0.521649 0.000000 0.000000 0.000000 -5.221155 0.206345 2.349617 6.445368 -0.660585 -0.485130 0.000000 0.000000 0.000000 -3.215780 -1.366862 -7.335607 3.323094 2.135737 8.620916 0.000000 0.000000 0.000000
0.152751 0.126361 0.058480 -2.006827 0.006012 -0.506959 0.000000 0.000000 0.000000 -7.211392 13.835684 -11.174282 -50.796799 -15.411393 0.466420 0.000000 0.000000 0.000000 11.642914 -15.518728 12.220393 0.827699 3.367966 -0.898021 0.028212 0.317670 1.580986 -0.605320 0.673976 -0.921407 0.000000 0.000000 0.000000 11.642914 -15.518728 12.220393 0.377502 3.907530 2.045789 -2.213407 0.084728 1.910224 2.097838 -1.773550 -1.568901 0.000000 0.000000 0.000000 -0.625696 0.143516 1.181144 0.274407 0.262852 1.303201 0.000000 0.000000 0.000000 -3.490792 -1.906130 -7.594399 -1.513283 1.626333 10.224667 0.000000 0.000000 0.000000
0.152098 0.121024 0.058434 -2.381957 -0.035809 -0.887330 0.000000 0.000000 0.000000 -7.374726 10.200291 -11.835732 -51.409853 -15.205110 1.662332 0.000000 0.000000 0.000000 11.569314 -15.520104 12.416566 -0.961544 5.941872 -2.022245 2.840339 1.496363 1.648788 -2.340595 1.414854 -1.600972 0.000000 0.000000 0.000000 11.569314 -15.520104 12.416566 1.010943 7.648997 2.748575 -3.001692 -0.029209 2.627691 2.764185 -2.460008 -2.271640 0.000000 0.000000 0.000000 4.145318 0.087602 0.162553 -8.674683 1.574896 2.434509 0.000000 0.000000 0.000000 -1.861531 -1.557041 -9.235501 -9.347273 -0.346198 13.149866 0.000000 0.000000 0.000000
0.151593 0.117460 0.061760 -0.754921 -0.158380 -1.341062 0.000000 0.000000 0.000000 -7.451826 8.464468 -11.692473 -53.046220 -14.558066 2.515099 0.000000 0.000000 0.000000 9.703499 -15.515856 12.499520 -3.386659 6.129896 -3.004393 7.215981 3.055206 1.273703 -4.272893 1.661119 -3.161101 0.000000 0.000000 0.000000 9.703499 -15.515856 12.499520 1.224948 9.022189 2.383480 -1.870361 -1.062257 4.125409 1.850745 -3.669899 -2.081754 0.000000 0.000000 0.000000 0.631309 0.238905 0.784321 -11.286533 2.702947 3.584466 0.000000 0.000000 0.000000 1.293547 0.152161 -10.945502 -18.899066 -4.190118 14.964919 0.000000 0.000000 0.000000
0.148792 0.118938 0.066430 -0.012510 -0.254126 -1.857060 0.000000 0.000000 0.000000 -7.454997 8.466807 -10.888821 -52.565356 -14.094488 2.941551 0.000000 0.000000 0.000000 8.868310 -15.513799 12.463900 -2.350668 6.263194 -4.188742 8.255394 3.055073 0.269661 -4.505589 1.824114 -5.893690 0.000000 0.000000 0.000000 8.868310 -15.513799 12.463900 1.819183 8.725636 1.521062 -1.406125 -2.357187 6.828917 0.256889 -3.867544 -3.320973 0.000000 0.000000 0.000000 -2.678562 0.383532 1.290077 -11.257704 3.314305 4.738656 0.000000 0.000000 0.000000 4.640832 1.784081 -11.233904 -20.888936 -6.465428 13.242857 0.000000 0.000000 0.000000
0.144488 0.126203 0.069698 0.101411 -0.278302 -2.012745 0.000000 0.000000 0.000000 -7.425686 9.171888 -9.670802 -51.687968 -13.064429 3.074749 0.000000 0.000000 0.000000 8.733491 -15.510019 12.355859 -0.574166 6.296330 -4.735703 11.583180 3.072894 -3.306574 -4.729001 2.164930 -11.627529 0.000000 0.000000 0.000000 8.733491 -15.510019 12.355859 2.543533 7.733262 0.503273 -1.213544 -3.210413 8.073943 -1.167238 -3.134317 -4.209165 0.000000 0.000000 0.000000 -6.534978 0.470739 1.674795 -4.839108 2.640559 5.796823 0.000000 0.000000 0.000000 3.332673 1.360661 -11.482399 -4.484264 -3.863272 6.994238 0.000000 0.000000 0.000000
0.142020 0.135600 0.071892 0.555263 -0.287999 -2.000674 0.000000 0.000000 0.000000 -7.372579 10.372356 -8.371519 -51.788505 -12.324563 2.121523 0.000000 0.000000 0.000000 8.354676 -15.510214 12.232058 2.886303 6.403127 -4.407947 19.629807 3.851069 -9.922050 -5.172245 1.089145 -16.605285 0.000000 0.000000 0.000000 8.354676 -15.510214 12.232058 2.275873 6.274833 -0.442808 -0.627395 -3.930485 8.928481 -2.694218 -2.883298 -4.696852 0.000000 0.000000 0.000000 -7.371674 0.397003 2.810002 -5.900597 3.263566 4.790672 0.000000 0.000000 0.000000 2.212702 1.079316 -10.429181 9.173504 0.055462 -0.207508 0.000000 0.000000 0.000000
0.139476 0.143962 0.075361 1.302905 -0.295055 -1.908942 0.000000 0.000000 0.000000 -7.275661 12.552239 -7.012117 -52.367841 -12.016833 0.269805 0.000000 0.000000 0.000000 7.845865 -15.519745 12.085112 9.482297 6.280313 -5.213394 18.197208 2.614209 -13.872212 -7.029946 0.213745 -17.373216 0.000000 0.000000 0.000000 7.845865 -15.519745 12.085112 2.966832 3.602460 -1.392768 -1.335762 -4.192166 9.137086 -4.592545 -2.652012 -4.825397 0.000000 0.000000 0.000000 -9.028532 0.333529 4.272159 -8.928557 4.719922 3.018510 0.000000 0.000000 0.000000 1.352718 1.017746 -8.942596 12.433877 0.913764 -3.635193 0.000000 0.000000 0.000000
0.133433 0.148188 0.085817 1.338891 -0.250022 -1.554482 0.000000 0.000000 0.000000 -7.258095 12.898153 -6.059915 -52.468385 -10.342005 0.679306 0.000000 0.000000 0.000000 7.888243 -15.538799 12.035097 12.183775 6.512674 -6.024975 14.319819 1.152614 -14.261744 -6.166604 -0.090046 -15.191682 0.000000 0.000000 0.000000 7.888243 -15.538799 12.035097 3.304613 2.936013 -1.891406 -2.177159 -4.345304 9.259335 -4.425429 -1.996843 -5.826373 0.000000 0.000000 0.000000 -10.506588 0.333773 5.668442 -13.958481 7.196983 1.093916 0.000000 0.000000 0.000000 0.433469 0.654684 -6.604344 11.252256 -0.485266 -8.238583 0.000000 0.000000 0.000000
0.124543 0.147064 0.103822 0.630670 -0.125946 -0.790708 0.000000 0.000000 0.000000 -7.304842 11.759585 -5.730060 -51.635934 -7.955523 2.632945 0.000000 0.000000 0.000000 8.523570 -15.558650 12.009805 9.925709 6.830435 -6.686112 10.534427 0.097829 -12.216325 -3.602763 0.738068 -12.582886 0.000000 0.000000 0.000000 8.523570 -15.558650 12.009805 3.596910 3.853308 -1.581389 -1.906209 -4.885161 8.695791 -4.457295 -0.507567 -7.078616 0.000000 0.000000 0.000000 -10.811607 0.359589 6.304796 -22.361331 10.712350 -1.330535 0.000000 0.000000 0.000000 -0.040062 0.168554 -5.450371 12.119481 -0.595800 -10.808690 0.000000 0.000000 0.000000
0.116027 0.144182 0.121846 -0.861732 0.048378 0.055851 0.000000 0.000000 0.000000 -7.386919 9.868742 -5.687526 -50.244431 -6.128966 3.901213 0.000000 0.000000 0.000000 9.787943 -15.571819 11.993230 4.464435 7.241888 -6.512549 8.266571 0.027773 -9.239323 -0.710376 1.800477 -10.442226 0.000000 0.000000 0.000000 9.787943 -15.571819 11.993230 3.821071 5.637540 -1.006728 -2.076115 -4.953340 7.740387 -3.819483 -0.086376 -7.902854 0.000000 0.000000 0.000000 -8.732638 0.238282 6.403941 -27.570966 12.816739 -2.864370 0.000000 0.000000 0.000000 0.385604 -0.293995 -5.237585 12.305294 -0.466832 -10.628709 0.000000 0.000000 0.000000
0.111184 0.141500 0.130158 -1.897168 0.218880 0.879766 0.000000 0.000000 0.000000 -7.414205 9.309192 -5.776499 -49.335846 -5.845904 2.974509 0.000000 0.000000 0.000000 10.813381 -15.585306 11.971965 0.606091 6.958182 -5.902041 7.859752 0.527102 -4.874000 0.084958 0.289170 -5.628285 0.000000 0.000000 0.000000 10.813381 -15.585306 11.971965 3.476194 6.202853 -0.764806 -1.721062 -4.997045 6.861641 -3.235570 0.301194 -8.152608 0.000000 0.000000 0.000000 -6.527549 -0.008541 6.179306 -26.925991 12.760165 -2.960275 0.000000 0.000000 0.000000 0.661180 -0.673050 -5.805557 12.427026 0.120764 -8.094938 0.000000 0.000000 0.000000
0.109719 0.140058 0.124750 -2.258860 0.354957 1.643513 0.000000 0.000000 0.000000 -7.426681 9.138513 -6.675423 -49.208030 -6.451405 2.094910 0.000000 0.000000 0.000000 11.269556 -15.580388 11.988580 -1.247350 6.789672 -5.095410 6.823589 0.882947 -1.958337 -0.048668 -0.513108 -2.576993 0.000000 0.000000 0.000000 11.269556 -15.580388 11.988580 3.528933 6.409478 -0.668964 -1.069023 -5.155251 6.427022 -2.871270 0.902080 -7.851064 0.000000 0.000000 0.000000 -3.590995 -0.420661 5.033282 -19.894824 9.798123 -0.180437 0.000000 0.000000 0.000000 0.082144 -1.080442 -7.064601 13.669465 1.140789 -5.446267 0.000000 0.000000 0.000000
0.110371 0.139280 0.114774 -1.640595 0.350341 1.844345 0.000000 0.000000 0.000000 -7.453227 8.551068 -8.019576 -50.073778 -7.189402 2.602217 0.000000 0.000000 0.000000 10.611707 -15.556370 12.072352 -1.826318 7.158462 -4.476243 5.419102 1.263273 0.840236 0.420636 -1.058815 -0.273372 0.000000 0.000000 0.000000 10.611707 -15.556370 12.072352 3.735297 7.193888 -0.927190 -0.437580 -5.344652 7.137580 -2.683595 -0.156683 -6.582179 0.000000 0.000000 0.000000 0.076363 -0.978398 4.269398 -7.756447 4.553457 4.461359 0.000000 0.000000 0.000000 -0.289569 -0.993582 -7.258075 13.673231 1.401355 -3.974535 0.000000 0.000000 0.000000
0.111720 0.139290 0.106857 -0.482741 0.273648 1.784143 0.000000 0.000000 0.000000 -7.512302 7.135470 -9.804516 -51.672397 -7.846032 4.185949 0.000000 0.000000 0.000000 9.242537 -15.526325 12.221604 -2.257154 8.269064 -3.511779 4.058594 1.625214 2.398343 0.060022 -0.549411 0.299444 0.000000 0.000000 0.000000 9.242537 -15.526325 12.221604 4.766139 8.693566 -1.326754 -0.889049 -5.407118 8.938079 -0.931077 -1.622604 -5.728567 0.000000 0.000000 0.000000 -1.565772 -0.786540 4.235494 -1.504000 1.953773 5.316632 0.000000 0.000000 0.000000 -1.673495 -0.937277 -7.228602 13.883445 1.896748 -2.097676 0.000000 0.000000 0.000000
0.113176 0.137594 0.100782 0.156789 0.194849 1.497676 0.000000 0.000000 0.000000 -7.519025 6.914577 -11.224863 -52.397123 -9.446760 4.564528 0.000000 0.000000 0.000000 8.655348 -15.512188 12.348143 -1.369998 8.598857 -3.150286 3.208489 1.682880 4.024326 -0.803225 -0.397938 0.319723 0.000000 0.000000 0.000000 8.655348 -15.512188 12.348143 5.529104 9.040471 -0.903176 -2.755594 -4.738664 10.160434 0.034153 -3.102091 -5.723017 0.000000 0.000000 0.000000 -1.053717 -0.909465 4.934136 -1.485703 1.791918 4.323574 0.000000 0.000000 0.000000 -3.586168 -1.117074 -5.960448 10.097133 0.969505 -2.573835 0.000000 0.000000 0.000000
0.114053 0.134391 0.089264 -0.632722 0.139099 0.823547 0.000000 0.000000 0.000000 -7.541001 6.333404 -11.708702 -51.862616 -10.787832 4.470450 0.000000 0.000000 0.000000 9.351536 -15.508419 12.484747 -0.815518 9.169801 -3.964680 4.181652 2.126726 5.854768 -1.921206 -0.400716 -0.478427 0.000000 0.000000 0.000000 9.351536 -15.508419 12.484747 5.074376 10.094698 -0.567695 -3.406975 -4.228602 10.859960 0.099369 -4.194108 -5.830094 0.000000 0.000000 0.000000 2.464924 -1.300193 6.164689 -5.241039 2.925413 2.101880 0.000000 0.000000 0.000000 -4.658141 -1.522332 -4.261524 2.464684 -0.742155 -2.725818 0.000000 0.000000 0.000000
0.115145 0.129599 0.077205 -1.855452 0.061989 -0.109703 0.000000 0.000000 0.000000 -7.567826 5.663998 -11.716264 -50.530216 -11.799068 4.664210 0.000000 0.000000 0.000000 10.429112 -15.507864 12.624574 -1.562959 9.454742 -4.977358 5.636581 3.007385 7.361771 -3.171346 0.055953 -1.303391 0.000000 0.000000 0.000000 10.429112 -15.507864 12.624574 4.636382 11.259951 -0.596527 -4.624328 -3.605701 12.089533 1.510631 -5.433716 -6.350123 0.000000 0.000000 0.000000 4.686646 -1.089630 5.664730 -6.739109 2.820279 2.372498 0.000000 0.000000 0.000000 -2.926468 -1.465954 -5.025896 -4.071102 -1.745664 0.992329 0.000000 0.000000 0.000000
0.117200 0.124576 0.069171 -1.960848 -0.028285 -0.726355 0.000000 0.000000 0.000000 -7.558285 5.914005 -11.361849 -50.274025 -12.471210 4.157761 0.000000 0.000000 0.000000 10.536975 -15.508305 12.630040 -1.377792 9.158891 -5.852696 5.159847 3.152477 8.255962 -3.624983 0.395779 -1.696554 0.000000 0.000000 0.000000 10.536975 -15.508305 12.630040 4.191663 11.173897 -0.311089 -4.450171 -3.697088 12.493907 1.088548 -4.828127 -7.180183 0.000000 0.000000 0.000000 5.537483 -0.865036 5.247847 -13.027882 4.707807 2.302812 0.000000 0.000000 0.000000 -0.624140 -0.976530 -8.065528 -11.952285 -3.271287 7.319397 0.000000 0.000000 0.000000
0.119209 0.122164 0.066788 -1.786392 -0.082102 -1.036377 0.000000 0.000000 0.000000 -7.538563 6.409240 -10.971283 -50.346326 -12.547016 4.020243 0.000000 0.000000 0.000000 10.396762 -15.508401 12.584008 -1.385433 8.592405 -6.379019 5.712754 3.326342 8.442982 -2.866391 0.082191 -2.144197 0.000000 0.000000 0.000000 10.396762 -15.508401 12.584008 4.247600 10.620955 -0.003185 -4.817185 -3.581442 12.307507 -0.299042 -3.938153 -8.115292 0.000000 0.000000 0.000000 4.999289 -0.572822 4.424115 -15.923921 5.333210 3.331465 0.000000 0.000000 0.000000 -0.316181 -0.893112 -10.362054 -13.278383 -4.055143 9.989889 0.000000 0.000000 0.000000
0.120217 0.124004 0.065711 -1.408982 -0.115607 -1.175530 0.000000 0.000000 0.000000 -7.516237 6.944874 -10.555634 -50.515418 -12.323969 3.994675 0.000000 0.000000 0.000000 10.057457 -15.508144 12.519917 -1.260096 8.094396 -6.477906 6.906962 3.390494 8.023912 -0.755063 -0.348282 -4.656103 0.000000 0.000000 0.000000 10.057457 -15.508144 12.519917 4.144488 9.985941 -0.164381 -4.919184 -3.576683 12.414605 -1.432205 -3.318564 -8.761902 0.000000 0.000000 0.000000 3.769816 -0.376023 3.924415 -16.244330 5.383595 4.319705 0.000000 0.000000 0.000000 -0.661790 -0.878304 -10.747075 -6.759054 -2.989884 7.787145 0.000000 0.000000 0.000000
0.120012 0.130510 0.064863 -0.557576 -0.144378 -1.182727 0.000000 0.000000 0.000000 -7.472699 7.947691 -9.923554 -51.406760 -11.969655 3.476967 0.000000 0.000000 0.000000 9.304538 -15.508297 12.399465 -0.909742 7.327520 -5.811880 9.241494 3.161067 5.885274 2.395438 -0.197307 -10.789515 0.000000 0.000000 0.000000 9.304538 -15.508297 12.399465 3.513379 8.824033 -0.319516 -3.928043 -3.851898 12.027962 -1.389422 -2.765781 -8.539458 0.000000 0.000000 0.000000 0.577605 -0.166808 3.668341 -13.546777 4.922278 5.149599 0.000000 0.000000 0.000000 -0.519878 -0.489790 -10.409821 3.106371 -0.824486 3.094255 0.000000 0.000000 0.000000
0.119246 0.139761 0.065213 0.426962 -0.161913 -1.072389 0.000000 0.000000 0.000000 -7.419827 9.153137 -8.909266 -52.671498 -10.811862 3.282153 0.000000 0.000000 0.000000 8.441716 -15.511680 12.245517 0.296418 6.681560 -5.150842 12.704786 2.628228 2.456167 3.276531 0.729907 -17.051691 0.000000 0.000000 0.000000 8.441716 -15.511680 12.245517 2.744751 7.394815 -0.921017 -3.095317 -3.988260 11.510750 -0.465734 -2.404750 -8.123512 0.000000 0.000000 0.000000 -5.228528 0.160019 3.662874 -8.287760 4.187495 5.239363 0.000000 0.000000 0.000000 -0.964231 -0.273164 -9.848252 13.474259 2.191608 -1.310217 0.000000 0.000000 0.000000
0.118054 0.147297 0.068894 1.072252 -0.129766 -0.661943 0.000000 0.000000 0.000000 -7.400640 9.565284 -7.959235 -53.173437 -9.025390 3.663004 0.000000 0.000000 0.000000 7.852357 -15.522545 12.139537 2.382914 6.953782 -5.133318 14.208444 1.733563 -0.616182 1.791673 1.521005 -19.722919 0.000000 0.000000 0.000000 7.852357 -15.522545 12.139537 2.752820 6.665297 -1.895794 -2.797935 -4.152875 11.066391 0.269001 -2.086843 -7.752229 0.000000 0.000000 0.000000 -12.304263 0.585982 3.740851 -2.789771 3.791686 4.605697 0.000000 0.000000 0.000000 -1.450757 -0.218036 -9.041649 14.708855 2.206325 -3.276652 0.000000 0.000000 0.000000
0.115547 0.149566 0.074937 0.885676 -0.022105 0.109746 0.000000 0.000000 0.000000 -7.401572 9.535840 -7.488343 -52.651883 -7.675855 3.710899 0.000000 0.000000 0.000000 8.093507 -15.539563 12.075586 3.922093 7.394822 -5.868292 14.323817 1.191381 -1.793199 -0.092592 0.875271 -17.701747 0.000000 0.000000 0.000000 8.093507 -15.539563 12.075586 2.589680 6.542241 -1.733119 -2.556653 -4.374247 10.095933 0.588957 -1.764532 -7.942467 0.000000 0.000000 0.000000 -13.106643 0.705719 3.635029 -10.256279 6.735000 3.158440 0.000000 0.000000 0.000000 -1.386356 -0.300476 -8.123631 13.179736 1.052480 -5.450489 0.000000 0.000000 0.000000
0.110739 0.147616 0.085606 0.429311 0.130925 1.103990 0.000000 0.000000 0.000000 -7.399105 9.645699 -7.507773 -51.680508 -6.804187 3.646924 0.000000 0.000000 0.000000 8.688760 -15.557769 12.027668 2.552606 6.910796 -6.790006 13.746810 1.427503 -0.786884 -0.025075 -0.013890 -14.592046 0.000000 0.000000 0.000000 8.688760 -15.557769 12.027668 2.362808 6.336583 -0.650315 -1.617259 -5.056028 8.684474 -0.711576 -0.908615 -8.282576 0.000000 0.000000 0.000000 -11.889992 0.608602 4.053614 -18.929769 9.898094 0.124111 0.000000 0.000000 0.000000 -1.089930 -0.454476 -8.023469 10.935083 -0.046942 -6.567350 0.000000 0.000000 0.000000
0.105106 0.144118 0.096461 -0.222630 0.263011 1.817239 0.000000 0.000000 0.000000 -7.387129 10.041222 -7.445859 -50.636347 -6.306671 3.430013 0.000000 0.000000 0.000000 9.507796 -15.575091 11.986968 0.169705 6.056724 -6.586092 13.747541 1.735977 -0.834603 0.503673 -0.377852 -12.356088 0.000000 0.000000 0.000000 9.507796 -15.575091 11.986968 2.227079 5.866511 0.006458 -0.377046 -5.955939 7.724754 -2.420198 0.090934 -8.260684 0.000000 0.000000 0.000000 -8.342745 0.026681 5.936461 -29.631763 13.757713 -4.701685 0.000000 0.000000 0.000000 -0.677082 -0.635343 -8.251047 9.553639 -0.562539 -6.785859 0.000000 0.000000 0.000000
0.101344 0.141588 0.103323 -0.397567 0.359147 2.429479 0.000000 0.000000 0.000000 -7.400955 9.869539 -7.627472 -50.229688 -6.252989 2.741921 0.000000 0.000000 0.000000 9.732265 -15.585488 11.969759 -1.015071 5.958883 -6.606776 11.498139 1.677225 -0.182403 -0.015970 -0.364761 -9.748556 0.000000 0.000000 0.000000 9.732265 -15.585488 11.969759 2.474999 5.888431 0.231417 0.356390 -6.318859 6.654218 -2.606489 1.002986 -7.908481 0.000000 0.000000 0.000000 -4.115163 -0.870491 7.863444 -38.032472 17.144874 -7.994814 0.000000 0.000000 0.000000 -1.413923 -0.960112 -9.001706 9.452555 -0.380070 -6.207450 0.000000 0.000000 0.000000
0.100190 0.140878 0.102198 -0.268395 0.396100 2.756527 0.000000 0.000000 0.000000 -7.442379 9.000066 -8.200437 -50.175305 -6.294030 2.913891 0.000000 0.000000 0.000000 9.458275 -15.576844 12.001364 -1.571231 6.585464 -6.501715 7.805917 1.576877 1.010598 -1.045048 -0.172780 -5.561584 0.000000 0.000000 0.000000 9.458275 -15.576844 12.001364 3.241912 6.594772 -0.102661 -0.115011 -5.797751 6.210338 -0.991705 1.064723 -7.444330 0.000000 0.000000 0.000000 -3.162470 -1.286711 9.468612 -27.301977 14.736723 -6.658087 0.000000 0.000000 0.000000 -3.143535 -1.395389 -9.870234 11.047387 0.554112 -5.138690 0.000000 0.000000 0.000000
0.101345 0.140915 0.098862 0.542119 0.359027 2.886219 0.000000 0.000000 0.000000 -7.509323 7.441256 -9.302917 -51.189820 -6.288275 4.098500 0.000000 0.000000 0.000000 8.335332 -15.553621 12.103866 -2.279730 7.743988 -5.920262 4.601995 1.695450 2.131061 -1.788722 0.516723 -2.330287 0.000000 0.000000 0.000000 8.335332 -15.553621 12.103866 4.315157 8.024308 -0.602154 -1.428197 -4.889049 6.527857 1.303327 -0.436086 -6.508402 0.000000 0.000000 0.000000 -3.475306 -1.411186 10.258209 -11.749380 9.068995 -1.747466 0.000000 0.000000 0.000000 -4.046512 -1.329001 -9.917719 10.626431 0.521524 -4.699891 0.000000 0.000000 0.000000
0.103422 0.140396 0.093335 1.645911 0.281790 2.867196 0.000000 0.000000 0.000000 -7.568777 5.991933 -10.847620 -52.740730 -6.738530 5.609459 0.000000 0.000000 0.000000 6.972080 -15.526067 12.255352 -2.797813 8.767715 -5.212068 3.580484 2.072042 3.319295 -1.821354 0.826901 -0.901069 0.000000 0.000000 0.000000 6.972080 -15.526067 12.255352 5.433372 9.412677 -0.648835 -3.489247 -3.888049 7.486143 2.869317 -2.248321 -6.199697 0.000000 0.000000 0.000000 -3.761870 -1.454345 10.173555 -3.615267 4.771929 3.587686 0.000000 0.000000 0.000000 -5.290042 -1.228942 -9.811219 10.109237 0.447261 -4.369444 0.000000 0.000000 0.000000
0.104947 0.138849 0.087655 1.893873 0.230398 2.590597 0.000000 0.000000 0.000000 -7.552544 6.295107 -11.742780 -53.409219 -8.197963 5.304842 0.000000 0.000000 0.000000 6.864506 -15.515804 12.319330 -2.442035 8.468932 -4.921470 3.237447 2.147126 4.295377 -1.451772 0.536043 -0.261324 0.000000 0.000000 0.000000 6.864506 -15.515804 12.319330 5.664770 9.237317 0.003526 -4.543835 -3.271271 7.656307 2.544257 -3.084904 -5.963423 0.000000 0.000000 0.000000 -3.092222 -1.564320 10.048476 -3.127408 4.249017 5.661557 0.000000 0.000000 0.000000 -6.173778 -1.310620 -8.891286 8.368667 -0.217487 -5.036399 0.000000 0.000000 0.000000
0.105239 0.136163 0.083326 1.412007 0.180121 1.948705 0.000000 0.000000 0.000000 -7.543224 6.406124 -11.759436 -53.483672 -9.297529 4.681923 0.000000 0.000000 0.000000 7.359335 -15.512124 12.366564 -2.208884 8.254775 -5.678584 4.345388 2.569026 5.814865 -1.447356 0.026029 -0.522191 0.000000 0.000000 0.000000 7.359335 -15.512124 12.366564 5.301469 9.369290 0.813685 -4.468366 -2.742991 6.544915 2.379756 -3.279729 -5.252077 0.000000 0.000000 0.000000 -2.494743 -1.500110 10.052539 -4.404447 4.825155 5.178446 0.000000 0.000000 0.000000 -6.474449 -1.497055 -7.577978 4.394134 -1.646095 -5.724353 0.000000 0.000000 0.000000
0.106067 0.132596 0.081675 0.655225 0.101455 0.989842 0.000000 0.000000 0.000000 -7.549203 6.158911 -11.602659 -53.257920 -9.981499 5.065316 0.000000 0.000000 0.000000 8.017634 -15.508406 12.449245 -2.456128 8.222402 -6.335581 5.065522 3.158373 7.262012 -1.682471 0.000964 -0.880530 0.000000 0.000000 0.000000 8.017634 -15.508406 12.449245 4.969470 9.892545 2.047968 -4.332577 -1.802941 4.197610 2.948395 -3.215170 -3.985082 0.000000 0.000000 0.000000 -1.505753 -1.439799 10.403864 -6.840768 6.008048 4.692474 0.000000 0.000000 0.000000 -5.047520 -1.437926 -8.076767 1.117167 -2.659129 -3.929768 0.000000 0.000000 0.000000
0.108900 0.126381 0.080726 0.439974 -0.042211 -0.161964 0.000000 0.000000 0.000000 -7.522158 6.740421 -10.740889 -52.789462 -10.404900 5.171105 0.000000 0.000000 0.000000 8.233352 -15.507689 12.435295 -2.594917 7.515542 -6.874316 6.010488 3.537854 7.773886 -1.878776 -0.053310 -1.624535 0.000000 0.000000 0.000000 8.233352 -15.507689 12.435295 4.718400 9.426912 2.653065 -3.531486 -1.358278 2.186424 2.286493 -2.473623 -2.807035 0.000000 0.000000 0.000000 -1.049613 -1.226290 10.485165 -10.274857 7.453261 4.374082 0.000000 0.000000 0.000000 -3.411380 -1.143327 -10.606828 -2.869268 -3.819207 1.191208 0.000000 0.000000 0.000000
0.112650 0.119457 0.080237 0.019623 -0.170518 -1.235566 0.000000 0.000000 0.000000 -7.499568 7.348894 -9.528265 -52.352393 -10.596248 4.835974 0.000000 0.000000 0.000000 8.604840 -15.507725 12.393621 -3.231256 6.927233 -5.913319 9.074658 3.841649 5.866932 -1.949544 -0.330235 -3.505151 0.000000 0.000000 0.000000 8.604840 -15.507725 12.393621 4.037571 9.025405 2.083619 -2.087649 -1.892355 2.618480 0.733191 -1.112071 -3.338435 0.000000 0.000000 0.000000 -0.815568 -0.893805 10.036653 -12.557762 7.915875 4.163982 0.000000 0.000000 0.000000 -1.635404 -0.805687 -13.932811 -6.738856 -5.129256 7.495745 0.000000 0.000000 0.000000
0.115336 0.115341 0.080147 -0.083401 -0.298032 -2.189668 0.000000 0.000000 0.000000 -7.485071 7.857644 -8.516583 -52.235167 -10.717026 4.707713 0.000000 0.000000 0.000000 8.648625 -15.507713 12.361203 -3.759369 6.552272 -4.243158 10.487550 3.616651 4.157329 -1.404671 -0.500209 -4.717554 0.000000 0.000000 0.000000 8.648625 -15.507713 12.361203 3.475020 8.667690 1.243075 -1.303860 -2.150848 3.450391 -0.061123 -0.471522 -3.651126 0.000000 0.000000 0.000000 -0.951349 -0.585952 9.663068 -13.410507 7.699820 4.377605 0.000000 0.000000 0.000000 -1.210677 -0.613762 -14.034843 -6.854484 -5.630691 7.838436 0.000000 0.000000 0.000000
0.116672 0.115553 0.080228 0.099583 -0.385405 -2.803531 0.000000 0.000000 0.000000 -7.465540 8.459230 -7.984050 -52.341013 -11.179217 4.226613 0.000000 0.000000 0.000000 8.464601 -15.507576 12.329827 -3.494816 6.320391 -2.681081 11.236618 3.097003 3.320589 -0.290536 -1.227881 -4.994031 0.000000 0.000000 0.000000 8.464601 -15.507576 12.329827 3.398979 8.091223 0.384514 -1.187337 -2.240866 4.450470 -0.457640 -0.218608 -3.788903 0.000000 0.000000 0.000000 -1.281584 -0.427111 9.627185 -12.494191 6.991032 4.661821 0.000000 0.000000 0.000000 -1.195142 -0.441205 -12.793633 -2.003661 -4.254705 4.318261 0.000000 0.000000 0.000000
0.117711 0.117216 0.080697 0.786563 -0.419764 -2.971372 0.000000 0.000000 0.000000 -7.443451 8.982661 -7.984052 -53.046459 -11.832242 3.383670 0.000000 0.000000 0.000000 7.834240 -15.507505 12.300417 -2.717322 6.088292 -2.097120 11.522194 2.724736 3.563819 0.842403 -1.993515 -5.538030 0.000000 0.000000 0.000000 7.834240 -15.507505 12.300417 3.441487 7.480075 -0.265575 -1.331882 -2.358268 5.536331 -0.823396 -0.211566 -4.054967 0.000000 0.000000 0.000000 -2.262039 -0.362081 9.380143 -10.927705 6.203379 5.206005 0.000000 0.000000 0.000000 -1.702333 -0.343469 -11.941288 5.263803 -1.224865 1.337513 0.000000 0.000000 0.000000
0.118654 0.118983 0.081677 1.667454 -0.431108 -2.946555 0.000000 0.000000 0.000000 -7.430921 9.215522 -8.244380 -53.992548 -12.231875 2.949230 0.000000 0.000000 0.000000 7.012201 -15.507503 12.287224 -1.768643 6.074443 -1.953082 10.953366 2.356239 3.613842 1.384661 -2.140472 -6.203899 0.000000 0.000000 0.000000 7.012201 -15.507503 12.287224 3.030884 7.201025 -0.581818 -0.974590 -2.631403 6.506338 -0.931292 -0.590818 -4.111492 0.000000 0.000000 0.000000 -3.872517 -0.303091 8.988715 -10.395667 6.046199 5.932877 0.000000 0.000000 0.000000 -2.668969 -0.403136 -11.613271 7.200189 -0.468967 0.066916 0.000000 0.000000 0.000000
0.119183 0.120310 0.082862 1.971322 -0.423035 -2.839297 0.000000 0.000000 0.000000 -7.425546 9.297188 -8.457482 -54.345270 -12.314957 2.922736 0.000000 0.000000 0.000000 6.745759 -15.507540 12.284181 -1.214762 6.000271 -2.864224 10.510228 2.433260 3.732024 1.553305 -1.887367 -6.535019 0.000000 0.000000 0.000000 6.745759 -15.507540 12.284181 2.705629 7.148928 -0.997474 -0.794497 -2.998484 7.861985 -0.995769 -1.332448 -4.258154 0.000000 0.000000 0.000000 -4.612288 -0.284338 8.821817 -10.693660 6.297495 6.240520 0.000000 0.000000 0.000000 -3.503938 -0.658893 -11.888308 8.121539 -0.032158 -0.461607 0.000000 0.000000 0.000000
0.119329 0.121286 0.084059 1.753988 -0.394514 -2.641149 0.000000 0.000000 0.000000 -7.418568 9.422279 -8.629136 -54.177680 -12.358052 2.854290 0.000000 0.000000 0.000000 7.003234 -15.507561 12.280926 -1.325095 5.660471 -4.376931 10.376945 2.852463 3.126584 1.054055 -0.915321 -6.902917 0.000000 0.000000 0.000000 7.003234 -15.507561 12.280926 2.398166 7.124963 -1.135808 -0.925581 -3.205268 8.850210 -1.028272 -2.441085 -4.292783 0.000000 0.000000 0.000000 -4.692950 -0.275428 8.716758 -11.415657 6.727809 6.153839 0.000000 0.000000 0.000000 -4.263131 -1.099207 -12.500285 9.199403 0.585963 -0.792071 0.000000 0.000000 0.000000
0.119251 0.122163 0.085661 1.206480 -0.328247 -2.204991 0.000000 0.000000 0.000000 -7.400512 9.765689 -8.999361 -53.563596 -12.564003 2.595929 0.000000 0.000000 0.000000 7.647064 -15.507613 12.271317 -1.373875 5.340590 -4.917918 9.889880 2.846602 1.177233 1.276549 0.325201 -8.144126 0.000000 0.000000 0.000000 7.647064 -15.507613 12.271317 2.238714 6.921379 -1.135833 -1.133851 -3.572259 10.068816 -0.968426 -3.337993 -4.620251 0.000000 0.000000 0.000000 -5.331546 -0.205269 8.508514 -12.195980 7.360081 5.515209 0.000000 0.000000 0.000000 -4.068007 -1.218666 -12.270162 8.681895 0.171205 -1.550512 0.000000 0.000000 0.000000
0.119145 0.123174 0.087439 0.583647 -0.233955 -1.591081 0.000000 0.000000 0.000000 -7.385199 10.019726 -9.473401 -52.546202 -12.567223 2.660535 0.000000 0.000000 0.000000 8.382271 -15.507600 12.263363 -1.278107 5.259226 -4.918429 9.324390 2.624449 -0.225491 1.395697 0.966441 -8.437319 0.000000 0.000000 0.000000 8.382271 -15.507600 12.263363 2.445859 6.739633 -0.758333 -1.503834 -3.957512 10.784617 -0.846556 -3.695744 -5.173881 0.000000 0.000000 0.000000 -7.653855 0.018533 8.261647 -10.062320 7.046596 4.495826 0.000000 0.000000 0.000000 -4.374777 -1.551422 -11.803092 8.265522 -0.273510 -2.990977 0.000000 0.000000 0.000000
0.119080 0.124265 0.089146 0.223746 -0.151899 -1.059970 0.000000 0.000000 0.000000 -7.385672 9.940162 -9.889626 -51.636228 -12.437143 2.917903 0.000000 0.000000 0.000000 8.809203 -15.507545 12.267113 -1.043884 5.499094 -4.867583 8.873405 2.437657 -0.335178 1.296375 0.957868 -8.077727 0.000000 0.000000 0.000000 8.809203 -15.507545 12.267113 2.929137 6.777756 -0.168641 -1.768656 -4.286026 10.811277 -1.016450 -3.695388 -5.542222 0.000000 0.000000 0.000000 -10.953384 0.353659 8.009340 -3.832717 5.256779 5.353474 0.000000 0.000000 0.000000 -5.572468 -2.136836 -11.768097 8.617180 0.016384 -3.455267 0.000000 0.000000 0.000000
0.118813 0.126027 0.090506 -0.190470 -0.064990 -0.531596 0.000000 0.000000 0.000000 -7.388177 9.839592 -10.220034 -50.929955 -12.100615 3.282433 0.000000 0.000000 0.000000 9.280387 -15.507529 12.267568 -0.975582 5.716927 -4.743353 8.528600 2.300019 -0.138428 1.307556 0.794892 -7.638183 0.000000 0.000000 0.000000 9.280387 -15.507529 12.267568 3.215253 6.857777 0.279360 -2.076613 -4.510376 10.873704 -1.116750 -3.746829 -5.977447 0.000000 0.000000 0.000000 -10.590591 0.366277 7.831798 -3.843417 5.388562 5.376533 0.000000 0.000000 0.000000 -6.759052 -2.761554 -12.392689 9.610375 0.781890 -3.277002 0.000000 0.000000 0.000000
0.118048 0.128762 0.091601 -0.592780 0.024787 -0.012550 0.000000 0.000000 0.000000 -7.392632 9.723169 -10.426004 -50.410504 -11.683244 3.487934 0.000000 0.000000 0.000000 9.727585 -15.507805 12.261025 -1.117065 5.878134 -4.583802 8.389400 2.219446 -0.030959 1.342630 0.675296 -7.468804 0.000000 0.000000 0.000000 9.727585 -15.507805 12.261025 3.217547 6.972565 0.516004 -2.280090 -4.710753 11.095055 -1.011392 -3.920247 -6.441708 0.000000 0.000000 0.000000 -10.237288 0.368989 7.581193 -3.916035 5.504159 5.257815 0.000000 0.000000 0.000000 -6.500124 -2.813842 -12.713704 9.604266 0.710947 -3.557084 0.000000 0.000000 0.000000
0.117071 0.132106 0.092285 -1.214215 0.122496 0.473162 0.000000 0.000000 0.000000 -7.400062 9.567281 -10.430710 -49.744526 -11.168284 3.557748 0.000000 0.000000 0.000000 10.367779 -15.508732 12.248880 -1.365358 6.067527 -4.441854 8.309103 2.141251 -0.096447 1.539538 0.646878 -7.612873 0.000000 0.000000 0.000000 10.367779 -15.508732 12.248880 3.184259 7.125327 0.731751 -2.550795 -4.797737 11.062274 -0.602356 -4.167123 -6.805700 0.000000 0.000000 0.000000 -9.659875 0.353334 7.316650 -3.847442 5.548516 5.229343 0.000000 0.000000 0.000000 -6.036209 -2.886218 -12.994574 10.033909 0.827635 -3.975791 0.000000 0.000000 0.000000
0.116367 0.135075 0.092655 -1.587155 0.191564 0.817003 0.000000 0.000000 0.000000 -7.404086 9.504033 -10.329324 -49.284520 -10.785951 3.450682 0.000000 0.000000 0.000000 10.756400 -15.510235 12.230289 -1.503382 6.175554 -4.281348 8.277480 2.022590 -0.386834 1.532695 0.666496 -7.796432 0.000000 0.000000 0.000000 10.756400 -15.510235 12.230289 3.087180 7.161025 0.817661 -2.504980 -5.022953 11.135927 -0.405184 -4.324776 -7.034296 0.000000 0.000000 0.000000 -9.323270 0.338162 7.129573 -3.922020 5.637290 5.167244 0.000000 0.000000 0.000000 -5.777974 -2.942056 -13.197246 10.354306 0.922170 -4.254360 0.000000 0.000000 0.000000
0.116026 0.137380 0.092777 -1.702228 0.219878 0.965829 0.000000 0.000000 0.000000 -7.401152 9.590076 -10.201298 -49.109100 -10.601236 3.310188 0.000000 0.000000 0.000000 10.894136 -15.511591 12.211811 -1.436715 6.139694 -4.358231 8.055745 1.923096 -0.380478 1.443400 0.674929 -7.852834 0.000000 0.000000 0.000000 10.894136 -15.511591 12.211811 3.046155 7.038828 0.771441 -2.564352 -5.225682 11.488075 -0.514760 -4.355910 -7.387774 0.000000 0.000000 0.000000 -9.231212 0.332878 7.069683 -3.823580 5.613976 5.125792 0.000000 0.000000 0.000000 -5.734157 -2.969303 -13.255112 10.582944 1.004120 -4.400407 0.000000 0.000000 0.000000
0.115763 0.139087 0.092815 -1.573409 0.217720 0.995212 0.000000 0.000000 0.000000 -7.399324 9.633991 -10.050731 -49.199474 -10.489084 3.148824 0.000000 0.000000 0.000000 10.769682 -15.512897 12.197745 -1.372567 6.077732 -4.663573 7.995887 1.915927 -0.376436 1.206585 0.733146 -7.871173 0.000000 0.000000 0.000000 10.769682 -15.512897 12.197745 3.032371 6.940615 0.663625 -2.540989 -5.488241 11.948427 -0.603062 -4.217631 -7.798257 0.000000 0.000000 0.000000 -9.362244 0.342177 7.045117 -3.768481 5.586349 5.121337 0.000000 0.000000 0.000000 -5.862279 -2.961493 -13.286664 10.721346 1.096637 -4.331111 0.000000 0.000000 0.000000
0.115531 0.140470 0.092709 -1.312181 0.201735 0.978541 0.000000 0.000000 0.000000 -7.394746 9.733293 -9.855648 -49.419573 -10.399552 2.937128 0.000000 0.000000 0.000000 10.517154 -15.514516 12.180183 -1.226186 5.972081 -5.034685 7.873274 1.877664 -0.481343 0.939884 0.844398 -7.932962 0.000000 0.000000 0.000000 10.517154 -15.514516 12.180183 3.066105 6.758966 0.559143 -2.451920 -5.809946 12.386264 -0.725643 -3.840487 -8.277929 0.000000 0.000000 0.000000 -9.630266 0.360318 7.078847 -3.747033 5.579390 5.108520 0.000000 0.000000 0.000000 -6.130312 -2.944076 -13.254514 10.946731 1.235948 -4.257029 0.000000 0.000000 0.000000
0.115304 0.141648 0.092462 -1.039482 0.184893 0.959512 0.000000 0.000000 0.000000 -7.393651 9.752357 -9.668041 -49.686473 -10.268714 2.770548 0.000000 0.000000 0.000000 10.239176 -15.516322 12.166258 -1.050609 5.938532 -5.476837 7.794599 1.859304 -0.553841 0.776650 0.909192 -7.893577 0.000000 0.000000 0.000000 10.239176 -15.516322 12.166258 3.165287 6.642355 0.473940 -2.468166 -6.050294 12.703912 -0.880311 -3.602086 -8.636436 0.000000 0.000000 0.000000 -9.906415 0.378693 7.107614 -3.679769 5.551605 5.135233 0.000000 0.000000 0.000000 -6.421392 -2.928514 -13.205082 11.338818 1.450769 -4.217454 0.000000 0.000000 0.000000
0.115062 0.142570 0.092271 -0.959149 0.175428 0.922822 0.000000 0.000000 0.000000 -7.390263 9.824995 -9.512957 -49.838849 -10.199903 2.637304 0.000000 0.000000 0.000000 10.160718 -15.517528 12.156115 -0.992513 5.855836 -5.742069 7.830057 1.868285 -0.660388 0.762678 0.945093 -7.870890 0.000000 0.000000 0.000000 10.160718 -15.517528 12.156115 3.139258 6.536614 0.485372 -2.434807 -6.250512 12.965377 -0.993654 -3.498430 -8.910425 0.000000 0.000000 0.000000 -9.992632 0.383768 7.148404 -3.662381 5.549764 5.166219 0.000000 0.000000 0.000000 -6.535061 -2.928298 -13.110965 11.606462 1.589092 -4.220135 0.000000 0.000000 0.000000
0.114849 0.143258 0.092255 -0.876649 0.164761 0.878313 0.000000 0.000000 0.000000 -7.384315 9.955770 -9.426242 -49.960041 -10.219070 2.530155 0.000000 0.000000 0.000000 10.093618 -15.518018 12.148545 -0.892915 5.742479 -5.906072 7.890760 1.871459 -0.680036 0.769640 0.914040 -7.798598 0.000000 0.000000 0.000000 10.093618 -15.518018 12.148545 3.104124 6.391770 0.532015 -2.304381 -6.410946 13.066037 -1.117832 -3.344807 -9.021583 0.000000 0.000000 0.000000 -10.085707 0.388948 7.207188 -3.686175 5.566180 5.149613 0.000000 0.000000 0.000000 -6.656730 -2.928863 -12.997749 11.710435 1.628838 -4.273058 0.000000 0.000000 0.000000
0.114715 0.143875 0.092373 -0.799267 0.157612 0.855945 0.000000 0.000000 0.000000 -7.380547 10.039127 -9.400877 -50.044467 -10.262998 2.451373 0.000000 0.000000 0.000000 10.028638 -15.518134 12.144851 -0.865138 5.656998 -5.998195 7.839817 1.870455 -0.670316 0.761343 0.921258 -7.723412 0.000000 0.000000 0.000000 10.028638 -15.518134 12.144851 3.111606 6.295011 0.553635 -2.247477 -6.486511 13.108688 -1.175704 -3.228568 -9.077144 0.000000 0.000000 0.000000 -10.169070 0.393473 7.249754 -3.786842 5.616334 5.086480 0.000000 0.000000 0.000000 -6.733357 -2.923276 -12.974116 11.777635 1.679350 -4.216567 0.000000 0.000000 0.000000
0.114635 0.144445 0.092527 -0.768920 0.154133 0.842402 0.000000 0.000000 0.000000 -7.379226 10.067754 -9.390731 -50.112863 -10.285479 2.405128 0.000000 0.000000 0.000000 10.001768 -15.518135 12.143794 -0.889256 5.614025 -6.044692 7.815180 1.886940 -0.584150 0.697577 0.901723 -7.610948 0.000000 0.000000 0.000000 10.001768 -15.518135 12.143794 3.118999 6.261104 0.559566 -2.262807 -6.473516 13.088481 -1.190942 -3.184823 -9.094798 0.000000 0.000000 0.000000 -10.203011 0.395039 7.276604 -3.884075 5.664175 5.036385 0.000000 0.000000 0.000000 -6.723014 -2.913168 -13.018577 11.914737 1.785338 -4.082280 0.000000 0.000000 0.000000
0.114572 0.145038 0.092675 -0.736364 0.150275 0.826943 0.000000 0.000000 0.000000 -7.378223 10.088908 -9.386050 -50.215214 -10.314159 2.346845 0.000000 0.000000 0.000000 9.971372 -15.518067 12.143340 -0.917067 5.579953 -6.061731 7.737901 1.888804 -0.520536 0.557526 0.906866 -7.494971 0.000000 0.000000 0.000000 9.971372 -15.518067 12.143340 3.132103 6.235175 0.551980 -2.299414 -6.430935 13.049448 -1.196031 -3.178788 -9.076609 0.000000 0.000000 0.000000 -10.235808 0.396488 7.295888 -3.956567 5.698729 5.008063 0.000000 0.000000 0.000000 -6.664886 -2.893231 -13.135963 12.162616 1.977419 -3.834607 0.000000 0.000000 0.000000
0.114522 0.145573 0.092778 -0.717805 0.146661 0.808261 0.000000 0.000000 0.000000 -7.378292 10.085315 -9.379836 -50.392324 -10.330331 2.275141 0.000000 0.000000 0.000000 9.949730 -15.517972 12.143889 -0.972576 5.563360 -6.056251 7.684409 1.896201 -0.496818 0.414188 0.920623 -7.375375 0.000000 0.000000 0.000000 9.949730 -15.517972 12.143889 3.135558 6.239186 0.521786 -2.337322 -6.367952 13.003264 -1.181961 -3.155466 -9.066995 0.000000 0.000000 0.000000 -10.252199 0.396785 7.311310 -3.917851 5.679217 5.023294 0.000000 0.000000 0.000000 -6.588956 -2.873635 -13.260347 12.449774 2.190690 -3.582782 0.000000 0.000000 0.000000
0.114502 0.145939 0.092832 -0.704271 0.144117 0.795232 0.000000 0.000000 0.000000 -7.378311 10.083505 -9.382247 -50.582593 -10.347542 2.202132 0.000000 0.000000 0.000000 9.934523 -15.517837 12.144612 -1.020109 5.549188 -6.041499 7.637383 1.900499 -0.489617 0.348574 0.936657 -7.301864 0.000000 0.000000 0.000000 9.934523 -15.517837 12.144612 3.131564 6.244138 0.504347 -2.355872 -6.281242 12.879968 -1.145709 -3.064814 -9.053142 0.000000 0.000000 0.000000 -10.262267 0.396875 7.317784 -3.862897 5.650613 5.043132 0.000000 0.000000 0.000000 -6.540044 -2.860844 -13.346333 12.717916 2.367122 -3.431969 0.000000 0.000000 0.000000
0.114501 0.146095 0.092827 -0.684811 0.140806 0.778901 0.000000 0.000000 0.000000 -7.378012 10.088665 -9.384779 -50.760862 -10.377085 2.122049 0.000000 0.000000 0.000000 9.914338 -15.517674 12.145237 -1.090264 5.521099 -6.022870 7.537390 1.899674 -0.497177 0.342998 0.972856 -7.227049 0.000000 0.000000 0.000000 9.914338 -15.517674 12.145237 3.125329 6.242732 0.484230 -2.402316 -6.201734 12.814394 -1.165416 -3.066847 -9.023965 0.000000 0.000000 0.000000 -10.278908 0.397359 7.326103 -3.804467 5.620111 5.064552 0.000000 0.000000 0.000000 -6.518365 -2.851624 -13.395548 12.793567 2.441984 -3.298662 0.000000 0.000000 0.000000
0.114490 0.146201 0.092772 -0.686292 0.137739 0.756987 0.000000 0.000000 0.000000 -7.377760 10.092438 -9.368852 -50.898581 -10.400527 2.041510 0.000000 0.000000 0.000000 9.912875 -15.517609 12.145450 -1.069645 5.520319 -6.046689 7.509788 1.896402 -0.486266 0.316710 0.978973 -7.210190 0.000000 0.000000 0.000000 9.912875 -15.517609 12.145450 3.115168 6.244058 0.447165 -2.440171 -6.152960 12.811919 -1.221002 -3.099020 -9.004716 0.000000 0.000000 0.000000 -10.274192 0.396430 7.334519 -3.719655 5.575233 5.093671 0.000000 0.000000 0.000000 -6.487676 -2.845748 -13.418660 12.820858 2.483264 -3.198415 0.000000 0.000000 0.000000
0.114458 0.146345 0.092722 -0.692694 0.134674 0.733410 0.000000 0.000000 0.000000 -7.376969 10.108560 -9.351502 -50.992157 -10.436240 1.960833 0.000000 0.000000 0.000000 9.918208 -15.517527 12.145363 -1.012809 5.518885 -6.081742 7.431310 1.877646 -0.461650 0.336127 1.001117 -7.270018 0.000000 0.000000 0.000000 9.918208 -15.517527 12.145363 3.098103 6.235323 0.413221 -2.475123 -6.120131 12.843234 -1.220064 -3.163984 -8.985593 0.000000 0.000000 0.000000 -10.265145 0.395204 7.345234 -3.692813 5.559264 5.111343 0.000000 0.000000 0.000000 -6.467101 -2.842917 -13.415141 12.781191 2.476928 -3.148264 0.000000 0.000000 0.000000
0.114416 0.146518 0.092707 -0.703093 0.129967 0.697027 0.000000 0.000000 0.000000 -7.376072 10.126099 -9.328049 -51.075910 -10.469489 1.902138 0.000000 0.000000 0.000000 9.925762 -15.517371 12.145637 -0.971829 5.509931 -6.121606 7.382158 1.871655 -0.427367 0.368005 1.017766 -7.326236 0.000000 0.000000 0.000000 9.925762 -15.517371 12.145637 3.068923 6.230466 0.364226 -2.531457 -6.087995 12.935911 -1.221735 -3.282671 -8.977444 0.000000 0.000000 0.000000 -10.252993 0.393220 7.373793 -3.691682 5.556863 5.118707 0.000000 0.000000 0.000000 -6.453662 -2.842225 -13.380072 12.743036 2.462711 -3.129817 0.000000 0.000000 0.000000
0.114398 0.146668 0.092710 -0.712314 0.125122 0.660139 0.000000 0.000000 0.000000 -7.374917 10.149656 -9.307186 -51.140701 -10.497161 1.868298 0.000000 0.000000 0.000000 9.933263 -15.517183 12.145883 -0.978980 5.480328 -6.155547 7.404285 1.890704 -0.390850 0.410711 1.021907 -7.369461 0.000000 0.000000 0.000000 9.933263 -15.517183 12.145883 3.037511 6.220230 0.326479 -2.541464 -6.093014 13.041432 -1.227126 -3.384725 -8.962518 0.000000 0.000000 0.000000 -10.242877 0.391314 7.406421 -3.700202 5.561151 5.128125 0.000000 0.000000 0.000000 -6.442909 -2.841720 -13.342074 12.691415 2.443842 -3.103692 0.000000 0.000000 0.000000
0.114380 0.146793 0.092716 -0.726509 0.120444 0.622745 0.000000 0.000000 0.000000 -7.372919 10.192715 -9.286153 -51.188798 -10.535021 1.829108 0.000000 0.000000 0.000000 9.949045 -15.516974 12.145620 -0.988739 5.435509 -6.168195 7.394403 1.897022 -0.396960 0.435630 1.044193 -7.408629 0.000000 0.000000 0.000000 9.949045 -15.516974 12.145620 3.006858 6.190810 0.299071 -2.546508 -6.097945 13.131538 -1.222561 -3.457202 -8.955009 0.000000 0.000000 0.000000 -10.229223 0.389120 7.444949 -3.718900 5.570147 5.120902 0.000000 0.000000 0.000000 -6.427873 -2.841661 -13.302802 12.633227 2.426983 -3.058531 0.000000 0.000000 0.000000
0.114340 0.146925 0.092713 -0.716929 0.114269 0.582959 0.000000 0.000000 0.000000 -7.371414 10.224271 -9.269873 -51.223659 -10.563055 1.824795 0.000000 0.000000 0.000000 9.939230 -15.516740 12.145798 -0.970552 5.408621 -6.175151 7.405916 1.897260 -0.439495 0.458396 1.060850 -7.440205 0.000000 0.000000 0.000000 9.939230 -15.516740 12.145798 2.990110 6.167461 0.281613 -2.555423 -6.100429 13.202519 -1.206739 -3.497669 -8.959622 0.000000 0.000000 0.000000 -10.238539 0.388220 7.483620 -3.731879 5.576314 5.120776 0.000000 0.000000 0.000000 -6.438186 -2.840460 -13.258439 12.565422 2.403642 -3.019544 0.000000 0.000000 0.000000
0.114239 0.147086 0.092692 -0.717135 0.108710 0.544180 0.000000 0.000000 0.000000 -7.369361 10.268723 -9.245605 -51.239245 -10.586234 1.821672 0.000000 0.000000 0.000000 9.940989 -15.516573 12.145229 -0.943683 5.373174 -6.190764 7.400824 1.891187 -0.493536 0.500759 1.096746 -7.539361 0.000000 0.000000 0.000000 9.940989 -15.516573 12.145229 2.966614 6.132386 0.258418 -2.541302 -6.115673 13.275477 -1.187006 -3.526187 -8.959107 0.000000 0.000000 0.000000 -10.238694 0.386864 7.521438 -3.755352 5.587063 5.113543 0.000000 0.000000 0.000000 -6.442738 -2.840549 -13.207781 12.482328 2.361543 -3.020445 0.000000 0.000000 0.000000
0.114067 0.147253 0.092656 -0.732089 0.104029 0.506710 0.000000 0.000000 0.000000 -7.366325 10.336023 -9.222223 -51.225186 -10.624007 1.809364 0.000000 0.000000 0.000000 9.961407 -15.516372 12.144147 -0.924457 5.321648 -6.164032 7.342153 1.864856 -0.595634 0.516064 1.157185 -7.641216 0.000000 0.000000 0.000000 9.961407 -15.516372 12.144147 2.931197 6.079157 0.240917 -2.529942 -6.124708 13.346736 -1.170573 -3.554971 -8.962539 0.000000 0.000000 0.000000 -10.224809 0.384811 7.559202 -3.761402 5.588449 5.101048 0.000000 0.000000 0.000000 -6.430760 -2.841126 -13.161506 12.472499 2.354274 -3.028988 0.000000 0.000000 0.000000
0.113806 0.147416 0.092621 -0.790775 0.101706 0.471339 0.000000 0.000000 0.000000 -7.363941 10.388910 -9.197863 -51.161563 -10.650458 1.822348 0.000000 0.000000 0.000000 10.022430 -15.516140 12.143876 -0.910533 5.279469 -6.178461 7.301349 1.856598 -0.650260 0.534279 1.227613 -7.809818 0.000000 0.000000 0.000000 10.022430 -15.516140 12.143876 2.879737 6.049349 0.223689 -2.511099 -6.135009 13.429143 -1.139361 -3.606071 -8.966579 0.000000 0.000000 0.000000 -10.166877 0.380231 7.599026 -3.806873 5.607996 5.064945 0.000000 0.000000 0.000000 -6.384204 -2.846120 -13.104833 12.452131 2.336309 -3.058039 0.000000 0.000000 0.000000
0.113503 0.147573 0.092547 -0.831688 0.099742 0.444484 0.000000 0.000000 0.000000 -7.361514 10.443261 -9.177288 -51.113167 -10.677459 1.821030 0.000000 0.000000 0.000000 10.067412 -15.515979 12.143132 -0.886469 5.239905 -6.182206 7.315465 1.851023 -0.721320 0.541815 1.277784 -7.970077 0.000000 0.000000 0.000000 10.067412 -15.515979 12.143132 2.840293 6.011756 0.210305 -2.491774 -6.158262 13.516664 -1.122847 -3.650638 -8.975162 0.000000 0.000000 0.000000 -10.127376 0.376996 7.633989 -3.931684 5.666595 5.005967 0.000000 0.000000 0.000000 -6.369639 -2.853087 -13.035282 12.386386 2.289101 -3.111303 0.000000 0.000000 0.000000
0.113204 0.147735 0.092431 -0.894208 0.099064 0.419710 0.000000 0.000000 0.000000 -7.355810 10.572899 -9.143067 -51.010454 -10.742313 1.765903 0.000000 0.000000 0.000000 10.146116 -15.515879 12.139718 -0.776491 5.162364 -6.192440 7.252469 1.806351 -0.782668 0.594211 1.312395 -8.111394 0.000000 0.000000 0.000000 10.146116 -15.515879 12.139718 2.790604 5.900407 0.224021 -2.481715 -6.195423 13.618832 -1.119194 -3.697479 -9.003254 0.000000 0.000000 0.000000 -10.068799 0.372977 7.669966 -4.106578 5.750596 4.932430 0.000000 0.000000 0.000000 -6.351922 -2.864670 -12.936901 12.316353 2.224161 -3.221647 0.000000 0.000000 0.000000
0.112908 0.147898 0.092342 -0.974703 0.099910 0.399816 0.000000 0.000000 0.000000 -7.348946 10.729452 -9.102748 -50.889803 -10.817308 1.685870 0.000000 0.000000 0.000000 10.247312 -15.515831 12.135266 -0.622240 5.076979 -6.205234 7.145501 1.739482 -0.853337 0.658940 1.340365 -8.221524 0.000000 0.000000 0.000000 10.247312 -15.515831 12.135266 2.728249 5.764716 0.255657 -2.459397 -6.244256 13.717029 -1.111368 -3.737063 -9.040227 0.000000 0.000000 0.000000 -9.990593 0.368323 7.691050 -4.173147 5.781937 4.905341 0.000000 0.000000 0.000000 -6.309810 -2.875948 -12.853649 12.270087 2.169930 -3.335672 0.000000 0.000000 0.000000
0.112663 0.148045 0.092308 -0.996001 0.098797 0.385429 0.000000 0.000000 0.000000 -7.346117 10.793571 -9.094117 -50.844195 -10.852055 1.673801 0.000000 0.000000 0.000000 10.276658 -15.515694 12.134077 -0.624538 5.020763 -6.192534 7.094784 1.724778 -0.909492 0.696063 1.369631 -8.225151 0.000000 0.000000 0.000000 10.276658 -15.515694 12.134077 2.674447 5.717177 0.260910 -2.417908 -6.294308 13.824631 -1.113483 -3.799091 -9.052246 0.000000 0.000000 0.000000 -9.969909 0.366898 7.703931 -4.238711 5.812963 4.888158 0.000000 0.000000 0.000000 -6.311078 -2.881186 -12.802726 12.245628 2.138599 -3.405852 0.000000 0.000000 0.000000
0.112478 0.148174 0.092259 -0.993391 0.096421 0.369976 0.000000 0.000000 0.000000 -7.344290 10.834559 -9.093277 -50.839994 -10.875082 1.677454 0.000000 0.000000 0.000000 10.278745 -15.515529 12.133684 -0.639962 4.977716 -6.186620 7.102849 1.727874 -0.962786 0.717703 1.379328 -8.184134 0.000000 0.000000 0.000000 10.278745 -15.515529 12.133684 2.595589 5.696692 0.264100 -2.339889 -6.340210 13.904900 -1.108621 -3.851090 -9.047783 0.000000 0.000000 0.000000 -9.971223 0.366758 7.708832 -4.261614 5.823890 4.905295 0.000000 0.000000 0.000000 -6.333632 -2.884526 -12.753725 12.194418 2.095635 -3.469067 0.000000 0.000000 0.000000
0.112283 0.148288 0.092190 -0.987427 0.093848 0.354241 0.000000 0.000000 0.000000 -7.342263 10.880101 -9.090727 -50.844090 -10.901681 1.670445 0.000000 0.000000 0.000000 10.278152 -15.515382 12.133058 -0.662234 4.925833 -6.196842 7.104974 1.734626 -1.010587 0.725655 1.395368 -8.140332 0.000000 0.000000 0.000000 10.278152 -15.515382 12.133058 2.522549 5.669593 0.264598 -2.309272 -6.354923 13.975430 -1.097334 -3.921694 -9.050361 0.000000 0.000000 0.000000 -9.974331 0.366846 7.705987 -4.273931 5.828894 4.938321 0.000000 0.000000 0.000000 -6.344763 -2.884684 -12.726688 12.201543 2.088947 -3.505633 0.000000 0.000000 0.000000
0.112061 0.148394 0.092148 -1.000781 0.092627 0.341682 0.000000 0.000000 0.000000 -7.340587 10.917938 -9.095255 -50.825709 -10.930048 1.673023 0.000000 0.000000 0.000000 10.295968 -15.515172 12.133071 -0.705222 4.871783 -6.233238 7.124909 1.758577 -1.040584 0.730751 1.410809 -8.070028 0.000000 0.000000 0.000000 10.295968 -15.515172 12.133071 2.474219 5.648099 0.271927 -2.342853 -6.347927 14.061002 -1.090080 -4.036265 -9.063008 0.000000 0.000000 0.000000 -9.960587 0.366060 7.708953 -4.296515 5.839535 4.951303 0.000000 0.000000 0.000000 -6.350532 -2.888791 -12.682586 12.222361 2.075598 -3.591848 0.000000 0.000000 0.000000
0.111816 0.148480 0.092129 -1.020293 0.092063 0.331715 0.000000 0.000000 0.000000 -7.339143 10.950614 -9.091177 -50.833441 -10.954129 1.648136 0.000000 0.000000 0.000000 10.318933 -15.515061 12.132735 -0.772149 4.811497 -6.300542 7.167972 1.801367 -1.012162 0.735756 1.412328 -7.991262 0.000000 0.000000 0.000000 10.318933 -15.515061 12.132735 2.435335 5.628275 0.271791 -2.382207 -6.348189 14.157862 -1.064325 -4.166303 -9.072787 0.000000 0.000000 0.000000 -9.943688 0.364959 7.723720 -4.327316 5.855519 4.937563 0.000000 0.000000 0.000000 -6.354538 -2.894301 -12.636212 12.259914 2.063029 -3.705712 0.000000 0.000000 0.000000
0.111561 0.148526 0.092159 -1.031974 0.091430 0.323737 0.000000 0.000000 0.000000 -7.338686 10.960807 -9.086488 -50.866821 -10.967353 1.620091 0.000000 0.000000 0.000000 10.330708 -15.515005 12.132766 -0.840298 4.772174 -6.357286 7.209205 1.843089 -0.962781 0.727326 1.413366 -7.948613 0.000000 0.000000 0.000000 10.330708 -15.515005 12.132766 2.409751 5.626293 0.266111 -2.409629 -6.350825 14.233232 -1.044420 -4.271147 -9.074731 0.000000 0.000000 0.000000 -9.933280 0.364230 7.733921 -4.349846 5.867473 4.932618 0.000000 0.000000 0.000000 -6.355809 -2.897407 -12.608954 12.289830 2.058886 -3.775068 0.000000 0.000000 0.000000
0.111315 0.148544 0.092242 -1.032532 0.090027 0.313978 0.000000 0.000000 0.000000 -7.339356 10.945137 -9.083942 -50.886438 -10.965867 1.624330 0.000000 0.000000 0.000000 10.327080 -15.514952 12.133534 -0.912364 4.756836 -6.391990 7.256941 1.882628 -0.928477 0.697141 1.420190 -7.932151 0.000000 0.000000 0.000000 10.327080 -15.514952 12.133534 2.397542 5.646923 0.240656 -2.418173 -6.359558 14.305970 -1.049714 -4.376988 -9.046835 0.000000 0.000000 0.000000 -9.933843 0.363875 7.749477 -4.372599 5.880219 4.925035 0.000000 0.000000 0.000000 -6.375508 -2.901569 -12.570749 12.294351 2.037667 -3.860912 0.000000 0.000000 0.000000
0.111154 0.148581 0.092327 -1.018445 0.087997 0.304481 0.000000 0.000000 0.000000 -7.339939 10.931370 -9.077596 -50.928203 -10.962826 1.616050 0.000000 0.000000 0.000000 10.309271 -15.514957 12.133879 -0.954237 4.751537 -6.408124 7.313616 1.907925 -0.938689 0.671658 1.419040 -7.904783 0.000000 0.000000 0.000000 10.309271 -15.514957 12.133879 2.395152 5.660718 0.207902 -2.412968 -6.373200 14.362952 -1.038240 -4.444535 -9.019158 0.000000 0.000000 0.000000 -9.945144 0.364310 7.747914 -4.345390 5.867156 4.958292 0.000000 0.000000 0.000000 -6.397933 -2.902415 -12.548853 12.283911 2.023946 -3.892003 0.000000 0.000000 0.000000
0.111051 0.148660 0.092381 -0.978250 0.085343 0.298802 0.000000 0.000000 0.000000 -7.341480 10.895687 -9.082111 -50.982549 -10.945172 1.637025 0.000000 0.000000 0.000000 10.263244 -15.514956 12.134844 -1.016083 4.757562 -6.418787 7.423311 1.949666 -0.939329 0.634558 1.408800 -7.893173 0.000000 0.000000 0.000000 10.263244 -15.514956 12.134844 2.399032 5.692730 0.173615 -2.396015 -6.394280 14.418411 -1.049546 -4.484107 -9.000986 0.000000 0.000000 0.000000 -9.980828 0.366054 7.738881 -4.310348 5.848748 4.994010 0.000000 0.000000 0.000000 -6.439394 -2.900634 -12.541815 12.283559 2.019824 -3.906319 0.000000 0.000000 0.000000
0.110959 0.148745 0.092411 -0.925326 0.081657 0.289972 0.000000 0.000000 0.000000 -7.341688 10.890274 -9.087585 -51.046347 -10.945991 1.640364 0.000000 0.000000 0.000000 10.209354 -15.514915 12.135064 -1.069638 4.736271 -6.437016 7.468841 1.979507 -0.912272 0.637662 1.402137 -7.863384 0.000000 0.000000 0.000000 10.209354 -15.514915 12.135064 2.380565 5.698729 0.135363 -2.371036 -6.414887 14.489469 -1.057439 -4.511922 -8.997740 0.000000 0.000000 0.000000 -10.030216 0.368329 7.736815 -4.214455 5.800596 5.032956 0.000000 0.000000 0.000000 -6.494165 -2.898313 -12.530764 12.288221 2.018681 -3.919188 0.000000 0.000000 0.000000
0.110990 0.148812 0.092332 -0.879823 0.077275 0.274005 0.000000 0.000000 0.000000 -7.340914 10.907112 -9.078814 -51.097761 -10.951774 1.632897 0.000000 0.000000 0.000000 10.164776 -15.514910 12.134418 -1.086729 4.707027 -6.462590 7.465429 1.990850 -0.869579 0.622832 1.389598 -7.805725 0.000000 0.000000 0.000000 10.164776 -15.514910 12.134418 2.346883 5.686118 0.073775 -2.364342 -6.423909 14.590691 -1.083191 -4.572965 -8.993798 0.000000 0.000000 0.000000 -10.074184 0.370029 7.748836 -4.052503 5.720481 5.070581 0.000000 0.000000 0.000000 -6.539069 -2.895757 -12.515890 12.321630 2.031371 -3.934088 0.000000 0.000000 0.000000
0.111094 0.148848 0.092210 -0.895309 0.074920 0.252940 0.000000 0.000000 0.000000 -7.341844 10.885309 -9.055290 -51.087456 -10.929444 1.664730 0.000000 0.000000 0.000000 10.172197 -15.514926 12.135043 -1.133428 4.706133 -6.506464 7.450074 2.014432 -0.797771 0.576224 1.378716 -7.703606 0.000000 0.000000 0.000000 10.172197 -15.514926 12.135043 2.295855 5.722771 -0.004449 -2.431476 -6.381202 14.708394 -1.129341 -4.722098 -8.999057 0.000000 0.000000 0.000000 -10.054106 0.368391 7.757154 -3.842544 5.616865 5.139608 0.000000 0.000000 0.000000 -6.515446 -2.894762 -12.508513 12.390938 2.065827 -3.935476 0.000000 0.000000 0.000000
0.111162 0.148874 0.092164 -0.890611 0.072063 0.234706 0.000000 0.000000 0.000000 -7.341423 10.894325 -9.029395 -51.092876 -10.922792 1.663419 0.000000 0.000000 0.000000 10.165251 -15.514997 12.134349 -1.150420 4.688287 -6.534408 7.454758 2.026411 -0.754914 0.522109 1.344536 -7.554994 0.000000 0.000000 0.000000 10.165251 -15.514997 12.134349 2.237305 5.726028 -0.071662 -2.554492 -6.311244 14.826981 -1.188304 -4.917365 -9.014015 0.000000 0.000000 0.000000 -10.053478 0.368068 7.753415 -3.545119 5.470421 5.245847 0.000000 0.000000 0.000000 -6.504460 -2.891040 -12.512866 12.481117 2.115338 -3.919501 0.000000 0.000000 0.000000
0.111134 0.148881 0.092190 -0.874785 0.070810 0.230953 0.000000 0.000000 0.000000 -7.341453 10.893436 -9.025643 -51.121111 -10.920771 1.656524 0.000000 0.000000 0.000000 10.148857 -15.515023 12.134180 -1.153443 4.682771 -6.562445 7.500371 2.045200 -0.706574 0.523045 1.312305 -7.502940 0.000000 0.000000 0.000000 10.148857 -15.515023 12.134180 2.194194 5.734423 -0.090432 -2.494379 -6.339574 14.865634 -1.184370 -4.921433 -9.013117 0.000000 0.000000 0.000000 -10.064707 0.368736 7.738584 -3.456627 5.426127 5.301371 0.000000 0.000000 0.000000 -6.518595 -2.889855 -12.511291 12.465867 2.103673 -3.933520 0.000000 0.000000 0.000000
