HIERARCHY
ROOT Hips
{
  OFFSET 0.000000 0.000000 0.000000
  CHANNELS 6 Xposition Yposition Zposition Xrotation Yrotation Zrotation
  JOINT Spine
  {
    OFFSET 1.471354 23.290033 -6.106481
    CHANNELS 3 Xrotation Yrotation Zrotation
    JOINT Chest
    {
      OFFSET 1.471354 23.290033 -6.106481
      CHANNELS 3 Xrotation Yrotation Zrotation
      JOINT Neck
      {
        OFFSET -2.554482 8.383535 -1.440578
        CHANNELS 3 Xrotation Yrotation Zrotation
        JOINT Head
        {
          OFFSET -6.488949 6.596687 -1.313551
          CHANNELS 3 Xrotation Yrotation Zrotation
          End Site
          {
            OFFSET -1.946685 1.979006 -0.394065
          }
        }
      }
      JOINT LeftShoulder
      {
        OFFSET 4.445460 -1.571870 -16.227993
        CHANNELS 3 Xrotation Yrotation Zrotation
        JOINT LeftArm
        {
          OFFSET -5.835221 -22.551993 -2.146173
          CHANNELS 3 Xrotation Yrotation Zrotation
          JOINT LeftForeArm
          {
            OFFSET -12.437178 -19.553858 5.324733
            CHANNELS 3 Xrotation Yrotation Zrotation
            JOINT LeftHand
            {
              OFFSET -3.243800 -4.801626 -2.197453
              CHANNELS 3 Xrotation Yrotation Zrotation
              End Site
              {
                OFFSET -0.973140 -1.440488 -0.659236
              }
            }
          }
        }
      }
      JOINT RightShoulder
      {
        OFFSET -4.445460 1.571870 16.227993
        CHANNELS 3 Xrotation Yrotation Zrotation
        JOINT RightArm
        {
          OFFSET 15.000000 -5.000000 0.000000
          CHANNELS 3 Xrotation Yrotation Zrotation
          JOINT RightForeArm
          {
            OFFSET 12.000000 -8.000000 0.000000
            CHANNELS 3 Xrotation Yrotation Zrotation
            JOINT RightHand
            {
              OFFSET 5.000000 -5.000000 0.000000
              CHANNELS 3 Xrotation Yrotation Zrotation
              End Site
              {
                OFFSET 1.500000 -1.500000 0.000000
              }
            }
          }
        }
      }
    }
  }
  JOINT LeftUpLeg
  {
    OFFSET 5.983835 -1.012600 -8.641845
    CHANNELS 3 Xrotation Yrotation Zrotation
    JOINT LeftLeg
    {
      OFFSET 2.259026 -41.160902 2.325652
      CHANNELS 3 Xrotation Yrotation Zrotation
      JOINT LeftFoot
      {
        OFFSET 27.481258 -16.640986 16.500056
        CHANNELS 3 Xrotation Yrotation Zrotation
        End Site
        {
          OFFSET 8.244378 -4.992296 4.950017
        }
      }
    }
  }
  JOINT RightUpLeg
  {
    OFFSET -5.983835 1.012600 8.641845
    CHANNELS 3 Xrotation Yrotation Zrotation
    JOINT RightLeg
    {
      OFFSET -9.973435 -38.659740 8.660418
      CHANNELS 3 Xrotation Yrotation Zrotation
      JOINT RightFoot
      {
        OFFSET -10.566743 -41.878031 2.772515
        CHANNELS 3 Xrotation Yrotation Zrotation
        End Site
        {
          OFFSET -3.170023 -12.563409 0.831755
        }
      }
    }
  }
}
MOTION
Frames: 96
Frame Time: 0.083333
0.000000 60.000000 0.000000 0.128820 -0.029334 -0.086078 0.000000 0.000000 0.000000 -0.104655 0.035151 0.088458 -0.023670 -0.020779 -0.071210 2.500000 0.000000 0.000000 0.000000 0.000000 0.000000 0.000000 0.000000 0.000000 0.000000 0.000000 0.000000 0.000000 0.000000 0.000000 0.000000 0.000000 0.000000 0.000000 0.000000 0.000000 0.000000 0.000000 0.000000 0.000000 0.000000 0.000000 0.000000 0.000000 0.000000 0.000000 0.000000 0.000000 0.000000 0.000000 0.000000 0.000000 0.000000 0.000000 0.000000 0.000000 0.000000 0.000000 0.000000 0.000000
0.000000 60.000000 0.000000 0.139535 -0.033185 -0.099050 0.000000 0.000000 0.000000 -0.113212 0.038955 0.098888 -0.025692 -0.022518 -0.076937 2.129515 0.000000 0.000000 0.240559 -0.151246 0.572554 0.015071 0.129508 -0.487959 -55.411875 3.701432 -102.042055 0.000000 0.000000 0.000000 0.000000 0.000000 0.000000 0.000000 0.000000 0.000000 0.000000 0.000000 0.000000 0.000000 0.000000 0.000000 -0.182001 -0.040412 -0.912454 1.719250 1.058978 -2.444115 0.000000 0.000000 0.000000 0.114136 0.173273 1.109189 -0.272269 0.034991 0.428773 0.000000 0.000000 0.000000
0.000000 60.000000 0.000000 0.139941 -0.033272 -0.099306 0.000000 0.000000 0.000000 -0.113498 0.039042 0.098952 -0.025784 -0.022576 -0.077125 5.000000 0.000000 0.000000 1.343478 -0.868772 3.433982 0.287002 0.714553 -2.816291 -49.476327 10.296611 -97.797298 0.000000 0.000000 0.000000 0.000000 0.000000 0.000000 0.000000 0.000000 0.000000 0.000000 0.000000 0.000000 0.000000 0.000000 0.000000 -0.882892 -0.169519 -4.738021 8.967524 6.294467 -12.125817 0.000000 0.000000 0.000000 0.699870 0.888728 5.888808 -1.685902 0.333327 2.426539 0.000000 0.000000 0.000000
0.000000 60.000000 0.000000 0.728849 -0.182914 -0.557056 0.000000 0.000000 0.000000 -0.588866 0.208725 0.530231 -0.135169 -0.117506 -0.399304 5.000000 0.000000 0.000000 3.349405 -2.231764 9.184353 1.838680 1.541342 -7.127152 -45.050517 15.075841 -90.876441 0.000000 0.000000 0.000000 0.000000 0.000000 0.000000 0.000000 0.000000 0.000000 0.000000 0.000000 0.000000 0.000000 0.000000 0.000000 -1.693120 -0.252500 -10.705860 19.288791 16.327096 -23.686390 0.000000 0.000000 0.000000 1.836108 1.858052 13.043625 -4.650932 1.322137 6.367312 0.000000 0.000000 0.000000
0.000000 60.000000 0.000000 1.766838 -0.474760 -1.481898 0.000000 0.000000 0.000000 -1.409305 0.517084 1.274585 -0.335659 -0.284626 -0.951348 5.000000 0.000000 0.000000 4.143432 -2.903682 12.619383 5.679242 0.940401 -8.775192 -7.023270 22.651264 -69.870313 0.000000 0.000000 0.000000 0.000000 0.000000 0.000000 0.000000 0.000000 0.000000 0.000000 0.000000 0.000000 0.000000 0.000000 0.000000 -0.519413 0.073681 -11.474116 14.082382 20.037023 -10.491502 0.000000 0.000000 0.000000 2.450724 1.120098 10.676092 -6.677635 2.940223 9.345918 0.000000 0.000000 0.000000
0.000000 60.000000 0.000000 2.037855 -0.548249 -1.723498 0.000000 0.000000 0.000000 -1.557557 0.545421 1.031850 -0.428004 -0.345788 -1.047332 5.000000 0.000000 0.000000 5.325891 -3.765449 16.029218 9.672980 -0.128138 -10.837279 9.867521 18.916652 -60.366626 0.000000 0.000000 0.000000 0.000000 0.000000 0.000000 0.000000 0.000000 0.000000 0.000000 0.000000 0.000000 0.000000 0.000000 0.000000 0.694161 -0.008085 -18.852799 10.734049 20.044528 -5.178286 0.000000 0.000000 0.000000 2.959293 0.551364 9.395292 -8.216560 4.295006 13.687527 0.000000 0.000000 0.000000
0.000000 60.000000 0.000000 2.378347 -0.345737 -0.816060 0.000000 0.000000 0.000000 -1.770049 0.329877 -0.341688 -0.608964 -0.556779 -1.272005 5.000000 0.000000 0.000000 5.581245 -4.410043 20.205096 10.659721 -0.612131 -14.259407 36.674128 7.812205 -47.959937 0.000000 0.000000 0.000000 0.000000 0.000000 0.000000 0.000000 0.000000 0.000000 25.433542 -29.970649 -122.061040 0.000000 0.000000 0.000000 2.352558 -0.068813 -27.413698 11.282327 19.508132 -11.418937 0.000000 0.000000 0.000000 3.389487 0.806174 11.663754 -9.447817 5.331102 12.961386 0.000000 0.000000 0.000000
0.000000 60.000000 0.000000 2.451351 -0.088218 0.271650 0.000000 0.000000 0.000000 -1.920210 0.052742 -1.581380 -0.849404 -1.036224 -1.687760 5.000000 0.000000 0.000000 4.643788 -4.488649 23.077395 13.036617 -2.401000 -17.029281 42.351864 5.497568 -46.813990 0.000000 0.000000 0.000000 0.000000 0.000000 0.000000 0.000000 0.000000 0.000000 12.283155 -14.719474 -122.893797 0.000000 0.000000 0.000000 1.800820 -0.480361 -31.570130 16.920136 19.238651 -26.718739 0.000000 0.000000 0.000000 0.916806 2.844288 17.818355 -8.444963 5.082804 6.680362 0.000000 0.000000 0.000000
0.000000 60.000000 0.000000 2.502030 0.086915 1.029372 0.000000 0.000000 0.000000 -2.019033 -0.087808 -2.226216 -1.034920 -1.381932 -2.026879 5.000000 0.000000 0.000000 3.492138 -4.265378 24.866643 14.159262 -3.672352 -18.914592 12.493461 -3.746529 -23.089644 0.000000 0.000000 0.000000 0.000000 0.000000 0.000000 0.000000 0.000000 0.000000 20.032760 -22.935661 -124.387132 0.000000 0.000000 0.000000 0.300184 -0.734833 -33.880883 18.798123 22.242971 -32.779196 0.000000 0.000000 0.000000 0.319548 3.311566 20.337732 -6.992674 4.310656 9.266076 0.000000 0.000000 0.000000
0.000000 60.000000 0.000000 3.439635 0.141080 1.553818 0.000000 0.000000 0.000000 -2.925599 -0.086415 -2.733859 -0.767615 -1.024368 -2.040971 5.000000 0.000000 0.000000 2.206388 -4.003635 26.148837 13.178904 -3.556393 -20.420399 0.000000 0.000000 0.000000 0.000000 0.000000 0.000000 0.000000 0.000000 0.000000 0.000000 0.000000 0.000000 -92.078662 15.585038 87.624590 0.000000 0.000000 0.000000 -1.525057 -1.056433 -33.607816 18.848586 24.068294 -32.209055 0.000000 0.000000 0.000000 0.022006 3.560906 22.201251 -6.047371 3.582335 11.802371 0.000000 0.000000 0.000000
0.000000 60.000000 0.000000 4.190740 0.189008 2.020481 0.000000 0.000000 0.000000 -3.512798 -0.026059 -3.142319 -0.513373 -0.521622 -1.894966 5.000000 0.000000 0.000000 1.524244 -3.762410 25.265320 11.908438 -2.865776 -19.953414 2.407820 21.215575 -65.464670 0.000000 0.000000 0.000000 0.000000 0.000000 0.000000 0.000000 0.000000 0.000000 -1.225421 -0.020172 -117.315120 0.000000 0.000000 0.000000 -4.030340 -1.278666 -31.455479 19.444277 24.758699 -30.720584 0.000000 0.000000 0.000000 -0.132523 3.678354 24.448286 -5.714856 3.687520 15.700361 0.000000 0.000000 0.000000
0.000000 60.000000 0.000000 5.227948 0.095265 1.964972 0.000000 0.000000 0.000000 -4.306748 0.178363 -3.016312 -0.460211 -0.233618 -1.822667 5.000000 0.000000 0.000000 2.545086 -3.702920 20.850733 9.855085 -1.343391 -16.405366 -5.737602 22.953623 -71.689513 0.000000 0.000000 0.000000 0.000000 0.000000 0.000000 0.000000 0.000000 0.000000 0.000000 0.000000 0.000000 0.000000 0.000000 0.000000 -4.499233 -1.067761 -27.967279 18.595246 24.787210 -27.451179 0.000000 0.000000 0.000000 0.426380 2.975999 22.876715 -6.597733 5.447271 21.142275 0.000000 0.000000 0.000000
0.000000 60.000000 0.000000 5.457708 -0.076048 1.266183 0.000000 0.000000 0.000000 -4.507261 0.350851 -2.076536 -0.439764 -0.154482 -1.743922 5.000000 0.000000 0.000000 4.026791 -2.848688 11.931438 5.557724 0.543606 -8.369182 0.000000 0.000000 0.000000 0.000000 0.000000 0.000000 0.000000 0.000000 0.000000 0.000000 0.000000 0.000000 0.000000 0.000000 0.000000 0.000000 0.000000 0.000000 -3.214860 -1.001737 -24.366331 19.006150 24.105267 -27.197232 0.000000 0.000000 0.000000 3.085143 1.198186 16.820926 -9.441896 8.913872 28.620760 0.000000 0.000000 0.000000
0.000000 60.000000 0.000000 3.908232 -0.138920 0.498188 0.000000 0.000000 0.000000 -3.296617 0.267888 -1.124991 -0.281071 -0.216705 -1.664486 5.000000 0.000000 0.000000 4.969076 -1.650916 3.214356 -0.264289 1.411905 -0.578928 -57.640666 6.271750 -97.553522 0.000000 0.000000 0.000000 0.000000 0.000000 0.000000 0.000000 0.000000 0.000000 -10.060688 18.165278 -108.000264 0.000000 0.000000 0.000000 0.082748 -1.008862 -19.611808 20.683307 22.012045 -30.753878 0.000000 0.000000 0.000000 6.347713 -0.712034 6.171450 -12.614775 10.343484 38.300105 0.000000 0.000000 0.000000
0.000000 60.000000 0.000000 0.514277 0.004745 0.133423 0.000000 0.000000 0.000000 -0.340560 -0.034848 -0.605681 -0.092206 -0.323138 -1.588719 5.000000 0.000000 0.000000 5.594939 -0.757412 -3.123451 -3.491857 0.547323 4.392074 -62.441972 2.439443 -98.559925 0.000000 0.000000 0.000000 0.000000 0.000000 0.000000 0.000000 0.000000 0.000000 0.000000 0.000000 0.000000 0.000000 0.000000 0.000000 2.719784 -0.776022 -13.680604 21.391660 19.039993 -33.613411 0.000000 0.000000 0.000000 8.988732 -2.518546 -2.668255 -15.300747 8.306111 33.426492 0.000000 0.000000 0.000000
0.000000 60.000000 0.000000 -1.539652 0.206361 0.390707 0.000000 0.000000 0.000000 1.532576 -0.319981 -0.966659 -0.139905 -0.495531 -1.449248 5.000000 0.000000 0.000000 5.279036 -0.328332 -5.701827 -5.485416 -0.232869 6.227060 -68.491445 -4.754840 -99.532384 0.000000 0.000000 0.000000 0.000000 0.000000 0.000000 0.000000 0.000000 0.000000 4.553891 -7.891072 -108.566946 0.000000 0.000000 0.000000 2.735980 -0.594616 -7.311971 22.326168 16.163739 -35.828528 0.000000 0.000000 0.000000 8.929081 -2.927109 -5.335919 -13.852282 4.359462 14.316088 0.000000 0.000000 0.000000
0.000000 60.000000 0.000000 -1.863347 0.296588 0.638921 0.000000 0.000000 0.000000 1.927277 -0.410426 -1.298630 -0.070814 -0.347971 -1.377004 5.000000 0.000000 0.000000 4.973097 0.077960 -7.815852 -9.212929 -0.849987 7.942973 -72.754599 -8.955148 -98.716094 0.000000 0.000000 0.000000 0.000000 0.000000 0.000000 0.000000 0.000000 0.000000 7.353682 -12.634175 -108.006723 0.000000 0.000000 0.000000 1.386992 -0.390506 -2.518489 23.088977 13.416658 -37.386738 0.000000 0.000000 0.000000 7.842238 -2.589670 -3.908174 -10.080772 2.099908 0.396239 0.000000 0.000000 0.000000
0.000000 60.000000 0.000000 -1.183759 0.286999 0.773894 0.000000 0.000000 0.000000 1.183060 -0.423177 -1.471155 0.077577 -0.213277 -1.296352 5.000000 0.000000 0.000000 4.613764 -0.098558 -6.485283 -11.080478 -0.461219 6.886871 -56.121654 -2.234352 -106.111736 0.000000 0.000000 0.000000 0.000000 0.000000 0.000000 0.000000 0.000000 0.000000 -3.020977 4.180596 -110.180594 0.000000 0.000000 0.000000 -0.411694 -0.302669 -1.456937 22.549062 13.027083 -33.451524 0.000000 0.000000 0.000000 6.231359 -1.544362 0.528026 -8.354205 1.909807 -1.467128 0.000000 0.000000 0.000000
0.000000 60.000000 0.000000 -0.321884 0.184217 0.607413 0.000000 0.000000 0.000000 0.486363 -0.265762 -1.352981 0.169455 0.024988 -1.263208 5.000000 0.000000 0.000000 2.970217 -0.315413 -4.290021 -8.937471 0.309385 5.624691 -46.784356 5.860584 -104.690332 0.000000 0.000000 0.000000 0.000000 0.000000 0.000000 0.000000 0.000000 0.000000 -13.925355 22.153579 -108.679848 0.000000 0.000000 0.000000 -3.072170 -0.447880 -3.439920 23.511634 14.065208 -31.787745 0.000000 0.000000 0.000000 4.461553 0.475778 9.599305 -6.860349 2.252302 4.152278 0.000000 0.000000 0.000000
0.000000 60.000000 0.000000 0.798737 -0.046214 -0.006038 0.000000 0.000000 0.000000 -0.152091 0.112035 -0.802085 -0.009369 0.198497 -1.260617 5.000000 0.000000 0.000000 2.531829 -0.559985 -2.403881 -5.653346 0.962156 5.315711 -65.563725 3.570237 -95.729450 0.000000 0.000000 0.000000 0.000000 0.000000 0.000000 0.000000 0.000000 0.000000 -19.072200 31.690154 -105.578159 0.000000 0.000000 0.000000 -6.277632 -1.167652 -12.258242 26.207490 17.382448 -34.624781 0.000000 0.000000 0.000000 2.734966 3.088427 22.605699 -5.854005 3.435665 14.357130 0.000000 0.000000 0.000000
0.000000 60.000000 0.000000 2.412083 -0.334534 -0.781502 0.000000 0.000000 0.000000 -1.527459 0.437809 -0.177479 -0.198003 0.157924 -1.315054 5.000000 0.000000 0.000000 3.625471 -0.965368 -0.493516 -1.987567 1.390034 5.039131 -53.400618 18.433980 -48.111028 0.000000 0.000000 0.000000 0.000000 0.000000 0.000000 0.000000 0.000000 0.000000 -19.310777 30.840188 -107.728753 0.000000 0.000000 0.000000 -6.889866 -1.542571 -18.064724 24.615419 20.699422 -31.151252 0.000000 0.000000 0.000000 1.771254 2.656620 20.294091 -6.670855 5.864319 25.877144 0.000000 0.000000 0.000000
0.000000 60.000000 0.000000 3.511456 -0.525503 -1.335417 0.000000 0.000000 0.000000 -2.692435 0.547468 0.208053 -0.443004 -0.205905 -1.346849 5.000000 0.000000 0.000000 5.576694 -1.252055 1.474082 3.380462 0.949931 2.724512 -32.947127 20.861203 -83.285655 0.000000 0.000000 0.000000 0.000000 0.000000 0.000000 0.000000 0.000000 0.000000 -15.965236 25.034167 -112.616186 0.000000 0.000000 0.000000 -4.993637 -1.235316 -18.081058 23.395455 21.245614 -31.539547 0.000000 0.000000 0.000000 2.231472 1.304844 13.365220 -9.192364 8.786025 33.991014 0.000000 0.000000 0.000000
0.000000 60.000000 0.000000 3.058130 -0.448143 -1.122421 0.000000 0.000000 0.000000 -2.970097 0.221815 -0.011775 -1.022399 -1.616175 -1.576158 5.000000 0.000000 0.000000 7.517187 -0.992100 2.140883 7.105934 0.287908 1.434433 -29.898013 22.438470 -82.806767 0.000000 0.000000 0.000000 0.000000 0.000000 0.000000 0.000000 0.000000 0.000000 -11.537554 18.370441 -114.705291 0.000000 0.000000 0.000000 -0.906108 -0.811563 -19.334369 20.214132 22.225606 -30.360171 0.000000 0.000000 0.000000 3.118311 -0.557435 3.585089 -12.475139 10.370695 38.949867 0.000000 0.000000 0.000000
0.000000 60.000000 0.000000 1.952311 -0.090904 0.115058 0.000000 0.000000 0.000000 -3.017419 -0.540459 -1.552161 -1.764433 -3.766539 -1.937181 5.000000 0.000000 0.000000 7.505475 -0.651459 4.468123 9.650392 -0.494311 -1.093987 -35.648814 21.071542 -87.391508 0.000000 0.000000 0.000000 0.000000 0.000000 0.000000 0.000000 0.000000 0.000000 -21.910043 29.179519 -116.495260 0.000000 0.000000 0.000000 2.520884 -0.432314 -16.892868 18.679869 21.187881 -31.620973 0.000000 0.000000 0.000000 4.588413 -1.545342 -0.606977 -14.253953 8.725782 31.582979 0.000000 0.000000 0.000000
0.000000 60.000000 0.000000 0.805255 0.128772 0.703083 0.000000 0.000000 0.000000 -2.392138 -1.077803 -2.845138 -1.666568 -4.576671 -2.215306 5.000000 0.000000 0.000000 4.857373 0.126642 9.381696 15.604649 -3.014637 -5.746549 -30.513302 25.720034 -84.747057 0.000000 0.000000 0.000000 0.000000 0.000000 0.000000 0.000000 0.000000 0.000000 -44.270544 45.392739 -120.745006 0.000000 0.000000 0.000000 2.940536 -0.291570 -10.620401 19.987919 18.146777 -35.330042 0.000000 0.000000 0.000000 4.716144 -1.162546 1.270692 -13.727308 6.343780 16.479429 0.000000 0.000000 0.000000
0.000000 60.000000 0.000000 0.418648 0.157910 0.712251 0.000000 0.000000 0.000000 -2.429221 -1.493107 -3.738263 -1.497506 -5.596436 -2.770735 5.000000 0.000000 0.000000 0.325893 1.618152 14.521863 26.986698 -7.857044 -9.611525 -21.749279 28.702576 -78.858236 0.000000 0.000000 0.000000 0.000000 0.000000 0.000000 0.000000 0.000000 0.000000 -134.985923 53.145847 86.221168 0.000000 0.000000 0.000000 1.836905 0.032604 -5.363405 20.879996 14.956540 -39.270946 0.000000 0.000000 0.000000 3.181674 -0.076003 6.227775 -10.967422 5.114392 8.980170 0.000000 0.000000 0.000000
0.000000 60.000000 0.000000 1.638486 0.017403 0.493206 0.000000 0.000000 0.000000 -4.263216 -1.829301 -4.353515 -1.214020 -6.871631 -3.426366 5.000000 0.000000 0.000000 -1.401378 2.581211 16.748954 32.406174 -10.704124 -9.495746 -0.777487 29.143403 -68.533271 0.000000 0.000000 0.000000 0.000000 0.000000 0.000000 0.000000 0.000000 0.000000 145.943667 54.262293 45.085191 0.000000 0.000000 0.000000 -1.091535 0.211842 -5.352900 19.983526 13.887489 -37.197654 0.000000 0.000000 0.000000 1.801284 0.170614 9.631611 -10.953510 5.437369 6.871972 0.000000 0.000000 0.000000
0.000000 60.000000 0.000000 4.577344 -0.117769 0.779746 0.000000 0.000000 0.000000 -7.744268 -2.024623 -5.180225 -0.892767 -7.642202 -3.695143 5.000000 0.000000 0.000000 -2.798817 3.042797 19.168050 34.449204 -12.888583 -9.145316 28.416901 19.921199 -56.307075 0.000000 0.000000 0.000000 0.000000 0.000000 0.000000 0.000000 0.000000 0.000000 131.423671 54.644961 35.799825 0.000000 0.000000 0.000000 -1.774632 0.103449 -8.242620 18.114773 14.583412 -31.846521 0.000000 0.000000 0.000000 3.057674 -0.246757 12.384990 -11.397465 5.841952 3.231723 0.000000 0.000000 0.000000
0.000000 60.000000 0.000000 5.529969 -0.010408 1.574624 0.000000 0.000000 0.000000 -8.806350 -2.147687 -6.326578 -0.806812 -7.972913 -3.767052 5.000000 0.000000 0.000000 -4.609117 3.566162 21.923740 34.703734 -14.907817 -8.711200 55.263176 1.580884 -48.422182 0.000000 0.000000 0.000000 0.000000 0.000000 0.000000 0.000000 0.000000 0.000000 124.815439 55.834874 30.139588 0.000000 0.000000 0.000000 -1.082233 -0.115738 -11.357926 16.617251 15.413668 -27.950064 0.000000 0.000000 0.000000 4.910698 -0.734979 14.746751 -11.561185 6.318930 0.279119 0.000000 0.000000 0.000000
0.000000 60.000000 0.000000 5.241697 0.225015 2.595735 0.000000 0.000000 0.000000 -8.535102 -2.325486 -7.747715 -0.711538 -8.242736 -3.905283 5.000000 0.000000 0.000000 -5.955471 4.112671 23.684397 35.116898 -16.468016 -7.969417 67.742731 -8.851206 -47.402073 0.000000 0.000000 0.000000 0.000000 0.000000 0.000000 0.000000 0.000000 0.000000 120.491966 54.469710 29.329419 0.000000 0.000000 0.000000 -1.426731 -0.175456 -13.411160 16.089027 15.192537 -27.546621 0.000000 0.000000 0.000000 4.756758 -0.772989 16.912154 -11.684272 7.062424 -0.960053 0.000000 0.000000 0.000000
0.000000 60.000000 0.000000 5.977154 0.356452 3.519191 0.000000 0.000000 0.000000 -9.456460 -2.394999 -8.858896 -0.648620 -8.521784 -3.917820 5.000000 0.000000 0.000000 -7.460572 4.513161 24.153978 35.814832 -17.270966 -6.913310 73.599962 -13.426429 -47.564194 0.000000 0.000000 0.000000 0.826427 -0.977425 -6.040648 -1.667765 -0.234433 5.483046 118.894174 54.035230 29.422774 0.000000 0.000000 0.000000 -1.316147 -0.361562 -14.963406 16.200423 14.163661 -28.391913 0.000000 0.000000 0.000000 5.082541 -0.885091 18.272205 -11.919566 7.762948 -2.208584 0.000000 0.000000 0.000000
0.000000 60.000000 0.000000 5.903592 0.540387 4.338206 0.000000 0.000000 0.000000 -9.328587 -2.450054 -9.806446 -0.686809 -8.746631 -4.061776 5.000000 0.000000 0.000000 -9.418271 4.881563 24.023218 36.805965 -17.768846 -5.668822 76.167548 -16.678718 -46.768895 0.000000 0.000000 0.000000 4.517737 -5.334478 -33.096861 -9.114238 -1.253590 30.056481 104.553752 64.897662 37.281728 0.000000 0.000000 0.000000 -0.132172 -0.827981 -15.795605 16.981268 12.759484 -29.913212 0.000000 0.000000 0.000000 6.555757 -1.150502 18.562743 -12.551902 8.651774 -2.508302 0.000000 0.000000 0.000000
0.000000 60.000000 0.000000 4.218546 0.846534 4.957336 0.000000 0.000000 0.000000 -7.396313 -2.697347 -10.574458 -0.811953 -8.887448 -4.219219 5.000000 0.000000 0.000000 -10.216559 4.924454 23.981113 36.733065 -17.777112 -5.357103 76.316871 -16.132714 -47.223657 0.000000 0.000000 0.000000 10.547019 -12.429329 -77.621756 -21.276985 -2.812882 70.518706 100.718942 62.968073 38.064189 0.000000 0.000000 0.000000 0.565323 -1.085575 -15.683425 17.820250 12.417856 -31.599178 0.000000 0.000000 0.000000 7.094435 -1.094187 18.522693 -12.762592 8.936679 -2.342376 0.000000 0.000000 0.000000
0.000000 60.000000 0.000000 3.165549 0.994429 5.107607 0.000000 0.000000 0.000000 -6.128883 -2.824522 -10.751042 -0.907257 -8.928384 -4.360156 5.000000 0.000000 0.000000 -9.592055 4.771070 23.899162 36.464132 -17.629278 -5.482646 78.243426 -17.621781 -47.295602 0.000000 0.000000 0.000000 10.314840 -12.088173 -77.240022 -20.837627 -2.364435 70.184904 108.810130 12.915581 72.946725 0.000000 0.000000 0.000000 0.680563 -1.076326 -15.700888 17.922470 12.025473 -32.310502 0.000000 0.000000 0.000000 6.898548 -1.031586 18.176035 -13.031545 9.174991 -1.777228 0.000000 0.000000 0.000000
0.000000 60.000000 0.000000 3.166714 0.993999 5.105949 0.000000 0.000000 0.000000 -6.184989 -2.818208 -10.650579 -0.836379 -8.818102 -4.439696 5.000000 0.000000 0.000000 -9.893554 4.926938 23.952874 36.831369 -18.014610 -5.410650 76.278674 -15.364126 -47.724121 0.000000 0.000000 0.000000 9.955730 -11.642623 -76.511316 -20.253936 -1.799638 69.317128 106.772921 12.722056 73.524606 0.000000 0.000000 0.000000 0.605837 -1.011287 -15.269527 17.970847 9.461833 -33.235604 0.000000 0.000000 0.000000 7.390823 -1.447062 17.041498 -15.386661 11.127690 0.772083 0.000000 0.000000 0.000000
0.000000 60.000000 0.000000 3.257490 0.946493 4.945454 0.000000 0.000000 0.000000 -6.343821 -2.757080 -10.292328 -0.797880 -8.701436 -4.506845 5.000000 0.000000 0.000000 -9.819030 4.967854 24.431210 36.641542 -18.372956 -5.908886 78.288860 -18.172787 -46.882806 0.000000 0.000000 0.000000 9.652764 -11.283901 -75.662269 -19.790832 -1.242562 68.383661 107.279966 13.131990 73.054096 0.000000 0.000000 0.000000 1.817916 -1.026955 -14.895223 17.090262 4.682363 -34.136851 0.000000 0.000000 0.000000 10.133409 -3.216063 13.605121 -22.217358 15.934034 6.787563 0.000000 0.000000 0.000000
0.000000 60.000000 0.000000 2.868046 0.981582 4.915125 0.000000 0.000000 0.000000 -6.032602 -2.818558 -10.121887 -0.794862 -8.674210 -4.527765 5.000000 0.000000 0.000000 -9.477750 4.947957 25.334247 35.465814 -18.604299 -6.946951 78.432056 -17.952802 -47.112271 0.000000 0.000000 0.000000 9.815214 -11.640477 -75.355660 -20.041141 -1.190929 67.934085 110.648436 14.195102 71.457884 0.000000 0.000000 0.000000 3.981416 -1.202261 -14.407851 16.391462 1.145723 -35.493203 0.000000 0.000000 0.000000 13.925039 -5.283365 8.821623 -29.718591 19.210447 12.336334 0.000000 0.000000 0.000000
0.000000 60.000000 0.000000 1.650201 1.111032 4.906735 0.000000 0.000000 0.000000 -4.924928 -3.047395 -9.970461 -0.824193 -8.717226 -4.520803 5.000000 0.000000 0.000000 -9.897834 5.369777 26.207587 36.561098 -20.007198 -7.289543 76.125658 -14.741581 -48.005107 0.000000 0.000000 0.000000 10.188474 -11.971288 -75.285117 -20.318769 -1.110692 67.703337 110.958473 14.784704 70.895757 0.000000 0.000000 0.000000 4.907289 -1.239443 -14.069649 16.295559 0.047658 -36.617295 0.000000 0.000000 0.000000 14.567379 -5.622220 6.211586 -29.362018 16.196501 10.921402 0.000000 0.000000 0.000000
0.000000 60.000000 0.000000 1.189091 1.139835 4.821408 0.000000 0.000000 0.000000 -4.764484 -3.171158 -9.652390 -0.718093 -8.685445 -4.534942 5.000000 0.000000 0.000000 -10.820774 5.944850 26.657788 38.821326 -21.724308 -6.965320 71.157288 -10.084764 -48.567931 0.000000 0.000000 0.000000 10.442167 -12.029771 -75.607610 -20.328122 -1.038865 67.894294 107.239678 14.568215 71.707128 0.000000 0.000000 0.000000 5.006178 -1.093505 -13.541342 16.086131 -1.038416 -37.527812 0.000000 0.000000 0.000000 14.169825 -5.452953 6.184348 -28.540727 14.588226 6.837993 0.000000 0.000000 0.000000
0.000000 60.000000 0.000000 1.534897 1.058532 4.641849 0.000000 0.000000 0.000000 -5.363648 -3.105744 -9.220206 -0.666514 -8.684715 -4.523069 5.000000 0.000000 0.000000 -10.591810 6.108019 26.829568 39.923081 -22.511253 -7.221708 68.880128 -7.532761 -49.139946 0.000000 0.000000 0.000000 10.642235 -11.888116 -76.129378 -20.171616 -0.910521 68.358106 102.353082 14.150084 72.757100 0.000000 0.000000 0.000000 4.170566 -0.851241 -12.768169 16.110817 -1.799359 -38.203580 0.000000 0.000000 0.000000 12.630082 -4.747678 7.766606 -27.289074 14.368939 3.867254 0.000000 0.000000 0.000000
0.000000 60.000000 0.000000 2.381408 0.902690 4.367093 0.000000 0.000000 0.000000 -6.460615 -2.941907 -8.694832 -0.645004 -8.727427 -4.473880 5.000000 0.000000 0.000000 -10.680778 6.147998 26.014793 40.802651 -22.389087 -6.613422 69.183860 -7.954733 -48.979666 0.000000 0.000000 0.000000 10.615623 -11.738688 -76.718924 -19.909806 -0.872521 68.918973 99.261870 13.814351 73.422569 0.000000 0.000000 0.000000 3.140238 -0.641023 -11.838268 16.339418 -1.462106 -38.696930 0.000000 0.000000 0.000000 10.966880 -3.976042 8.978187 -25.420901 13.953209 3.001051 0.000000 0.000000 0.000000
0.000000 60.000000 0.000000 3.132177 0.752667 4.059832 0.000000 0.000000 0.000000 -7.230293 -2.729894 -8.185020 -0.749608 -8.849138 -4.500072 5.000000 0.000000 0.000000 -11.094961 6.100449 24.715291 41.068283 -21.508406 -5.604753 70.357685 -9.566264 -48.458194 0.000000 0.000000 0.000000 10.529359 -11.896518 -77.071650 -19.970142 -1.000728 69.291208 99.854767 13.818850 73.363839 0.000000 0.000000 0.000000 2.377929 -0.532966 -11.006862 16.533805 -1.081290 -38.799831 0.000000 0.000000 0.000000 9.932055 -3.430255 9.996518 -23.821212 13.487045 2.323031 0.000000 0.000000 0.000000
0.000000 60.000000 0.000000 3.504827 0.663505 3.837333 0.000000 0.000000 0.000000 -7.410298 -2.565444 -7.920115 -0.829751 -8.872238 -4.624468 5.000000 0.000000 0.000000 -10.874711 5.814287 23.658384 40.272221 -20.241016 -5.175005 69.453014 -9.633086 -47.939985 0.000000 0.000000 0.000000 10.464820 -12.174373 -76.950162 -20.243373 -1.140987 69.160010 105.292682 14.338147 72.196620 0.000000 0.000000 0.000000 1.980232 -0.523543 -10.218216 16.988959 0.383483 -38.905536 0.000000 0.000000 0.000000 9.645283 -3.061422 11.261429 -22.204102 12.975382 1.268367 0.000000 0.000000 0.000000
0.000000 60.000000 0.000000 3.386137 0.630129 3.642795 0.000000 0.000000 0.000000 -7.084697 -2.513814 -7.800041 -0.848254 -8.830461 -4.732408 5.000000 0.000000 0.000000 -10.661223 5.563816 23.143066 39.478129 -19.381116 -5.116798 68.223453 -9.025412 -47.632619 0.000000 0.000000 0.000000 10.461753 -12.496785 -76.873775 -20.647311 -1.428095 68.996681 107.875057 13.962428 72.168602 0.000000 0.000000 0.000000 1.614368 -0.496387 -9.562362 17.290696 1.406237 -39.165262 0.000000 0.000000 0.000000 9.316738 -2.785781 12.306340 -20.916873 12.530757 0.300899 0.000000 0.000000 0.000000
0.000000 60.000000 0.000000 3.464431 0.601723 3.552155 0.000000 0.000000 0.000000 -6.969437 -2.455797 -7.826980 -0.870319 -8.772395 -4.767296 5.000000 0.000000 0.000000 -10.751702 5.483165 22.771724 39.534075 -19.013604 -4.993962 65.950322 -7.143964 -47.706516 0.000000 0.000000 0.000000 10.675746 -13.077562 -76.954523 -21.427344 -1.791326 68.976506 99.144454 62.710509 37.616210 0.000000 0.000000 0.000000 1.356109 -0.406616 -8.832551 17.131589 1.259352 -39.754325 0.000000 0.000000 0.000000 8.753811 -2.566249 12.966296 -20.202994 12.306935 -0.269401 0.000000 0.000000 0.000000
0.000000 60.000000 0.000000 3.885942 0.554030 3.518187 0.000000 0.000000 0.000000 -7.267604 -2.368205 -7.881642 -0.879768 -8.744970 -4.790312 5.000000 0.000000 0.000000 -11.142807 5.482763 22.002701 40.163002 -18.618468 -4.376355 62.089912 -4.048613 -47.918735 0.000000 0.000000 0.000000 10.862081 -13.597388 -77.179131 -22.109262 -2.086570 69.180671 99.450327 61.608073 38.838741 0.000000 0.000000 0.000000 0.610541 -0.262672 -8.308499 16.988376 0.757550 -40.259354 0.000000 0.000000 0.000000 7.836297 -2.335606 13.530647 -19.836234 12.298858 -0.721040 0.000000 0.000000 0.000000
0.000000 60.000000 0.000000 4.740185 0.473083 3.517793 0.000000 0.000000 0.000000 -7.989176 -2.203968 -7.934842 -0.897555 -8.732872 -4.851771 5.000000 0.000000 0.000000 -11.257172 5.513287 21.154379 40.575114 -18.089948 -3.823569 60.434467 -2.721755 -47.945139 0.000000 0.000000 0.000000 11.085193 -13.804382 -77.630809 -22.400856 -2.258322 69.722970 96.808941 60.063373 39.386182 0.000000 0.000000 0.000000 0.329732 -0.223607 -8.128413 16.747743 0.354372 -40.044820 0.000000 0.000000 0.000000 7.517134 -2.234906 13.970570 -19.719027 12.481798 -0.768847 0.000000 0.000000 0.000000
0.000000 60.000000 0.000000 5.031432 0.454695 3.559343 0.000000 0.000000 0.000000 -8.308032 -2.178503 -7.992190 -0.888031 -8.759337 -4.838582 5.000000 0.000000 0.000000 -11.039093 5.465325 20.869348 40.512361 -17.803678 -3.804811 60.387982 -2.852069 -47.815751 0.000000 0.000000 0.000000 11.275125 -13.989826 -77.887071 -22.573877 -2.325439 70.119996 103.965651 12.582979 74.109199 0.000000 0.000000 0.000000 0.418627 -0.240817 -8.100570 16.606032 0.527476 -39.818478 0.000000 0.000000 0.000000 7.509466 -2.197304 14.254427 -19.508067 12.512310 -0.806143 0.000000 0.000000 0.000000
0.000000 60.000000 0.000000 4.985583 0.471167 3.615134 0.000000 0.000000 0.000000 -8.304089 -2.208840 -8.063071 -0.874852 -8.776196 -4.814939 5.000000 0.000000 0.000000 -10.479611 5.312287 21.158070 40.261032 -17.879992 -4.247319 59.787546 -1.369661 -48.691610 0.000000 0.000000 0.000000 11.235749 -13.904503 -77.764746 -22.378788 -2.146697 70.149399 100.886489 13.064612 74.060689 0.000000 0.000000 0.000000 0.607977 -0.283909 -8.263637 16.528519 0.849765 -39.750626 0.000000 0.000000 0.000000 7.594122 -2.258331 14.195601 -19.286144 12.369283 -0.904586 0.000000 0.000000 0.000000
0.000000 60.000000 0.000000 4.906481 0.510663 3.761656 0.000000 0.000000 0.000000 -8.254806 -2.240350 -8.214087 -0.880336 -8.798456 -4.795172 5.000000 0.000000 0.000000 -9.609484 5.058771 21.654126 40.105908 -18.148416 -4.960643 60.474598 -1.904752 -48.608466 0.000000 0.000000 0.000000 11.051950 -13.664172 -77.428379 -21.933654 -1.743429 70.010890 99.314695 13.404159 73.820237 0.000000 0.000000 0.000000 0.843317 -0.356966 -8.597189 16.573738 1.394733 -39.859416 0.000000 0.000000 0.000000 7.695181 -2.367427 13.933080 -18.955485 12.060235 -1.116640 0.000000 0.000000 0.000000
0.000000 60.000000 0.000000 4.793121 0.575652 4.008479 0.000000 0.000000 0.000000 -8.174173 -2.270726 -8.421895 -0.895436 -8.790273 -4.777735 5.000000 0.000000 0.000000 -9.256325 4.917919 21.861103 39.767792 -18.217436 -5.370794 60.774039 -1.917285 -48.734191 0.000000 0.000000 0.000000 10.704402 -13.280120 -76.998332 -21.302587 -1.070235 69.894777 91.726290 12.457321 75.186725 0.000000 0.000000 0.000000 1.079585 -0.406364 -8.733729 16.599213 1.561504 -39.882037 0.000000 0.000000 0.000000 7.868093 -2.414613 13.854764 -18.755563 11.857260 -1.330707 0.000000 0.000000 0.000000
0.000000 60.000000 0.000000 4.591485 0.610184 4.075019 0.000000 0.000000 0.000000 -7.949178 -2.271050 -8.399970 -0.924095 -8.739509 -4.803951 5.000000 0.000000 0.000000 -9.323723 4.925528 21.982830 39.967269 -18.435256 -5.464667 60.771654 -1.923718 -48.709168 0.000000 0.000000 0.000000 10.227631 -12.590924 -76.441863 -20.350446 -0.099827 69.879286 83.202939 11.156505 76.408183 0.000000 0.000000 0.000000 1.189671 -0.414039 -8.770183 16.628379 1.841905 -39.926688 0.000000 0.000000 0.000000 7.901375 -2.411431 13.846168 -18.476397 11.608496 -1.488376 0.000000 0.000000 0.000000
0.000000 60.000000 0.000000 4.532087 0.614868 4.069488 0.000000 0.000000 0.000000 -7.874676 -2.256996 -8.334433 -0.943589 -8.717582 -4.824792 5.000000 0.000000 0.000000 -9.352202 4.924247 22.053951 40.092153 -18.559419 -5.561480 59.113571 -0.401212 -49.055638 0.000000 0.000000 0.000000 9.678369 -11.606461 -76.153961 -19.104384 0.706206 70.057438 77.134763 9.747903 77.638489 0.000000 0.000000 0.000000 1.259785 -0.424359 -8.802685 16.675952 1.983206 -39.958581 0.000000 0.000000 0.000000 7.956308 -2.415177 13.839145 -18.367107 11.491521 -1.629921 0.000000 0.000000 0.000000
0.000000 60.000000 0.000000 4.463980 0.620120 4.062633 0.000000 0.000000 0.000000 -7.795044 -2.252870 -8.292049 -0.959946 -8.713343 -4.839591 5.000000 0.000000 0.000000 -9.323694 4.929978 22.073539 40.379054 -18.674054 -5.627555 56.726161 1.618303 -49.473281 0.000000 0.000000 0.000000 9.280115 -10.787074 -75.995340 -18.183264 1.246830 70.157730 74.962803 9.019754 78.315688 0.000000 0.000000 0.000000 1.334959 -0.436491 -8.822888 16.743722 2.088606 -40.054319 0.000000 0.000000 0.000000 7.993831 -2.407210 13.832666 -18.266872 11.395459 -1.708643 0.000000 0.000000 0.000000
0.000000 60.000000 0.000000 4.388227 0.626324 4.056663 0.000000 0.000000 0.000000 -7.738104 -2.268809 -8.275301 -0.987434 -8.752062 -4.806788 5.000000 0.000000 0.000000 -9.195280 4.915664 22.104887 40.517451 -18.717897 -5.775829 55.158793 2.896881 -49.734064 0.000000 0.000000 0.000000 9.116938 -10.346615 -76.046289 -17.749798 1.424349 70.267308 76.154489 9.218906 78.169480 0.000000 0.000000 0.000000 1.339715 -0.439643 -8.849366 16.803319 2.091058 -40.148778 0.000000 0.000000 0.000000 7.931604 -2.370983 13.821734 -18.167138 11.302173 -1.792417 0.000000 0.000000 0.000000
0.000000 60.000000 0.000000 4.372089 0.627511 4.054748 0.000000 0.000000 0.000000 -7.756228 -2.284840 -8.275113 -1.013765 -8.804921 -4.755135 5.000000 0.000000 0.000000 -8.929452 4.818550 22.146252 40.417370 -18.629732 -5.993109 53.638690 4.167335 -50.050483 0.000000 0.000000 0.000000 9.071025 -10.225425 -76.093886 -17.664479 1.383171 70.304659 76.777085 9.289357 78.152627 0.000000 0.000000 0.000000 1.139131 -0.401851 -8.858161 16.828491 2.003805 -40.230994 0.000000 0.000000 0.000000 7.694854 -2.314388 13.829255 -18.170915 11.296648 -1.850049 0.000000 0.000000 0.000000
0.000000 60.000000 0.000000 4.574856 0.604170 4.040056 0.000000 0.000000 0.000000 -7.943893 -2.258052 -8.302687 -1.008875 -8.819393 -4.750338 5.000000 0.000000 0.000000 -8.719857 4.751977 22.103124 40.413203 -18.474813 -6.043479 53.186958 4.610522 -50.155546 0.000000 0.000000 0.000000 9.056163 -10.095080 -76.119049 -17.605668 1.320993 70.372783 77.416588 9.434148 78.081541 0.000000 0.000000 0.000000 0.902685 -0.343437 -8.808210 16.802229 1.861011 -40.199557 0.000000 0.000000 0.000000 7.455266 -2.241004 13.923647 -18.249417 11.367635 -1.865585 0.000000 0.000000 0.000000
0.000000 60.000000 0.000000 4.810281 0.563683 3.961816 0.000000 0.000000 0.000000 -8.170010 -2.242475 -8.323978 -0.991281 -8.858445 -4.722334 5.000000 0.000000 0.000000 -8.611003 4.828596 21.906561 40.570228 -18.300206 -5.840758 53.515588 4.412916 -50.086928 0.000000 0.000000 0.000000 9.279475 -10.128621 -76.244465 -17.795608 1.160944 70.499679 77.957406 9.513644 78.061955 0.000000 0.000000 0.000000 0.886052 -0.302704 -8.657156 16.786703 1.745735 -40.184880 0.000000 0.000000 0.000000 7.451799 -2.176493 14.136498 -18.299867 11.432998 -1.874531 0.000000 0.000000 0.000000
0.000000 60.000000 0.000000 4.822491 0.526725 3.798887 0.000000 0.000000 0.000000 -8.302480 -2.306200 -8.248852 -0.973289 -8.968475 -4.596812 5.000000 0.000000 0.000000 -8.567600 5.031791 21.771591 40.743490 -18.271069 -5.634460 53.854949 4.122992 -49.957011 0.000000 0.000000 0.000000 9.736552 -10.384815 -76.486013 -18.256184 0.948455 70.658258 78.237943 9.523859 78.110199 0.000000 0.000000 0.000000 1.053900 -0.292544 -8.494081 16.808389 1.770723 -40.208381 0.000000 0.000000 0.000000 7.627877 -2.137099 14.360062 -18.234314 11.419151 -1.856858 0.000000 0.000000 0.000000
0.000000 60.000000 0.000000 4.644442 0.508086 3.636612 0.000000 0.000000 0.000000 -8.378260 -2.427147 -8.088298 -0.982386 -9.123198 -4.374400 5.000000 0.000000 0.000000 -8.754292 5.336215 21.721253 40.936335 -18.388582 -5.352095 56.378586 1.870105 -49.368039 0.000000 0.000000 0.000000 10.356519 -10.921291 -76.803119 -18.998654 0.644746 70.846479 78.703644 9.698048 77.915975 0.000000 0.000000 0.000000 1.401039 -0.308334 -8.295771 16.856909 1.814413 -40.265274 0.000000 0.000000 0.000000 7.996388 -2.118945 14.602178 -18.123361 11.381867 -1.774920 0.000000 0.000000 0.000000
0.000000 60.000000 0.000000 4.269380 0.504357 3.460287 0.000000 0.000000 0.000000 -8.291647 -2.576231 -7.867286 -0.973153 -9.235999 -4.162002 5.000000 0.000000 0.000000 -9.194974 5.701718 21.698322 41.135417 -18.578352 -4.872329 58.926720 -0.384780 -48.987404 0.000000 0.000000 0.000000 11.023905 -11.624901 -77.122450 -19.867352 0.256498 71.017308 79.431844 10.046108 77.571202 0.000000 0.000000 0.000000 1.891589 -0.346144 -8.075393 16.923709 1.857542 -40.326618 0.000000 0.000000 0.000000 8.533037 -2.124023 14.830238 -18.024629 11.347814 -1.669173 0.000000 0.000000 0.000000
0.000000 60.000000 0.000000 3.728306 0.514636 3.283749 0.000000 0.000000 0.000000 -8.013871 -2.734158 -7.637429 -0.967399 -9.332441 -3.978865 5.000000 0.000000 0.000000 -9.835327 6.111038 21.632442 41.541783 -18.816254 -4.221935 60.992494 -2.398228 -48.578321 0.000000 0.000000 0.000000 11.671201 -12.342681 -77.421984 -20.727359 -0.174666 71.153067 80.357083 10.462658 77.115662 0.000000 0.000000 0.000000 2.580046 -0.400587 -7.792677 16.971085 1.867709 -40.404846 0.000000 0.000000 0.000000 9.259332 -2.144233 15.082783 -17.982421 11.353985 -1.568449 0.000000 0.000000 0.000000
0.000000 60.000000 0.000000 3.002393 0.535244 3.084467 0.000000 0.000000 0.000000 -7.525727 -2.907007 -7.395050 -0.967721 -9.410935 -3.795159 5.000000 0.000000 0.000000 -10.315341 6.399093 21.608438 41.659409 -18.937150 -3.807258 63.249691 -4.513369 -48.165502 0.000000 0.000000 0.000000 12.087909 -12.811062 -77.582841 -21.268757 -0.470026 71.193752 81.469276 10.850793 76.690972 0.000000 0.000000 0.000000 3.259990 -0.470092 -7.603054 17.006163 1.882451 -40.471344 0.000000 0.000000 0.000000 9.961743 -2.191387 15.232624 -17.938359 11.336579 -1.531197 0.000000 0.000000 0.000000
0.000000 60.000000 0.000000 2.297417 0.572167 2.970882 0.000000 0.000000 0.000000 -6.978234 -3.051113 -7.253785 -0.980240 -9.461193 -3.655848 5.000000 0.000000 0.000000 -10.447665 6.524135 21.625976 41.535590 -18.941218 -3.695976 61.896162 -3.605828 -48.198927 0.000000 0.000000 0.000000 12.300129 -13.005940 -77.666694 -21.508800 -0.632042 71.201314 82.067575 11.033328 76.510917 0.000000 0.000000 0.000000 3.712621 -0.514464 -7.469290 17.019055 1.859968 -40.536703 0.000000 0.000000 0.000000 10.418451 -2.221894 15.325898 -17.910728 11.323660 -1.523595 0.000000 0.000000 0.000000
0.000000 60.000000 0.000000 1.838667 0.597068 2.903476 0.000000 0.000000 0.000000 -6.614846 -3.144327 -7.177927 -1.012426 -9.511518 -3.537959 5.000000 0.000000 0.000000 -10.380836 6.575868 21.667916 41.449415 -18.945314 -3.764327 60.983521 -2.893220 -48.292536 0.000000 0.000000 0.000000 12.374408 -12.954094 -77.710148 -21.501215 -0.653535 71.204318 81.478839 10.865464 76.724928 0.000000 0.000000 0.000000 3.899896 -0.527885 -7.396534 17.021269 1.856214 -40.574772 0.000000 0.000000 0.000000 10.593641 -2.225346 15.372468 -17.867832 11.296000 -1.507813 0.000000 0.000000 0.000000
0.000000 60.000000 0.000000 1.656299 0.604227 2.866188 0.000000 0.000000 0.000000 -6.516286 -3.197742 -7.133555 -1.065695 -9.580945 -3.411142 5.000000 0.000000 0.000000 -10.270924 6.546953 21.701877 41.466219 -18.950475 -3.913961 59.596910 -1.653696 -48.463949 0.000000 0.000000 0.000000 12.276846 -12.728023 -77.717514 -21.282454 -0.545237 71.252240 80.393142 10.517966 77.072206 0.000000 0.000000 0.000000 3.868749 -0.519456 -7.370720 17.039509 1.912586 -40.619801 0.000000 0.000000 0.000000 10.548978 -2.212045 15.377530 -17.818191 11.255855 -1.511294 0.000000 0.000000 0.000000
0.000000 60.000000 0.000000 1.692453 0.598678 2.856874 0.000000 0.000000 0.000000 -6.557385 -3.196229 -7.130625 -1.100743 -9.616179 -3.366304 5.000000 0.000000 0.000000 -10.099022 6.461346 21.764437 41.616897 -18.996290 -4.228160 55.722476 1.731789 -49.113443 0.000000 0.000000 0.000000 12.115533 -12.476245 -77.710433 -21.007113 -0.362186 71.356964 78.554897 9.986725 77.561616 0.000000 0.000000 0.000000 3.788002 -0.519556 -7.418272 17.071049 2.038703 -40.662059 0.000000 0.000000 0.000000 10.450396 -2.214551 15.325686 -17.760213 11.194718 -1.573445 0.000000 0.000000 0.000000
0.000000 60.000000 0.000000 1.781918 0.600788 2.897924 0.000000 0.000000 0.000000 -6.609690 -3.176020 -7.181569 -1.096304 -9.610050 -3.405312 5.000000 0.000000 0.000000 -9.785377 6.322646 21.853871 41.828947 -19.058783 -4.698961 51.567608 5.314017 -50.038257 0.000000 0.000000 0.000000 11.941251 -12.222025 -77.703444 -20.719118 -0.147218 71.489512 76.734317 9.422238 78.099142 0.000000 0.000000 0.000000 3.690798 -0.528093 -7.507558 17.119014 2.272274 -40.714424 0.000000 0.000000 0.000000 10.319924 -2.227151 15.228267 -17.639691 11.076535 -1.661904 0.000000 0.000000 0.000000
0.000000 60.000000 0.000000 1.892054 0.610324 2.976960 0.000000 0.000000 0.000000 -6.676929 -3.153081 -7.267896 -1.095032 -9.608282 -3.455360 5.000000 0.000000 0.000000 -9.562040 6.201667 21.962370 42.077530 -19.161903 -5.105608 50.382711 6.595356 -50.349186 0.000000 0.000000 0.000000 11.712135 -11.881889 -77.727764 -20.330441 0.059461 71.629063 75.678030 9.079200 78.389827 0.000000 0.000000 0.000000 3.581256 -0.534703 -7.595813 17.171518 2.555911 -40.732706 0.000000 0.000000 0.000000 10.166523 -2.227276 15.128833 -17.481921 10.929704 -1.738009 0.000000 0.000000 0.000000
0.000000 60.000000 0.000000 2.004180 0.618218 3.050697 0.000000 0.000000 0.000000 -6.732148 -3.121917 -7.344766 -1.108955 -9.604108 -3.495585 5.000000 0.000000 0.000000 -9.395256 6.063453 21.992002 42.092178 -19.154538 -5.370394 51.031377 6.209877 -50.242469 0.000000 0.000000 0.000000 11.466878 -11.597586 -77.790754 -19.963452 0.189782 71.761340 74.887989 8.912828 78.532636 0.000000 0.000000 0.000000 3.443314 -0.534666 -7.681462 17.193289 2.641782 -40.715907 0.000000 0.000000 0.000000 9.977735 -2.211086 15.024229 -17.368568 10.813889 -1.788629 0.000000 0.000000 0.000000
0.000000 60.000000 0.000000 2.130311 0.621042 3.109291 0.000000 0.000000 0.000000 -6.762901 -3.067351 -7.394073 -1.144098 -9.591301 -3.544704 5.000000 0.000000 0.000000 -9.342856 5.996244 21.942711 41.992276 -19.113648 -5.412658 51.623226 5.721603 -50.088292 0.000000 0.000000 0.000000 11.314767 -11.446897 -77.828197 -19.737624 0.266025 71.791042 75.329843 8.950250 78.461406 0.000000 0.000000 0.000000 3.443815 -0.546885 -7.754601 17.215307 2.717696 -40.684270 0.000000 0.000000 0.000000 9.941792 -2.211280 14.927702 -17.263871 10.704599 -1.777861 0.000000 0.000000 0.000000
0.000000 60.000000 0.000000 2.116370 0.630008 3.140845 0.000000 0.000000 0.000000 -6.698561 -3.036257 -7.380464 -1.156577 -9.561107 -3.600810 5.000000 0.000000 0.000000 -9.325442 5.960161 21.931090 41.756155 -19.067018 -5.458073 52.757208 4.717447 -49.734340 0.000000 0.000000 0.000000 11.170677 -11.259741 -77.878105 -19.475085 0.313390 71.805060 75.933819 9.183096 78.177977 0.000000 0.000000 0.000000 3.576127 -0.574027 -7.791591 17.235233 2.755375 -40.671557 0.000000 0.000000 0.000000 10.032651 -2.220486 14.852349 -17.158316 10.596623 -1.765068 0.000000 0.000000 0.000000
0.000000 60.000000 0.000000 1.969473 0.647540 3.157356 0.000000 0.000000 0.000000 -6.523153 -3.031336 -7.350317 -1.159130 -9.527416 -3.647940 5.000000 0.000000 0.000000 -9.478271 5.983258 21.923065 41.550996 -19.031687 -5.377078 54.529624 3.097895 -49.289718 0.000000 0.000000 0.000000 11.122819 -11.249936 -77.890727 -19.401385 0.267800 71.785970 76.068456 9.390931 77.930485 0.000000 0.000000 0.000000 3.880198 -0.620352 -7.800797 17.244438 2.791211 -40.649040 0.000000 0.000000 0.000000 10.317737 -2.257101 14.819420 -17.094693 10.532143 -1.738788 0.000000 0.000000 0.000000
0.000000 60.000000 0.000000 1.656993 0.676227 3.157087 0.000000 0.000000 0.000000 -6.181976 -3.058653 -7.333026 -1.146501 -9.493245 -3.694548 5.000000 0.000000 0.000000 -9.637370 6.003203 21.926874 41.341888 -18.997079 -5.254666 55.988778 1.767188 -48.943919 0.000000 0.000000 0.000000 11.099315 -11.299954 -77.882082 -19.397899 0.204138 71.755768 76.041013 9.533241 77.763857 0.000000 0.000000 0.000000 4.070427 -0.649888 -7.811614 17.257486 2.822770 -40.619216 0.000000 0.000000 0.000000 10.490470 -2.270372 14.815244 -17.028558 10.474915 -1.739133 0.000000 0.000000 0.000000
0.000000 60.000000 0.000000 1.451639 0.693956 3.152312 0.000000 0.000000 0.000000 -5.938280 -3.071118 -7.324988 -1.133280 -9.464119 -3.743065 5.000000 0.000000 0.000000 -9.679763 6.004265 21.941220 41.184752 -18.970281 -5.212097 56.365361 1.424958 -48.885520 0.000000 0.000000 0.000000 11.077781 -11.304048 -77.857109 -19.376161 0.178322 71.708033 76.714962 9.660651 77.648412 0.000000 0.000000 0.000000 4.158966 -0.662068 -7.808565 17.269262 2.841095 -40.609887 0.000000 0.000000 0.000000 10.563282 -2.269054 14.814655 -16.978388 10.432843 -1.730589 0.000000 0.000000 0.000000
0.000000 60.000000 0.000000 1.353737 0.700703 3.143216 0.000000 0.000000 0.000000 -5.823555 -3.076377 -7.312749 -1.115167 -9.439762 -3.777608 5.000000 0.000000 0.000000 -9.613655 5.952006 21.952337 41.083623 -18.941480 -5.257197 55.018304 2.477970 -49.169285 0.000000 0.000000 0.000000 10.996114 -11.240819 -77.806936 -19.292905 0.204308 71.634733 77.085923 9.759146 77.589008 0.000000 0.000000 0.000000 4.121965 -0.649585 -7.792598 17.273852 2.868983 -40.610109 0.000000 0.000000 0.000000 10.518839 -2.251548 14.829542 -16.957561 10.415968 -1.727583 0.000000 0.000000 0.000000
0.000000 60.000000 0.000000 1.397599 0.691424 3.122240 0.000000 0.000000 0.000000 -5.827839 -3.050162 -7.286667 -1.103208 -9.409522 -3.822188 5.000000 0.000000 0.000000 -9.474397 5.809421 21.955904 40.915191 -18.853589 -5.392225 55.134309 2.425651 -49.152069 0.000000 0.000000 0.000000 10.768984 -11.053043 -77.746178 -19.048734 0.281360 71.578806 77.007267 9.677248 77.713031 0.000000 0.000000 0.000000 3.992524 -0.619091 -7.777580 17.271971 2.929590 -40.612023 0.000000 0.000000 0.000000 10.372424 -2.218701 14.846410 -16.938958 10.401073 -1.722980 0.000000 0.000000 0.000000
0.000000 60.000000 0.000000 1.545753 0.671146 3.095440 0.000000 0.000000 0.000000 -5.857658 -2.980850 -7.266732 -1.103511 -9.361813 -3.910904 5.000000 0.000000 0.000000 -9.197651 5.539163 21.986667 40.545455 -18.665599 -5.662475 54.474792 3.063232 -49.359830 0.000000 0.000000 0.000000 10.317453 -10.616495 -77.661479 -18.510971 0.483833 71.581071 76.364412 9.308825 78.124510 0.000000 0.000000 0.000000 3.566104 -0.558055 -7.805713 17.293664 3.019093 -40.617146 0.000000 0.000000 0.000000 9.944177 -2.158939 14.822474 -16.919102 10.384740 -1.713226 0.000000 0.000000 0.000000
0.000000 60.000000 0.000000 1.974403 0.632540 3.098033 0.000000 0.000000 0.000000 -6.067581 -2.844264 -7.305283 -1.114116 -9.295210 -4.059607 5.000000 0.000000 0.000000 -8.821679 5.220121 22.013335 40.140762 -18.439728 -5.984337 53.967743 3.540736 -49.494113 0.000000 0.000000 0.000000 9.810152 -10.106823 -77.572347 -17.886671 0.752463 71.630314 75.290591 8.966272 78.434975 0.000000 0.000000 0.000000 2.921373 -0.473002 -7.848145 17.319968 3.044911 -40.631146 0.000000 0.000000 0.000000 9.309916 -2.077186 14.771536 -16.909722 10.374427 -1.705059 0.000000 0.000000 0.000000
0.000000 60.000000 0.000000 2.607701 0.579457 3.117925 0.000000 0.000000 0.000000 -6.462891 -2.674563 -7.366971 -1.117337 -9.213176 -4.228521 5.000000 0.000000 0.000000 -8.574435 5.036764 22.021227 39.935330 -18.314713 -6.188838 53.724819 3.838441 -49.595136 0.000000 0.000000 0.000000 9.515406 -9.791875 -77.507941 -17.496941 0.958125 71.672571 74.683139 8.693166 78.687226 0.000000 0.000000 0.000000 2.497705 -0.419047 -7.889876 17.340085 3.083249 -40.639528 0.000000 0.000000 0.000000 8.890653 -2.027056 14.722671 -16.882625 10.348902 -1.695886 0.000000 0.000000 0.000000
0.000000 60.000000 0.000000 3.024377 0.546725 3.140573 0.000000 0.000000 0.000000 -6.757152 -2.572614 -7.402250 -1.107770 -9.152401 -4.330819 5.000000 0.000000 0.000000 -8.334881 4.858227 22.035455 39.757683 -18.210413 -6.388915 53.348212 4.257513 -49.739210 0.000000 0.000000 0.000000 9.241763 -9.514513 -77.462003 -17.155224 1.142844 71.711071 73.587127 8.318282 79.088172 0.000000 0.000000 0.000000 2.020677 -0.359001 -7.951302 17.362826 3.137942 -40.633791 0.000000 0.000000 0.000000 8.423014 -1.973246 14.663604 -16.842946 10.311964 -1.687982 0.000000 0.000000 0.000000
0.000000 60.000000 0.000000 3.491483 0.510741 3.169566 0.000000 0.000000 0.000000 -7.105296 -2.462893 -7.436163 -1.099723 -9.088244 -4.431273 5.000000 0.000000 0.000000 -8.183130 4.733045 22.029900 39.674778 -18.146498 -6.517740 53.153323 4.463956 -49.804422 0.000000 0.000000 0.000000 9.059859 -9.362254 -77.421412 -16.962345 1.281403 71.727588 72.866113 8.094607 79.314929 0.000000 0.000000 0.000000 1.633582 -0.312857 -8.036469 17.384714 3.184656 -40.614008 0.000000 0.000000 0.000000 8.043424 -1.933010 14.599259 -16.832636 10.296979 -1.671538 0.000000 0.000000 0.000000
0.000000 60.000000 0.000000 3.868722 0.483728 3.202374 0.000000 0.000000 0.000000 -7.394144 -2.375343 -7.464551 -1.089229 -9.028897 -4.513067 5.000000 0.000000 0.000000 -8.148020 4.708027 22.005378 39.689645 -18.139811 -6.546883 53.086196 4.536120 -49.813955 0.000000 0.000000 0.000000 9.031308 -9.358103 -77.398758 -16.948131 1.349507 71.726054 72.618107 7.984253 79.408535 0.000000 0.000000 0.000000 1.493310 -0.301050 -8.114192 17.411868 3.251932 -40.596986 0.000000 0.000000 0.000000 7.910130 -1.926368 14.539083 -16.818709 10.278039 -1.635770 0.000000 0.000000 0.000000
0.000000 60.000000 0.000000 3.998439 0.477756 3.228529 0.000000 0.000000 0.000000 -7.511415 -2.347941 -7.471459 -1.075271 -8.996050 -4.545570 5.000000 0.000000 0.000000 -8.135373 4.700610 21.982569 39.700317 -18.140729 -6.562924 53.473404 4.286107 -49.744437 0.000000 0.000000 0.000000 9.023891 -9.372134 -77.373925 -16.951484 1.404824 71.714226 72.108637 7.837333 79.539220 0.000000 0.000000 0.000000 1.419884 -0.298671 -8.173787 17.435428 3.291934 -40.598986 0.000000 0.000000 0.000000 7.840438 -1.929663 14.472410 -16.808483 10.260010 -1.590853 0.000000 0.000000 0.000000
0.000000 60.000000 0.000000 4.063315 0.477834 3.255296 0.000000 0.000000 0.000000 -7.576653 -2.333753 -7.475610 -1.067866 -8.975704 -4.564462 5.000000 0.000000 0.000000 -8.119684 4.698042 21.981084 39.702768 -18.155444 -6.588144 53.458607 4.297686 -49.740127 0.000000 0.000000 0.000000 9.020987 -9.379086 -77.349947 -16.949075 1.455741 71.699588 71.857064 7.760735 79.597612 0.000000 0.000000 0.000000 1.377935 -0.300021 -8.227623 17.452508 3.315579 -40.601035 0.000000 0.000000 0.000000 7.801082 -1.938275 14.401511 -16.796685 10.239021 -1.539261 0.000000 0.000000 0.000000
0.000000 60.000000 0.000000 4.099324 0.480259 3.280771 0.000000 0.000000 0.000000 -7.619944 -2.326446 -7.479053 -1.066606 -8.966707 -4.572423 5.000000 0.000000 0.000000 -8.132646 4.718256 21.994800 39.719839 -18.196289 -6.607680 53.278516 4.421329 -49.770058 0.000000 0.000000 0.000000 9.044363 -9.404630 -77.334654 -16.971970 1.490167 71.679005 71.562185 7.671274 79.675650 0.000000 0.000000 0.000000 1.393468 -0.311652 -8.289836 17.471340 3.349790 -40.596713 0.000000 0.000000 0.000000 7.819149 -1.957030 14.324284 -16.775154 10.208173 -1.494163 0.000000 0.000000 0.000000
0.000000 60.000000 0.000000 4.076134 0.489286 3.311320 0.000000 0.000000 0.000000 -7.620720 -2.333115 -7.483074 -1.066352 -8.966247 -4.570364 5.000000 0.000000 0.000000 -8.156644 4.741606 22.015354 39.738468 -18.241315 -6.620623 53.346210 4.357123 -49.748344 0.000000 0.000000 0.000000 9.067249 -9.427370 -77.323265 -16.994944 1.515539 71.659505 71.582631 7.662238 79.679562 0.000000 0.000000 0.000000 1.427695 -0.324325 -8.342543 17.486522 3.389776 -40.582820 0.000000 0.000000 0.000000 7.854957 -1.972788 14.275833 -16.752933 10.182421 -1.473971 0.000000 0.000000 0.000000
0.000000 60.000000 0.000000 4.034610 0.498425 3.334758 0.000000 0.000000 0.000000 -7.601470 -2.342640 -7.484433 -1.064728 -8.964927 -4.567770 5.000000 0.000000 0.000000 -8.196917 4.774059 22.033200 39.768561 -18.286757 -6.612693 53.008322 4.576929 -49.812494 0.000000 0.000000 0.000000 9.095853 -9.446044 -77.318524 -17.017760 1.522423 71.640808 71.742527 7.689593 79.647005 0.000000 0.000000 0.000000 1.483483 -0.337945 -8.373958 17.491973 3.419449 -40.560612 0.000000 0.000000 0.000000 7.913837 -1.987916 14.251750 -16.734981 10.166029 -1.460638 0.000000 0.000000 0.000000
0.000000 60.000000 0.000000 3.972805 0.507644 3.350145 0.000000 0.000000 0.000000 -7.565131 -2.357753 -7.484034 -1.059144 -8.963716 -4.562310 5.000000 0.000000 0.000000 -8.223692 4.792987 22.043714 39.767558 -18.308461 -6.605751 53.544372 4.160022 -49.684282 0.000000 0.000000 0.000000 9.115299 -9.465575 -77.319552 -17.036602 1.517804 71.630443 71.502439 7.677004 79.654751 0.000000 0.000000 0.000000 1.509183 -0.345843 -8.387283 17.504930 3.456880 -40.554418 0.000000 0.000000 0.000000 7.948783 -1.997141 14.239500 -16.709441 10.145743 -1.451816 0.000000 0.000000 0.000000
0.000000 60.000000 0.000000 3.937586 0.512877 3.358783 0.000000 0.000000 0.000000 -7.543546 -2.365645 -7.482444 -1.055662 -8.959536 -4.558885 5.000000 0.000000 0.000000 -8.238568 4.800784 22.052585 39.731196 -18.310084 -6.603308 53.855165 3.885622 -49.609276 0.000000 0.000000 0.000000 9.130875 -9.491878 -77.327300 -17.058657 1.503122 71.631470 71.098057 7.631647 79.693827 0.000000 0.000000 0.000000 1.509175 -0.350340 -8.396613 17.527704 3.515178 -40.548485 0.000000 0.000000 0.000000 7.964525 -2.001325 14.234968 -16.670188 10.118100 -1.437931 0.000000 0.000000 0.000000
0.000000 60.000000 0.000000 3.921039 0.515605 3.364019 0.000000 0.000000 0.000000 -7.531185 -2.368457 -7.482532 -1.052981 -8.954024 -4.559386 5.000000 0.000000 0.000000 -8.273148 4.815471 22.062999 39.717520 -18.321505 -6.582699 54.098015 3.680088 -49.556146 0.000000 0.000000 0.000000 9.148600 -9.518422 -77.340034 -17.082916 1.485418 71.641542 71.018219 7.645349 79.671569 0.000000 0.000000 0.000000 1.520952 -0.355180 -8.396644 17.551675 3.576529 -40.539645 0.000000 0.000000 0.000000 7.992735 -2.002984 14.245347 -16.623532 10.087964 -1.425084 0.000000 0.000000 0.000000
0.000000 60.000000 0.000000 3.890410 0.517971 3.361873 0.000000 0.000000 0.000000 -7.504258 -2.373755 -7.478876 -1.048674 -8.949601 -4.560751 5.000000 0.000000 0.000000 -8.337408 4.839964 22.074383 39.746192 -18.351149 -6.550259 54.159267 3.608316 -49.534051 0.000000 0.000000 0.000000 9.171405 -9.555645 -77.353011 -17.118878 1.463726 71.652291 70.717993 7.619091 79.691311 0.000000 0.000000 0.000000 1.557270 -0.363354 -8.399640 17.566552 3.617452 -40.531911 0.000000 0.000000 0.000000 8.034417 -2.006971 14.249448 -16.599298 10.071882 -1.422241 0.000000 0.000000 0.000000
0.000000 60.000000 0.000000 3.841868 0.522817 3.363290 0.000000 0.000000 0.000000 -7.459249 -2.382208 -7.480032 -1.043516 -8.945222 -4.563532 5.000000 0.000000 0.000000 -8.388517 4.858139 22.091778 39.758659 -18.374555 -6.533041 53.991535 3.703607 -49.555212 0.000000 0.000000 0.000000 9.189975 -9.585324 -77.374523 -17.148093 1.445475 71.678866 70.511567 7.577518 79.718034 0.000000 0.000000 0.000000 1.580904 -0.371473 -8.412204 17.574226 3.624983 -40.526877 0.000000 0.000000 0.000000 8.058256 -2.012081 14.238338 -16.591687 10.065887 -1.421065 0.000000 0.000000 0.000000
0.000000 60.000000 0.000000 3.809190 0.528383 3.374342 0.000000 0.000000 0.000000 -7.427947 -2.389048 -7.493707 -1.039868 -8.943479 -4.566413 5.000000 0.000000 0.000000 -8.431347 4.878343 22.119741 39.766813 -18.401109 -6.523973 54.230109 3.508375 -49.501684 0.000000 0.000000 0.000000 9.219606 -9.617898 -77.412656 -17.185658 1.423615 71.729012 71.186513 7.686437 79.587043 0.000000 0.000000 0.000000 1.604076 -0.382167 -8.436146 17.575480 3.603801 -40.522954 0.000000 0.000000 0.000000 8.078772 -2.021742 14.211253 -16.598286 10.068645 -1.420913 0.000000 0.000000 0.000000
0.000000 60.000000 0.000000 3.779187 0.536428 3.397332 0.000000 0.000000 0.000000 -7.405200 -2.399647 -7.522644 -1.032880 -8.944131 -4.568170 5.000000 0.000000 0.000000 -8.489266 4.904399 22.142794 39.791017 -18.429675 -6.499332 54.420597 3.336710 -49.448295 0.000000 0.000000 0.000000 9.255057 -9.663448 -77.431125 -17.237214 1.401454 71.760952 70.869456 7.637251 79.622585 0.000000 0.000000 0.000000 1.638293 -0.394258 -8.458160 17.569611 3.555748 -40.515269 0.000000 0.000000 0.000000 8.115708 -2.036010 14.184975 -16.608735 10.074065 -1.421368 0.000000 0.000000 0.000000
0.000000 60.000000 0.000000 3.740081 0.545228 3.419841 0.000000 0.000000 0.000000 -7.373821 -2.412650 -7.554021 -1.024026 -8.944541 -4.570027 5.000000 0.000000 0.000000 -8.548863 4.934363 22.152887 39.821400 -18.453766 -6.465484 54.487909 3.269529 -49.427846 0.000000 0.000000 0.000000 9.295684 -9.712154 -77.448741 -17.294357 1.381025 71.788076 71.241164 7.696244 79.550905 0.000000 0.000000 0.000000 1.677961 -0.404360 -8.468200 17.562427 3.510949 -40.508071 0.000000 0.000000 0.000000 8.157303 -2.047107 14.171324 -16.619471 10.079792 -1.429391 0.000000 0.000000 0.000000
