HIERARCHY
ROOT Hips
{
  OFFSET 0.000000 0.000000 0.000000
  CHANNELS 6 Xposition Yposition Zposition Xrotation Yrotation Zrotation
  JOINT Spine
  {
    OFFSET -1.497742 -24.188613 -2.980860
    CHANNELS 3 Xrotation Yrotation Zrotation
    JOINT Chest
    {
      OFFSET -1.497742 -24.188613 -2.980860
      CHANNELS 3 Xrotation Yrotation Zrotation
      JOINT Neck
      {
        OFFSET -0.839846 -18.403183 -5.817632
        CHANNELS 3 Xrotation Yrotation Zrotation
        JOINT Head
        {
          OFFSET 2.556783 2.353650 -12.249610
          CHANNELS 3 Xrotation Yrotation Zrotation
          End Site
          {
            OFFSET 0.0 5.0 2.0
          }
        }
      }
      JOINT LeftShoulder
      {
        OFFSET 17.157691 -0.499757 0.172752
        CHANNELS 3 Xrotation Yrotation Zrotation
        JOINT LeftArm
        {
          OFFSET 3.804724 23.970960 -0.232163
          CHANNELS 3 Xrotation Yrotation Zrotation
          JOINT LeftForeArm
          {
            OFFSET 4.234907 21.854164 -12.221253
            CHANNELS 3 Xrotation Yrotation Zrotation
            JOINT LeftHand
            {
              OFFSET -0.379233 6.572683 -3.575272
              CHANNELS 3 Xrotation Yrotation Zrotation
              End Site
              {
                OFFSET -3.0 0.0 2.0
              }
            }
          }
        }
      }
      JOINT RightShoulder
      {
        OFFSET -17.157691 0.499757 -0.172752
        CHANNELS 3 Xrotation Yrotation Zrotation
        JOINT RightArm
        {
          OFFSET -6.297551 24.269754 0.950965
          CHANNELS 3 Xrotation Yrotation Zrotation
          JOINT RightForeArm
          {
            OFFSET -1.172763 21.613634 -12.012026
            CHANNELS 3 Xrotation Yrotation Zrotation
            JOINT RightHand
            {
              OFFSET 1.550200 5.849362 -3.268212
              CHANNELS 3 Xrotation Yrotation Zrotation
              End Site
              {
                OFFSET 3.0 0.0 2.0
              }
            }
          }
        }
      }
    }
  }
  JOINT LeftUpLeg
  {
    OFFSET 11.413724 -0.166599 -0.452059
    CHANNELS 3 Xrotation Yrotation Zrotation
    JOINT LeftLeg
    {
      OFFSET -0.942045 42.054071 2.000000
      CHANNELS 3 Xrotation Yrotation Zrotation
      JOINT LeftFoot
      {
        OFFSET 5.651273 35.161090 11.732612
        CHANNELS 3 Xrotation Yrotation Zrotation
        JOINT LeftToeBase
        {
          OFFSET 4.975574 10.217273 -12.002525
          CHANNELS 3 Xrotation Yrotation Zrotation
          End Site
          {
            OFFSET 0.0 -1.0 3.0
          }
        }
      }
    }
  }
  JOINT RightUpLeg
  {
    OFFSET -11.413724 0.166599 0.452059
    CHANNELS 3 Xrotation Yrotation Zrotation
    JOINT RightLeg
    {
      OFFSET 3.989764 39.839749 2.927330
      CHANNELS 3 Xrotation Yrotation Zrotation
      JOINT RightFoot
      {
        OFFSET 5.927880 35.533834 13.164785
        CHANNELS 3 Xrotation Yrotation Zrotation
        JOINT RightToeBase
        {
          OFFSET -4.994884 9.908944 -11.189935
          CHANNELS 3 Xrotation Yrotation Zrotation
          End Site
          {
            OFFSET 0.0 -1.0 3.0
          }
        }
      }
    }
  }
}
MOTION
Frames: 37
Frame Time: 0.066667
0.000000 0.000000 0.000000 0.000000 0.000000 0.000000 0.000000 0.000000 0.000000 0.000000 0.000000 0.000000 0.000000 0.000000 0.000000 0.000000 0.000000 0.000000 0.000000 0.000000 0.000000 0.000000 0.000000 0.000000 0.000000 0.000000 0.000000 0.000000 0.000000 0.000000 0.000000 0.000000 0.000000 0.000000 0.000000 0.000000 0.000000 0.000000 0.000000 0.000000 0.000000 0.000000 -0.738047 -0.016532 0.000106 0.000000 0.000000 0.000000 93.479167 -25.923420 -27.487501 0.000000 0.000000 0.000000 0.000000 0.000000 0.000000 0.000000 0.000000 0.000000 90.537025 26.750670 26.993407 0.000000 0.000000 0.000000
0.000000 0.000000 0.000000 -0.010198 0.289442 -0.342353 0.018636 0.001277 -0.019703 0.011546 0.387255 -0.039760 -0.514340 1.122470 0.102986 0.000000 0.000000 0.000000 -0.417264 0.066612 0.028368 -1.396380 -0.045393 -0.552547 -0.726478 -0.803324 -1.377534 0.000000 0.000000 0.000000 -1.088009 -0.286232 0.138188 -4.601181 -0.277584 -0.036223 -1.890927 -0.374490 -1.518485 0.000000 0.000000 0.000000 -1.422680 -0.015417 -0.467980 -0.339758 -0.079201 0.404702 93.898526 -25.904811 -30.091345 0.000000 0.000000 0.000000 -1.444331 0.147724 -0.052845 -0.114733 0.958769 -2.553328 89.821713 26.768290 29.670335 0.000000 0.000000 0.000000
0.000000 0.000000 0.000000 -0.004153 0.087022 -0.134367 -0.553679 -0.086966 1.024050 0.010575 0.481386 0.587739 -0.203477 1.270973 0.198960 0.000000 0.000000 0.000000 -0.285353 0.059148 1.130303 -0.446022 -0.501262 -1.043264 -0.299701 -0.951707 -1.705525 0.000000 0.000000 0.000000 -5.983529 -1.487452 3.855680 -12.602451 -1.857766 -1.584945 -3.700782 -3.438313 -7.464167 0.000000 0.000000 0.000000 -1.527215 -0.071803 1.099924 -1.016015 0.352130 -0.585432 94.769871 -25.781014 -38.421267 0.000000 0.000000 0.000000 -1.802864 0.247567 -1.169672 -0.606767 1.340454 -3.418002 92.825811 26.704585 29.092467 0.000000 0.000000 0.000000
0.000000 0.000000 0.000000 0.010471 -0.011181 0.269137 -0.921755 -0.155533 1.845551 0.018557 0.771625 1.177158 0.226206 0.931334 0.227704 0.000000 0.000000 0.000000 -0.091870 0.040649 2.471996 0.424551 -0.376071 -0.530891 0.154906 -0.567433 -1.062413 0.000000 0.000000 0.000000 -6.785611 -1.632605 5.302869 -10.021704 -2.279631 -2.518772 -2.251449 -3.825202 -7.681431 0.000000 0.000000 0.000000 -1.637631 -0.121974 2.567723 -1.199535 -0.088707 0.871576 92.820327 -26.025896 -44.074189 0.000000 0.000000 0.000000 -1.911334 0.283474 -1.633750 -0.855079 1.251961 -3.080152 93.687261 26.639623 31.027793 0.000000 0.000000 0.000000
0.000000 0.000000 0.000000 0.015468 -0.294572 0.533667 0.892939 -0.434990 2.888908 -0.014396 0.028730 1.550891 1.640551 0.767157 0.501509 0.000000 0.000000 0.000000 1.016340 -0.158990 3.887192 2.267959 -0.107991 0.612626 1.254849 -0.073246 -0.274063 0.000000 0.000000 0.000000 -3.807280 -1.008188 5.794798 -5.286720 -2.163366 -3.019505 1.415662 -3.558837 -5.958403 0.000000 0.000000 0.000000 -0.560970 -0.135869 2.892118 0.647782 -0.378124 0.804119 90.935086 -26.326422 -44.450984 0.000000 0.000000 0.000000 -0.370677 0.147666 -1.577041 1.033554 0.934153 -2.917498 90.765216 26.741151 31.858775 0.000000 0.000000 0.000000
0.000000 0.000000 0.000000 0.023293 -0.782618 1.058859 3.977673 -0.791327 3.418197 -0.087929 -1.258742 2.432433 3.168676 1.875238 1.075771 0.000000 0.000000 0.000000 4.472918 -0.865685 5.090868 4.363229 -0.080406 1.465977 1.525081 0.547408 0.873659 0.000000 0.000000 0.000000 2.599142 0.311424 5.802518 3.239653 -1.821006 -3.832453 5.383707 -3.527884 -4.354679 0.000000 0.000000 0.000000 0.633467 -0.147234 3.041016 2.089598 -1.181797 2.371875 91.927766 -26.092965 -38.307825 0.000000 0.000000 0.000000 1.456468 -0.089454 -0.654886 2.049726 0.417033 -1.950077 89.859103 26.758925 28.072666 0.000000 0.000000 0.000000
0.000000 0.000000 0.000000 0.078079 -0.374613 2.297986 5.108584 -1.065295 4.409053 -0.114873 -1.189453 3.916756 3.888800 3.779543 1.666100 0.000000 0.000000 0.000000 6.319088 -1.311515 6.506074 4.706533 0.341871 2.433165 2.365592 0.832843 1.349546 0.000000 0.000000 0.000000 5.200010 1.043707 3.544946 8.198945 -0.489756 -1.971439 4.698993 -1.850147 -1.259535 0.000000 0.000000 0.000000 -0.565640 -0.147008 3.153989 4.269903 -1.792790 2.901938 91.366392 -25.953314 -26.245186 0.000000 0.000000 0.000000 4.622872 -0.662101 1.721016 9.554001 -0.859114 -1.680084 83.764592 26.472015 21.246242 0.000000 0.000000 0.000000
0.000000 0.000000 0.000000 0.087138 -1.120420 3.466087 5.595697 -1.250138 5.181673 -0.210552 -2.293404 4.768059 4.293048 2.735587 1.528050 0.000000 0.000000 0.000000 7.739035 -1.622703 6.531759 4.469752 0.329204 2.309778 3.502946 0.564927 0.725295 0.000000 0.000000 0.000000 6.566374 1.602133 1.068923 8.623141 0.852960 0.874916 4.427935 -0.545334 1.189144 0.000000 0.000000 0.000000 -2.388203 -0.161283 4.043597 5.602632 -2.790562 4.768805 87.162681 -26.071157 -27.420735 0.000000 0.000000 0.000000 6.428975 -1.258334 4.653133 13.981105 -1.278802 -2.269078 80.575934 25.800930 14.401334 0.000000 0.000000 0.000000
0.000000 0.000000 0.000000 0.124259 -1.288325 5.035983 5.388893 -1.255998 5.346863 -0.233031 -2.364717 5.332840 4.378289 3.093843 1.629865 0.000000 0.000000 0.000000 6.950952 -1.360809 4.853216 2.178305 0.897308 2.452958 2.727265 0.636336 0.937189 0.000000 0.000000 0.000000 6.464263 1.575625 1.077343 8.957684 1.167391 1.533241 3.837616 -0.151938 1.643407 0.000000 0.000000 0.000000 -7.240394 -0.091048 4.517150 8.000881 -4.476709 7.518934 80.887037 -25.852082 -23.723816 0.000000 0.000000 0.000000 3.434711 -1.349927 9.562439 18.810003 -1.157821 -3.865393 73.861716 24.427435 9.070837 0.000000 0.000000 0.000000
0.000000 0.000000 0.000000 0.141507 -1.327765 5.731312 5.750572 -1.276639 5.235648 -0.271568 -2.891275 5.294037 5.085265 3.142000 1.810463 0.000000 0.000000 0.000000 7.305246 -1.375608 3.841898 1.517130 0.595769 1.634653 2.249499 0.161517 0.063773 0.000000 0.000000 0.000000 7.381261 1.747980 1.618704 9.420336 1.015614 1.162695 3.421170 0.592875 2.846676 0.000000 0.000000 0.000000 -9.298535 -0.022545 5.507167 6.034468 -4.689071 9.238574 80.337053 -25.522849 -20.584037 0.000000 0.000000 0.000000 0.545958 -0.886045 10.488389 26.186778 -1.864891 -4.523822 64.119379 22.138018 5.178104 0.000000 0.000000 0.000000
0.000000 0.000000 0.000000 0.165517 -1.143956 6.138617 7.580711 -1.475507 5.217391 -0.267186 -2.779994 5.410382 5.199033 3.512230 1.924763 0.000000 0.000000 0.000000 8.201858 -1.453050 2.343952 3.377229 -0.604693 0.075585 3.148275 -0.828021 -1.977205 0.000000 0.000000 0.000000 8.468201 2.057275 1.270965 10.209439 1.155137 1.410342 3.768883 0.630592 3.112119 0.000000 0.000000 0.000000 -8.632293 -0.033499 5.729585 4.793825 -4.355868 9.219245 81.210675 -25.923609 -24.444455 0.000000 0.000000 0.000000 1.259960 -0.902713 9.080152 23.928132 -2.057454 -3.679556 69.277418 23.804999 9.285912 0.000000 0.000000 0.000000
0.000000 0.000000 0.000000 0.148535 -1.408428 6.177569 7.889214 -1.407015 4.692178 -0.267481 -2.982805 4.991021 5.183889 2.989516 1.798340 0.000000 0.000000 0.000000 9.311802 -1.536552 0.766121 5.856694 -1.751976 -1.319146 4.978585 -1.056818 -2.732475 0.000000 0.000000 0.000000 7.964632 2.061025 0.126765 10.347499 1.392756 1.936981 4.470991 1.330950 4.866401 0.000000 0.000000 0.000000 -5.923098 -0.107913 5.859852 1.863875 -3.678896 9.442076 85.912417 -26.271211 -30.293799 0.000000 0.000000 0.000000 -0.465868 -0.513168 8.002634 8.174543 -0.989825 -0.907500 87.115257 26.716913 25.244612 0.000000 0.000000 0.000000
0.000000 0.000000 0.000000 0.059965 -2.617816 5.847898 4.774339 -1.028235 4.392308 -0.211259 -3.061474 3.313571 4.885736 1.839903 1.459431 0.000000 0.000000 0.000000 2.779146 -0.424162 -1.117072 -1.804115 -0.218547 -0.985461 -0.006261 -0.876376 -1.608854 0.000000 0.000000 0.000000 4.487257 1.177629 -0.134604 8.412532 1.808675 2.960681 4.416104 1.737405 5.615410 0.000000 0.000000 0.000000 -3.157627 -0.199768 6.471217 -1.485755 -3.172946 10.507508 88.602958 -26.415101 -37.255264 0.000000 0.000000 0.000000 -4.672996 0.261953 6.327045 0.229983 -0.439299 1.073603 91.292486 26.744151 27.617227 0.000000 0.000000 0.000000
0.000000 0.000000 0.000000 -0.016252 -3.757314 5.673122 1.927872 -0.676625 3.956735 -0.126476 -2.603954 1.542658 3.678368 1.531965 1.115326 0.000000 0.000000 0.000000 -3.087644 0.270917 -5.921211 -7.944502 2.293797 1.048222 -4.784768 4.437457 7.896627 0.000000 0.000000 0.000000 3.159969 0.711428 1.601205 6.028224 0.533859 0.441657 2.888667 1.081536 3.473680 0.000000 0.000000 0.000000 -2.558609 -0.256973 7.928359 1.226617 -3.982283 10.747745 88.348474 -26.421979 -36.793336 0.000000 0.000000 0.000000 -3.732472 0.152481 5.419669 2.691260 -1.221846 1.925786 90.969810 26.761208 23.385747 0.000000 0.000000 0.000000
0.000000 0.000000 0.000000 -0.102624 -5.126217 5.327361 1.245781 -0.529921 3.362875 -0.080366 -2.395569 0.341850 1.814819 1.949428 0.783897 0.000000 0.000000 0.000000 -4.553731 0.261377 -9.253288 -10.235634 4.242425 3.113817 -6.148465 7.696570 13.142255 0.000000 0.000000 0.000000 3.585193 0.725632 2.853453 6.122617 -0.615673 -1.922946 2.926935 -0.815979 -0.097450 0.000000 0.000000 0.000000 -1.476913 -0.351702 9.195075 -0.451877 -3.127852 9.570978 91.421090 -26.202316 -41.597759 0.000000 0.000000 0.000000 -2.856618 0.111800 3.593151 -0.273886 -1.255153 3.518557 96.990000 27.241823 16.755504 0.000000 0.000000 0.000000
0.000000 0.000000 0.000000 -0.099836 -5.141622 4.626563 0.423714 -0.428280 3.159323 -0.028244 -1.446569 -0.611874 -0.630262 1.536445 0.154632 0.000000 0.000000 0.000000 -7.717214 0.476241 -9.628828 -11.112580 5.277384 4.256408 -5.306358 7.871369 13.565863 0.000000 0.000000 0.000000 1.004220 0.150916 2.271855 4.657822 -1.103017 -2.677593 2.422922 -1.435605 -1.516816 0.000000 0.000000 0.000000 -1.798595 -0.334231 9.232488 -1.217716 -2.797827 9.167602 95.396692 -25.598736 -45.736289 0.000000 0.000000 0.000000 -5.142871 0.437124 2.724713 -1.122077 -0.653720 2.331504 97.579691 26.976592 22.396230 0.000000 0.000000 0.000000
0.000000 0.000000 0.000000 -0.138310 -5.994057 3.950185 0.686093 -0.380234 2.606980 -0.017405 -1.793094 -1.353838 -1.881110 0.648469 -0.277511 0.000000 0.000000 0.000000 -7.875622 0.439209 -10.247991 -9.450354 5.559392 5.325823 -4.024301 7.308661 12.825766 0.000000 0.000000 0.000000 1.438284 0.313218 1.147143 4.645845 -1.122644 -2.714513 2.278709 -1.379442 -1.476354 0.000000 0.000000 0.000000 -1.657273 -0.336722 9.058905 -1.922874 -2.578308 9.036184 94.806290 -25.688504 -46.688668 0.000000 0.000000 0.000000 -5.313723 0.479061 1.944259 -0.964877 -0.528480 1.904550 97.431476 27.085276 20.286411 0.000000 0.000000 0.000000
0.000000 0.000000 0.000000 -0.160987 -6.623171 3.491706 2.519747 -0.353897 1.353916 -0.013218 -2.444055 -1.846102 -2.371587 0.727431 -0.368408 0.000000 0.000000 0.000000 -4.515560 0.262222 -9.176354 -6.574501 4.309248 4.641129 -2.702144 5.958778 10.674306 0.000000 0.000000 0.000000 3.371657 0.951992 -1.070773 6.254082 -1.402390 -3.555551 2.299447 -1.854375 -2.368521 0.000000 0.000000 0.000000 -0.412164 -0.401850 8.930490 -0.940931 -2.721136 8.730254 92.968450 -26.010952 -46.028560 0.000000 0.000000 0.000000 -5.367087 0.495349 1.559640 -0.869714 -0.441809 1.617725 97.395654 27.112850 19.738683 0.000000 0.000000 0.000000
0.000000 0.000000 0.000000 -0.142852 -6.718309 2.320484 4.253403 -0.181386 -0.516815 0.003045 -2.943297 -2.482786 -1.463396 0.857886 -0.150974 0.000000 0.000000 0.000000 -0.971153 0.067674 -4.734807 -1.519657 0.526206 0.397317 0.191558 3.215973 5.929380 0.000000 0.000000 0.000000 3.758741 1.331778 -4.722599 8.520777 -1.503119 -4.207085 3.151161 -1.940786 -2.155421 0.000000 0.000000 0.000000 1.008986 -0.362701 6.833921 3.579554 -3.300544 7.273262 90.227700 -26.378268 -42.153539 0.000000 0.000000 0.000000 -5.101799 0.472075 1.319842 -0.339146 0.056375 0.000383 96.703445 27.175684 17.674722 0.000000 0.000000 0.000000
0.000000 0.000000 0.000000 -0.077690 -5.095563 0.638122 5.831957 -0.199415 -0.936752 0.040358 -2.382063 -3.556855 0.231999 2.397432 0.511950 0.000000 0.000000 0.000000 2.606463 -0.366574 -3.470680 1.365680 -0.966459 -1.297934 1.457437 -1.526117 -3.045968 0.000000 0.000000 0.000000 5.651077 2.142492 -7.176145 9.460098 -1.325978 -4.012942 3.815738 -1.698464 -1.377871 0.000000 0.000000 0.000000 -0.367269 -0.121330 2.551435 7.749016 -3.769708 5.990356 86.716322 -26.069648 -27.195419 0.000000 0.000000 0.000000 -5.584385 0.575988 -0.758750 1.483252 0.195956 -1.154800 94.935097 26.964528 20.273408 0.000000 0.000000 0.000000
0.000000 0.000000 0.000000 -0.066697 -3.995999 -1.751342 6.718543 -0.090391 -1.795364 0.040262 -1.702951 -3.605254 0.752865 3.130462 0.775897 0.000000 0.000000 0.000000 4.521133 -0.604076 -3.710017 -0.682667 -1.477021 -2.850901 -0.416306 -2.456375 -4.421542 0.000000 0.000000 0.000000 7.005342 2.702395 -8.213903 9.836862 -1.130958 -3.656766 3.961678 -1.496625 -0.912801 0.000000 0.000000 0.000000 0.786812 0.073296 -1.022167 24.675882 -4.928933 0.971702 76.151063 -25.086401 -18.362181 0.000000 0.000000 0.000000 -0.405458 0.206502 -2.378588 6.225965 -1.144385 0.191549 90.988968 26.775484 19.472343 0.000000 0.000000 0.000000
0.000000 0.000000 0.000000 -0.076524 -3.898002 -3.501957 8.055061 -0.177237 -1.671650 0.031993 -1.657242 -3.272366 1.459597 2.923304 0.901110 0.000000 0.000000 0.000000 6.342005 -0.845664 -3.443685 -0.592063 -1.540127 -2.937337 -0.357540 -2.655773 -4.794847 0.000000 0.000000 0.000000 8.297927 3.120473 -8.029905 9.592733 0.155712 -0.760409 3.751373 0.471640 2.797580 0.000000 0.000000 0.000000 5.530643 0.437444 -3.255728 27.836846 -4.777861 -0.304154 73.025318 -24.882234 -18.060385 0.000000 0.000000 0.000000 -0.207040 0.271282 -3.506825 3.561039 -1.009121 1.000540 89.088122 26.681722 20.411378 0.000000 0.000000 0.000000
0.000000 0.000000 0.000000 -0.072791 -4.169487 -3.691071 7.898997 -0.263275 -1.189255 0.013163 -1.771820 -2.537032 1.680989 3.745564 1.121260 0.000000 0.000000 0.000000 6.478086 -0.915891 -2.343187 -0.385053 -1.373373 -2.579587 0.065061 -2.194615 -4.037500 0.000000 0.000000 0.000000 8.940623 3.193857 -6.895922 9.833867 1.504965 2.221600 4.119256 0.883359 3.796716 0.000000 0.000000 0.000000 7.356550 0.463930 -2.657271 20.105513 -4.184373 1.303209 77.031523 -25.818260 -23.633855 0.000000 0.000000 0.000000 -0.538673 0.302672 -3.630705 3.493122 -0.983578 0.968079 90.362624 26.743973 21.585870 0.000000 0.000000 0.000000
0.000000 0.000000 0.000000 -0.068892 -4.330310 -3.099435 5.841347 -0.322432 -0.238495 -0.002431 -1.459678 -1.757464 2.249948 2.106476 0.915755 0.000000 0.000000 0.000000 4.160149 -0.651327 -0.328124 0.340333 -0.894709 -1.496598 0.668131 -1.586424 -3.024023 0.000000 0.000000 0.000000 7.376526 2.407024 -4.439541 8.762771 1.675243 2.655120 4.013760 0.535651 3.066939 0.000000 0.000000 0.000000 2.031252 0.189209 -2.197183 3.137933 -2.127590 4.403508 87.132714 -26.381189 -33.621544 0.000000 0.000000 0.000000 -1.145685 0.333876 -3.470879 2.086909 -0.647651 0.757359 92.460629 26.799307 23.265750 0.000000 0.000000 0.000000
0.000000 0.000000 0.000000 -0.065814 -3.522134 -1.616106 3.790197 -0.398875 1.037924 0.009049 0.318415 0.031006 3.022954 3.264047 1.343345 0.000000 0.000000 0.000000 2.624031 -0.434211 1.284015 0.776925 -0.251326 -0.184279 0.009449 -0.510716 -0.939615 0.000000 0.000000 0.000000 4.783040 1.256794 -0.154617 4.637047 1.224870 1.944143 1.716433 0.312719 1.414619 0.000000 0.000000 0.000000 -3.623810 -0.052320 -1.809968 -3.315901 -0.992706 5.012382 94.546948 -25.812748 -37.583815 0.000000 0.000000 0.000000 -1.940041 0.341243 -2.619449 -1.013699 0.244808 -0.211738 94.106083 26.823815 23.880490 0.000000 0.000000 0.000000
0.000000 0.000000 0.000000 -0.047113 -2.977279 -0.264217 1.080683 -0.349249 2.121846 0.003782 0.476140 1.705949 2.540903 2.352726 1.034682 0.000000 0.000000 0.000000 2.477664 -0.417887 1.969267 2.097451 0.145932 1.023545 0.226631 -0.159046 -0.317847 0.000000 0.000000 0.000000 -0.295347 -0.198026 3.356840 -5.719529 -0.180942 0.222322 -2.381880 -1.406139 -3.506336 0.000000 0.000000 0.000000 -2.787949 -0.063152 0.032764 -2.371280 -0.573238 3.053494 95.125428 -25.750218 -37.776120 0.000000 0.000000 0.000000 -1.455969 0.260881 -1.904386 -1.812308 0.516599 -0.613891 94.283661 26.814406 24.327372 0.000000 0.000000 0.000000
0.000000 0.000000 0.000000 -0.021932 -2.173530 0.475607 -2.105687 -0.182999 2.989269 0.002027 0.508640 2.271436 1.769080 0.688763 0.513128 0.000000 0.000000 0.000000 0.798870 -0.120980 2.282575 1.976038 0.590751 1.803645 -0.152886 0.303396 0.572321 0.000000 0.000000 0.000000 -6.493641 -1.535515 7.020087 -10.221835 -2.277675 -2.488665 -2.053691 -4.761064 -9.279685 0.000000 0.000000 0.000000 -2.371325 -0.119412 2.473838 -1.705220 0.454966 -0.575602 93.524139 -25.918337 -38.768062 0.000000 0.000000 0.000000 -1.464096 0.245052 -1.630881 -1.946851 0.753423 -1.229714 95.220120 26.723282 27.259917 0.000000 0.000000 0.000000
0.000000 0.000000 0.000000 -0.001956 -2.179241 1.450296 -1.455375 -0.368315 4.143467 -0.040737 -0.233642 2.799663 1.207646 -0.058153 0.240800 0.000000 0.000000 0.000000 1.278405 -0.209227 3.592834 2.199706 0.719924 2.131859 0.359024 0.751486 1.354485 0.000000 0.000000 0.000000 -6.824024 -1.544468 9.363982 -9.424456 -3.198063 -3.968700 -1.300194 -4.916898 -9.346214 0.000000 0.000000 0.000000 -2.835940 -0.145681 3.612802 -1.256758 0.462489 -0.814055 91.642680 -26.179300 -42.072333 0.000000 0.000000 0.000000 -1.622227 0.223910 -1.043088 -3.066341 0.805431 -0.880944 95.436812 26.532748 32.203727 0.000000 0.000000 0.000000
0.000000 0.000000 0.000000 -0.027630 -3.242143 1.746114 -0.171754 -0.541863 4.526132 -0.208521 -2.759932 3.745033 1.310994 0.665957 0.409628 0.000000 0.000000 0.000000 1.951303 -0.344117 4.399818 1.594926 0.454386 1.404536 -0.140995 0.181433 0.347546 0.000000 0.000000 0.000000 -8.480214 -1.810882 9.914247 -6.952596 -3.750848 -5.249232 -0.996839 -4.653857 -8.781634 0.000000 0.000000 0.000000 4.535428 -0.321943 4.853737 4.099919 -1.103772 1.162639 91.104171 -26.188661 -38.613265 0.000000 0.000000 0.000000 2.885098 -0.269320 -0.203934 3.729627 -0.276947 -0.864538 93.492315 26.771829 25.591288 0.000000 0.000000 0.000000
0.000000 0.000000 0.000000 -0.019931 -3.324029 2.702938 0.490627 -0.779479 5.847034 -0.320653 -3.785431 4.869297 1.502623 2.545278 0.834385 0.000000 0.000000 0.000000 2.274524 -0.430095 6.415305 1.708046 0.601588 1.719234 -0.032863 0.812326 1.496886 0.000000 0.000000 0.000000 -5.868614 -1.366941 10.149617 -4.613098 -3.856735 -5.884728 -1.027417 -4.226481 -8.015896 0.000000 0.000000 0.000000 3.879090 -0.334899 5.174765 5.181439 -1.351961 1.308299 93.597001 -25.918148 -30.138446 0.000000 0.000000 0.000000 5.565679 -0.707609 1.200208 6.590910 -1.137511 0.029201 91.233981 26.782388 20.674159 0.000000 0.000000 0.000000
0.000000 0.000000 0.000000 0.056380 -2.619094 5.639782 1.365617 -1.003911 6.756626 -0.502096 -4.786065 6.970567 2.014258 2.353167 0.913193 0.000000 0.000000 0.000000 3.403805 -0.711635 8.144549 0.204898 1.874997 3.418071 -0.510597 1.679596 3.113188 0.000000 0.000000 0.000000 -0.790301 -0.493552 9.239737 3.396439 -2.952304 -6.034018 2.332040 -3.266081 -5.056799 0.000000 0.000000 0.000000 -5.886866 -0.106581 6.472270 3.399017 -1.605297 2.852333 93.572554 -25.930435 -14.893518 0.000000 0.000000 0.000000 10.319562 -2.103669 6.355720 18.016508 -1.101071 -3.756812 79.122676 25.083168 8.119397 0.000000 0.000000 0.000000
0.000000 0.000000 0.000000 0.031171 -3.279354 7.183651 3.020829 -1.306168 7.407047 -0.764000 -6.974443 7.867822 1.876629 -1.667537 0.044268 0.000000 0.000000 0.000000 4.400960 -0.988425 9.607412 -0.050629 2.897500 5.111359 0.302773 2.506321 4.613433 0.000000 0.000000 0.000000 2.086429 0.106093 7.544356 5.731636 -2.204346 -5.082476 4.429072 -2.594889 -2.872676 0.000000 0.000000 0.000000 -8.005328 0.003179 8.141826 2.748931 -2.312586 5.129228 89.726225 -25.830385 -21.287156 0.000000 0.000000 0.000000 10.249370 -2.452972 8.502077 25.994663 -2.775640 -3.094488 72.414345 23.284942 2.873490 0.000000 0.000000 0.000000
0.000000 0.000000 0.000000 -0.006667 -3.828795 7.955275 2.993540 -1.307627 7.439866 -0.803475 -7.088365 8.256906 2.055818 -2.329247 -0.060726 0.000000 0.000000 0.000000 3.167634 -0.685240 9.627893 -3.427211 3.479906 4.633294 -0.556974 2.207575 4.077362 0.000000 0.000000 0.000000 2.762809 0.304190 6.449736 5.580393 -1.535778 -3.702297 4.315261 -2.199967 -2.136293 0.000000 0.000000 0.000000 -12.045852 0.293159 9.743760 3.806119 -3.108553 6.626269 85.584636 -25.318845 -14.748573 0.000000 0.000000 0.000000 7.598690 -2.022571 8.812701 27.285341 -3.016712 -3.065660 65.243725 21.918808 3.209556 0.000000 0.000000 0.000000
0.000000 0.000000 0.000000 0.115170 -2.439786 8.208288 2.984765 -1.282450 7.281359 -0.665995 -5.745939 8.241531 1.910348 -1.322391 0.123319 0.000000 0.000000 0.000000 2.349950 -0.462017 7.757089 -2.018342 1.913640 2.592020 -0.129999 1.225927 2.263748 0.000000 0.000000 0.000000 3.803984 0.566145 5.723407 5.479803 -0.903509 -2.409724 3.413304 0.005187 1.720530 0.000000 0.000000 0.000000 -10.523820 0.192381 9.631611 4.544028 -3.170080 6.341220 87.297343 -25.112573 -7.919016 0.000000 0.000000 0.000000 -1.172379 -0.461378 9.079830 16.439783 -1.796728 -2.049418 84.183250 26.095680 13.390290 0.000000 0.000000 0.000000
0.000000 0.000000 0.000000 -0.262447 -6.839039 8.008978 -1.122301 -0.709869 6.846581 -0.709111 -7.535503 6.429031 0.744168 0.037953 0.163059 0.000000 0.000000 0.000000 -0.796843 0.216258 5.295660 -1.033364 0.558639 0.624708 -0.195964 1.418787 2.621497 0.000000 0.000000 0.000000 -0.730520 -0.273174 2.599267 2.632274 0.406513 0.504794 0.766035 1.873590 3.743915 0.000000 0.000000 0.000000 -13.274605 0.372918 9.777631 -1.336577 -2.698926 8.958779 97.618604 -26.159533 -17.180548 0.000000 0.000000 0.000000 -26.359154 3.059302 2.603301 -5.590754 -0.822235 5.479799 104.494807 28.382148 11.561108 0.000000 0.000000 0.000000
0.000000 0.000000 0.000000 -0.323262 -7.753805 7.401880 -0.835991 -0.620399 5.780813 -0.573797 -7.243014 4.934201 0.201075 -1.281256 -0.207024 0.000000 0.000000 0.000000 -3.652264 0.645030 1.529437 -8.391457 0.889025 -1.224466 -7.225412 1.456298 3.007088 0.000000 0.000000 0.000000 -0.289060 -0.181615 2.940862 3.559767 0.971566 1.516722 -0.344156 2.529136 4.286524 0.000000 0.000000 0.000000 -7.142955 -0.003002 10.550788 4.807508 -4.029590 8.381367 97.762506 -26.133789 -18.188413 0.000000 0.000000 0.000000 -11.477385 1.227374 2.961891 2.296862 -2.523861 5.379757 95.431697 27.899182 -3.062166 0.000000 0.000000 0.000000
0.000000 0.000000 0.000000 -0.097018 -4.941624 6.930464 -0.028148 -0.600747 4.883096 -0.132474 -3.506280 0.745623 -3.390836 -1.821155 -1.001593 0.000000 0.000000 0.000000 -11.963244 0.766053 -9.847683 -16.339791 5.647598 2.821703 -11.870124 4.549714 7.704968 0.000000 0.000000 0.000000 1.981490 0.298251 3.780853 4.430036 0.963820 1.440165 0.694708 1.606017 3.226566 0.000000 0.000000 0.000000 -2.070521 -0.382217 11.391520 4.715356 -3.711614 7.628514 97.271451 -26.136167 -17.300099 0.000000 0.000000 0.000000 1.897992 -0.485667 3.259837 2.171457 -2.133681 4.472767 96.325752 27.342790 13.417758 0.000000 0.000000 0.000000
