HIERARCHY
ROOT Hips
{
  OFFSET 0.000000 0.000000 0.000000
  CHANNELS 6 Xposition Yposition Zposition Xrotation Yrotation Zrotation
  JOINT Spine
  {
    OFFSET 0.762862 23.197727 -6.058858
    CHANNELS 3 Xrotation Yrotation Zrotation
    JOINT Chest
    {
      OFFSET 0.762862 23.197727 -6.058858
      CHANNELS 3 Xrotation Yrotation Zrotation
      JOINT Neck
      {
        OFFSET -0.270074 9.229822 -3.797407
        CHANNELS 3 Xrotation Yrotation Zrotation
        JOINT Head
        {
          OFFSET 0.225285 8.430608 -7.939136
          CHANNELS 3 Xrotation Yrotation Zrotation
          End Site
          {
            OFFSET 0.067585 2.529182 -2.381741
          }
        }
      }
      JOINT LeftShoulder
      {
        OFFSET 17.595006 0.044015 0.996102
        CHANNELS 3 Xrotation Yrotation Zrotation
        JOINT LeftArm
        {
          OFFSET 3.473531 -23.049457 3.982832
          CHANNELS 3 Xrotation Yrotation Zrotation
          JOINT LeftForeArm
          {
            OFFSET 3.218371 -22.980839 -10.241008
            CHANNELS 3 Xrotation Yrotation Zrotation
            JOINT LeftHand
            {
              OFFSET -0.008887 -5.924601 -2.989147
              CHANNELS 3 Xrotation Yrotation Zrotation
              End Site
              {
                OFFSET -0.002666 -1.777380 -0.896744
              }
            }
          }
        }
      }
      JOINT RightShoulder
      {
        OFFSET -17.595006 -0.044015 -0.996102
        CHANNELS 3 Xrotation Yrotation Zrotation
        JOINT RightArm
        {
          OFFSET -5.553442 -24.118242 6.751946
          CHANNELS 3 Xrotation Yrotation Zrotation
          JOINT RightForeArm
          {
            OFFSET -3.099014 -24.977112 -8.059516
            CHANNELS 3 Xrotation Yrotation Zrotation
            JOINT RightHand
            {
              OFFSET 0.298828 -5.701374 -2.573080
              CHANNELS 3 Xrotation Yrotation Zrotation
              End Site
              {
                OFFSET 0.089648 -1.710412 -0.771924
              }
            }
          }
        }
      }
    }
  }
  JOINT LeftUpLeg
  {
    OFFSET 11.990773 -0.614304 0.788698
    CHANNELS 3 Xrotation Yrotation Zrotation
    JOINT LeftLeg
    {
      OFFSET -5.144974 -41.347031 -0.530598
      CHANNELS 3 Xrotation Yrotation Zrotation
      JOINT LeftFoot
      {
        OFFSET 2.709190 -35.138144 18.775504
        CHANNELS 3 Xrotation Yrotation Zrotation
        End Site
        {
          OFFSET 0.812757 -10.541443 5.632651
        }
      }
    }
  }
  JOINT RightUpLeg
  {
    OFFSET -11.990773 0.614304 -0.788698
    CHANNELS 3 Xrotation Yrotation Zrotation
    JOINT RightLeg
    {
      OFFSET 0.284998 -37.357294 5.081156
      CHANNELS 3 Xrotation Yrotation Zrotation
      JOINT RightFoot
      {
        OFFSET 4.690763 -28.563407 28.545631
        CHANNELS 3 Xrotation Yrotation Zrotation
        End Site
        {
          OFFSET 1.407229 -8.569022 8.563689
        }
      }
    }
  }
}
MOTION
Frames: 96
Frame Time: 0.083333
0.000000 60.000000 0.000000 0.285476 0.021387 0.120223 0.285476 0.021387 0.120223 0.000000 0.000000 0.000000 1.019628 0.180996 0.228659 5.000000 0.000000 0.000000 0.231044 0.129908 0.565117 -0.461196 0.009041 -0.050243 -113.687570 14.743847 22.895425 0.000000 0.000000 0.000000 0.725345 -0.131334 0.132051 -0.370535 0.009425 -0.000790 -107.143336 -16.643754 -21.553180 0.000000 0.000000 0.000000 -1.349450 0.162669 -0.472107 -0.221172 0.211596 0.424252 0.000000 0.000000 0.000000 -0.469186 0.104785 0.754638 3.875176 -0.013458 -0.779184 0.000000 0.000000 0.000000
-0.996446 60.000000 -0.276369 0.358990 0.013591 0.100002 0.358990 0.013591 0.100002 0.000000 0.000000 0.000000 0.950964 0.159993 0.204334 5.000000 0.000000 0.000000 0.248185 0.132174 0.569899 -0.287922 0.015220 -0.052714 -113.652938 14.710788 22.857883 0.000000 0.000000 0.000000 0.742418 -0.128463 0.160802 -0.294997 0.009598 -0.007216 -107.121390 -16.611397 -21.510425 0.000000 0.000000 0.000000 -1.360228 0.160936 -0.462050 -0.128484 0.192161 0.376236 0.000000 0.000000 0.000000 -0.328080 0.118260 0.863176 3.573693 -0.010913 -0.771810 0.000000 0.000000 0.000000
-2.629133 60.000000 -0.666327 1.211854 0.017409 0.228120 1.211854 0.017409 0.228120 0.000000 0.000000 0.000000 2.499763 0.404566 0.522047 5.000000 0.000000 0.000000 0.733054 0.398497 1.751557 -0.310201 0.068347 -0.172161 -113.412178 13.895408 21.714854 0.000000 0.000000 0.000000 2.173488 -0.362645 0.530548 -0.614120 0.027378 -0.038239 -106.333832 -16.198907 -21.221640 0.000000 0.000000 0.000000 -3.838671 0.445021 -1.310598 -0.075724 0.482756 0.914161 0.000000 0.000000 0.000000 -0.370302 0.370914 2.735282 15.863097 -0.179889 -3.371569 0.000000 0.000000 0.000000
-3.449131 60.000000 -0.866614 2.135311 -0.017053 0.219008 2.135311 -0.017053 0.219008 0.000000 0.000000 0.000000 3.183041 0.500609 0.655285 5.000000 0.000000 0.000000 1.141137 0.665836 3.059717 0.873996 0.196734 -0.371870 -113.306590 12.783743 20.042402 0.000000 0.000000 0.000000 3.342956 -0.540174 0.902761 -0.382693 0.037187 -0.086908 -105.693073 -15.667390 -20.661069 0.000000 0.000000 0.000000 -5.354548 0.597900 -1.982015 0.609166 0.529064 0.913219 0.000000 0.000000 0.000000 0.436229 0.600428 4.521997 22.611921 -0.275192 -5.118827 0.000000 0.000000 0.000000
-3.837260 60.000000 -1.177071 2.507267 -0.022733 0.249676 2.507267 -0.022733 0.249676 0.000000 0.000000 0.000000 3.510999 0.622944 0.807314 5.000000 0.000000 0.000000 1.607621 0.930699 4.422376 2.581898 0.446238 -0.761653 -112.828964 11.553922 18.269659 0.000000 0.000000 0.000000 4.006820 -0.679966 0.971611 -0.105900 0.026111 -0.073411 -97.275182 -14.247568 -18.819861 0.000000 0.000000 0.000000 -5.297591 0.573409 -2.510906 1.152472 0.394118 0.584763 0.000000 0.000000 0.000000 0.915868 0.631948 4.889861 24.317427 -0.281097 -5.602551 0.000000 0.000000 0.000000
-4.167594 60.000000 -1.668055 3.473210 -0.038643 0.328100 3.473210 -0.038643 0.328100 0.000000 0.000000 0.000000 4.285942 0.773938 1.015177 5.000000 0.000000 0.000000 3.098510 1.248097 5.552331 6.148086 0.878208 -1.335769 -110.199520 10.475906 17.498965 0.000000 0.000000 0.000000 4.741390 -0.807436 1.164524 0.439653 -0.005107 -0.018574 -60.302971 -8.938457 -11.946573 0.000000 0.000000 0.000000 -5.140694 0.545470 -2.874174 1.242723 0.165636 0.138495 0.000000 0.000000 0.000000 1.411262 0.669875 5.344281 24.835844 -0.350669 -5.855201 0.000000 0.000000 0.000000
-4.495794 60.000000 -2.224066 4.592905 -0.030038 0.546515 4.592905 -0.030038 0.546515 0.000000 0.000000 0.000000 5.221383 1.069164 1.400421 5.000000 0.000000 0.000000 4.869179 1.638897 7.166615 9.801783 1.288241 -1.778500 -109.449941 10.115810 17.164926 0.000000 0.000000 0.000000 4.969891 -0.770209 1.550391 1.090210 -0.050009 0.068731 0.000000 0.000000 0.000000 0.000000 0.000000 0.000000 -4.383578 0.473649 -2.765322 0.096586 -0.044302 -0.095825 0.000000 0.000000 0.000000 1.696162 0.776947 6.317070 23.496396 -0.632356 -5.892120 0.000000 0.000000 0.000000
-4.781167 60.000000 -2.617939 4.599382 0.094154 1.111603 4.599382 0.094154 1.111603 0.000000 0.000000 0.000000 5.400903 1.430673 1.830048 5.000000 0.000000 0.000000 5.841972 1.812719 7.942827 11.800211 1.554186 -2.056352 -109.126226 10.028082 17.131977 0.000000 0.000000 0.000000 4.520959 -0.520875 2.143641 1.006199 -0.088232 0.189556 0.000000 0.000000 0.000000 0.000000 0.000000 0.000000 -3.975786 0.431992 -2.803734 -0.633732 -0.054117 -0.005610 0.000000 0.000000 0.000000 1.889843 0.855053 7.046669 23.347878 -0.607896 -5.804387 0.000000 0.000000 0.000000
-5.130251 60.000000 -2.787535 4.371429 0.271932 1.873280 4.371429 0.271932 1.873280 0.000000 0.000000 0.000000 5.157525 1.737561 2.172741 5.000000 0.000000 0.000000 7.142035 1.902666 7.839071 11.894147 1.631105 -2.174409 -109.594291 10.157784 17.151593 0.000000 0.000000 0.000000 4.080748 -0.254356 2.799204 1.091438 -0.128147 0.302518 0.000000 0.000000 0.000000 0.000000 0.000000 0.000000 -3.877815 0.420469 -2.866941 1.027046 0.193469 0.222074 0.000000 0.000000 0.000000 2.035790 0.880605 7.327542 24.687749 0.027975 -5.233793 0.000000 0.000000 0.000000
-5.192196 60.000000 -2.319622 4.167607 0.407871 2.439359 4.167607 0.407871 2.439359 0.000000 0.000000 0.000000 5.065063 1.704907 2.128532 5.000000 0.000000 0.000000 6.564726 1.727766 6.723256 9.944246 1.349049 -1.869821 -112.333443 10.963509 17.357433 0.000000 0.000000 0.000000 3.953942 -0.121416 3.213607 0.765831 -0.147251 0.388406 0.000000 0.000000 0.000000 0.000000 0.000000 0.000000 -3.510260 0.395426 -2.333762 2.859159 0.357559 0.278105 0.000000 0.000000 0.000000 2.120855 0.885761 7.420448 23.834108 0.258738 -4.625518 0.000000 0.000000 0.000000
-4.947557 60.000000 -1.529512 3.904561 0.458161 2.598912 3.904561 0.458161 2.598912 0.000000 0.000000 0.000000 4.988923 1.735320 2.158888 5.000000 0.000000 0.000000 5.290918 1.396689 5.001106 6.860169 1.020281 -1.552994 -115.708885 13.988177 20.932197 0.000000 0.000000 0.000000 4.027442 -0.153493 3.159353 -0.202151 -0.147698 0.476461 0.000000 0.000000 0.000000 0.000000 0.000000 0.000000 -3.468282 0.431287 -0.656187 2.328574 0.320082 0.280070 0.000000 0.000000 0.000000 2.743456 0.896913 7.856458 24.951594 1.003783 -3.742924 0.000000 0.000000 0.000000
-4.709646 60.000000 -0.983216 3.598961 0.480972 2.623655 3.598961 0.480972 2.623655 0.000000 0.000000 0.000000 4.948576 1.547686 1.939219 5.000000 0.000000 0.000000 3.145190 0.983615 3.594032 3.164584 0.740773 -1.339020 -105.039154 13.532960 20.911915 0.000000 0.000000 0.000000 4.154710 -0.245629 2.915651 -1.449418 -0.130903 0.538472 0.000000 0.000000 0.000000 0.000000 0.000000 0.000000 -4.231356 0.584731 2.358687 -0.226114 0.062287 0.148701 0.000000 0.000000 0.000000 3.456318 0.933447 8.562482 25.809187 1.925974 -2.550766 0.000000 0.000000 0.000000
-4.588111 60.000000 -0.914841 3.825692 0.475053 2.654155 3.825692 0.475053 2.654155 0.000000 0.000000 0.000000 4.930056 1.453202 1.828404 5.000000 0.000000 0.000000 1.901913 0.718202 2.801465 0.852067 0.542747 -1.127501 -64.493745 7.701113 12.296049 0.000000 0.000000 0.000000 4.000945 -0.294994 2.549942 -1.564470 -0.118920 0.511018 -8.730980 -1.574069 -1.899116 0.000000 0.000000 0.000000 -4.266090 0.631693 4.016581 -5.104843 -0.301573 0.172451 0.000000 0.000000 0.000000 2.559531 1.075411 9.309665 21.171449 1.596489 -1.995081 0.000000 0.000000 0.000000
-4.394796 60.000000 -1.942596 4.340299 0.457954 2.706024 4.340299 0.457954 2.706024 0.000000 0.000000 0.000000 5.185535 1.401004 1.783810 5.000000 0.000000 0.000000 0.637119 0.484169 2.339235 -1.132449 0.371748 -0.920804 0.000000 0.000000 0.000000 0.000000 0.000000 0.000000 4.038421 -0.398919 2.165258 -0.949202 -0.139587 0.517930 -48.324096 -8.387717 -9.867375 0.000000 0.000000 0.000000 -4.364013 0.644552 3.903142 -3.847328 -0.385147 -0.137444 0.000000 0.000000 0.000000 2.950400 1.079202 9.656032 18.560554 1.109126 -2.124502 0.000000 0.000000 0.000000
-4.224435 60.000000 -3.169631 3.580825 0.551541 2.917203 3.580825 0.551541 2.917203 0.000000 0.000000 0.000000 4.643757 1.345945 1.688871 5.000000 0.000000 0.000000 0.239024 0.294257 1.520148 -2.992999 0.227518 -0.739249 -8.786059 1.404308 2.195273 0.000000 0.000000 0.000000 3.452738 -0.378890 1.666300 0.055532 -0.198497 0.603494 -114.678251 -18.719019 -21.254579 0.000000 0.000000 0.000000 -4.147125 0.601295 3.508799 0.461872 0.006673 -0.038631 0.000000 0.000000 0.000000 5.554213 0.909167 9.954626 16.947551 0.636864 -2.437155 0.000000 0.000000 0.000000
-4.083084 60.000000 -3.848195 2.317685 0.723650 3.328186 2.317685 0.723650 3.328186 0.000000 0.000000 0.000000 3.839941 1.229749 1.509481 5.000000 0.000000 0.000000 -0.247255 0.191806 1.310452 -4.998648 0.062920 -0.508346 -48.056270 7.644090 12.007525 0.000000 0.000000 0.000000 2.972093 -0.510677 0.657853 1.834732 -0.340960 0.853518 -116.710331 -15.871317 -16.289903 0.000000 0.000000 0.000000 -3.195172 0.457059 2.882272 5.519331 0.626494 0.452417 0.000000 0.000000 0.000000 5.676239 0.880273 9.734082 17.426619 0.899736 -2.185037 0.000000 0.000000 0.000000
-3.905658 60.000000 -4.267194 1.944085 0.812737 3.599658 1.944085 0.812737 3.599658 0.000000 0.000000 0.000000 3.681646 1.125232 1.382346 5.000000 0.000000 0.000000 -0.220202 0.189679 1.274739 -4.537832 -0.029852 -0.240316 -103.821238 16.428664 25.941749 0.000000 0.000000 0.000000 3.608986 -1.071672 -1.059093 4.177408 -0.549965 1.201313 -113.307998 -13.915695 -14.829234 0.000000 0.000000 0.000000 -0.467363 0.071020 1.586983 6.464639 1.560257 2.195348 0.000000 0.000000 0.000000 5.642968 0.863757 9.528584 17.806907 1.197407 -1.853365 0.000000 0.000000 0.000000
-3.782538 60.000000 -5.768176 2.216069 0.778085 3.528962 2.216069 0.778085 3.528962 0.000000 0.000000 0.000000 3.555588 1.095133 1.341749 5.000000 0.000000 0.000000 -0.406296 0.246656 1.739812 -3.707266 -0.083063 -0.048012 -73.096074 11.419600 18.185976 0.000000 0.000000 0.000000 5.035812 -1.677961 -2.317686 8.041487 -0.756969 1.357058 -110.039697 -13.623598 -15.598465 0.000000 0.000000 0.000000 1.992035 -0.255755 0.255073 2.755002 2.366873 4.294035 0.000000 0.000000 0.000000 4.857418 0.869548 8.969013 18.177604 2.511436 -0.115298 0.000000 0.000000 0.000000
-3.737372 60.000000 -7.405064 2.858956 0.698226 3.367484 2.858956 0.698226 3.367484 0.000000 0.000000 0.000000 3.632339 1.041394 1.285138 5.000000 0.000000 0.000000 -0.722413 0.367978 2.669846 -3.035275 -0.080532 -0.008256 -48.940220 7.830097 11.821716 0.000000 0.000000 0.000000 5.281126 -1.848364 -2.847255 8.893455 -0.809564 1.401212 -100.091536 -13.337132 -16.123098 0.000000 0.000000 0.000000 0.223324 -0.033014 0.258971 2.899918 2.262880 4.076125 0.000000 0.000000 0.000000 3.934419 0.828719 7.886491 18.065759 4.330352 2.433150 0.000000 0.000000 0.000000
-3.604604 60.000000 -8.342720 3.290954 0.622980 3.161846 3.290954 0.622980 3.161846 0.000000 0.000000 0.000000 3.819412 1.102976 1.364428 5.000000 0.000000 0.000000 -0.537102 0.469364 3.105608 -2.767085 -0.058059 -0.044775 -114.303273 18.005553 27.498534 0.000000 0.000000 0.000000 5.254409 -1.797278 -2.649984 7.768731 -0.719985 1.289634 -61.984063 -8.987134 -11.249952 0.000000 0.000000 0.000000 -1.738608 0.218990 0.101231 3.656744 2.168800 3.840844 0.000000 0.000000 0.000000 3.808734 0.677874 6.362117 18.023919 5.076967 3.473886 0.000000 0.000000 0.000000
-3.342693 60.000000 -8.516817 3.445353 0.578919 3.012293 3.445353 0.578919 3.012293 0.000000 0.000000 0.000000 3.744966 1.004773 1.249629 5.000000 0.000000 0.000000 -0.263458 0.394766 2.481418 -2.670881 -0.074202 0.000222 -112.732947 16.742215 26.391572 0.000000 0.000000 0.000000 4.452253 -1.516851 -2.141224 5.361446 -0.555057 1.104411 0.000000 0.000000 0.000000 0.000000 0.000000 0.000000 -2.668036 0.336478 0.066503 2.935253 2.044303 3.635119 0.000000 0.000000 0.000000 3.285199 0.573260 5.141818 17.270626 6.122993 4.983031 0.000000 0.000000 0.000000
-2.984937 60.000000 -8.148047 3.350451 0.572006 2.957549 3.350451 0.572006 2.957549 0.000000 0.000000 0.000000 3.421636 0.872212 1.083566 5.000000 0.000000 0.000000 0.144108 0.341237 1.865122 -2.459841 -0.101032 0.078341 -112.246715 15.290424 24.396168 0.000000 0.000000 0.000000 4.152051 -1.166367 -0.924179 3.666483 -0.405959 0.865301 0.000000 0.000000 0.000000 0.000000 0.000000 0.000000 -1.280178 0.164890 -0.702673 2.371733 2.091429 3.769748 0.000000 0.000000 0.000000 2.700982 0.456628 3.938238 15.314428 7.364622 6.811900 0.000000 0.000000 0.000000
-2.668706 60.000000 -7.706540 3.318386 0.552131 2.862330 3.318386 0.552131 2.862330 0.000000 0.000000 0.000000 3.370358 0.747687 0.940982 5.000000 0.000000 0.000000 0.428457 0.307308 1.439164 -2.049517 -0.083805 0.065566 -103.480918 13.398649 21.423069 0.000000 0.000000 0.000000 3.995968 -0.881510 0.124230 1.987501 -0.282752 0.677950 -8.772075 -1.475543 -1.736338 0.000000 0.000000 0.000000 0.370913 -0.025500 -1.249093 2.495338 1.915273 3.412878 0.000000 0.000000 0.000000 1.937195 0.239361 1.960212 12.577658 7.477414 7.104587 0.000000 0.000000 0.000000
-2.407720 60.000000 -7.530924 3.598162 0.457682 2.511357 3.598162 0.457682 2.511357 0.000000 0.000000 0.000000 3.366632 0.685451 0.871227 5.000000 0.000000 0.000000 0.825101 0.338617 1.301342 -0.840789 0.048834 -0.159730 -74.015312 8.793953 13.734274 0.000000 0.000000 0.000000 3.785640 -0.788725 0.309435 1.000777 -0.227699 0.607325 -47.840121 -8.156186 -9.742267 0.000000 0.000000 0.000000 1.047190 -0.099872 -1.386330 2.395260 1.787614 3.170405 0.000000 0.000000 0.000000 0.909341 0.060770 0.429726 11.145841 6.643291 6.093054 0.000000 0.000000 0.000000
-2.269015 60.000000 -7.626187 4.379376 0.242419 1.722744 4.379376 0.242419 1.722744 0.000000 0.000000 0.000000 3.618142 0.984927 1.222356 5.000000 0.000000 0.000000 1.665355 0.487469 1.530800 0.819324 0.297590 -0.585596 -51.333018 5.648451 7.684802 0.000000 0.000000 0.000000 3.160468 -0.660710 0.252590 0.809953 -0.173518 0.462907 -111.631133 -19.274695 -23.406565 0.000000 0.000000 0.000000 1.482332 -0.151785 -1.268956 1.734980 1.598223 2.851042 0.000000 0.000000 0.000000 0.714871 -0.045930 -0.373026 13.825903 5.766952 4.800121 0.000000 0.000000 0.000000
-2.295115 60.000000 -8.000607 5.357567 -0.021555 0.715824 5.357567 -0.021555 0.715824 0.000000 0.000000 0.000000 4.143390 1.440875 1.768150 5.000000 0.000000 0.000000 3.051353 0.818975 2.649833 4.479563 0.679644 -1.075800 -118.226583 12.490260 17.696867 0.000000 0.000000 0.000000 2.749767 -0.669777 -0.159713 0.800618 -0.141772 0.368112 -109.954171 -19.327521 -24.315701 0.000000 0.000000 0.000000 1.782611 -0.188585 -1.150336 1.877893 1.616508 2.878866 0.000000 0.000000 0.000000 0.775324 -0.154852 -1.206533 17.953011 5.478740 3.969479 0.000000 0.000000 0.000000
-2.455530 60.000000 -8.849359 5.983398 -0.158436 0.168587 5.983398 -0.158436 0.168587 0.000000 0.000000 0.000000 4.885579 1.609614 2.008462 5.000000 0.000000 0.000000 5.942214 1.409967 4.876067 10.438238 1.213019 -1.564462 -112.337272 10.203521 16.279850 0.000000 0.000000 0.000000 3.470427 -0.788652 0.034798 0.697467 -0.118835 0.309063 -109.712719 -18.455640 -23.114034 0.000000 0.000000 0.000000 2.109314 -0.217112 -1.381841 2.377797 2.244628 4.093415 0.000000 0.000000 0.000000 2.032498 -0.009948 -0.154915 25.064453 4.732575 1.943644 0.000000 0.000000 0.000000
-2.586507 60.000000 -9.758531 7.075339 -0.225917 0.017899 7.075339 -0.225917 0.017899 0.000000 0.000000 0.000000 6.031902 1.725762 2.218669 5.000000 0.000000 0.000000 10.282510 2.117850 7.760945 15.959793 1.802337 -2.061574 -110.812586 8.511859 14.055593 0.000000 0.000000 0.000000 4.336730 -0.705073 1.190603 1.433179 -0.075129 0.118735 -100.159223 -16.720734 -21.374728 0.000000 0.000000 0.000000 2.651713 -0.253897 -2.095014 3.232476 3.376869 6.317308 0.000000 0.000000 0.000000 3.185288 0.125540 0.942273 30.298191 3.327286 -1.223278 0.000000 0.000000 0.000000
-2.612691 60.000000 -10.258936 7.576293 -0.224397 0.109450 7.576293 -0.224397 0.109450 0.000000 0.000000 0.000000 6.663397 1.881486 2.450070 5.000000 0.000000 0.000000 14.051192 2.494240 9.150902 19.978046 2.240488 -2.355906 -111.549040 7.938626 12.935395 0.000000 0.000000 0.000000 4.074411 -0.414131 2.134873 2.069296 -0.029421 -0.064526 -62.743860 -10.492840 -13.235424 0.000000 0.000000 0.000000 2.748175 -0.251535 -2.441156 3.820901 3.921367 7.410774 0.000000 0.000000 0.000000 3.481380 0.150414 1.178501 31.107831 1.734887 -4.195978 0.000000 0.000000 0.000000
-2.671788 60.000000 -10.282080 7.778678 -0.195715 0.289727 7.778678 -0.195715 0.289727 0.000000 0.000000 0.000000 7.351570 2.303493 3.006790 5.000000 0.000000 0.000000 16.519572 2.669891 9.578825 21.501170 2.496624 -2.579477 -114.168808 7.637831 11.772401 0.000000 0.000000 0.000000 3.161366 -0.151110 2.277495 2.295232 -0.013964 -0.125751 0.000000 0.000000 0.000000 0.000000 0.000000 0.000000 2.282825 -0.200112 -2.467364 3.503736 3.860124 7.281914 0.000000 0.000000 0.000000 4.531197 0.159988 1.399425 30.062656 0.418410 -6.168247 0.000000 0.000000 0.000000
-2.932148 60.000000 -9.864061 6.910056 -0.061964 0.787175 6.910056 -0.061964 0.787175 0.000000 0.000000 0.000000 7.399747 2.554284 3.314141 5.000000 0.000000 0.000000 16.363663 2.670888 9.920667 19.987278 2.518857 -2.757803 -119.121991 8.441388 11.606691 0.000000 0.000000 0.000000 2.520067 0.161128 2.850341 2.040796 -0.003857 -0.137890 0.000000 0.000000 0.000000 0.000000 0.000000 0.000000 0.326289 0.006784 -2.297835 3.247990 3.724683 7.005485 0.000000 0.000000 0.000000 7.943419 0.159443 1.958648 27.127614 -1.326017 -8.050024 0.000000 0.000000 0.000000
-3.356892 60.000000 -9.001950 4.679631 0.194643 1.556521 4.679631 0.194643 1.556521 0.000000 0.000000 0.000000 6.532352 2.537536 3.225387 5.000000 0.000000 0.000000 11.784913 2.372042 9.839330 15.464602 2.270752 -2.829969 -114.101654 10.351263 13.271613 0.000000 0.000000 0.000000 1.554529 0.664229 3.824282 1.166447 0.032223 -0.183319 -8.506040 -1.705064 -2.215366 0.000000 0.000000 0.000000 -3.019615 0.351548 -1.573210 2.693499 3.409716 6.381719 0.000000 0.000000 0.000000 12.070192 0.190900 3.242755 19.462004 -2.851147 -7.889521 0.000000 0.000000 0.000000
-3.973330 60.000000 -8.032045 1.959573 0.422263 1.999377 1.959573 0.422263 1.999377 0.000000 0.000000 0.000000 4.747714 2.208964 2.690202 5.000000 0.000000 0.000000 6.189246 1.882871 8.494637 9.799638 1.714547 -2.485914 -80.519967 7.918508 10.382140 0.000000 0.000000 0.000000 1.834888 0.710903 4.274520 -0.360763 0.058651 -0.155315 -46.844644 -9.179128 -11.778705 0.000000 0.000000 0.000000 -2.686223 0.317476 -0.668448 -0.206602 3.089836 5.864730 0.000000 0.000000 0.000000 10.974957 0.259207 4.287540 17.941291 -2.511374 -6.978182 0.000000 0.000000 0.000000
-4.731864 60.000000 -7.296782 1.356494 0.458982 2.024035 1.356494 0.458982 2.024035 0.000000 0.000000 0.000000 3.777955 2.061351 2.448614 5.000000 0.000000 0.000000 3.295323 1.377146 6.408557 2.097296 1.033680 -2.024509 -47.684142 7.952721 12.680206 0.000000 0.000000 0.000000 3.047265 0.300109 3.934836 -1.415563 0.063613 -0.092440 -110.543396 -20.929279 -26.429620 0.000000 0.000000 0.000000 -1.724828 0.216703 0.805700 -6.513179 2.310034 4.709981 0.000000 0.000000 0.000000 9.834989 0.390551 6.149698 15.663864 -1.631693 -5.149937 0.000000 0.000000 0.000000
-5.414627 60.000000 -7.323675 1.405267 0.437279 1.946912 1.405267 0.437279 1.946912 0.000000 0.000000 0.000000 3.744039 1.759702 2.104726 5.000000 0.000000 0.000000 -0.255288 0.818718 4.960423 -0.955129 0.602402 -1.426552 -111.489401 18.351172 29.534851 0.000000 0.000000 0.000000 4.328974 -0.216062 3.223429 -1.596364 0.027291 0.039533 -111.573695 -19.135960 -23.193945 0.000000 0.000000 0.000000 -1.861309 0.235289 1.040693 -15.181067 1.809848 4.283958 0.000000 0.000000 0.000000 8.019988 0.570756 7.814150 13.976397 -1.233136 -4.202760 0.000000 0.000000 0.000000
-5.746803 60.000000 -8.233856 1.516927 0.452126 2.030247 1.516927 0.452126 2.030247 0.000000 0.000000 0.000000 3.656556 1.329383 1.612355 5.000000 0.000000 0.000000 -1.872908 0.472689 4.012094 -1.862926 0.411838 -1.077623 -110.784535 17.497068 28.610592 0.000000 0.000000 0.000000 4.133362 -0.429632 2.137848 -1.415778 -0.051922 0.277563 -110.857482 -17.725191 -21.476308 0.000000 0.000000 0.000000 -1.577834 0.192279 1.575533 -13.097270 1.631894 3.876289 0.000000 0.000000 0.000000 5.851878 0.686533 7.643124 12.362133 -1.167829 -3.732798 0.000000 0.000000 0.000000
-5.830889 60.000000 -8.964657 1.749384 0.499581 2.274317 1.749384 0.499581 2.274317 0.000000 0.000000 0.000000 3.597957 0.731907 0.933338 5.000000 0.000000 0.000000 -2.279970 0.202692 2.777917 -2.479431 0.264152 -0.795415 -112.337432 17.265665 27.427147 0.000000 0.000000 0.000000 3.833773 -0.651408 0.918716 -0.347283 -0.164454 0.533580 -111.531803 -16.086470 -18.750690 0.000000 0.000000 0.000000 -0.100141 -0.038228 2.866700 -4.743542 1.355766 2.862400 0.000000 0.000000 0.000000 4.028370 0.742788 7.068421 12.574572 -0.872825 -3.408975 0.000000 0.000000 0.000000
-5.785681 60.000000 -7.764763 2.174105 0.576641 2.688859 2.174105 0.576641 2.688859 0.000000 0.000000 0.000000 3.638312 0.318241 0.466738 5.000000 0.000000 0.000000 -0.568800 0.123865 1.134291 -0.872406 0.146651 -0.396516 -105.165271 16.354818 25.150460 0.000000 0.000000 0.000000 3.858097 -0.996494 -0.485676 1.521380 -0.311232 0.799540 -111.760321 -14.633367 -16.465527 0.000000 0.000000 0.000000 2.682080 -0.489116 4.108379 7.914165 1.564058 2.225235 0.000000 0.000000 0.000000 4.224406 0.659931 6.366292 16.321106 -0.385831 -3.632843 0.000000 0.000000 0.000000
-5.700661 60.000000 -5.167245 2.814782 0.597965 2.932178 2.814782 0.597965 2.932178 0.000000 0.000000 0.000000 3.803121 0.193932 0.332005 5.000000 0.000000 0.000000 0.738189 0.099500 -0.075590 0.412427 0.017313 -0.013827 -64.640205 10.565394 16.658396 0.000000 0.000000 0.000000 3.979100 -1.430911 -2.194212 3.101982 -0.473159 1.099312 -109.534933 -14.029670 -16.414902 0.000000 0.000000 0.000000 4.623278 -0.799332 4.323336 12.892744 2.192785 3.057406 0.000000 0.000000 0.000000 3.531103 0.681529 6.245277 24.029003 0.809972 -3.848618 0.000000 0.000000 0.000000
-5.532548 60.000000 -3.260490 3.187283 0.587248 2.981419 3.187283 0.587248 2.981419 0.000000 0.000000 0.000000 3.916463 0.240142 0.389149 5.000000 0.000000 0.000000 1.272028 0.135905 -0.341607 0.975720 -0.031362 0.129066 0.000000 0.000000 0.000000 0.000000 0.000000 0.000000 4.394107 -2.012233 -4.318276 4.822755 -0.684574 1.504843 -111.101832 -13.416487 -14.879883 0.000000 0.000000 0.000000 6.661790 -1.034747 3.273974 7.810531 2.867785 4.889598 0.000000 0.000000 0.000000 4.519252 0.626383 6.138140 22.734484 0.866206 -3.435030 0.000000 0.000000 0.000000
-5.325980 60.000000 -3.128016 3.728553 0.561409 3.010500 3.728553 0.561409 3.010500 0.000000 0.000000 0.000000 4.445873 0.383066 0.573758 5.000000 0.000000 0.000000 1.756909 0.241279 -0.132692 0.716004 -0.068593 0.196009 0.000000 0.000000 0.000000 0.000000 0.000000 0.000000 5.484753 -2.488161 -5.576925 5.438735 -0.775470 1.676040 -111.958197 -13.102917 -14.106320 0.000000 0.000000 0.000000 8.702650 -1.211525 1.332507 2.824851 3.760070 7.047327 0.000000 0.000000 0.000000 6.492558 0.415640 5.161374 17.680477 0.696096 -2.640435 0.000000 0.000000 0.000000
-5.172155 60.000000 -3.931963 4.221154 0.538938 3.041675 4.221154 0.538938 3.041675 0.000000 0.000000 0.000000 5.503104 0.537225 0.792755 5.000000 0.000000 0.000000 2.975843 0.478246 0.224417 -0.239829 -0.094392 0.198178 -8.517555 1.664924 2.753586 0.000000 0.000000 0.000000 7.702275 -2.953970 -5.955430 6.495066 -0.839720 1.724926 -112.678085 -13.387192 -14.266231 0.000000 0.000000 0.000000 6.251154 -0.833322 0.818514 5.220650 3.475078 6.380155 0.000000 0.000000 0.000000 6.472057 -0.169531 1.089921 8.041759 1.373464 -0.062865 0.000000 0.000000 0.000000
-5.193358 60.000000 -5.073632 3.238329 0.597626 3.039084 3.238329 0.597626 3.039084 0.000000 0.000000 0.000000 5.433486 0.605772 0.869009 5.000000 0.000000 0.000000 4.000668 0.643449 0.322686 -1.565023 -0.130559 0.203266 -46.787409 8.865264 14.628252 0.000000 0.000000 0.000000 8.086268 -2.811642 -4.959558 7.365832 -0.820387 1.575219 -113.417513 -15.142909 -16.415215 0.000000 0.000000 0.000000 5.206788 -0.654099 0.281198 8.524546 2.789060 4.896512 0.000000 0.000000 0.000000 -1.926572 -1.012775 -6.211279 5.916852 4.426322 3.990802 0.000000 0.000000 0.000000
-5.459934 60.000000 -5.682815 1.750074 0.684487 3.025401 1.750074 0.684487 3.025401 0.000000 0.000000 0.000000 4.710652 0.707290 0.955605 5.000000 0.000000 0.000000 3.919770 0.628191 0.297275 -2.255973 -0.175042 0.266797 -110.320935 19.933533 32.701925 0.000000 0.000000 0.000000 6.789227 -2.262485 -3.424473 4.831053 -0.616160 1.313256 -115.939785 -20.003270 -22.204163 0.000000 0.000000 0.000000 6.752879 -0.768916 -1.004225 4.996368 2.695277 4.844526 0.000000 0.000000 0.000000 -5.130454 -1.622300 -8.668914 14.242991 5.627644 4.608476 0.000000 0.000000 0.000000
-5.954307 60.000000 -5.683713 1.325767 0.707390 3.013759 1.325767 0.707390 3.013759 0.000000 0.000000 0.000000 4.472064 0.659427 0.890601 5.000000 0.000000 0.000000 3.864369 0.638516 0.428978 -2.368329 -0.217216 0.360751 -111.820884 17.633514 28.273014 0.000000 0.000000 0.000000 6.330609 -1.681308 -1.158381 2.356480 -0.410222 1.003094 -116.751945 -21.903870 -24.458318 0.000000 0.000000 0.000000 6.133323 -0.667289 -1.389009 2.279448 2.544892 4.694091 0.000000 0.000000 0.000000 -5.512460 -1.681005 -8.763255 14.910044 6.018228 5.057303 0.000000 0.000000 0.000000
-6.671154 60.000000 -5.759978 0.961305 0.706668 2.922744 0.961305 0.706668 2.922744 0.000000 0.000000 0.000000 3.733521 0.507520 0.685597 5.000000 0.000000 0.000000 3.622119 0.695282 1.087701 -2.965173 -0.203868 0.293359 -104.436790 15.523221 24.251026 0.000000 0.000000 0.000000 5.795430 -1.084841 1.039655 0.627183 -0.264009 0.750202 -111.314154 -20.084773 -24.736435 0.000000 0.000000 0.000000 4.413919 -0.502271 -0.809833 0.519887 1.806100 3.366362 0.000000 0.000000 0.000000 -2.657592 -1.308229 -7.654655 10.300520 5.576718 4.917764 0.000000 0.000000 0.000000
-7.335707 60.000000 -6.960144 1.227054 0.600543 2.557966 1.227054 0.600543 2.557966 0.000000 0.000000 0.000000 3.569932 0.287840 0.430633 5.000000 0.000000 0.000000 3.577232 0.895060 2.578355 -3.196661 -0.080426 -0.015654 -74.186330 10.956127 16.905464 0.000000 0.000000 0.000000 6.054513 -0.846943 2.377274 0.175529 -0.174717 0.523315 -111.155083 -20.134602 -24.894056 0.000000 0.000000 0.000000 2.596875 -0.310369 -0.380206 -1.082460 1.316499 2.565931 0.000000 0.000000 0.000000 3.355057 -0.555180 -4.964945 5.744454 4.257081 3.757990 0.000000 0.000000 0.000000
-7.950407 60.000000 -8.854372 2.237364 0.388071 1.856325 2.237364 0.388071 1.856325 0.000000 0.000000 0.000000 3.693954 0.299626 0.449661 5.000000 0.000000 0.000000 4.088147 1.192324 4.370589 -2.033153 0.175136 -0.521537 -48.811280 8.668563 13.083664 0.000000 0.000000 0.000000 6.433660 -0.870905 2.696076 0.354942 -0.131396 0.376291 -111.246349 -20.546233 -25.460009 0.000000 0.000000 0.000000 2.347978 -0.271425 -0.653360 -2.180333 1.526563 3.039132 0.000000 0.000000 0.000000 7.126000 -0.057784 -1.739628 7.621935 2.672220 1.565478 0.000000 0.000000 0.000000
-8.559344 60.000000 -10.585336 5.463662 -0.035218 0.564097 5.463662 -0.035218 0.564097 0.000000 0.000000 0.000000 4.108661 0.830044 1.067447 5.000000 0.000000 0.000000 5.864108 1.563020 5.985908 1.501015 0.610496 -1.183301 -114.147208 18.148075 27.640281 0.000000 0.000000 0.000000 6.954378 -1.171128 1.939772 1.407563 -0.132882 0.290462 -110.279005 -21.174301 -26.907635 0.000000 0.000000 0.000000 3.309517 -0.369998 -0.986876 -3.022774 2.007292 3.939398 0.000000 0.000000 0.000000 7.146762 0.114396 1.043754 17.807467 2.201837 -0.480757 0.000000 0.000000 0.000000
-9.368808 60.000000 -11.865411 10.184637 -0.377007 -0.299579 10.184637 -0.377007 -0.299579 0.000000 0.000000 0.000000 4.268617 1.481961 1.825131 5.000000 0.000000 0.000000 8.776225 2.028029 7.972145 7.662085 1.132479 -1.674865 -112.832344 12.406614 19.609456 0.000000 0.000000 0.000000 6.020081 -1.263022 0.464695 2.242371 -0.149353 0.270199 -109.708415 -21.204584 -27.269453 0.000000 0.000000 0.000000 6.850311 -0.759216 -1.216924 -5.427522 2.278047 4.549710 0.000000 0.000000 0.000000 10.229749 0.162394 1.856506 16.437421 1.478216 -1.117045 0.000000 0.000000 0.000000
-10.089308 60.000000 -12.827060 11.694902 -0.436223 -0.381988 11.694902 -0.436223 -0.381988 0.000000 0.000000 0.000000 5.301705 1.807633 2.274688 5.000000 0.000000 0.000000 11.299942 2.334247 9.518395 13.258857 1.642691 -2.050621 -112.113583 10.429093 16.757186 0.000000 0.000000 0.000000 6.373689 -1.500292 -0.257452 2.947985 -0.176800 0.292192 -109.922852 -21.620849 -27.763064 0.000000 0.000000 0.000000 8.751737 -0.905450 -2.015740 -5.627609 2.432667 4.855281 0.000000 0.000000 0.000000 10.692970 0.147005 1.590794 5.242038 -0.127102 -1.047583 0.000000 0.000000 0.000000
-10.654293 60.000000 -13.337856 12.647801 -0.384939 0.157155 12.647801 -0.384939 0.157155 0.000000 0.000000 0.000000 6.772970 2.225733 2.865945 5.000000 0.000000 0.000000 13.714464 2.534367 10.463301 18.843868 2.101774 -2.263305 -112.544368 9.755905 15.563568 0.000000 0.000000 0.000000 6.697673 -1.728160 -0.967745 3.491634 -0.213534 0.352554 -102.008949 -21.031809 -26.864913 0.000000 0.000000 0.000000 10.008437 -0.945290 -2.961057 -8.499261 1.807426 4.075844 0.000000 0.000000 0.000000 10.661642 0.116752 0.847857 3.311101 -0.387771 -1.001546 0.000000 0.000000 0.000000
-11.098777 60.000000 -13.112865 13.068501 -0.251893 1.178000 13.068501 -0.251893 1.178000 0.000000 0.000000 0.000000 6.676885 2.194115 2.820813 5.000000 0.000000 0.000000 15.326797 2.649287 11.105559 19.055919 2.297353 -2.529956 -116.648972 9.934780 14.635562 0.000000 0.000000 0.000000 6.263974 -1.698360 -1.258729 3.321905 -0.257206 0.487613 -64.076130 -13.353868 -16.766769 0.000000 0.000000 0.000000 11.054729 -0.955346 -3.836322 -13.243367 0.650205 2.524162 0.000000 0.000000 0.000000 10.830844 0.101597 0.490055 0.000000 0.000000 0.000000 0.000000 0.000000 0.000000
-11.816313 60.000000 -12.058582 13.013519 -0.145812 1.893322 13.013519 -0.145812 1.893322 0.000000 0.000000 0.000000 6.647481 2.093698 2.698805 5.000000 0.000000 0.000000 14.997893 2.631784 11.138785 17.586304 2.245252 -2.590978 -121.763860 10.733347 14.376123 0.000000 0.000000 0.000000 7.567271 -1.906058 -0.904457 3.810092 -0.314207 0.604429 -8.417648 -1.961150 -2.653436 0.000000 0.000000 0.000000 11.929077 -1.017700 -3.998156 -11.512706 1.129081 3.102577 0.000000 0.000000 0.000000 10.476743 0.093940 0.335162 0.000000 0.000000 0.000000 0.000000 0.000000 0.000000
-12.663900 60.000000 -10.942773 11.972837 -0.031141 2.306840 11.972837 -0.031141 2.306840 0.000000 0.000000 0.000000 6.571675 2.226413 2.850514 5.000000 0.000000 0.000000 13.835508 2.498409 9.816119 14.205071 1.954203 -2.464670 -123.828856 13.555887 17.718133 0.000000 0.000000 0.000000 9.415395 -2.131437 -0.045414 4.372454 -0.331964 0.604110 -46.109579 -10.574482 -14.301641 0.000000 0.000000 0.000000 12.287928 -1.108003 -3.479541 -8.832089 1.489662 3.410619 0.000000 0.000000 0.000000 9.909326 0.101540 0.529580 0.000000 0.000000 0.000000 0.000000 0.000000 0.000000
-13.540573 60.000000 -11.087628 9.623876 0.131573 2.550245 9.623876 0.131573 2.550245 0.000000 0.000000 0.000000 5.697655 2.311590 2.879537 5.000000 0.000000 0.000000 10.052583 2.145540 8.392559 8.697570 1.470258 -2.191095 -120.610432 18.656590 25.451389 0.000000 0.000000 0.000000 9.096047 -1.896684 0.781308 3.380617 -0.292138 0.578131 -108.100244 -24.343292 -32.954092 0.000000 0.000000 0.000000 10.703396 -1.144861 -1.668589 -5.657863 1.030269 2.292138 0.000000 0.000000 0.000000 9.596399 0.138503 1.278393 0.000000 0.000000 0.000000 0.000000 0.000000 0.000000
-14.169176 60.000000 -13.387202 6.956195 0.258600 2.455266 6.956195 0.258600 2.455266 0.000000 0.000000 0.000000 4.193495 2.609579 3.102636 5.000000 0.000000 0.000000 4.853982 1.638627 7.183233 4.118477 0.983399 -1.721860 -119.903145 18.644668 25.950333 0.000000 0.000000 0.000000 7.611373 -1.502770 1.072304 1.616003 -0.214726 0.513923 -107.796483 -23.212164 -31.453536 0.000000 0.000000 0.000000 7.565900 -0.878804 -0.810334 0.000000 0.000000 0.000000 0.000000 0.000000 0.000000 10.641584 0.186334 2.581456 0.000000 0.000000 0.000000 0.000000 0.000000 0.000000
-14.764725 60.000000 -16.163598 6.494821 0.241378 2.242949 6.494821 0.241378 2.242949 0.000000 0.000000 0.000000 3.639269 3.007641 3.506570 5.000000 0.000000 0.000000 4.087310 1.435003 6.113185 1.096422 0.549821 -1.118364 -112.859703 19.580348 30.659673 0.000000 0.000000 0.000000 7.213974 -1.593288 0.199842 0.626243 -0.197379 0.552267 -108.448068 -23.024378 -30.798266 0.000000 0.000000 0.000000 7.811335 -0.952810 -0.264051 0.000000 0.000000 0.000000 0.000000 0.000000 0.000000 15.246186 0.127089 2.877910 0.000000 0.000000 0.000000 0.000000 0.000000 0.000000
-15.207094 60.000000 -17.864824 6.285706 0.251997 2.240935 6.285706 0.251997 2.240935 0.000000 0.000000 0.000000 2.811636 3.287184 3.742572 5.000000 0.000000 0.000000 3.962625 1.308794 5.267865 -0.512633 0.321422 -0.757614 -112.142871 19.483026 30.956779 0.000000 0.000000 0.000000 6.813129 -1.658506 -0.519688 -0.251221 -0.214580 0.686729 -110.813844 -21.540000 -27.177193 0.000000 0.000000 0.000000 8.631094 -1.060767 -0.201019 0.000000 0.000000 0.000000 0.000000 0.000000 0.000000 22.354981 0.007512 2.695628 0.000000 0.000000 0.000000 0.000000 0.000000 0.000000
-15.529126 60.000000 -18.615721 5.974374 0.285561 2.324767 5.974374 0.285561 2.324767 0.000000 0.000000 0.000000 1.972752 3.650384 4.065594 5.000000 0.000000 0.000000 3.383698 1.237984 5.181299 -1.302227 0.204813 -0.555495 -110.388771 20.808518 33.997868 0.000000 0.000000 0.000000 6.115163 -1.740023 -1.594113 -0.223174 -0.287209 0.908116 -112.828756 -20.191819 -24.155925 0.000000 0.000000 0.000000 9.656677 -1.217443 0.116682 0.000000 0.000000 0.000000 0.000000 0.000000 0.000000 23.913482 -0.022397 2.715884 0.000000 0.000000 0.000000 0.000000 0.000000 0.000000
-17.020156 60.000000 -21.558035 6.330407 0.300356 2.492817 6.330407 0.300356 2.492817 0.000000 0.000000 0.000000 1.752664 3.825815 4.236054 5.000000 0.000000 0.000000 3.225039 1.197824 4.990288 -2.518310 0.138409 -0.494812 -110.963108 20.720693 33.533701 0.000000 0.000000 0.000000 5.942266 -2.002256 -2.955486 0.385371 -0.398023 1.170960 -114.619710 -18.469524 -20.870565 0.000000 0.000000 0.000000 10.264712 -1.294335 0.122140 0.000000 0.000000 0.000000 0.000000 0.000000 0.000000 24.844190 -0.071151 3.163412 0.000000 0.000000 0.000000 0.000000 0.000000 0.000000
-23.717031 60.000000 -35.389912 8.061610 0.229099 2.624013 8.061610 0.229099 2.624013 0.000000 0.000000 0.000000 0.845736 3.703079 4.014828 5.000000 0.000000 0.000000 4.934271 1.300872 4.298242 -2.727293 0.074737 -0.356621 -113.298080 19.717494 30.669372 0.000000 0.000000 0.000000 6.226412 -2.454152 -4.865606 3.290102 -0.622922 1.479966 -115.384453 -16.331005 -17.489590 0.000000 0.000000 0.000000 10.764842 -1.315152 -0.275456 0.000000 0.000000 0.000000 0.000000 0.000000 0.000000 25.269003 -0.037683 2.558745 0.000000 0.000000 0.000000 0.000000 0.000000 0.000000
-34.546183 60.000000 -55.726608 11.722335 0.053625 2.798882 11.722335 0.053625 2.798882 0.000000 0.000000 0.000000 -0.636440 3.389392 3.546897 5.000000 0.000000 0.000000 9.108010 1.660263 3.254396 -3.700874 -0.036714 -0.160956 -107.093665 17.157591 25.338675 0.000000 0.000000 0.000000 7.743688 -3.169611 -7.061425 8.426308 -0.973844 1.828552 -113.155395 -15.612587 -17.356970 0.000000 0.000000 0.000000 10.864113 -1.230034 -1.211457 0.000000 0.000000 0.000000 0.000000 0.000000 0.000000 25.276408 0.160091 0.258016 0.000000 0.000000 0.000000 0.000000 0.000000 0.000000
-42.549207 60.000000 -69.184261 13.495638 -0.015838 3.002390 13.495638 -0.015838 3.002390 0.000000 0.000000 0.000000 -2.247281 2.779588 2.774041 5.000000 0.000000 0.000000 12.373010 1.985448 2.496516 -3.719434 -0.083355 -0.049247 -75.646406 12.159852 18.093373 0.000000 0.000000 0.000000 8.016464 -3.591417 -8.919256 12.173809 -1.241539 2.050974 -104.837396 -13.755484 -14.890203 0.000000 0.000000 0.000000 9.783902 -0.975633 -2.447711 0.000000 0.000000 0.000000 0.000000 0.000000 0.000000 25.839690 0.624776 -3.871761 0.000000 0.000000 0.000000 0.000000 0.000000 0.000000
-44.295224 60.000000 -70.390861 11.990646 0.078522 3.059366 11.990646 0.078522 3.059366 0.000000 0.000000 0.000000 -2.629962 2.149774 2.106970 5.000000 0.000000 0.000000 11.035076 1.774176 1.882217 -3.149746 -0.158642 0.173765 -37.209465 8.480980 14.597060 0.000000 0.000000 0.000000 6.404063 -3.443100 -9.292066 13.934364 -1.331665 2.060203 -65.216698 -8.199768 -8.761874 0.000000 0.000000 0.000000 9.283427 -0.849849 -2.657630 0.000000 0.000000 0.000000 0.000000 0.000000 0.000000 30.362405 1.044599 -6.231529 0.000000 0.000000 0.000000 0.000000 0.000000 0.000000
-43.249053 60.000000 -67.155008 9.712944 0.163309 2.784712 9.712944 0.163309 2.784712 0.000000 0.000000 0.000000 -3.465003 2.111048 2.013940 5.000000 0.000000 0.000000 9.274086 1.515269 1.548986 -3.442929 -0.241801 0.364053 -69.457461 15.868704 27.460194 0.000000 0.000000 0.000000 5.684709 -3.348229 -9.318365 11.451766 -1.247695 2.138284 -8.896543 -1.769240 -2.088340 0.000000 0.000000 0.000000 12.884967 -0.925191 -3.799515 0.000000 0.000000 0.000000 0.000000 0.000000 0.000000 28.891409 0.961831 -6.400193 0.000000 0.000000 0.000000 0.000000 0.000000 0.000000
-41.067924 60.000000 -63.891226 7.597646 0.186910 2.285172 7.597646 0.186910 2.285172 0.000000 0.000000 0.000000 -3.489392 2.145956 2.047733 5.000000 0.000000 0.000000 8.132655 1.310657 1.131059 -5.002581 -0.383478 0.630632 -44.702879 10.106050 18.050658 0.000000 0.000000 0.000000 4.577218 -3.053612 -8.710007 8.578305 -1.068705 2.033055 -39.871540 -7.929183 -9.359291 0.000000 0.000000 0.000000 21.069932 -1.268755 -6.844883 0.000000 0.000000 0.000000 0.000000 0.000000 0.000000 26.798157 0.975196 -7.821750 0.000000 0.000000 0.000000 0.000000 0.000000 0.000000
-39.035409 60.000000 -56.065849 5.384937 0.219557 1.866235 5.384937 0.219557 1.866235 0.000000 0.000000 0.000000 -3.093433 2.426434 2.355871 5.000000 0.000000 0.000000 6.076185 0.893846 -0.112501 -5.616250 -0.485110 0.858095 -105.709192 22.947284 40.585655 0.000000 0.000000 0.000000 4.004902 -2.530525 -6.760926 4.346324 -0.753757 1.738332 -73.622904 -15.136470 -18.622632 0.000000 0.000000 0.000000 16.729185 -1.057145 -6.488971 0.000000 0.000000 0.000000 0.000000 0.000000 0.000000 24.864067 0.975825 -9.218373 0.000000 0.000000 0.000000 0.000000 0.000000 0.000000
-38.951023 60.000000 -47.564047 5.278620 0.188933 1.690397 5.278620 0.188933 1.690397 0.000000 0.000000 0.000000 -2.576158 2.664971 2.632183 5.000000 0.000000 0.000000 6.139375 0.852492 -0.507152 -4.585085 -0.489933 0.920984 -107.677584 20.995970 36.046399 0.000000 0.000000 0.000000 5.065811 -2.179639 -4.465771 3.535117 -0.606553 1.438216 -43.695215 -11.230872 -17.033762 0.000000 0.000000 0.000000 12.669614 -0.574346 -8.112884 0.000000 0.000000 0.000000 0.000000 0.000000 0.000000 27.757085 1.489081 -11.896873 0.000000 0.000000 0.000000 0.000000 0.000000 0.000000
-39.966441 60.000000 -42.274480 6.351901 0.097301 1.476194 6.351901 0.097301 1.476194 0.000000 0.000000 0.000000 -3.003427 2.885253 2.821517 5.000000 0.000000 0.000000 7.413576 1.138558 0.488033 -3.532768 -0.377756 0.690062 -108.848952 20.419129 34.403734 0.000000 0.000000 0.000000 5.984394 -1.965278 -2.739278 4.226748 -0.537908 1.176555 -104.236502 -25.997791 -38.251570 0.000000 0.000000 0.000000 13.574656 -0.171312 -11.537049 0.000000 0.000000 0.000000 0.000000 0.000000 0.000000 27.638359 1.825963 -14.529722 0.000000 0.000000 0.000000 0.000000 0.000000 0.000000
-39.884554 60.000000 -42.058033 7.737380 -0.063126 0.987533 7.737380 -0.063126 0.987533 0.000000 0.000000 0.000000 -4.027030 2.970286 2.827647 5.000000 0.000000 0.000000 8.829056 1.572545 2.735631 -3.230215 -0.179812 0.222332 -111.747299 19.501026 31.205308 0.000000 0.000000 0.000000 6.869784 -2.012462 -2.138069 3.969153 -0.486184 1.060291 -108.156348 -25.001701 -33.939901 0.000000 0.000000 0.000000 15.427439 -0.483703 -9.509641 0.000000 0.000000 0.000000 0.000000 0.000000 0.000000 30.339970 2.283142 -15.263298 0.000000 0.000000 0.000000 0.000000 0.000000 0.000000
-39.803264 60.000000 -43.683570 7.574102 -0.138550 0.552936 7.574102 -0.138550 0.552936 0.000000 0.000000 0.000000 -3.682992 3.045378 2.928751 5.000000 0.000000 0.000000 8.299077 1.654368 4.300031 -2.769833 0.053815 -0.309778 -113.389553 17.530878 27.282703 0.000000 0.000000 0.000000 7.104704 -1.866349 -1.242217 2.563547 -0.408597 0.983446 -107.993500 -24.724330 -33.662671 0.000000 0.000000 0.000000 14.215342 -0.935075 -6.102307 0.000000 0.000000 0.000000 0.000000 0.000000 0.000000 27.075307 1.503047 -12.746836 0.000000 0.000000 0.000000 0.000000 0.000000 0.000000
-40.661626 60.000000 -49.586636 8.182090 -0.289696 -0.148257 8.182090 -0.289696 -0.148257 0.000000 0.000000 0.000000 -3.868727 3.472983 3.336880 5.000000 0.000000 0.000000 9.073447 1.850694 5.708680 -1.836132 0.426349 -1.078223 -114.399630 15.694432 24.094843 0.000000 0.000000 0.000000 6.365880 -1.382187 0.242590 2.402047 -0.312170 0.732503 -105.265311 -25.881008 -37.241024 0.000000 0.000000 0.000000 14.841315 -1.072591 -5.450593 0.000000 0.000000 0.000000 0.000000 0.000000 0.000000 27.319597 1.458599 -12.049489 0.000000 0.000000 0.000000 0.000000 0.000000 0.000000
-41.406915 60.000000 -54.439180 9.499122 -0.373528 -0.385353 9.499122 -0.373528 -0.385353 0.000000 0.000000 0.000000 -4.020756 3.894105 3.743719 5.000000 0.000000 0.000000 12.123214 2.208020 6.775482 2.018172 0.970318 -1.869838 -116.763060 12.345885 18.206387 0.000000 0.000000 0.000000 5.609721 -0.837447 1.934982 4.208423 -0.266056 0.440072 -104.430860 -26.371638 -38.637993 0.000000 0.000000 0.000000 15.466210 -1.243330 -4.697578 0.000000 0.000000 0.000000 0.000000 0.000000 0.000000 27.997935 1.431488 -11.184314 0.000000 0.000000 0.000000 0.000000 0.000000 0.000000
-41.377248 60.000000 -54.679407 8.936964 -0.336516 -0.275049 8.936964 -0.336516 -0.275049 0.000000 0.000000 0.000000 -3.293458 4.175525 4.096126 5.000000 0.000000 0.000000 14.219204 2.452881 7.851700 7.477318 1.603149 -2.570807 -119.265014 10.127362 14.127019 0.000000 0.000000 0.000000 5.478269 -0.754604 2.152820 5.355869 -0.272241 0.364654 -104.372031 -26.739823 -39.304245 0.000000 0.000000 0.000000 17.187710 -1.621190 -3.403208 0.000000 0.000000 0.000000 0.000000 0.000000 0.000000 29.069222 1.202229 -8.345247 0.000000 0.000000 0.000000 0.000000 0.000000 0.000000
-39.101852 60.000000 -51.317629 7.753790 -0.193701 0.251952 7.753790 -0.193701 0.251952 0.000000 0.000000 0.000000 -2.569169 4.386829 4.379481 5.000000 0.000000 0.000000 13.122260 2.387411 8.210652 9.623804 1.847006 -2.777669 -120.409712 11.537370 15.735321 0.000000 0.000000 0.000000 5.177675 -0.621861 2.399752 5.565929 -0.262239 0.323333 -107.897386 -25.785439 -35.272384 0.000000 0.000000 0.000000 19.904845 -2.112784 -2.061931 0.000000 0.000000 0.000000 0.000000 0.000000 0.000000 29.563962 0.722125 -3.986767 0.000000 0.000000 0.000000 0.000000 0.000000 0.000000
-35.823497 60.000000 -44.995870 6.319540 0.098114 1.452464 6.319540 0.098114 1.452464 0.000000 0.000000 0.000000 -2.243068 4.145287 4.165187 5.000000 0.000000 0.000000 11.815219 2.328441 8.829946 8.193466 1.741398 -2.734114 -121.346684 13.848030 18.554189 0.000000 0.000000 0.000000 5.479705 -0.493358 3.306836 3.363034 -0.151625 0.194691 -99.685377 -24.161373 -32.999820 0.000000 0.000000 0.000000 19.999100 -2.174446 -1.798732 0.000000 0.000000 0.000000 0.000000 0.000000 0.000000 29.044781 0.328681 -0.548406 0.000000 0.000000 0.000000 0.000000 0.000000 0.000000
-29.556943 60.000000 -35.747178 6.595402 0.272067 2.422039 6.595402 0.272067 2.422039 0.000000 0.000000 0.000000 0.871068 4.041996 4.385579 5.000000 0.000000 0.000000 8.185098 2.036994 8.423260 3.986682 1.254821 -2.256330 -120.617523 18.546440 25.913196 0.000000 0.000000 0.000000 8.253224 -1.155490 3.487740 -2.505086 -0.027228 0.290658 -71.837695 -16.620459 -21.712559 0.000000 0.000000 0.000000 23.813994 -2.640390 -1.595131 0.000000 0.000000 0.000000 0.000000 0.000000 0.000000 25.472335 -0.387986 5.678782 0.000000 0.000000 0.000000 0.000000 0.000000 0.000000
-23.126890 60.000000 -27.354434 9.641989 0.109331 2.433277 9.641989 0.109331 2.433277 0.000000 0.000000 0.000000 3.230668 4.400196 5.032226 5.000000 0.000000 0.000000 6.680506 1.807181 7.372688 -2.007096 0.639018 -1.545704 -110.260690 23.981620 39.745331 0.000000 0.000000 0.000000 10.159739 -1.764069 2.880396 -5.584813 0.061527 0.278053 -38.162359 -9.014557 -11.936746 0.000000 0.000000 0.000000 28.395385 -3.043792 -2.099695 0.000000 0.000000 0.000000 0.000000 0.000000 0.000000 15.303671 -0.522450 6.505949 0.000000 0.000000 0.000000 0.000000 0.000000 0.000000
-17.156190 60.000000 -16.256223 7.062814 0.229682 2.343302 7.062814 0.229682 2.343302 0.000000 0.000000 0.000000 3.004637 5.064601 5.747475 5.000000 0.000000 0.000000 4.535354 1.472629 6.176233 -7.044636 -0.011215 -0.444439 -100.306502 26.419646 50.480923 0.000000 0.000000 0.000000 8.913964 -1.605056 2.118190 -6.051469 0.026546 0.460818 -62.919092 -14.862492 -19.680367 0.000000 0.000000 0.000000 24.862367 -2.316318 -3.328647 0.000000 0.000000 0.000000 0.000000 0.000000 0.000000 0.000000 0.000000 0.000000 0.000000 0.000000 0.000000 0.000000 0.000000 0.000000
-14.365847 60.000000 -4.555269 2.768172 0.443839 2.258521 2.768172 0.443839 2.258521 0.000000 0.000000 0.000000 2.167382 5.211297 5.802480 5.000000 0.000000 0.000000 2.831376 1.119668 4.743595 -10.266209 -0.359986 0.247143 -101.378832 25.510062 48.133240 0.000000 0.000000 0.000000 7.539954 -1.474806 1.121080 -7.867479 0.006532 0.734897 -7.919825 -2.330048 -3.578096 0.000000 0.000000 0.000000 25.551716 -1.664568 -6.171878 0.000000 0.000000 0.000000 0.000000 0.000000 0.000000 0.000000 0.000000 0.000000 0.000000 0.000000 0.000000 0.000000 0.000000 0.000000
-12.816486 60.000000 1.854665 0.078237 0.608225 2.343928 0.078237 0.608225 2.343928 0.000000 0.000000 0.000000 0.461432 5.257444 5.636152 5.000000 0.000000 0.000000 3.434071 1.014391 3.524478 -10.771190 -0.443460 0.457245 -103.655443 25.175927 45.795468 0.000000 0.000000 0.000000 7.450217 -1.686244 0.004039 -7.161350 -0.117148 1.141457 -44.027782 -12.622709 -18.931634 0.000000 0.000000 0.000000 14.706767 -0.545905 -5.446502 0.000000 0.000000 0.000000 0.000000 0.000000 0.000000 0.000000 0.000000 0.000000 0.000000 0.000000 0.000000 0.000000 0.000000 0.000000
-13.619476 60.000000 0.087917 -1.042648 0.647852 2.261233 -1.042648 0.647852 2.261233 0.000000 0.000000 0.000000 -1.555543 5.163992 5.286944 5.000000 0.000000 0.000000 4.507252 1.046455 2.823710 -9.886044 -0.443691 0.512978 -106.609458 24.299943 42.035452 0.000000 0.000000 0.000000 7.458841 -1.746303 -0.281770 -7.268949 -0.158805 1.314401 -105.609495 -28.970495 -41.831732 0.000000 0.000000 0.000000 0.000000 0.000000 0.000000 0.000000 0.000000 0.000000 0.000000 0.000000 0.000000 0.000000 0.000000 0.000000 0.000000 0.000000 0.000000 0.000000 0.000000 0.000000
-15.670311 60.000000 -2.877973 -0.517437 0.607156 2.218501 -0.517437 0.607156 2.218501 0.000000 0.000000 0.000000 -1.540085 4.852819 4.966952 5.000000 0.000000 0.000000 4.995204 1.020561 2.151357 -8.761527 -0.464188 0.636872 -96.583895 22.549309 40.309113 0.000000 0.000000 0.000000 7.887989 -2.001076 -1.103341 -5.798401 -0.236296 1.401517 -111.750114 -26.953092 -34.477110 0.000000 0.000000 0.000000 0.000000 0.000000 0.000000 0.000000 0.000000 0.000000 0.000000 0.000000 0.000000 0.000000 0.000000 0.000000 0.000000 0.000000 0.000000 0.000000 0.000000 0.000000
-18.176948 60.000000 -5.265873 -0.149992 0.644073 2.440994 -0.149992 0.644073 2.440994 0.000000 0.000000 0.000000 -0.782842 4.696595 4.890798 5.000000 0.000000 0.000000 5.084427 0.906657 1.133870 -6.819385 -0.475579 0.772345 -59.198222 14.117848 25.941118 0.000000 0.000000 0.000000 8.948729 -2.584978 -3.001144 -4.047000 -0.335227 1.509673 -115.908217 -24.898739 -29.195941 0.000000 0.000000 0.000000 0.000000 0.000000 0.000000 0.000000 0.000000 0.000000 0.000000 0.000000 0.000000 0.000000 0.000000 0.000000 0.000000 0.000000 0.000000 0.000000 0.000000 0.000000
-20.395341 60.000000 -6.065548 1.035486 0.711778 2.952099 1.035486 0.711778 2.952099 0.000000 0.000000 0.000000 0.173657 4.452421 4.740782 5.000000 0.000000 0.000000 5.614821 0.859720 0.162558 -4.177905 -0.444426 0.823091 0.000000 0.000000 0.000000 0.000000 0.000000 0.000000 10.180347 -3.254325 -5.400404 -2.275232 -0.484961 1.775537 -120.670091 -22.000251 -23.067380 0.000000 0.000000 0.000000 0.000000 0.000000 0.000000 0.000000 0.000000 0.000000 0.000000 0.000000 0.000000 0.000000 0.000000 0.000000 0.000000 0.000000 0.000000 0.000000 0.000000 0.000000
-20.982197 60.000000 -1.665170 0.349335 0.897286 3.519838 0.349335 0.897286 3.519838 0.000000 0.000000 0.000000 0.515601 3.993205 4.286533 5.000000 0.000000 0.000000 5.598231 0.839780 0.013577 -4.311710 -0.436778 0.798263 0.000000 0.000000 0.000000 0.000000 0.000000 0.000000 11.610660 -3.747986 -6.889657 -1.715805 -0.602777 2.079465 -114.348920 -15.048761 -12.945120 0.000000 0.000000 0.000000 0.000000 0.000000 0.000000 0.000000 0.000000 0.000000 0.000000 0.000000 0.000000 0.000000 0.000000 0.000000 0.000000 0.000000 0.000000 0.000000 0.000000 0.000000
-20.002217 60.000000 12.985254 0.374308 1.001432 3.928837 0.374308 1.001432 3.928837 0.000000 0.000000 0.000000 1.121346 3.424029 3.725212 5.000000 0.000000 0.000000 4.896360 0.803122 0.530319 -5.144359 -0.479388 0.868731 0.000000 0.000000 0.000000 0.000000 0.000000 0.000000 12.240666 -4.042126 -8.092122 -1.861177 -0.685758 2.361170 -67.100014 -6.836182 -6.252767 0.000000 0.000000 0.000000 0.000000 0.000000 0.000000 0.000000 0.000000 0.000000 0.000000 0.000000 0.000000 0.000000 0.000000 0.000000 0.000000 0.000000 0.000000 0.000000 0.000000 0.000000
-17.432213 60.000000 37.223033 -0.030638 1.198041 4.566305 -0.030638 1.198041 4.566305 0.000000 0.000000 0.000000 2.451240 2.319770 2.633281 5.000000 0.000000 0.000000 4.880785 0.955069 1.771954 -5.481620 -0.504259 0.921512 0.000000 0.000000 0.000000 0.000000 0.000000 0.000000 11.816551 -4.108135 -8.893338 -1.367653 -0.804240 2.660775 0.000000 0.000000 0.000000 0.000000 0.000000 0.000000 0.000000 0.000000 0.000000 0.000000 0.000000 0.000000 0.000000 0.000000 0.000000 0.000000 0.000000 0.000000 0.000000 0.000000 0.000000 0.000000 0.000000 0.000000
-13.162209 60.000000 64.356146 -1.434121 1.316445 4.611928 -1.434121 1.316445 4.611928 0.000000 0.000000 0.000000 3.578470 1.140434 1.375276 5.000000 0.000000 0.000000 6.443982 1.232245 2.365121 -3.742885 -0.349386 0.623839 0.000000 0.000000 0.000000 0.000000 0.000000 0.000000 11.573677 -4.048419 -8.730105 -0.304574 -0.787924 2.450957 0.000000 0.000000 0.000000 0.000000 0.000000 0.000000 0.000000 0.000000 0.000000 0.000000 0.000000 0.000000 0.000000 0.000000 0.000000 0.000000 0.000000 0.000000 0.000000 0.000000 0.000000 0.000000 0.000000 0.000000
-8.482316 60.000000 85.333961 -1.785552 1.268385 4.327831 -1.785552 1.268385 4.327831 0.000000 0.000000 0.000000 5.476404 -0.120793 -0.004637 5.000000 0.000000 0.000000 8.541897 1.524487 2.667117 -1.864817 -0.112631 0.142738 0.000000 0.000000 0.000000 0.000000 0.000000 0.000000 11.629787 -4.111401 -9.069330 1.541029 -0.792997 2.212761 0.000000 0.000000 0.000000 0.000000 0.000000 0.000000 0.000000 0.000000 0.000000 0.000000 0.000000 0.000000 0.000000 0.000000 0.000000 0.000000 0.000000 0.000000 0.000000 0.000000 0.000000 0.000000 0.000000 0.000000
-4.413522 60.000000 96.408889 0.111757 1.002876 3.859065 0.111757 1.002876 3.859065 0.000000 0.000000 0.000000 8.149369 -0.699488 -0.606038 5.000000 0.000000 0.000000 8.864137 1.686397 3.984775 -1.351848 -0.107847 0.163064 0.000000 0.000000 0.000000 0.000000 0.000000 0.000000 11.500030 -4.144489 -9.376102 3.615510 -0.732096 1.768924 0.000000 0.000000 0.000000 0.000000 0.000000 0.000000 0.000000 0.000000 0.000000 0.000000 0.000000 0.000000 0.000000 0.000000 0.000000 0.000000 0.000000 0.000000 0.000000 0.000000 0.000000 0.000000 0.000000 0.000000
-1.923598 60.000000 99.168855 1.200045 0.862978 3.601895 1.200045 0.862978 3.601895 0.000000 0.000000 0.000000 8.303850 -0.247186 -0.048939 5.000000 0.000000 0.000000 8.924183 1.832946 5.544060 -1.684809 -0.136229 0.210488 0.000000 0.000000 0.000000 0.000000 0.000000 0.000000 10.565542 -3.977992 -9.120157 3.271400 -0.567546 1.351062 0.000000 0.000000 0.000000 0.000000 0.000000 0.000000 0.000000 0.000000 0.000000 0.000000 0.000000 0.000000 0.000000 0.000000 0.000000 0.000000 0.000000 0.000000 0.000000 0.000000 0.000000 0.000000 0.000000 0.000000
0.760506 60.000000 106.041609 1.600090 0.745137 3.234672 1.600090 0.745137 3.234672 0.000000 0.000000 0.000000 8.099271 0.272831 0.579770 5.000000 0.000000 0.000000 9.125339 1.978573 6.938432 -2.855202 -0.210018 0.316382 0.000000 0.000000 0.000000 0.000000 0.000000 0.000000 8.730690 -3.732125 -9.178101 1.918027 -0.395746 1.001255 0.000000 0.000000 0.000000 0.000000 0.000000 0.000000 0.000000 0.000000 0.000000 0.000000 0.000000 0.000000 0.000000 0.000000 0.000000 0.000000 0.000000 0.000000 0.000000 0.000000 0.000000 0.000000 0.000000 0.000000
4.540976 60.000000 120.526134 1.440708 0.592956 2.592628 1.440708 0.592956 2.592628 0.000000 0.000000 0.000000 7.112759 0.892657 1.301935 4.611522 0.000000 0.000000 8.334071 1.825857 6.489340 -3.027049 -0.254396 0.416072 0.000000 0.000000 0.000000 0.000000 0.000000 0.000000 7.053573 -3.142529 -7.633265 0.423819 -0.179138 0.515416 0.000000 0.000000 0.000000 0.000000 0.000000 0.000000 0.000000 0.000000 0.000000 0.000000 0.000000 0.000000 0.000000 0.000000 0.000000 0.000000 0.000000 0.000000 0.000000 0.000000 0.000000 0.000000 0.000000 0.000000
7.158816 60.000000 130.924709 0.794943 0.289922 1.281207 0.794943 0.289922 1.281207 0.000000 0.000000 0.000000 3.740512 0.696865 0.957990 2.500000 0.000000 0.000000 4.422774 0.983350 3.535736 -1.606427 -0.165079 0.293863 0.000000 0.000000 0.000000 0.000000 0.000000 0.000000 3.708609 -1.580194 -3.607326 0.401049 -0.036308 0.079600 0.000000 0.000000 0.000000 0.000000 0.000000 0.000000 0.000000 0.000000 0.000000 0.000000 0.000000 0.000000 0.000000 0.000000 0.000000 0.000000 0.000000 0.000000 0.000000 0.000000 0.000000 0.000000 0.000000 0.000000
