HIERARCHY
ROOT Hips
{
  OFFSET 0.000000 0.000000 0.000000
  CHANNELS 6 Xposition Yposition Zposition Xrotation Yrotation Zrotation
  JOINT Spine
  {
    OFFSET 0.762862 23.197727 -6.058858
    CHANNELS 3 Xrotation Yrotation Zrotation
    JOINT Chest
    {
      OFFSET 0.762862 23.197727 -6.058858
      CHANNELS 3 Xrotation Yrotation Zrotation
      JOINT Neck
      {
        OFFSET -0.270074 9.229822 -3.797407
        CHANNELS 3 Xrotation Yrotation Zrotation
        JOINT Head
        {
          OFFSET 0.225285 8.430608 -7.939136
          CHANNELS 3 Xrotation Yrotation Zrotation
          End Site
          {
            OFFSET 0.067585 2.529182 -2.381741
          }
        }
      }
      JOINT LeftShoulder
      {
        OFFSET 17.595006 0.044015 0.996102
        CHANNELS 3 Xrotation Yrotation Zrotation
        JOINT LeftArm
        {
          OFFSET 3.473531 -23.049457 3.982832
          CHANNELS 3 Xrotation Yrotation Zrotation
          JOINT LeftForeArm
          {
            OFFSET 3.218371 -22.980839 -10.241008
            CHANNELS 3 Xrotation Yrotation Zrotation
            JOINT LeftHand
            {
              OFFSET -0.008887 -5.924601 -2.989147
              CHANNELS 3 Xrotation Yrotation Zrotation
              End Site
              {
                OFFSET -0.002666 -1.777380 -0.896744
              }
            }
          }
        }
      }
      JOINT RightShoulder
      {
        OFFSET -17.595006 -0.044015 -0.996102
        CHANNELS 3 Xrotation Yrotation Zrotation
        JOINT RightArm
        {
          OFFSET -5.553442 -24.118242 6.751946
          CHANNELS 3 Xrotation Yrotation Zrotation
          JOINT RightForeArm
          {
            OFFSET -3.099014 -24.977112 -8.059516
            CHANNELS 3 Xrotation Yrotation Zrotation
            JOINT RightHand
            {
              OFFSET 0.298828 -5.701374 -2.573080
              CHANNELS 3 Xrotation Yrotation Zrotation
              End Site
              {
                OFFSET 0.089648 -1.710412 -0.771924
              }
            }
          }
        }
      }
    }
  }
  JOINT LeftUpLeg
  {
    OFFSET 11.990773 -0.614304 0.788698
    CHANNELS 3 Xrotation Yrotation Zrotation
    JOINT LeftLeg
    {
      OFFSET -5.144974 -41.347031 -0.530598
      CHANNELS 3 Xrotation Yrotation Zrotation
      JOINT LeftFoot
      {
        OFFSET 2.709190 -35.138144 18.775504
        CHANNELS 3 Xrotation Yrotation Zrotation
        End Site
        {
          OFFSET 0.812757 -10.541443 5.632651
        }
      }
    }
  }
  JOINT RightUpLeg
  {
    OFFSET -11.990773 0.614304 -0.788698
    CHANNELS 3 Xrotation Yrotation Zrotation
    JOINT RightLeg
    {
      OFFSET 0.284998 -37.357294 5.081156
      CHANNELS 3 Xrotation Yrotation Zrotation
      JOINT RightFoot
      {
        OFFSET 4.690763 -28.563407 28.545631
        CHANNELS 3 Xrotation Yrotation Zrotation
        End Site
        {
          OFFSET 1.407229 -8.569022 8.563689
        }
      }
    }
  }
}
MOTION
Frames: 96
Frame Time: 0.083333
0.000125 60.205699 -1.143111 0.358990 0.013591 0.100002 0.000000 0.000000 0.000000 -0.031469 0.057206 0.059150 -0.042153 -0.022427 -0.097917 5.000000 0.000000 0.000000 -0.119723 0.052535 0.389573 -0.694494 -0.107152 -0.618338 99.800382 -11.309356 1.675972 0.000000 0.000000 0.000000 0.372976 -0.211719 -0.042136 -1.095234 0.145712 -0.127724 95.293552 25.105453 -3.108874 0.000000 0.000000 0.000000 17.716893 0.534800 -15.460802 -28.950438 -1.544426 23.589691 0.000000 0.000000 0.000000 -0.754306 0.086404 0.633919 4.338405 -0.273578 -1.494997 0.000000 0.000000 0.000000
0.091267 60.292338 -2.150997 0.370270 0.013398 0.100766 0.000000 0.000000 0.000000 -0.038252 0.058591 0.061165 -0.042353 -0.022803 -0.099679 5.000000 0.000000 0.000000 -0.078671 0.061942 0.410595 -0.538934 -0.105236 -0.625183 99.830468 -10.376942 1.651331 0.000000 0.000000 0.000000 0.413792 -0.202030 0.003013 -1.036327 0.145674 -0.162049 94.750262 26.648225 -3.954159 0.000000 0.000000 0.000000 18.546191 0.631189 -16.090454 -30.201877 -1.831153 24.274856 0.000000 0.000000 0.000000 -0.686651 0.107286 0.762877 3.889108 -0.356302 -1.568539 0.000000 0.000000 0.000000
0.330848 60.352437 -3.437269 0.370709 0.013392 0.100801 0.000000 0.000000 0.000000 -0.038534 0.058644 0.061241 -0.042355 -0.022821 -0.099753 5.000000 0.000000 0.000000 -0.119838 0.216626 1.337510 -1.054579 -0.304132 -1.929468 99.745323 -6.449683 0.993253 0.000000 0.000000 0.000000 1.314694 -0.555581 0.121546 -2.783213 0.419003 -0.548873 94.322618 28.321676 -4.474494 0.000000 0.000000 0.000000 4.016485 0.127363 -15.208278 -10.128686 3.871154 26.325536 0.000000 0.000000 0.000000 -1.580791 0.359757 2.506853 16.177621 -1.404177 -5.837444 0.000000 0.000000 0.000000
0.843556 60.196587 -3.667344 1.221683 0.017152 0.228483 0.000000 0.000000 0.000000 -0.364367 0.167576 0.187576 -0.104835 -0.060788 -0.258952 5.000000 0.000000 0.000000 0.083390 0.431703 2.520833 -0.293058 -0.463298 -3.432704 99.403436 0.688629 0.021247 0.000000 0.000000 0.000000 2.273540 -0.795153 0.373401 -3.716278 0.634927 -0.952260 94.686401 27.548478 -4.049696 0.000000 0.000000 0.000000 -1.395909 0.265408 -17.871017 -2.921402 6.259110 31.045655 0.000000 0.000000 0.000000 -1.696712 0.623922 4.303577 22.054326 -2.537408 -9.080898 0.000000 0.000000 0.000000
1.271810 60.226070 -3.480084 2.150982 -0.017434 0.219728 0.000000 0.000000 0.000000 -1.084822 0.255570 0.321789 -0.107428 -0.081962 -0.343889 5.000000 0.000000 0.000000 0.499107 0.643857 3.761276 0.933392 -0.571673 -5.161950 97.945559 12.491144 -1.092224 0.000000 0.000000 0.000000 2.879373 -0.993690 0.322777 -4.100398 0.774076 -0.993369 94.328270 28.075241 -4.289396 0.000000 0.000000 0.000000 -2.970859 0.246125 -18.549505 -0.456212 7.012222 31.752377 0.000000 0.000000 0.000000 -1.588529 0.661705 4.641013 23.259989 -2.797596 -9.843917 0.000000 0.000000 0.000000
1.419264 60.736954 -3.725880 2.521678 -0.022544 0.252836 0.000000 0.000000 0.000000 -1.400870 0.309797 0.413646 -0.063226 -0.092003 -0.422307 5.000000 0.000000 0.000000 1.784436 0.898272 4.780929 2.996041 -0.685869 -6.804989 96.645062 21.260899 -0.955383 0.000000 0.000000 0.000000 3.399434 -1.178183 0.402856 -4.285168 0.886294 -1.119586 0.000000 0.000000 0.000000 0.000000 0.000000 0.000000 -4.553443 0.254533 -19.058286 0.815086 7.316444 32.012220 0.000000 0.000000 0.000000 -2.057778 0.720976 5.018087 23.250289 -3.070334 -10.504800 0.000000 0.000000 0.000000
1.331017 61.351791 -4.081870 3.479699 -0.037149 0.335918 0.000000 0.000000 0.000000 -2.150311 0.376253 0.450763 -0.040848 -0.091009 -0.478042 5.000000 0.000000 0.000000 3.322191 1.224871 6.304848 4.849278 -0.968023 -8.773954 96.223199 25.080490 -0.284828 0.000000 0.000000 0.000000 3.386753 -1.183997 0.688631 -3.860292 0.821707 -1.425628 0.000000 0.000000 0.000000 0.000000 0.000000 0.000000 -4.124737 0.315807 -18.795814 -2.010379 6.061556 30.883116 0.000000 0.000000 0.000000 -2.889018 0.833853 5.772834 21.544060 -3.682633 -11.481139 0.000000 0.000000 0.000000
1.262433 61.678463 -4.397425 4.590670 -0.027363 0.558183 0.000000 0.000000 0.000000 -3.022496 0.420033 0.330201 0.001161 -0.041349 -0.464750 5.000000 0.000000 0.000000 4.328260 1.321226 6.953772 5.865508 -1.066643 -9.770029 97.459768 24.856142 0.667619 0.000000 0.000000 0.000000 2.967207 -0.986093 1.142040 -3.498031 0.559418 -1.916946 0.000000 0.000000 0.000000 0.000000 0.000000 0.000000 -3.913189 0.238477 -19.320086 -2.488887 5.974993 30.944104 0.000000 0.000000 0.000000 -2.695071 0.810880 5.932234 21.156021 -3.971760 -12.058179 0.000000 0.000000 0.000000
0.980106 61.677265 -4.586989 4.596305 0.096434 1.121247 0.000000 0.000000 0.000000 -3.054540 0.376339 -0.099796 0.084221 0.015057 -0.474390 5.000000 0.000000 0.000000 5.770412 1.327435 6.734518 4.669429 -0.918589 -9.827085 96.478734 25.620692 -0.189028 0.000000 0.000000 0.000000 2.667841 -0.769377 1.665701 -2.980406 0.271279 -2.479538 0.000000 0.000000 0.000000 0.000000 0.000000 0.000000 -4.145140 0.098283 -20.227729 -0.122398 7.176896 32.196337 0.000000 0.000000 0.000000 -2.315075 0.684403 5.444706 22.395190 -3.594637 -11.666607 0.000000 0.000000 0.000000
0.135015 61.884073 -4.761532 4.366617 0.273257 1.878062 0.000000 0.000000 0.000000 -2.961977 0.284958 -0.733996 0.150696 0.056676 -0.502895 5.000000 0.000000 0.000000 5.254392 1.169544 5.630790 3.308813 -0.790767 -8.473609 97.741298 16.721449 -0.267487 0.000000 0.000000 0.000000 2.608647 -0.628626 2.096751 -3.184610 0.152251 -2.812877 0.000000 0.000000 0.000000 0.000000 0.000000 0.000000 -3.714575 0.056641 -18.839316 1.468327 7.132296 30.157578 0.000000 0.000000 0.000000 -2.024465 0.564184 4.968381 21.482237 -3.300722 -11.199234 0.000000 0.000000 0.000000
-1.165046 62.216308 -6.046158 4.162270 0.408478 2.440724 0.000000 0.000000 0.000000 -2.825543 0.167692 -1.320032 0.187639 0.051896 -0.498332 5.000000 0.000000 0.000000 4.016362 0.877217 3.933992 1.526859 -0.529165 -6.507691 98.918170 8.177969 -0.258336 0.000000 0.000000 0.000000 2.724045 -0.647720 2.080119 -4.223168 0.235794 -2.661028 0.000000 0.000000 0.000000 0.000000 0.000000 0.000000 -5.652310 0.329609 -11.817509 4.249844 4.072067 18.035826 0.000000 0.000000 0.000000 -1.139918 0.490901 5.249664 22.041245 -2.789831 -10.680450 0.000000 0.000000 0.000000
-2.165252 62.485186 -8.627032 3.908710 0.458008 2.599275 0.000000 0.000000 0.000000 -2.614151 0.103115 -1.516745 0.206334 0.073946 -0.452052 5.000000 0.000000 0.000000 1.895579 0.534929 2.582671 0.003192 -0.251651 -4.930110 99.290885 3.859917 -0.028068 0.000000 0.000000 0.000000 2.883234 -0.711593 1.912089 -5.591263 0.397905 -2.339345 0.000000 0.000000 0.000000 0.000000 0.000000 0.000000 -9.797558 0.849145 -0.255209 7.197184 -0.191491 -0.891193 0.000000 0.000000 0.000000 0.013594 0.444367 5.957728 21.846423 -2.173082 -10.212641 0.000000 0.000000 0.000000
-2.549743 62.497155 -10.372108 3.603755 0.480833 2.624244 0.000000 0.000000 0.000000 -2.344177 0.041457 -1.616346 0.225760 0.045469 -0.442187 5.000000 0.000000 0.000000 0.659275 0.308974 1.826695 -1.057403 -0.125537 -3.940815 0.000000 0.000000 0.000000 0.000000 0.000000 0.000000 2.740917 -0.739357 1.590449 -5.552493 0.422573 -1.998462 0.000000 0.000000 0.000000 0.000000 0.000000 0.000000 -9.227699 0.765339 0.973563 -1.428502 0.279609 -1.135637 0.000000 0.000000 0.000000 -0.841113 0.617689 6.705351 16.919376 -2.441887 -10.818295 0.000000 0.000000 0.000000
-2.729788 62.093076 -9.529650 3.817740 0.476245 2.657266 0.000000 0.000000 0.000000 -2.572647 0.040773 -1.697565 0.231713 0.034434 -0.428368 5.000000 0.000000 0.000000 -0.732733 0.111536 1.388896 -1.773444 -0.048193 -3.271865 0.000000 0.000000 0.000000 0.000000 0.000000 0.000000 2.653574 -0.827221 1.238640 -4.974019 0.449653 -1.603249 96.569720 14.535513 -0.369666 0.000000 0.000000 0.000000 -8.566886 0.561304 0.590822 -4.088949 0.635133 -0.715406 0.000000 0.000000 0.000000 -1.465142 0.705296 6.948989 14.011892 -2.772428 -11.555050 0.000000 0.000000 0.000000
-2.848255 61.437502 -7.858694 4.324408 0.460314 2.711972 0.000000 0.000000 0.000000 -2.956833 0.063259 -1.787624 0.185400 0.032698 -0.408407 5.000000 0.000000 0.000000 -0.943476 -0.044320 0.655756 -3.232608 0.016132 -2.271310 0.000000 0.000000 0.000000 0.000000 0.000000 0.000000 2.259706 -0.765437 0.822225 -3.390030 0.289713 -1.035734 96.497635 3.550090 2.476914 0.000000 0.000000 0.000000 -8.139137 0.521990 0.211337 1.331935 0.471498 -0.617286 0.000000 0.000000 0.000000 -0.457146 0.547155 6.801377 14.804506 -2.861531 -11.741863 0.000000 0.000000 0.000000
-2.874444 60.861656 -7.027612 3.569730 0.553263 2.921617 0.000000 0.000000 0.000000 -2.398866 -0.082036 -2.082320 0.212801 0.048197 -0.350826 5.000000 0.000000 0.000000 -1.126203 -0.096837 0.577364 -4.752988 -0.019510 -1.830165 99.525755 -13.288570 2.818266 0.000000 0.000000 0.000000 2.084093 -0.840100 -0.057858 -1.139331 0.200790 0.199620 95.345981 -5.369750 4.315019 0.000000 0.000000 0.000000 -7.025730 0.361828 -0.329559 8.617395 0.238166 -0.740913 0.000000 0.000000 0.000000 1.307271 0.233290 6.350725 14.261312 -2.786627 -11.820532 0.000000 0.000000 0.000000
-3.251636 60.697548 -7.221375 2.319601 0.723745 3.329115 0.000000 0.000000 0.000000 -1.465478 -0.337627 -2.619621 0.275572 0.062345 -0.272583 5.000000 0.000000 0.000000 -0.999922 -0.097134 0.551017 -4.321720 -0.125750 -1.525517 99.087121 -17.778894 3.632962 0.000000 0.000000 0.000000 2.813515 -1.406069 -1.762109 0.553176 0.560426 2.233962 94.173694 -9.645570 4.653671 0.000000 0.000000 0.000000 -5.820604 0.094525 -1.021182 10.196633 0.645693 0.021918 0.000000 0.000000 0.000000 1.968625 0.058745 5.923589 13.961535 -2.469817 -11.422633 0.000000 0.000000 0.000000
-3.829819 60.412476 -7.719901 1.952041 0.811688 3.597397 0.000000 0.000000 0.000000 -1.203117 -0.438224 -2.895648 0.326317 0.034677 -0.301135 5.000000 0.000000 0.000000 -1.140910 -0.025994 1.050055 -3.310508 -0.237561 -1.798539 0.000000 0.000000 0.000000 0.000000 0.000000 0.000000 4.278896 -2.013921 -2.979240 2.965223 1.045970 3.581524 94.571499 -7.756232 4.034004 0.000000 0.000000 0.000000 -6.316099 0.175608 -1.382771 8.669839 0.787060 0.657842 0.000000 0.000000 0.000000 1.947940 0.048070 5.693263 13.336601 -1.622427 -10.227029 0.000000 0.000000 0.000000
-4.079143 60.106588 -8.470492 2.224392 0.776809 3.525773 0.000000 0.000000 0.000000 -1.516202 -0.399535 -2.861455 0.332231 0.039280 -0.278745 5.000000 0.000000 0.000000 -1.497758 0.144001 2.102486 -2.332113 -0.341092 -2.690647 99.808279 -13.090693 2.320793 0.000000 0.000000 0.000000 4.484471 -2.130436 -3.388400 3.556832 1.213855 4.126506 95.476008 -0.253253 2.896596 0.000000 0.000000 0.000000 -7.218437 0.316836 -1.692648 7.657090 0.937111 1.379558 0.000000 0.000000 0.000000 1.605049 0.049210 5.007696 12.297420 -0.095576 -7.852376 0.000000 0.000000 0.000000
-4.437943 60.622429 -9.326515 2.862480 0.697409 3.364919 0.000000 0.000000 0.000000 -2.108596 -0.336090 -2.827845 0.312640 0.070840 -0.173482 5.000000 0.000000 0.000000 -1.428574 0.262256 2.591284 -2.255608 -0.406117 -3.166315 99.478292 -15.611178 2.862746 0.000000 0.000000 0.000000 4.342937 -2.055881 -3.140728 2.461767 1.193367 3.855311 0.000000 0.000000 0.000000 0.000000 0.000000 0.000000 -7.911668 0.424461 -2.154078 7.115286 1.131915 2.341573 0.000000 0.000000 0.000000 1.126447 -0.004346 3.541790 12.380939 1.471287 -4.823748 0.000000 0.000000 0.000000
-5.007539 62.037280 -10.762135 3.290880 0.622669 3.160490 0.000000 0.000000 0.000000 -2.415566 -0.270088 -2.676060 0.252067 0.108598 -0.097984 5.000000 0.000000 0.000000 -1.206261 0.218137 2.059825 -2.425605 -0.365261 -2.495569 99.380539 -17.049624 3.069578 0.000000 0.000000 0.000000 3.495482 -1.727929 -2.546864 0.870425 1.006542 3.217866 0.000000 0.000000 0.000000 0.000000 0.000000 0.000000 -8.077573 0.447591 -2.414263 5.793228 1.243110 2.903169 0.000000 0.000000 0.000000 0.572049 -0.051670 2.267255 12.050198 3.484135 -1.296655 0.000000 0.000000 0.000000
-4.766359 63.938298 -13.416916 3.444390 0.578676 3.010988 0.000000 0.000000 0.000000 -2.517406 -0.260859 -2.616618 0.179264 0.113875 -0.042243 5.000000 0.000000 0.000000 -0.749530 0.188338 1.517831 -2.617105 -0.357445 -1.800343 99.321294 -18.325950 3.325626 0.000000 0.000000 0.000000 3.249318 -1.343289 -1.259965 -0.499891 0.766963 1.795534 0.000000 0.000000 0.000000 0.000000 0.000000 0.000000 -7.634356 0.367134 -2.762914 5.618763 1.312274 3.223470 0.000000 0.000000 0.000000 -0.137287 -0.131123 0.908224 10.594085 6.082948 2.996821 0.000000 0.000000 0.000000
-3.461837 65.285437 -15.880312 3.353399 0.570826 2.953099 0.000000 0.000000 0.000000 -2.475670 -0.285804 -2.630091 0.131258 0.103173 -0.019719 5.000000 0.000000 0.000000 -0.491036 0.168827 1.137021 -2.487164 -0.327139 -1.385452 99.759944 -13.683941 2.218813 0.000000 0.000000 0.000000 3.070300 -1.038557 -0.168742 -2.007289 0.604279 0.584301 0.000000 0.000000 0.000000 0.000000 0.000000 0.000000 -6.955374 0.256324 -2.846674 6.000358 1.178947 2.860602 0.000000 0.000000 0.000000 -0.834835 -0.300456 -1.112327 7.108613 7.514863 6.092643 0.000000 0.000000 0.000000
-2.306150 65.893337 -16.685010 3.330654 0.548880 2.850472 0.000000 0.000000 0.000000 -2.425515 -0.287431 -2.569540 0.089940 0.083692 -0.017468 5.000000 0.000000 0.000000 -0.156630 0.202655 1.014730 -1.672031 -0.252468 -1.469929 0.000000 0.000000 0.000000 0.000000 0.000000 0.000000 2.798343 -0.939040 0.030060 -2.781968 0.575708 0.337024 96.635292 12.478786 0.391000 0.000000 0.000000 0.000000 -5.961648 0.114746 -2.783016 5.586886 1.224181 2.805851 0.000000 0.000000 0.000000 -1.781162 -0.343093 -2.361294 5.470941 6.647614 6.277806 0.000000 0.000000 0.000000
-1.942617 65.769989 -16.216825 3.609575 0.453964 2.496865 0.000000 0.000000 0.000000 -2.637254 -0.205366 -2.226319 0.027019 0.069922 -0.024418 5.000000 0.000000 0.000000 0.523832 0.329433 1.206456 -0.850834 -0.180579 -2.118499 98.479106 9.199251 -1.079054 0.000000 0.000000 0.000000 2.012278 -0.825865 -0.068112 -2.348399 0.499739 0.238393 96.155404 18.075268 -0.947877 0.000000 0.000000 0.000000 -4.154692 -0.123280 -2.554484 2.957340 1.441670 3.134232 0.000000 0.000000 0.000000 -1.771648 -0.304009 -2.758084 4.680379 5.853397 6.167214 0.000000 0.000000 0.000000
-2.216950 65.715345 -15.843092 4.395328 0.239361 1.711341 0.000000 0.000000 0.000000 -3.250976 0.005640 -1.392233 -0.057575 0.142045 0.040188 5.000000 0.000000 0.000000 1.725953 0.603670 2.215995 1.415871 -0.249382 -3.687774 97.414918 15.527212 -0.756780 0.000000 0.000000 0.000000 1.412382 -0.880880 -0.595696 -1.950846 0.521364 0.551638 96.372850 16.708162 -0.708534 0.000000 0.000000 0.000000 -3.558283 -0.127237 -1.830701 -0.022895 1.737654 3.861918 0.000000 0.000000 0.000000 -3.149547 -0.150465 -2.648610 10.099740 5.885838 6.228869 0.000000 0.000000 0.000000
-2.883626 65.715760 -15.335092 5.370487 -0.022877 0.711610 0.000000 0.000000 0.000000 -4.033464 0.271902 -0.265283 -0.085911 0.232993 0.088201 5.000000 0.000000 0.000000 4.404360 1.111580 4.319367 4.452581 -0.603790 -6.304488 92.844054 33.869844 -0.826905 0.000000 0.000000 0.000000 1.910654 -1.060684 -0.535777 -2.772524 0.673415 0.312833 95.693020 21.531199 -1.880321 0.000000 0.000000 0.000000 -3.999330 -0.045655 -1.254264 0.173119 2.115668 4.507782 0.000000 0.000000 0.000000 -3.291270 0.116242 -0.747722 18.738591 4.296373 2.070112 0.000000 0.000000 0.000000
-3.481359 65.727639 -14.882286 5.996262 -0.158923 0.168330 0.000000 0.000000 0.000000 -4.442523 0.422911 0.426063 -0.080246 0.231981 0.022577 5.000000 0.000000 0.000000 8.387540 1.733287 7.137531 5.580399 -1.074175 -9.573554 85.183444 47.888443 -1.232853 0.000000 0.000000 0.000000 2.410941 -1.021748 0.529700 -2.891930 0.683507 -1.033008 95.999711 22.564555 -1.712180 0.000000 0.000000 0.000000 -4.954684 0.000574 -1.193175 0.735688 2.744303 5.752110 0.000000 0.000000 0.000000 -3.427467 0.308971 0.522806 23.355297 2.337637 -2.149551 0.000000 0.000000 0.000000
-3.693507 65.805691 -14.802132 7.079593 -0.225603 0.020254 0.000000 0.000000 0.000000 -5.163944 0.516378 0.676107 -0.100279 0.230737 -0.008857 5.000000 0.000000 0.000000 12.034220 2.027784 8.487449 5.810059 -1.175622 -11.202746 86.526867 50.977129 2.119491 0.000000 0.000000 0.000000 2.023904 -0.753893 1.398821 -1.989534 0.458576 -2.180904 0.000000 0.000000 0.000000 0.000000 0.000000 0.000000 -5.393290 -0.002384 -1.190440 1.021480 2.947377 6.018395 0.000000 0.000000 0.000000 -3.764908 0.344092 0.725685 23.869813 0.605902 -5.134491 0.000000 0.000000 0.000000
-3.947063 65.944153 -15.534019 7.568518 -0.222609 0.116989 0.000000 0.000000 0.000000 -5.525806 0.548681 0.655542 -0.037724 0.250563 -0.013485 5.000000 0.000000 0.000000 14.440815 2.071162 8.772059 4.881825 -0.982086 -11.890854 35.397376 58.670896 -33.996575 0.000000 0.000000 0.000000 1.043983 -0.544828 1.353706 -0.861276 0.169330 -2.399408 0.000000 0.000000 0.000000 0.000000 0.000000 0.000000 -6.055540 0.050106 -1.445175 1.310051 2.888870 6.090810 0.000000 0.000000 0.000000 -4.011679 0.365529 0.914035 22.816901 -0.238556 -6.278909 0.000000 0.000000 0.000000
-4.506199 66.176269 -16.976022 7.743460 -0.191890 0.300611 0.000000 0.000000 0.000000 -5.636796 0.595444 0.651571 0.102796 0.311321 -0.029034 5.000000 0.000000 0.000000 14.326326 1.970477 8.948702 3.542097 -0.761825 -12.490194 95.597117 40.690274 3.098896 0.000000 0.000000 0.000000 0.442867 -0.286856 1.738619 -0.491438 -0.145204 -2.986430 0.000000 0.000000 0.000000 0.000000 0.000000 0.000000 -7.015870 0.201473 -1.827153 3.004909 2.694217 5.983032 0.000000 0.000000 0.000000 -3.410918 0.306980 0.916458 22.513114 -0.489344 -6.589354 0.000000 0.000000 0.000000
-5.045207 66.443037 -18.314951 6.873714 -0.058458 0.795657 0.000000 0.000000 0.000000 -4.803754 0.553602 0.328946 0.155081 0.322357 -0.119724 5.000000 0.000000 0.000000 10.048767 1.714618 8.783087 3.606813 -0.726559 -12.491473 98.022292 27.342258 1.656534 0.000000 0.000000 0.000000 -0.210974 0.212385 2.663713 -0.429941 -0.597916 -4.013021 0.000000 0.000000 0.000000 0.000000 0.000000 0.000000 -7.732972 0.374963 -2.036726 5.278062 2.282916 5.289291 0.000000 0.000000 0.000000 -1.781885 0.117192 0.740423 21.755103 -0.747395 -6.761731 0.000000 0.000000 0.000000
-5.964186 66.858375 -19.164377 4.658012 0.196209 1.558948 0.000000 0.000000 0.000000 -2.886552 0.327915 -0.405137 0.195541 0.300118 -0.188982 5.000000 0.000000 0.000000 5.065732 1.393026 7.543283 3.534244 -0.786778 -10.798416 0.000000 0.000000 0.000000 0.000000 0.000000 0.000000 0.692911 0.298060 3.287499 -2.239343 -0.490824 -4.446277 94.588831 28.086495 -4.543695 0.000000 0.000000 0.000000 -4.776919 0.094037 -1.539563 2.248703 1.912788 3.780005 0.000000 0.000000 0.000000 0.695072 -0.061989 1.244971 20.096260 -0.964355 -6.981115 0.000000 0.000000 0.000000
-7.216811 67.491097 -20.291823 1.956113 0.422375 1.999123 0.000000 0.000000 0.000000 -0.809057 0.007113 -1.015212 0.279349 0.255285 -0.181881 5.000000 0.000000 0.000000 2.377490 0.979344 5.555106 -1.229309 -0.203112 -8.461844 99.688486 3.898177 -0.036131 0.000000 0.000000 0.000000 2.113649 -0.088658 3.076661 -4.471314 0.062972 -4.029788 95.529702 25.141299 -3.441543 0.000000 0.000000 0.000000 -3.422200 -0.069933 -0.032510 -4.582867 1.276705 1.129056 0.000000 0.000000 0.000000 1.594869 0.075713 3.207207 16.788602 -1.327670 -7.823604 0.000000 0.000000 0.000000
-8.314235 68.342715 -22.619523 1.358198 0.458942 2.024228 0.000000 0.000000 0.000000 -0.427190 -0.086433 -1.158996 0.202691 0.255730 -0.135119 5.000000 0.000000 0.000000 -1.345437 0.530085 4.227616 -0.716326 -0.148925 -6.398536 99.486990 -4.284141 1.144048 0.000000 0.000000 0.000000 3.225239 -0.560540 2.515123 -5.903136 0.575424 -3.144512 95.497635 23.344241 -3.100714 0.000000 0.000000 0.000000 -3.542832 -0.035176 0.558878 -13.282913 0.917861 0.109146 0.000000 0.000000 0.000000 2.710117 0.207946 5.257868 12.060540 -2.149638 -9.908677 0.000000 0.000000 0.000000
-8.689044 68.957727 -24.530712 1.407844 0.438085 1.950736 0.000000 0.000000 0.000000 -0.314974 -0.124987 -1.230192 0.028328 0.222470 -0.094350 5.000000 0.000000 0.000000 -2.991949 0.260886 3.446570 0.004436 -0.063015 -5.089091 99.569064 -6.890717 1.609800 0.000000 0.000000 0.000000 3.005163 -0.698535 1.597107 -5.531467 0.593115 -1.809631 96.279487 17.883857 -1.372603 0.000000 0.000000 0.000000 -3.425766 -0.084983 1.068232 -11.376465 0.746473 -0.971453 0.000000 0.000000 0.000000 4.340335 0.084520 5.653375 6.210255 -2.694885 -11.251926 0.000000 0.000000 0.000000
-8.734875 68.787427 -22.710916 1.524367 0.453096 2.035949 0.000000 0.000000 0.000000 -0.410525 -0.199830 -1.487653 -0.022519 0.158327 -0.070396 5.000000 0.000000 0.000000 -3.399742 0.074714 2.454804 -0.195995 0.069528 -3.573949 99.650619 -6.709356 1.326613 0.000000 0.000000 0.000000 2.709603 -0.815750 0.612145 -4.173906 0.570211 -0.338177 96.591047 4.842253 2.143655 0.000000 0.000000 0.000000 -2.435171 -0.360545 1.738980 -3.955403 0.593800 -2.702347 0.000000 0.000000 0.000000 2.285996 0.152659 4.816150 8.287406 -2.636987 -10.280980 0.000000 0.000000 0.000000
-8.999067 68.121066 -19.095936 1.757654 0.500203 2.278859 0.000000 0.000000 0.000000 -0.652273 -0.323888 -1.971395 -0.038980 0.069389 -0.034410 5.000000 0.000000 0.000000 -1.661977 0.043363 0.989782 -0.301896 0.027798 -1.531414 99.340434 -14.531905 2.318835 0.000000 0.000000 0.000000 2.762187 -1.088067 -0.623509 -2.345683 0.681506 1.321519 96.436934 4.861191 2.104905 0.000000 0.000000 0.000000 -0.362669 -0.928137 1.792763 6.594811 0.972055 -3.261150 0.000000 0.000000 0.000000 2.052044 -0.008471 3.699809 11.913293 -2.327787 -9.671192 0.000000 0.000000 0.000000
-9.565838 67.701995 -18.256577 2.180932 0.576710 2.690823 0.000000 0.000000 0.000000 -1.110718 -0.438073 -2.558555 -0.000377 0.010350 -0.002885 5.000000 0.000000 0.000000 -0.284102 0.013733 -0.226073 -0.325437 -0.082118 0.061228 0.000000 0.000000 0.000000 0.000000 0.000000 0.000000 2.952635 -1.524906 -2.339728 -0.920124 0.952703 3.307504 94.886159 -7.667590 4.457742 0.000000 0.000000 0.000000 0.936333 -1.320219 1.554894 9.711816 1.771608 -2.172019 0.000000 0.000000 0.000000 0.719600 0.046820 3.320802 20.401696 -2.012513 -9.461500 0.000000 0.000000 0.000000
-9.907176 67.792362 -20.747285 2.825837 0.597462 2.932874 0.000000 0.000000 0.000000 -1.824361 -0.417459 -2.798796 0.118630 -0.028284 -0.050771 5.000000 0.000000 0.000000 0.274409 0.023457 -0.559532 -0.295501 -0.168060 0.469542 0.000000 0.000000 0.000000 0.000000 0.000000 0.000000 3.388236 -2.136624 -4.529754 0.324062 1.352714 5.810939 93.744878 -13.172229 5.530201 0.000000 0.000000 0.000000 3.005339 -1.705102 0.299539 1.999881 3.362361 1.370317 0.000000 0.000000 0.000000 1.332134 -0.030241 3.171946 18.143293 -1.645714 -9.036208 0.000000 0.000000 0.000000
-9.251075 67.027483 -21.756896 3.193741 0.586961 2.981863 0.000000 0.000000 0.000000 -2.213137 -0.360227 -2.782972 0.176339 -0.039669 -0.101179 5.000000 0.000000 0.000000 0.598478 0.096338 -0.422841 -1.041027 -0.306207 0.320611 0.000000 0.000000 0.000000 0.000000 0.000000 0.000000 4.312601 -2.652217 -5.856891 -0.214540 1.685058 7.264690 93.431962 -15.021064 5.852047 0.000000 0.000000 0.000000 5.758679 -2.130107 -2.284000 -6.977510 5.460529 7.269369 0.000000 0.000000 0.000000 2.752461 -0.289574 2.185714 11.098484 -0.865298 -7.483968 0.000000 0.000000 0.000000
-8.101221 65.918106 -21.233649 3.716791 0.562144 3.010606 0.000000 0.000000 0.000000 -2.575422 -0.284868 -2.740644 0.174198 -0.027043 -0.118475 5.000000 0.000000 0.000000 1.435611 0.308360 -0.098567 -3.218364 -0.555798 -0.057022 0.000000 0.000000 0.000000 0.000000 0.000000 0.000000 6.143473 -3.149914 -6.263735 -1.420583 1.971156 7.743691 92.444017 -17.144008 5.802103 0.000000 0.000000 0.000000 4.490101 -1.782240 -4.041210 -5.261314 5.431699 9.735948 0.000000 0.000000 0.000000 2.210127 -0.822921 -1.915412 1.319871 1.707898 -1.205086 0.000000 0.000000 0.000000
-7.134372 65.120473 -20.315755 4.204190 0.539918 3.041487 0.000000 0.000000 0.000000 -2.679402 -0.235598 -2.735870 0.108713 -0.001038 -0.088276 5.000000 0.000000 0.000000 2.452989 0.478365 0.029335 -5.570411 -0.739902 -0.180206 98.867415 -20.866822 3.842993 0.000000 0.000000 0.000000 6.521441 -2.997264 -5.240635 -0.893990 1.931962 6.568802 95.384552 -4.186426 3.602978 0.000000 0.000000 0.000000 4.913438 -1.708004 -5.057049 -3.075172 5.141817 10.575171 0.000000 0.000000 0.000000 -5.243840 -1.332289 -9.293485 7.171988 6.514543 9.855996 0.000000 0.000000 0.000000
-6.497288 65.047576 -20.490557 3.222797 0.598617 3.039273 0.000000 0.000000 0.000000 -1.696338 -0.356488 -2.754253 0.079337 0.029173 -0.038827 5.000000 0.000000 0.000000 2.592482 0.473080 0.020142 -6.180363 -0.767543 -0.096346 98.278268 -24.310652 4.560894 0.000000 0.000000 0.000000 5.448155 -2.431320 -3.693692 -2.060377 1.558769 4.806226 54.203862 2.718197 -0.825022 0.000000 0.000000 0.000000 5.537223 -1.681232 -5.655984 -2.948867 5.010099 11.260633 0.000000 0.000000 0.000000 -6.994495 -1.936336 -11.756164 18.197972 9.963364 12.347271 0.000000 0.000000 0.000000
-6.100854 64.873053 -21.451871 1.745770 0.684284 3.023556 0.000000 0.000000 0.000000 -0.445291 -0.519583 -2.745861 0.082851 0.069205 0.003489 5.000000 0.000000 0.000000 2.548922 0.498479 0.186496 -6.239504 -0.803933 -0.134985 98.718543 -23.546188 4.399461 0.000000 0.000000 0.000000 5.005245 -1.831746 -1.394663 -4.007428 1.208630 2.270774 96.445158 9.766671 0.869981 0.000000 0.000000 0.000000 4.206395 -1.438704 -5.724172 -1.648091 4.506036 10.581791 0.000000 0.000000 0.000000 -6.956529 -2.018934 -11.840272 19.171947 10.599050 12.767118 0.000000 0.000000 0.000000
-5.911942 65.396314 -23.176225 1.325203 0.706617 3.010524 0.000000 0.000000 0.000000 -0.038911 -0.577222 -2.764283 0.023110 0.068328 0.019578 5.000000 0.000000 0.000000 2.447094 0.594506 0.930752 -6.603721 -0.766692 -0.867011 99.307139 -19.198137 3.618401 0.000000 0.000000 0.000000 4.615476 -1.191201 0.886470 -5.154402 0.918843 -0.188458 96.350752 14.586999 -0.284407 0.000000 0.000000 0.000000 2.420634 -1.184169 -4.639455 -0.415689 3.281210 7.201027 0.000000 0.000000 0.000000 -3.719338 -1.811681 -10.613580 11.947543 8.691168 12.000139 0.000000 0.000000 0.000000
-6.015340 66.035025 -24.448164 0.971747 0.703240 2.910891 0.000000 0.000000 0.000000 0.175536 -0.620593 -2.749450 -0.057606 0.059122 0.046665 5.000000 0.000000 0.000000 2.379481 0.855253 2.567463 -6.811128 -0.668654 -2.681534 0.000000 0.000000 0.000000 0.000000 0.000000 0.000000 4.856691 -0.887066 2.368063 -5.846927 0.911928 -1.754652 96.296661 17.036812 -0.931393 0.000000 0.000000 0.000000 1.890715 -1.008259 -4.468879 -3.730957 3.007205 7.251281 0.000000 0.000000 0.000000 2.072108 -1.241102 -7.496643 1.902844 5.093364 8.656930 0.000000 0.000000 0.000000
-6.077088 66.593972 -24.025037 1.280258 0.594463 2.540210 0.000000 0.000000 0.000000 -0.107122 -0.554831 -2.526887 -0.126954 0.048798 0.118625 5.000000 0.000000 0.000000 2.769463 1.198375 4.478877 -6.181201 -0.559578 -4.990834 99.702496 -2.137328 0.636608 0.000000 0.000000 0.000000 5.118954 -0.858849 2.803293 -6.038558 1.024812 -2.211463 96.171191 18.623293 -1.070545 0.000000 0.000000 0.000000 0.440284 -0.693744 -4.030974 -4.264201 3.119592 7.888653 0.000000 0.000000 0.000000 4.864471 -0.636056 -3.541343 0.404542 2.401625 3.317700 0.000000 0.000000 0.000000
-6.171666 66.863591 -22.156557 2.295536 0.382660 1.840840 0.000000 0.000000 0.000000 -0.995058 -0.378820 -1.943621 -0.208111 0.092320 0.243095 5.000000 0.000000 0.000000 4.391926 1.543853 6.055904 -4.442225 -0.534621 -7.258735 98.818138 8.551931 -0.205098 0.000000 0.000000 0.000000 5.484480 -1.181191 2.006495 -5.508333 1.245922 -1.524972 96.011282 19.662706 -1.139001 0.000000 0.000000 0.000000 -2.285921 -0.292955 -2.567872 -5.618151 3.169328 7.734555 0.000000 0.000000 0.000000 1.680545 0.119578 0.484732 10.692470 1.898237 -1.478343 0.000000 0.000000 0.000000
-5.336803 67.228497 -20.407721 5.508872 -0.037949 0.557967 0.000000 0.000000 0.000000 -4.037060 0.051710 -0.600290 -0.237228 0.230919 0.385270 5.000000 0.000000 0.000000 7.331585 1.887366 7.792403 -1.230013 -0.763395 -9.672916 97.587031 20.401498 -0.318116 0.000000 0.000000 0.000000 4.563986 -1.391315 0.276661 -3.770288 1.143251 -0.110689 95.941619 19.691493 -1.054917 0.000000 0.000000 0.000000 -4.333101 -0.321919 -0.543779 -11.023475 2.628554 5.275227 0.000000 0.000000 0.000000 0.042132 0.538102 2.156373 6.245728 1.121923 -2.918802 0.000000 0.000000 0.000000
-3.928899 67.520624 -19.623603 10.202812 -0.376532 -0.292531 0.000000 0.000000 0.000000 -8.751354 0.439877 0.550608 -0.167757 0.331910 0.345723 5.000000 0.000000 0.000000 9.611614 2.034987 9.084202 1.814285 -1.031724 -11.462445 96.309379 28.270207 2.333280 0.000000 0.000000 0.000000 4.654550 -1.755611 -0.718459 -3.433975 1.306171 0.639026 96.271794 17.142533 -0.149457 0.000000 0.000000 0.000000 -5.739012 -0.274119 -0.632615 -10.686245 2.547272 5.374765 0.000000 0.000000 0.000000 -1.006118 0.578764 1.980298 -4.602818 -0.129392 -2.596647 0.000000 0.000000 0.000000
-2.752041 67.865516 -18.810687 11.705195 -0.434610 -0.368515 0.000000 0.000000 0.000000 -10.003891 0.584708 0.923217 -0.109585 0.324794 0.198077 5.000000 0.000000 0.000000 11.694926 2.016118 9.710431 4.966839 -1.337083 -12.461486 96.429404 32.997805 3.356531 0.000000 0.000000 0.000000 4.620759 -2.141677 -1.782434 -3.231706 1.459624 1.416372 96.474559 14.093946 0.410942 0.000000 0.000000 0.000000 -6.342371 -0.266607 -1.840301 -13.209943 1.730237 5.307894 0.000000 0.000000 0.000000 -1.985909 0.508484 0.703995 -2.707963 -0.409638 -1.614414 0.000000 0.000000 0.000000
-2.487225 67.779501 -17.233415 12.649261 -0.383118 0.170021 0.000000 0.000000 0.000000 -10.600644 0.762382 0.750273 -0.010140 0.318032 0.013128 5.000000 0.000000 0.000000 13.410705 1.944867 10.096740 3.590213 -1.056673 -13.440921 96.089537 35.860966 3.246333 0.000000 0.000000 0.000000 4.269411 -2.234844 -2.365811 -2.973434 1.375641 1.833515 0.000000 0.000000 0.000000 0.000000 0.000000 0.000000 -4.890735 -0.424588 -4.075155 -19.899630 0.295515 5.357610 0.000000 0.000000 0.000000 -2.230478 0.401621 -0.677450 0.000000 0.000000 0.000000 0.000000 0.000000 0.000000
-3.052059 67.361437 -15.779062 13.057281 -0.249997 1.187002 0.000000 0.000000 0.000000 -11.089369 0.926787 0.028000 0.055109 0.204995 -0.298017 5.000000 0.000000 0.000000 13.095754 1.903581 10.079336 2.461046 -0.897253 -13.594536 99.228245 15.957101 2.118943 0.000000 0.000000 0.000000 5.579286 -2.491163 -2.048837 -3.781368 1.536079 1.636269 0.000000 0.000000 0.000000 0.000000 0.000000 0.000000 -1.518064 -0.830223 -5.538510 -24.655221 0.067150 6.257967 0.000000 0.000000 0.000000 -2.527795 0.323037 -1.549768 0.000000 0.000000 0.000000 0.000000 0.000000 0.000000
-4.253848 67.810267 -16.989819 12.975836 -0.143090 1.897913 0.000000 0.000000 0.000000 -11.016342 0.970718 -0.639551 0.058905 0.157519 -0.385247 5.000000 0.000000 0.000000 11.949167 1.769417 8.707266 0.268629 -0.622933 -12.256321 98.963279 16.820191 0.740195 0.000000 0.000000 0.000000 7.437962 -2.772217 -1.208843 -5.047727 1.792164 0.836683 96.287723 11.650152 0.953922 0.000000 0.000000 0.000000 -0.544262 -1.091296 -4.865477 -23.203846 -0.040784 4.332259 0.000000 0.000000 0.000000 -1.087964 0.156692 -1.755933 0.000000 0.000000 0.000000 0.000000 0.000000 0.000000
-5.326650 68.840372 -19.837083 11.937427 -0.029363 2.306511 0.000000 0.000000 0.000000 -9.992965 0.909596 -1.027106 0.053699 0.183782 -0.380077 5.000000 0.000000 0.000000 8.455455 1.474724 7.233061 -1.437148 -0.456112 -10.636944 98.577588 16.786931 -0.639065 0.000000 0.000000 0.000000 7.416517 -2.546311 -0.393410 -5.698041 1.673210 -0.011088 96.024292 17.026896 -0.597959 0.000000 0.000000 0.000000 0.601658 -1.380820 -3.051923 -15.056913 -0.155689 0.865043 0.000000 0.000000 0.000000 5.182536 -0.291642 -1.128078 0.000000 0.000000 0.000000 0.000000 0.000000 0.000000
-5.804569 69.373319 -21.627952 9.603561 0.132257 2.548105 0.000000 0.000000 0.000000 -7.956566 0.714256 -1.287970 0.085858 0.201188 -0.383323 5.000000 0.000000 0.000000 3.752081 1.062034 5.972984 -0.811929 -0.577002 -8.919892 99.348361 -1.182251 0.718027 0.000000 0.000000 0.000000 6.443572 -2.136955 -0.109135 -5.972503 1.387880 -0.395770 95.970744 17.697109 -0.922743 0.000000 0.000000 0.000000 0.397292 -1.229833 -2.062554 0.000000 0.000000 0.000000 0.000000 0.000000 0.000000 14.714399 -0.866139 0.576109 0.000000 0.000000 0.000000 0.000000 0.000000 0.000000
-6.020045 69.235914 -21.517489 6.949613 0.258664 2.453827 0.000000 0.000000 0.000000 -5.814720 0.490790 -1.220990 0.140702 0.283306 -0.312923 5.000000 0.000000 0.000000 3.172136 0.806852 4.762230 -3.068611 -0.575213 -7.295767 99.306415 -7.544437 1.554286 0.000000 0.000000 0.000000 6.227781 -2.293218 -1.115870 -6.584820 1.405619 0.536757 96.102128 16.720774 -0.979603 0.000000 0.000000 0.000000 1.049792 -1.311439 -1.228314 0.000000 0.000000 0.000000 0.000000 0.000000 0.000000 14.926637 -0.824586 1.240322 0.000000 0.000000 0.000000 0.000000 0.000000 0.000000
-6.047174 69.325285 -21.509176 6.491678 0.241803 2.244212 0.000000 0.000000 0.000000 -5.543719 0.529553 -0.872708 0.165791 0.346943 -0.329404 5.000000 0.000000 0.000000 3.347208 0.642191 3.856227 -4.546967 -0.568536 -6.111573 99.047391 -12.316974 2.259662 0.000000 0.000000 0.000000 6.124997 -2.393394 -1.897683 -7.078631 1.372619 1.407220 96.454997 12.008437 0.234301 0.000000 0.000000 0.000000 2.324983 -1.489125 -1.471721 0.000000 0.000000 0.000000 0.000000 0.000000 0.000000 14.924226 -0.800680 0.677360 0.000000 0.000000 0.000000 0.000000 0.000000 0.000000
-6.022584 69.474600 -21.543902 6.284696 0.252467 2.242972 0.000000 0.000000 0.000000 -5.638594 0.553064 -0.808892 0.222295 0.398029 -0.322355 5.000000 0.000000 0.000000 3.079941 0.534039 3.684117 -4.760203 -0.601946 -5.819980 99.073589 -13.508695 2.736015 0.000000 0.000000 0.000000 5.733937 -2.513636 -3.057395 -6.378467 1.269075 2.684813 96.580226 5.806384 1.673186 0.000000 0.000000 0.000000 4.881023 -1.854428 -2.112928 0.000000 0.000000 0.000000 0.000000 0.000000 0.000000 15.122550 -0.861122 0.628689 0.000000 0.000000 0.000000 0.000000 0.000000 0.000000
-6.007188 69.407625 -21.546024 6.002089 0.284494 2.327151 0.000000 0.000000 0.000000 -5.669687 0.569951 -0.812119 0.287505 0.465083 -0.309394 5.000000 0.000000 0.000000 2.986835 0.500987 3.503084 -5.813682 -0.557735 -5.581091 99.105092 -13.528847 2.631566 0.000000 0.000000 0.000000 5.621724 -2.768416 -4.409589 -5.636664 1.337640 4.301216 95.621937 -4.970291 4.200144 0.000000 0.000000 0.000000 6.905874 -2.151865 -3.290592 0.000000 0.000000 0.000000 0.000000 0.000000 0.000000 14.540890 -0.919840 1.101625 0.000000 0.000000 0.000000 0.000000 0.000000 0.000000
-5.997111 68.887403 -21.440968 6.380682 0.298013 2.495603 0.000000 0.000000 0.000000 -6.121410 0.590708 -0.991270 0.292703 0.520165 -0.247689 5.000000 0.000000 0.000000 5.133289 0.585104 2.916584 -7.731179 -0.676691 -4.803015 99.265442 -15.811963 3.119135 0.000000 0.000000 0.000000 6.336428 -3.202819 -6.233465 -3.092674 1.624474 6.446361 94.907340 -8.042585 4.230727 0.000000 0.000000 0.000000 4.209369 -1.863227 -3.362997 0.000000 0.000000 0.000000 0.000000 0.000000 0.000000 11.997579 -0.738464 0.647100 0.000000 0.000000 0.000000 0.000000 0.000000 0.000000
-5.975624 67.648718 -21.157618 8.094731 0.227760 2.627376 0.000000 0.000000 0.000000 -8.262232 0.751065 -1.182897 0.454047 0.503071 -0.233220 5.000000 0.000000 0.000000 10.059665 0.891130 2.052564 -12.884611 -0.950342 -3.721790 99.552539 -14.482316 2.868174 0.000000 0.000000 0.000000 8.594488 -3.913966 -8.284116 0.397169 2.303540 8.840055 93.740595 -14.772270 4.703904 0.000000 0.000000 0.000000 -1.226904 -1.199521 -3.857315 0.000000 0.000000 0.000000 0.000000 0.000000 0.000000 7.256340 -0.286438 -1.496206 0.000000 0.000000 0.000000 0.000000 0.000000 0.000000
-5.942771 65.830842 -20.712732 11.714832 0.054300 2.800332 0.000000 0.000000 0.000000 -12.615504 1.118006 -1.419986 0.753599 0.443346 -0.248719 5.000000 0.000000 0.000000 14.085558 1.208343 1.473706 -16.170829 -1.286052 -2.998723 0.000000 0.000000 0.000000 0.000000 0.000000 0.000000 9.626071 -4.288299 -10.000250 3.747131 2.965664 10.687797 92.843098 -16.886125 4.172589 0.000000 0.000000 0.000000 -3.765670 -0.777298 -5.330944 0.000000 0.000000 0.000000 0.000000 0.000000 0.000000 6.946800 -0.074924 -5.182871 0.000000 0.000000 0.000000 0.000000 0.000000 0.000000
-5.908462 63.727972 -20.191892 13.466450 -0.014680 2.999355 0.000000 0.000000 0.000000 -15.112626 1.300941 -1.709622 1.021747 0.306851 -0.341417 5.000000 0.000000 0.000000 12.837469 1.065245 0.900951 -14.245377 -1.407142 -2.088839 99.097802 -20.266935 3.698640 0.000000 0.000000 0.000000 8.114260 -4.070068 -10.329734 7.102218 3.265015 10.832947 0.000000 0.000000 0.000000 0.000000 0.000000 0.000000 -2.897256 -0.807456 -5.800756 0.000000 0.000000 0.000000 0.000000 0.000000 0.000000 11.795178 -0.132811 -7.191268 0.000000 0.000000 0.000000 0.000000 0.000000 0.000000
-5.849563 61.861023 -19.716921 11.949253 0.079486 3.052182 0.000000 0.000000 0.000000 -13.692661 1.123936 -1.866015 0.995481 0.151405 -0.474603 5.000000 0.000000 0.000000 11.358180 0.800497 0.511101 -12.764004 -1.374900 -1.480655 0.000000 0.000000 0.000000 0.000000 0.000000 0.000000 7.678800 -3.995855 -10.401487 5.356348 2.995751 11.079337 0.000000 0.000000 0.000000 0.000000 0.000000 0.000000 -1.079977 -0.892127 -6.159055 0.000000 0.000000 0.000000 0.000000 0.000000 0.000000 19.055597 -0.085767 -9.225188 0.000000 0.000000 0.000000 0.000000 0.000000 0.000000
-5.750451 60.049101 -19.268474 9.681896 0.163619 2.777802 0.000000 0.000000 0.000000 -11.715200 0.911057 -1.590353 1.028126 0.115134 -0.545840 5.000000 0.000000 0.000000 10.105518 0.565340 -0.003902 -13.171828 -1.386619 -0.770730 96.234112 -32.344928 8.218138 0.000000 0.000000 0.000000 6.462976 -3.728190 -9.890897 3.648456 2.606694 10.490692 95.255163 -7.790734 4.174756 0.000000 0.000000 0.000000 0.885287 -0.871281 -6.727987 0.000000 0.000000 0.000000 0.000000 0.000000 0.000000 18.935224 0.083053 -10.393657 0.000000 0.000000 0.000000 0.000000 0.000000 0.000000
-5.601140 58.287643 -18.853722 7.582731 0.186981 2.281636 0.000000 0.000000 0.000000 -9.516218 0.743421 -1.027451 0.913305 0.086138 -0.625185 5.000000 0.000000 0.000000 7.688696 0.103330 -1.426672 -11.692840 -1.376031 0.787294 94.205505 -36.717891 9.917787 0.000000 0.000000 0.000000 5.538457 -3.273536 -8.104260 0.122094 1.841414 8.479044 0.000000 0.000000 0.000000 0.000000 0.000000 0.000000 5.183681 -1.098244 -7.402268 0.000000 0.000000 0.000000 0.000000 0.000000 0.000000 19.352435 0.157620 -11.077982 0.000000 0.000000 0.000000 0.000000 0.000000 0.000000
-5.493494 57.015896 -18.586137 5.401436 0.217817 1.861284 0.000000 0.000000 0.000000 -6.995496 0.621189 -0.463993 0.682882 0.103115 -0.694867 5.000000 0.000000 0.000000 7.441459 -0.013138 -1.958945 -10.715766 -1.413551 1.260532 95.281070 -35.100242 8.359082 0.000000 0.000000 0.000000 6.290720 -3.016840 -5.935899 -1.652102 1.447063 5.962254 96.051258 7.550953 1.412876 0.000000 0.000000 0.000000 8.248080 -1.109748 -9.664754 0.000000 0.000000 0.000000 0.000000 0.000000 0.000000 22.502554 0.670724 -13.387211 0.000000 0.000000 0.000000 0.000000 0.000000 0.000000
-5.429180 56.859906 -18.590295 5.293508 0.187314 1.685683 0.000000 0.000000 0.000000 -6.579601 0.674195 -0.141698 0.531253 0.115591 -0.757362 5.000000 0.000000 0.000000 8.850447 0.167176 -1.041074 -10.963571 -1.369432 -0.007080 98.078032 -25.811255 5.295065 0.000000 0.000000 0.000000 7.337755 -2.896803 -4.295219 -1.823907 1.344530 3.975968 96.083903 7.799504 1.524111 0.000000 0.000000 0.000000 5.953719 -0.456374 -12.280508 0.000000 0.000000 0.000000 0.000000 0.000000 0.000000 21.316809 1.209253 -15.877940 0.000000 0.000000 0.000000 0.000000 0.000000 0.000000
-5.418489 57.326064 -18.737506 6.357293 0.095177 1.466697 0.000000 0.000000 0.000000 -7.771027 0.818179 0.199665 0.532885 0.126780 -0.809144 5.000000 0.000000 0.000000 10.641668 0.509577 1.188110 -12.128799 -1.157895 -2.784057 99.144123 -18.574155 3.453227 0.000000 0.000000 0.000000 8.584685 -3.020633 -3.723258 -2.956562 1.424827 3.297541 96.205137 7.941788 1.365538 0.000000 0.000000 0.000000 8.063231 -0.543972 -10.711768 0.000000 0.000000 0.000000 0.000000 0.000000 0.000000 23.007509 2.025070 -16.379193 0.000000 0.000000 0.000000 0.000000 0.000000 0.000000
-5.417276 57.298645 -18.747778 7.750104 -0.065201 0.978494 0.000000 0.000000 0.000000 -9.532759 0.987163 0.763318 0.592583 0.115324 -0.859826 5.000000 0.000000 0.000000 10.007229 0.596288 2.717983 -11.154859 -0.742175 -4.848071 99.630553 -8.332621 1.746921 0.000000 0.000000 0.000000 8.715330 -2.889839 -2.848218 -4.576638 1.346110 2.371620 96.226111 11.581107 0.423884 0.000000 0.000000 0.000000 8.693127 -0.804557 -7.814493 0.000000 0.000000 0.000000 0.000000 0.000000 0.000000 21.532373 1.825208 -14.317306 0.000000 0.000000 0.000000 0.000000 0.000000 0.000000
-5.410525 56.518011 -18.570447 7.585727 -0.140045 0.546883 0.000000 0.000000 0.000000 -9.268537 0.992367 1.225058 0.589426 0.129667 -0.853681 5.000000 0.000000 0.000000 10.900827 0.724106 4.089094 -10.993754 -0.308068 -7.033268 99.468959 6.576989 -0.647399 0.000000 0.000000 0.000000 8.101405 -2.430589 -1.431366 -3.969292 1.036064 0.598100 96.004335 16.728869 -0.255320 0.000000 0.000000 0.000000 11.145745 -0.658072 -7.812606 0.000000 0.000000 0.000000 0.000000 0.000000 0.000000 23.832294 2.657164 -14.317891 0.000000 0.000000 0.000000 0.000000 0.000000 0.000000
-5.356615 55.328433 -18.323229 8.184474 -0.289969 -0.149280 0.000000 0.000000 0.000000 -9.989589 1.055242 2.003374 0.651361 0.222263 -0.792572 5.000000 0.000000 0.000000 14.139406 0.981383 5.217593 -10.175308 -0.034454 -8.919697 95.093523 31.384518 -2.865263 0.000000 0.000000 0.000000 7.542671 -1.878927 0.246251 -1.381548 0.615571 -1.473189 95.980745 17.889199 -0.153421 0.000000 0.000000 0.000000 9.091495 -0.772948 -6.025324 0.000000 0.000000 0.000000 0.000000 0.000000 0.000000 22.636661 2.692266 -12.952201 0.000000 0.000000 0.000000 0.000000 0.000000 0.000000
-5.268584 54.078232 -18.077722 9.483777 -0.371580 -0.377663 0.000000 0.000000 0.000000 -11.477512 1.098948 2.255733 0.790277 0.333779 -0.676516 5.000000 0.000000 0.000000 16.037620 1.158042 6.304410 -6.790170 0.094561 -10.649131 96.463207 31.698438 -0.627888 0.000000 0.000000 0.000000 7.209566 -1.798717 0.426085 -0.105039 0.483838 -1.784307 96.145594 14.941261 0.526191 0.000000 0.000000 0.000000 10.260687 -1.353568 -3.835338 0.000000 0.000000 0.000000 0.000000 0.000000 0.000000 22.982408 2.147540 -9.744156 0.000000 0.000000 0.000000 0.000000 0.000000 0.000000
-5.167670 52.813598 -17.864941 8.905155 -0.331684 -0.257613 0.000000 0.000000 0.000000 -10.687068 1.092412 2.159848 0.805867 0.407852 -0.604324 5.000000 0.000000 0.000000 14.686942 1.090416 6.575752 -3.536747 -0.028035 -11.118930 97.285627 32.105989 -0.263392 0.000000 0.000000 0.000000 6.656756 -1.679539 0.599598 0.400940 0.344893 -2.070398 96.284821 17.805200 0.396197 0.000000 0.000000 0.000000 17.247193 -2.469067 -2.868106 0.000000 0.000000 0.000000 0.000000 0.000000 0.000000 25.134257 1.252628 -6.411535 0.000000 0.000000 0.000000 0.000000 0.000000 0.000000
-5.118396 51.909033 -17.735225 7.771129 -0.191953 0.266387 0.000000 0.000000 0.000000 -9.281474 1.054473 1.681607 0.768239 0.449206 -0.585599 5.000000 0.000000 0.000000 13.114864 1.069724 7.136546 -3.666746 -0.024447 -11.692315 97.782330 24.978417 -0.961745 0.000000 0.000000 0.000000 6.696655 -1.559109 1.479009 -2.092329 0.479079 -3.028973 96.121925 18.926126 -1.418302 0.000000 0.000000 0.000000 22.483004 -3.520721 -4.241421 0.000000 0.000000 0.000000 0.000000 0.000000 0.000000 31.948000 0.464180 -5.915751 0.000000 0.000000 0.000000 0.000000 0.000000 0.000000
-5.277739 50.744535 -17.536869 6.339352 0.098290 1.458858 0.000000 0.000000 0.000000 -7.571116 0.913174 0.488887 0.600682 0.380457 -0.680015 5.000000 0.000000 0.000000 8.189914 0.956777 6.585061 -4.268232 -0.187664 -10.789860 99.361893 14.220282 -1.246209 0.000000 0.000000 0.000000 8.155573 -2.238423 1.648688 -10.682677 1.717213 -2.871064 0.000000 0.000000 0.000000 0.000000 0.000000 0.000000 24.660481 -4.463086 -4.697954 0.000000 0.000000 0.000000 0.000000 0.000000 0.000000 27.543080 -1.466097 1.806280 0.000000 0.000000 0.000000 0.000000 0.000000 0.000000
-5.653828 49.463951 -17.263209 6.580286 0.272542 2.420473 0.000000 0.000000 0.000000 -6.518585 0.815821 -0.451029 0.245980 0.396096 -0.654342 5.000000 0.000000 0.000000 5.740399 0.787519 5.375586 -8.763141 -0.052802 -9.098441 99.662660 -7.856243 1.849152 0.000000 0.000000 0.000000 9.096466 -2.902689 0.947084 -15.646708 2.543524 -2.016097 93.835756 26.097545 -5.454427 0.000000 0.000000 0.000000 29.948044 -4.721889 -6.691978 0.000000 0.000000 0.000000 0.000000 0.000000 0.000000 10.879794 -1.160008 5.091072 0.000000 0.000000 0.000000 0.000000 0.000000 0.000000
-6.006904 48.319205 -17.012023 9.585450 0.112324 2.432919 0.000000 0.000000 0.000000 -8.581744 1.074639 -0.328554 0.018950 0.500962 -0.579596 5.000000 0.000000 0.000000 3.771436 0.416434 3.937459 -11.671621 -0.225013 -6.788063 93.629057 -31.542021 10.719837 0.000000 0.000000 0.000000 8.030574 -2.827564 -0.035971 -14.903271 2.121740 -1.175623 0.000000 0.000000 0.000000 0.000000 0.000000 0.000000 30.220317 -3.307083 -11.035008 0.000000 0.000000 0.000000 0.000000 0.000000 0.000000 0.000000 0.000000 0.000000 0.000000 0.000000 0.000000 0.000000 0.000000 0.000000
-6.142695 48.064751 -16.924015 7.007567 0.232640 2.343141 0.000000 0.000000 0.000000 -6.202189 0.936796 -0.040310 0.144946 0.604132 -0.578530 5.000000 0.000000 0.000000 2.379659 0.037293 2.342351 -13.175056 -0.384658 -4.627553 88.161867 -38.365670 16.448663 0.000000 0.000000 0.000000 6.978848 -2.748266 -1.186361 -15.381774 1.738669 0.046492 0.000000 0.000000 0.000000 0.000000 0.000000 0.000000 20.496697 -1.143989 -15.160637 0.000000 0.000000 0.000000 0.000000 0.000000 0.000000 0.000000 0.000000 0.000000 0.000000 0.000000 0.000000 0.000000 0.000000 0.000000
-6.163972 48.376869 -16.949404 2.747632 0.444779 2.257955 0.000000 0.000000 0.000000 -2.277972 0.624405 0.173922 0.220144 0.572759 -0.700974 5.000000 0.000000 0.000000 3.493367 -0.175958 1.070737 -14.268053 -0.561368 -3.208933 90.788172 -36.490323 13.920003 0.000000 0.000000 0.000000 7.393841 -3.044402 -2.364115 -14.616591 1.515134 1.562888 97.093263 5.294485 1.319380 0.000000 0.000000 0.000000 9.912364 0.081308 -13.326045 0.000000 0.000000 0.000000 0.000000 0.000000 0.000000 0.000000 0.000000 0.000000 0.000000 0.000000 0.000000 0.000000 0.000000 0.000000
-6.177819 49.046909 -17.058155 0.070078 0.608458 2.343141 0.000000 0.000000 0.000000 -0.121730 0.436550 0.176358 0.227622 0.527421 -0.827249 5.000000 0.000000 0.000000 5.256508 -0.192359 0.531170 -14.450003 -0.752379 -2.482167 91.274170 -36.703799 13.281490 0.000000 0.000000 0.000000 8.096991 -3.100093 -2.510338 -14.740610 1.461986 2.030862 96.888382 0.711658 2.782936 0.000000 0.000000 0.000000 0.000000 0.000000 0.000000 0.000000 0.000000 0.000000 0.000000 0.000000 0.000000 0.000000 0.000000 0.000000 0.000000 0.000000 0.000000 0.000000 0.000000 0.000000
-6.081449 49.353191 -17.120819 -1.025873 0.647536 2.263617 0.000000 0.000000 0.000000 0.290103 0.364948 0.135313 0.308369 0.511620 -0.804770 5.000000 0.000000 0.000000 5.756342 -0.144491 0.039654 -13.803960 -0.928745 -1.693674 91.546224 -37.465291 13.049352 0.000000 0.000000 0.000000 8.538658 -3.268828 -3.157048 -13.725634 1.456131 2.946775 96.742714 0.275404 2.911902 0.000000 0.000000 0.000000 0.000000 0.000000 0.000000 0.000000 0.000000 0.000000 0.000000 0.000000 0.000000 0.000000 0.000000 0.000000 0.000000 0.000000 0.000000 0.000000 0.000000 0.000000
-5.818597 48.820641 -17.063266 -0.511906 0.608875 2.226279 0.000000 0.000000 0.000000 -0.235394 0.348344 -0.011021 0.321777 0.495516 -0.723609 5.000000 0.000000 0.000000 5.688310 -0.239599 -0.964273 -11.930112 -1.104235 -0.520076 0.000000 0.000000 0.000000 0.000000 0.000000 0.000000 9.426453 -3.867815 -5.021868 -13.104932 1.523589 5.015526 95.936821 -5.921170 4.518008 0.000000 0.000000 0.000000 0.000000 0.000000 0.000000 0.000000 0.000000 0.000000 0.000000 0.000000 0.000000 0.000000 0.000000 0.000000 0.000000 0.000000 0.000000 0.000000 0.000000 0.000000
-5.466182 47.411780 -16.865536 -0.147023 0.645744 2.448030 0.000000 0.000000 0.000000 -0.448206 0.309371 -0.251912 0.393147 0.460841 -0.728501 5.000000 0.000000 0.000000 5.889966 -0.291492 -1.955634 -9.798518 -1.264187 0.516522 0.000000 0.000000 0.000000 0.000000 0.000000 0.000000 10.307314 -4.566613 -7.426973 -12.664416 1.506971 7.752938 93.166619 -17.649281 7.815344 0.000000 0.000000 0.000000 0.000000 0.000000 0.000000 0.000000 0.000000 0.000000 0.000000 0.000000 0.000000 0.000000 0.000000 0.000000 0.000000 0.000000 0.000000 0.000000 0.000000 0.000000
-5.037723 45.097034 -16.505979 1.033312 0.714455 2.962126 0.000000 0.000000 0.000000 -1.300852 0.275524 -0.754686 0.350121 0.393170 -0.797144 5.000000 0.000000 0.000000 5.895341 -0.244292 -1.974771 -9.912416 -1.260192 0.640493 0.000000 0.000000 0.000000 0.000000 0.000000 0.000000 11.754511 -5.030205 -8.761861 -13.606800 1.425772 9.648698 95.018679 -12.637800 6.157657 0.000000 0.000000 0.000000 0.000000 0.000000 0.000000 0.000000 0.000000 0.000000 0.000000 0.000000 0.000000 0.000000 0.000000 0.000000 0.000000 0.000000 0.000000 0.000000 0.000000 0.000000
-4.596012 42.561122 -16.100622 0.342256 0.899809 3.527481 0.000000 0.000000 0.000000 -0.639203 0.009884 -1.451007 0.466779 0.305978 -0.797375 5.000000 0.000000 0.000000 4.936374 -0.138128 -1.279965 -10.054609 -1.172705 0.207044 0.000000 0.000000 0.000000 0.000000 0.000000 0.000000 12.135000 -5.204825 -9.774283 -14.429612 1.241228 11.195064 0.000000 0.000000 0.000000 0.000000 0.000000 0.000000 0.000000 0.000000 0.000000 0.000000 0.000000 0.000000 0.000000 0.000000 0.000000 0.000000 0.000000 0.000000 0.000000 0.000000 0.000000 0.000000 0.000000 0.000000
-4.268026 39.913187 -15.720106 0.353464 1.004165 3.933233 0.000000 0.000000 0.000000 -0.404676 -0.203030 -2.059166 0.383938 0.231588 -0.762856 5.000000 0.000000 0.000000 4.364333 0.208394 0.259963 -10.404914 -1.126843 -0.993719 0.000000 0.000000 0.000000 0.000000 0.000000 0.000000 11.172494 -5.034128 -10.307124 -13.531192 1.132583 12.255953 0.000000 0.000000 0.000000 0.000000 0.000000 0.000000 0.000000 0.000000 0.000000 0.000000 0.000000 0.000000 0.000000 0.000000 0.000000 0.000000 0.000000 0.000000 0.000000 0.000000 0.000000 0.000000 0.000000 0.000000
-4.157085 37.745460 -15.429604 -0.033855 1.197231 4.562381 0.000000 0.000000 0.000000 0.523789 -0.612780 -2.992049 0.211169 0.054149 -0.769192 5.000000 0.000000 0.000000 5.369936 0.639228 1.207023 -10.245494 -1.143050 -1.923437 0.000000 0.000000 0.000000 0.000000 0.000000 0.000000 10.397955 -4.751382 -9.828809 -12.234052 1.350810 11.826562 0.000000 0.000000 0.000000 0.000000 0.000000 0.000000 0.000000 0.000000 0.000000 0.000000 0.000000 0.000000 0.000000 0.000000 0.000000 0.000000 0.000000 0.000000 0.000000 0.000000 0.000000 0.000000 0.000000 0.000000
-4.145438 36.387040 -15.251425 -1.418810 1.313848 4.606289 0.000000 0.000000 0.000000 2.441830 -1.022189 -3.342128 -0.016099 -0.149697 -0.790820 5.000000 0.000000 0.000000 6.652001 1.162211 2.060370 -10.474105 -1.131325 -2.756528 0.000000 0.000000 0.000000 0.000000 0.000000 0.000000 9.682379 -4.506608 -9.656806 -10.487508 1.640766 11.860403 0.000000 0.000000 0.000000 0.000000 0.000000 0.000000 0.000000 0.000000 0.000000 0.000000 0.000000 0.000000 0.000000 0.000000 0.000000 0.000000 0.000000 0.000000 0.000000 0.000000 0.000000 0.000000 0.000000 0.000000
-4.100919 35.855866 -15.183845 -1.763243 1.265345 4.322269 0.000000 0.000000 0.000000 3.586040 -1.253311 -3.587162 -0.261688 -0.320305 -0.646060 5.000000 0.000000 0.000000 6.066516 1.475450 3.693281 -10.317493 -1.053277 -4.057740 0.000000 0.000000 0.000000 0.000000 0.000000 0.000000 8.673429 -4.368275 -9.658410 -8.337500 2.045579 11.630579 0.000000 0.000000 0.000000 0.000000 0.000000 0.000000 0.000000 0.000000 0.000000 0.000000 0.000000 0.000000 0.000000 0.000000 0.000000 0.000000 0.000000 0.000000 0.000000 0.000000 0.000000 0.000000 0.000000 0.000000
-3.994740 35.331203 -15.138388 0.121122 1.000756 3.853132 0.000000 0.000000 0.000000 2.621932 -0.999956 -3.485580 -0.362137 -0.385178 -0.494791 5.000000 0.000000 0.000000 6.140175 1.574498 5.146584 -10.749490 -0.887430 -5.573779 0.000000 0.000000 0.000000 0.000000 0.000000 0.000000 7.741808 -4.245893 -9.511624 -7.746877 2.184768 10.909282 0.000000 0.000000 0.000000 0.000000 0.000000 0.000000 0.000000 0.000000 0.000000 0.000000 0.000000 0.000000 0.000000 0.000000 0.000000 0.000000 0.000000 0.000000 0.000000 0.000000 0.000000 0.000000 0.000000 0.000000
-3.918172 34.410799 -15.042915 1.202285 0.861019 3.594620 0.000000 0.000000 0.000000 1.545739 -0.744525 -3.141637 -0.304930 -0.284577 -0.439496 5.000000 0.000000 0.000000 6.429445 1.644219 6.376914 -12.157262 -0.692074 -6.881193 0.000000 0.000000 0.000000 0.000000 0.000000 0.000000 5.979595 -4.058905 -9.744485 -7.262672 2.184339 10.562145 0.000000 0.000000 0.000000 0.000000 0.000000 0.000000 0.000000 0.000000 0.000000 0.000000 0.000000 0.000000 0.000000 0.000000 0.000000 0.000000 0.000000 0.000000 0.000000 0.000000 0.000000 0.000000 0.000000 0.000000
-3.893385 33.614215 -14.958145 1.589950 0.740415 3.214173 0.000000 0.000000 0.000000 1.075422 -0.534559 -2.607859 -0.281874 -0.183365 -0.419883 4.611522 0.000000 0.000000 5.986041 1.378839 5.665922 -11.530515 -0.641490 -6.313144 0.000000 0.000000 0.000000 0.000000 0.000000 0.000000 4.628135 -3.568755 -8.468916 -6.991037 1.948733 8.487211 0.000000 0.000000 0.000000 0.000000 0.000000 0.000000 0.000000 0.000000 0.000000 0.000000 0.000000 0.000000 0.000000 0.000000 0.000000 0.000000 0.000000 0.000000 0.000000 0.000000 0.000000 0.000000 0.000000 0.000000
-3.888812 33.253667 -14.916748 1.440708 0.592956 2.592628 0.000000 0.000000 0.000000 0.915830 -0.287239 -1.713498 -0.237274 -0.079885 -0.479120 2.500000 0.000000 0.000000 3.235236 0.689106 2.976185 -6.124934 -0.381112 -3.369211 0.000000 0.000000 0.000000 0.000000 0.000000 0.000000 2.470670 -1.859906 -4.175068 -3.477684 1.106301 3.847608 0.000000 0.000000 0.000000 0.000000 0.000000 0.000000 0.000000 0.000000 0.000000 0.000000 0.000000 0.000000 0.000000 0.000000 0.000000 0.000000 0.000000 0.000000 0.000000 0.000000 0.000000 0.000000 0.000000 0.000000
