HIERARCHY
ROOT Hips
{
  OFFSET 0.000000 0.000000 0.000000
  CHANNELS 6 Xposition Yposition Zposition Xrotation Yrotation Zrotation
  JOINT Spine
  {
    OFFSET 0.762862 23.197727 -6.058858
    CHANNELS 3 Xrotation Yrotation Zrotation
    JOINT Chest
    {
      OFFSET 0.762862 23.197727 -6.058858
      CHANNELS 3 Xrotation Yrotation Zrotation
      JOINT Neck
      {
        OFFSET -0.270074 9.229822 -3.797407
        CHANNELS 3 Xrotation Yrotation Zrotation
        JOINT Head
        {
          OFFSET 0.225285 8.430608 -7.939136
          CHANNELS 3 Xrotation Yrotation Zrotation
          End Site
          {
            OFFSET 0.067585 2.529182 -2.381741
          }
        }
      }
      JOINT LeftShoulder
      {
        OFFSET 17.595006 0.044015 0.996102
        CHANNELS 3 Xrotation Yrotation Zrotation
        JOINT LeftArm
        {
          OFFSET 3.473531 -23.049457 3.982832
          CHANNELS 3 Xrotation Yrotation Zrotation
          JOINT LeftForeArm
          {
            OFFSET 3.218371 -22.980839 -10.241008
            CHANNELS 3 Xrotation Yrotation Zrotation
            JOINT LeftHand
            {
              OFFSET -0.008887 -5.924601 -2.989147
              CHANNELS 3 Xrotation Yrotation Zrotation
              End Site
              {
                OFFSET -0.002666 -1.777380 -0.896744
              }
            }
          }
        }
      }
      JOINT RightShoulder
      {
        OFFSET -17.595006 -0.044015 -0.996102
        CHANNELS 3 Xrotation Yrotation Zrotation
        JOINT RightArm
        {
          OFFSET -5.553442 -24.118242 6.751946
          CHANNELS 3 Xrotation Yrotation Zrotation
          JOINT RightForeArm
          {
            OFFSET -3.099014 -24.977112 -8.059516
            CHANNELS 3 Xrotation Yrotation Zrotation
            JOINT RightHand
            {
              OFFSET 0.298828 -5.701374 -2.573080
              CHANNELS 3 Xrotation Yrotation Zrotation
              End Site
              {
                OFFSET 0.089648 -1.710412 -0.771924
              }
            }
          }
        }
      }
    }
  }
  JOINT LeftUpLeg
  {
    OFFSET 11.990773 -0.614304 0.788698
    CHANNELS 3 Xrotation Yrotation Zrotation
    JOINT LeftLeg
    {
      OFFSET -5.144974 -41.347031 -0.530598
      CHANNELS 3 Xrotation Yrotation Zrotation
      JOINT LeftFoot
      {
        OFFSET 2.709190 -35.138144 18.775504
        CHANNELS 3 Xrotation Yrotation Zrotation
        End Site
        {
          OFFSET 0.812757 -10.541443 5.632651
        }
      }
    }
  }
  JOINT RightUpLeg
  {
    OFFSET -11.990773 0.614304 -0.788698
    CHANNELS 3 Xrotation Yrotation Zrotation
    JOINT RightLeg
    {
      OFFSET 0.284998 -37.357294 5.081156
      CHANNELS 3 Xrotation Yrotation Zrotation
      JOINT RightFoot
      {
        OFFSET 4.690763 -28.563407 28.545631
        CHANNELS 3 Xrotation Yrotation Zrotation
        End Site
        {
          OFFSET 1.407229 -8.569022 8.563689
        }
      }
    }
  }
}
MOTION
Frames: 96
Frame Time: 0.083333
0.000000 60.000000 0.000000 0.285476 0.021387 0.120223 0.285476 0.021387 0.120223 165.542440 1.789701 27.720856 -18.567103 -1.873172 -1.757493 118.380489 5.192100 47.814413 0.231044 0.129908 0.565117 -0.461196 0.009041 -0.050243 -113.687570 14.743847 22.895425 0.000000 0.000000 0.000000 0.725345 -0.131334 0.132051 -0.370535 0.009425 -0.000790 -107.143336 -16.643754 -21.553180 0.000000 0.000000 0.000000 -2.466583 0.302253 -0.151881 1.038821 0.090555 0.021952 0.000000 0.000000 0.000000 -0.956645 0.113359 0.788435 8.380182 0.230807 -1.316804 0.000000 0.000000 0.000000
-0.996446 60.000000 -0.276369 0.358990 0.013591 0.100002 0.358990 0.013591 0.100002 165.610797 1.858939 28.973295 -18.583331 -1.867851 -1.753906 118.416639 5.152934 47.707948 0.248185 0.132174 0.569899 -0.287922 0.015220 -0.052714 -113.652938 14.710788 22.857883 0.000000 0.000000 0.000000 0.742418 -0.128463 0.160802 -0.294997 0.009598 -0.007216 -107.121390 -16.611397 -21.510425 0.000000 0.000000 0.000000 -2.388325 0.291020 -0.152708 1.014258 0.076065 -0.003059 0.000000 0.000000 0.000000 -0.626817 0.123468 0.885285 8.064399 0.242027 -1.282914 0.000000 0.000000 0.000000
-2.629133 60.000000 -0.666327 1.211854 0.017409 0.228120 1.211854 0.017409 0.228120 166.433580 2.525417 40.865087 -17.780546 -2.054959 -1.895844 118.660573 5.916045 54.408359 0.733054 0.398497 1.751557 -0.310201 0.068347 -0.172161 -113.412178 13.895408 21.714854 0.000000 0.000000 0.000000 2.173488 -0.362645 0.530548 -0.614120 0.027378 -0.038239 -106.333832 -16.198907 -21.221640 0.000000 0.000000 0.000000 -6.527909 0.789594 -0.450801 2.857660 0.164326 -0.109203 0.000000 0.000000 0.000000 -0.816037 0.377135 2.788237 21.979007 0.709573 -3.560387 0.000000 0.000000 0.000000
-3.449131 60.000000 -0.866614 2.135311 -0.017053 0.219008 2.135311 -0.017053 0.219008 167.319024 3.192984 53.308765 -17.215454 -2.168775 -1.986097 119.180195 6.338710 60.090021 1.141137 0.665836 3.059717 0.873996 0.196734 -0.371870 -113.306590 12.783743 20.042402 0.000000 0.000000 0.000000 3.342956 -0.540174 0.902761 -0.382693 0.037187 -0.086908 -105.693073 -15.667390 -20.661069 0.000000 0.000000 0.000000 -8.811356 1.048333 -0.744669 4.240912 0.087180 -0.483966 0.000000 0.000000 0.000000 0.975966 0.585998 4.552332 29.619947 1.048523 -4.978998 0.000000 0.000000 0.000000
-3.837260 60.000000 -1.177071 2.507267 -0.022733 0.249676 2.507267 -0.022733 0.249676 167.704719 3.009603 51.969727 -16.704011 -2.225807 -2.035831 119.824255 6.701592 66.418200 1.607621 0.930699 4.422376 2.581898 0.446238 -0.761653 -112.828964 11.553922 18.269659 0.000000 0.000000 0.000000 4.006820 -0.679966 0.971611 -0.105900 0.026111 -0.073411 -97.275182 -14.247568 -18.819861 0.000000 0.000000 0.000000 -9.197939 1.072947 -1.050063 5.204483 -0.101385 -1.038964 0.000000 0.000000 0.000000 2.001340 0.600876 4.962528 31.239513 1.059569 -5.435954 0.000000 0.000000 0.000000
-4.167594 60.000000 -1.668055 3.473210 -0.038643 0.328100 3.473210 -0.038643 0.328100 168.695735 2.686358 50.381937 -15.903446 -2.176498 -2.010135 120.733699 6.889437 73.883765 3.098510 1.248097 5.552331 6.148086 0.878208 -1.335769 -110.199520 10.475906 17.498965 0.000000 0.000000 0.000000 4.741390 -0.807436 1.164524 0.439653 -0.005107 -0.018574 -60.302971 -8.938457 -11.946573 0.000000 0.000000 0.000000 -9.320336 1.068162 -1.334280 5.630213 -0.343248 -1.618153 0.000000 0.000000 0.000000 3.095067 0.616637 5.484932 31.535013 0.999666 -5.628736 0.000000 0.000000 0.000000
-4.495794 60.000000 -2.224066 4.592905 -0.030038 0.546515 4.592905 -0.030038 0.546515 169.861211 2.139986 45.659702 -15.060155 -1.806520 -1.743082 121.516667 6.593646 78.176281 4.869179 1.638897 7.166615 9.801783 1.288241 -1.778500 -109.449941 10.115810 17.164926 0.000000 0.000000 0.000000 4.969891 -0.770209 1.550391 1.090210 -0.050009 0.068731 0.000000 0.000000 0.000000 0.000000 0.000000 0.000000 -8.578731 0.981545 -1.375804 4.673614 -0.526640 -1.818269 0.000000 0.000000 0.000000 3.756943 0.701172 6.556150 29.766097 0.772879 -5.481010 0.000000 0.000000 0.000000
-4.781167 60.000000 -2.617939 4.599382 0.094154 1.111603 4.599382 0.094154 1.111603 169.912616 2.046681 44.080647 -14.741636 -1.459541 -1.480845 121.781263 6.414950 79.370224 5.841972 1.812719 7.942827 11.800211 1.554186 -2.056352 -109.126226 10.028082 17.131977 0.000000 0.000000 0.000000 4.520959 -0.520875 2.143641 1.006199 -0.088232 0.189556 0.000000 0.000000 0.000000 0.000000 0.000000 0.000000 -8.442744 0.965230 -1.391169 4.312697 -0.558632 -1.812869 0.000000 0.000000 0.000000 4.195101 0.760518 7.369851 29.435101 0.864306 -5.212971 0.000000 0.000000 0.000000
-5.130251 60.000000 -2.787535 4.371429 0.271932 1.873280 4.371429 0.271932 1.873280 169.735910 2.125708 44.902550 -14.759554 -1.223030 -1.299127 121.806995 6.365148 79.287347 7.142035 1.902666 7.839071 11.894147 1.631105 -2.174409 -109.594291 10.157784 17.151593 0.000000 0.000000 0.000000 4.080748 -0.254356 2.799204 1.091438 -0.128147 0.302518 0.000000 0.000000 0.000000 0.000000 0.000000 0.000000 -8.655812 0.993656 -1.317031 6.333516 -0.338629 -1.743957 0.000000 0.000000 0.000000 4.485285 0.775717 7.691218 30.965808 1.566252 -4.466092 0.000000 0.000000 0.000000
-5.192196 60.000000 -2.319622 4.167607 0.407871 2.439359 4.167607 0.407871 2.439359 169.572880 2.234147 46.258511 -14.746483 -1.251151 -1.320768 121.793151 6.399774 79.350197 6.564726 1.727766 6.723256 9.944246 1.349049 -1.869821 -112.333443 10.963509 17.357433 0.000000 0.000000 0.000000 3.953942 -0.121416 3.213607 0.765831 -0.147251 0.388406 0.000000 0.000000 0.000000 0.000000 0.000000 0.000000 -8.200432 0.964675 -0.889066 8.183407 -0.072365 -1.536606 0.000000 0.000000 0.000000 4.243011 0.795272 7.739648 29.547301 1.708059 -3.826487 0.000000 0.000000 0.000000
-4.947557 60.000000 -1.529512 3.904561 0.458161 2.598912 3.904561 0.458161 2.598912 169.327308 2.463237 49.322592 -14.854024 -1.114271 -1.215496 121.548635 6.138948 75.767086 5.290918 1.396689 5.001106 6.860169 1.020281 -1.552994 -115.708885 13.988177 20.932197 0.000000 0.000000 0.000000 4.027442 -0.153493 3.159353 -0.202151 -0.147698 0.476461 0.000000 0.000000 0.000000 0.000000 0.000000 0.000000 -7.425401 0.934744 0.376133 6.661847 0.262472 -0.602574 0.000000 0.000000 0.000000 4.026955 0.841234 8.058703 28.466907 1.924604 -3.185760 0.000000 0.000000 0.000000
-4.709646 60.000000 -0.983216 3.598961 0.480972 2.623655 3.598961 0.480972 2.623655 169.034221 2.824811 54.402275 -14.977030 -1.311159 -1.366268 121.154789 6.311280 73.528746 3.145190 0.983615 3.594032 3.164584 0.740773 -1.339020 -105.039154 13.532960 20.911915 0.000000 0.000000 0.000000 4.154710 -0.245629 2.915651 -1.449418 -0.130903 0.538472 0.000000 0.000000 0.000000 0.000000 0.000000 0.000000 -6.445582 0.911636 2.449431 1.342057 0.822331 1.306410 0.000000 0.000000 0.000000 3.456318 0.933447 8.562482 25.809187 1.925974 -2.550766 0.000000 0.000000 0.000000
-4.588111 60.000000 -0.914841 3.825692 0.475053 2.654155 3.825692 0.475053 2.654155 169.268933 2.994811 58.340482 -15.058099 -1.390128 -1.426476 120.928016 6.346971 71.957829 1.901913 0.718202 2.801465 0.852067 0.542747 -1.127501 -64.493745 7.701113 12.296049 0.000000 0.000000 0.000000 4.000945 -0.294994 2.549942 -1.564470 -0.118920 0.511018 -8.730980 -1.574069 -1.899116 0.000000 0.000000 0.000000 -6.585403 0.996895 3.869758 -4.756024 0.833607 2.054589 0.000000 0.000000 0.000000 2.268111 1.094369 9.269876 21.594332 1.705933 -1.932007 0.000000 0.000000 0.000000
-4.394796 60.000000 -1.942596 4.340299 0.457954 2.706024 4.340299 0.457954 2.706024 169.781195 2.820708 57.815904 -15.103081 -1.400525 -1.434619 120.678434 6.267711 69.583311 0.637119 0.484169 2.339235 -1.132449 0.371748 -0.920804 0.000000 0.000000 0.000000 0.000000 0.000000 0.000000 4.038421 -0.398919 2.165258 -0.949202 -0.139587 0.517930 -48.324096 -8.387717 -9.867375 0.000000 0.000000 0.000000 -6.713509 1.012884 3.767859 -3.263226 0.601303 1.502040 0.000000 0.000000 0.000000 1.255643 1.190138 9.441863 20.952953 1.710578 -1.785464 0.000000 0.000000 0.000000
-4.224435 60.000000 -3.169631 3.580825 0.551541 2.917203 3.580825 0.551541 2.917203 169.011482 2.231609 44.606931 -15.529942 -1.323413 -1.375768 120.189950 5.992306 64.228057 0.239024 0.294257 1.520148 -2.992999 0.227518 -0.739249 -8.786059 1.404308 2.195273 0.000000 0.000000 0.000000 3.452738 -0.378890 1.666300 0.055532 -0.198497 0.603494 -114.678251 -18.719019 -21.254579 0.000000 0.000000 0.000000 -6.012798 0.890864 3.440393 1.931316 0.897697 1.477250 0.000000 0.000000 0.000000 1.281554 1.190292 9.461059 22.781307 2.054101 -1.660820 0.000000 0.000000 0.000000
-4.083084 60.000000 -3.848195 2.317685 0.723650 3.328186 2.317685 0.723650 3.328186 167.733646 1.357633 24.907228 -15.991479 -1.251250 -1.320287 119.797480 5.650751 59.230372 -0.247255 0.191806 1.310452 -4.998648 0.062920 -0.508346 -48.056270 7.644090 12.007525 0.000000 0.000000 0.000000 2.972093 -0.510677 0.657853 1.834732 -0.340960 0.853518 -116.710331 -15.871317 -16.289903 0.000000 0.000000 0.000000 -4.436736 0.639179 2.999614 8.301409 1.327697 1.627731 0.000000 0.000000 0.000000 0.750112 1.206417 9.267100 23.711675 2.313521 -1.464154 0.000000 0.000000 0.000000
-3.905658 60.000000 -4.267194 1.944085 0.812737 3.599658 1.944085 0.812737 3.599658 167.365753 1.297637 23.071163 -15.916723 -1.439240 -1.460694 119.935437 5.946679 62.193347 -0.220202 0.189679 1.274739 -4.537832 -0.029852 -0.240316 -103.821238 16.428664 25.941749 0.000000 0.000000 0.000000 3.608986 -1.071672 -1.059093 4.177408 -0.549965 1.201313 -113.307998 -13.915695 -14.829234 0.000000 0.000000 0.000000 -2.359398 0.312160 2.331479 10.552460 1.684540 2.152778 0.000000 0.000000 0.000000 1.021494 1.168575 9.130781 23.711108 2.474679 -1.223306 0.000000 0.000000 0.000000
-3.782538 60.000000 -5.768176 2.216069 0.778085 3.528962 2.216069 0.778085 3.528962 167.624270 1.095468 19.721566 -15.969845 -1.408407 -1.437492 119.944800 5.830478 61.385485 -0.406296 0.246656 1.739812 -3.707266 -0.083063 -0.048012 -73.096074 11.419600 18.185976 0.000000 0.000000 0.000000 5.035812 -1.677961 -2.317686 8.041487 -0.756969 1.357058 -110.039697 -13.623598 -15.598465 0.000000 0.000000 0.000000 -2.512570 0.329876 1.854771 8.126803 1.703729 2.461275 0.000000 0.000000 0.000000 1.044653 1.132641 8.857528 23.229699 3.351434 0.190438 0.000000 0.000000 0.000000
-3.737372 60.000000 -7.405064 2.858956 0.698226 3.367484 2.858956 0.698226 3.367484 168.232913 0.556593 10.689574 -15.990040 -1.173629 -1.262206 119.909657 5.209915 56.672609 -0.722413 0.367978 2.669846 -3.035275 -0.080532 -0.008256 -48.940220 7.830097 11.821716 0.000000 0.000000 0.000000 5.281126 -1.848364 -2.847255 8.893455 -0.809564 1.401212 -100.091536 -13.337132 -16.123098 0.000000 0.000000 0.000000 -2.665719 0.344797 1.323868 6.318462 1.804531 2.864248 0.000000 0.000000 0.000000 1.320142 1.027105 8.167876 21.991818 4.572981 2.263348 0.000000 0.000000 0.000000
-3.604604 60.000000 -8.342720 3.290954 0.622980 3.161846 3.290954 0.622980 3.161846 168.652569 0.329606 6.604204 -16.108491 -0.906396 -1.063346 119.667364 4.667968 50.968476 -0.537102 0.469364 3.105608 -2.767085 -0.058059 -0.044775 -114.303273 18.005553 27.498534 0.000000 0.000000 0.000000 5.254409 -1.797278 -2.649984 7.768731 -0.719985 1.289634 -61.984063 -8.987134 -11.249952 0.000000 0.000000 0.000000 -2.978151 0.379057 0.612396 5.182853 1.925386 3.218095 0.000000 0.000000 0.000000 1.465212 0.847285 6.787122 21.631187 5.121096 3.108079 0.000000 0.000000 0.000000
-3.342693 60.000000 -8.516817 3.445353 0.578919 3.012293 3.445353 0.578919 3.012293 168.800896 0.190879 3.900587 -16.464406 -0.864589 -1.034035 119.197909 4.379953 45.896608 -0.263458 0.394766 2.481418 -2.670881 -0.074202 0.000222 -112.732947 16.742215 26.391572 0.000000 0.000000 0.000000 4.452253 -1.516851 -2.141224 5.361446 -0.555057 1.104411 0.000000 0.000000 0.000000 0.000000 0.000000 0.000000 -2.745306 0.345320 0.098109 3.297735 1.959758 3.438991 0.000000 0.000000 0.000000 1.693962 0.685032 5.536350 19.651287 6.116764 4.724700 0.000000 0.000000 0.000000
-2.984937 60.000000 -8.148047 3.350451 0.572006 2.957549 3.350451 0.572006 2.957549 168.701992 0.093918 1.904304 -16.874079 -0.948776 -1.098220 118.797500 4.329108 43.346232 0.144108 0.341237 1.865122 -2.459841 -0.101032 0.078341 -112.246715 15.290424 24.396168 0.000000 0.000000 0.000000 4.152051 -1.166367 -0.924179 3.666483 -0.405959 0.865301 0.000000 0.000000 0.000000 0.000000 0.000000 0.000000 -1.696167 0.211587 -0.534488 3.083514 1.956845 3.447023 0.000000 0.000000 0.000000 1.984934 0.507561 4.193885 15.695985 7.382930 6.830448 0.000000 0.000000 0.000000
-2.668706 60.000000 -7.706540 3.318386 0.552131 2.862330 3.318386 0.552131 2.862330 168.669143 0.064744 1.314083 -17.020647 -1.076327 -1.191802 118.670702 4.404846 43.312684 0.428457 0.307308 1.439164 -2.049517 -0.083805 0.065566 -103.480918 13.398649 21.423069 0.000000 0.000000 0.000000 3.995968 -0.881510 0.124230 1.987501 -0.282752 0.677950 -8.772075 -1.475543 -1.736338 0.000000 0.000000 0.000000 -0.748706 0.098193 -0.806973 3.900917 1.696337 2.854795 0.000000 0.000000 0.000000 1.286994 0.290454 2.318976 11.935444 7.038010 6.604535 0.000000 0.000000 0.000000
-2.407720 60.000000 -7.530924 3.598162 0.457682 2.511357 3.598162 0.457682 2.511357 168.956233 0.038803 0.502823 -17.146491 -1.154720 -1.249328 118.645467 4.459925 43.533280 0.825101 0.338617 1.301342 -0.840789 0.048834 -0.159730 -74.015312 8.793953 13.734274 0.000000 0.000000 0.000000 3.785640 -0.788725 0.309435 1.000777 -0.227699 0.607325 -47.840121 -8.156186 -9.742267 0.000000 0.000000 0.000000 -0.696297 0.091569 -0.731445 4.439026 1.505032 2.414928 0.000000 0.000000 0.000000 0.205612 0.122394 0.901832 9.863173 5.613364 4.910869 0.000000 0.000000 0.000000
-2.269015 60.000000 -7.626187 4.379376 0.242419 1.722744 4.379376 0.242419 1.722744 169.753753 -0.345674 -8.573931 -17.158666 -0.650186 -0.881459 118.739491 3.768156 38.049061 1.665355 0.487469 1.530800 0.819324 0.297590 -0.585596 -51.333018 5.648451 7.684802 0.000000 0.000000 0.000000 3.160468 -0.660710 0.252590 0.809953 -0.173518 0.462907 -111.631133 -19.274695 -23.406565 0.000000 0.000000 0.000000 -0.643799 0.083695 -0.522918 4.222302 1.286398 1.985895 0.000000 0.000000 0.000000 0.311388 -0.010059 -0.092212 12.905527 4.488374 3.240445 0.000000 0.000000 0.000000
-2.295115 60.000000 -8.000607 5.357567 -0.021555 0.715824 5.357567 -0.021555 0.715824 170.753950 -0.902393 -21.714606 -16.865811 -0.031178 -0.426924 118.994876 3.092222 33.315462 3.051353 0.818975 2.649833 4.479563 0.679644 -1.075800 -118.226583 12.490260 17.696867 0.000000 0.000000 0.000000 2.749767 -0.669777 -0.159713 0.800618 -0.141772 0.368112 -109.954171 -19.327521 -24.315701 0.000000 0.000000 0.000000 -0.524941 0.069196 -0.336580 4.535881 1.288925 1.967042 0.000000 0.000000 0.000000 0.891434 -0.160645 -1.269810 17.608871 4.143783 2.127914 0.000000 0.000000 0.000000
-2.455530 60.000000 -8.849359 5.983398 -0.158436 0.168587 5.983398 -0.158436 0.168587 171.375442 -0.431487 -10.821428 -16.343400 -0.032251 -0.417072 119.335308 3.371697 37.681455 5.942214 1.409967 4.876067 10.438238 1.213019 -1.564462 -112.337272 10.203521 16.279850 0.000000 0.000000 0.000000 3.470427 -0.788652 0.034798 0.697467 -0.118835 0.309063 -109.712719 -18.455640 -23.114034 0.000000 0.000000 0.000000 -1.526141 0.194497 0.077886 6.462337 1.651365 2.565301 0.000000 0.000000 0.000000 2.677353 -0.049284 -0.549255 26.365107 3.549568 -0.217502 0.000000 0.000000 0.000000
-2.586507 60.000000 -9.758531 7.075339 -0.225917 0.017899 7.075339 -0.225917 0.017899 172.455039 -0.160078 -4.991655 -15.478007 0.022067 -0.357603 120.124028 3.464703 42.946700 10.282510 2.117850 7.760945 15.959793 1.802337 -2.061574 -110.812586 8.511859 14.055593 0.000000 0.000000 0.000000 4.336730 -0.705073 1.190603 1.433179 -0.075129 0.118735 -100.159223 -16.720734 -21.374728 0.000000 0.000000 0.000000 -3.407430 0.438649 0.661658 9.894931 2.247369 3.569753 0.000000 0.000000 0.000000 4.372600 0.061515 0.293756 32.864780 2.254718 -3.790281 0.000000 0.000000 0.000000
-2.612691 60.000000 -10.258936 7.576293 -0.224397 0.109450 7.576293 -0.224397 0.109450 172.967023 -0.353552 -11.918029 -14.668319 0.195935 -0.202722 121.056640 3.355946 48.474261 14.051192 2.494240 9.150902 19.978046 2.240488 -2.355906 -111.549040 7.938626 12.935395 0.000000 0.000000 0.000000 4.074411 -0.414131 2.134873 2.069296 -0.029421 -0.064526 -62.743860 -10.492840 -13.235424 0.000000 0.000000 0.000000 -4.451873 0.583226 1.097911 11.663928 2.469745 3.953257 0.000000 0.000000 0.000000 4.672613 0.088098 0.554343 33.662795 0.590409 -7.044876 0.000000 0.000000 0.000000
-2.671788 60.000000 -10.282080 7.778678 -0.195715 0.289727 7.778678 -0.195715 0.289727 173.191404 -0.776557 -25.860430 -13.597959 0.620259 0.153239 122.249061 3.115158 55.610731 16.519572 2.669891 9.578825 21.501170 2.496624 -2.579477 -114.168808 7.637831 11.772401 0.000000 0.000000 0.000000 3.161366 -0.151110 2.277495 2.295232 -0.013964 -0.125751 0.000000 0.000000 0.000000 0.000000 0.000000 0.000000 -4.756122 0.623157 1.048248 11.012172 2.399196 3.832321 0.000000 0.000000 0.000000 4.458450 0.130157 0.984827 32.463294 -0.166390 -8.023619 0.000000 0.000000 0.000000
-2.932148 60.000000 -9.864061 6.910056 -0.061964 0.787175 6.910056 -0.061964 0.787175 172.302433 -0.565687 -18.223722 -13.406448 0.643500 0.178374 122.458554 3.463204 61.989635 16.363663 2.670888 9.920667 19.987278 2.518857 -2.757803 -119.121991 8.441388 11.606691 0.000000 0.000000 0.000000 2.520067 0.161128 2.850341 2.040796 -0.003857 -0.137890 0.000000 0.000000 0.000000 0.000000 0.000000 0.000000 -6.040010 0.801442 1.155473 9.134602 2.277178 3.690324 0.000000 0.000000 0.000000 3.819358 0.196984 1.602378 31.931217 -0.147961 -7.803367 0.000000 0.000000 0.000000
-3.356892 60.000000 -9.001950 4.679631 0.194643 1.556521 4.679631 0.194643 1.556521 170.048119 -0.081770 -4.369299 -13.893632 0.434612 0.001386 122.176041 3.891893 63.968870 11.784913 2.372042 9.839330 15.464602 2.270752 -2.829969 -114.101654 10.351263 13.271613 0.000000 0.000000 0.000000 1.554529 0.664229 3.824282 1.166447 0.032223 -0.183319 -8.506040 -1.705064 -2.215366 0.000000 0.000000 0.000000 -7.946181 1.077132 1.527651 5.387964 2.116801 3.609592 0.000000 0.000000 0.000000 2.489266 0.293179 2.391993 30.645105 -0.103444 -7.289882 0.000000 0.000000 0.000000
-3.973330 60.000000 -8.032045 1.959573 0.422263 1.999377 1.959573 0.422263 1.999377 167.320627 0.668179 11.722271 -15.005395 0.083364 -0.301628 121.289027 4.144784 58.614986 6.189246 1.882871 8.494637 9.799638 1.714547 -2.485914 -80.519967 7.918508 10.382140 0.000000 0.000000 0.000000 1.834888 0.710903 4.274520 -0.360763 0.058651 -0.155315 -46.844644 -9.179128 -11.778705 0.000000 0.000000 0.000000 -7.907101 1.108079 2.215126 2.033141 1.946757 3.551106 0.000000 0.000000 0.000000 1.826269 0.423494 3.402641 28.729318 0.132755 -6.300710 0.000000 0.000000 0.000000
-4.731864 60.000000 -7.296782 1.356494 0.458982 2.024035 1.356494 0.458982 2.024035 166.720715 1.167728 19.851968 -16.106612 0.026372 -0.368245 120.103441 3.970776 47.648262 3.295323 1.377146 6.408557 2.097296 1.033680 -2.024509 -47.684142 7.952721 12.680206 0.000000 0.000000 0.000000 3.047265 0.300109 3.934836 -1.415563 0.063613 -0.092440 -110.543396 -20.929279 -26.429620 0.000000 0.000000 0.000000 -7.407600 1.092337 3.171226 -5.486717 1.384861 3.160101 0.000000 0.000000 0.000000 1.511944 0.662111 5.263786 25.704360 0.774185 -4.359786 0.000000 0.000000 0.000000
-5.414627 60.000000 -7.323675 1.405267 0.437279 1.946912 1.405267 0.437279 1.946912 166.769121 1.432518 24.333241 -16.636696 -0.183023 -0.533645 119.567867 3.913217 43.780452 -0.255288 0.818718 4.960423 -0.955129 0.602402 -1.426552 -111.489401 18.351172 29.534851 0.000000 0.000000 0.000000 4.328974 -0.216062 3.223429 -1.596364 0.027291 0.039533 -111.573695 -19.135960 -23.193945 0.000000 0.000000 0.000000 -8.223638 1.245695 3.663129 -16.671207 0.556697 2.652728 0.000000 0.000000 0.000000 0.828134 0.894303 6.893013 22.664546 0.958584 -3.283175 0.000000 0.000000 0.000000
-5.746803 60.000000 -8.233856 1.516927 0.452126 2.030247 1.516927 0.452126 2.030247 166.884268 1.485924 25.408448 -16.834349 -0.570451 -0.820414 119.369401 4.113190 44.465988 -1.872908 0.472689 4.012094 -1.862926 0.411838 -1.077623 -110.784535 17.497068 28.610592 0.000000 0.000000 0.000000 4.133362 -0.429632 2.137848 -1.415778 -0.051922 0.277563 -110.857482 -17.725191 -21.476308 0.000000 0.000000 0.000000 -8.073480 1.242151 4.037188 -13.916086 0.488536 2.325354 0.000000 0.000000 0.000000 0.085593 0.947513 7.001995 18.997538 0.506069 -3.077894 0.000000 0.000000 0.000000
-5.830889 60.000000 -8.964657 1.749384 0.499581 2.274317 1.749384 0.499581 2.274317 167.125716 1.350950 23.641400 -17.011360 -1.111234 -1.217028 119.005240 4.417307 45.171401 -2.279970 0.202692 2.777917 -2.479431 0.264152 -0.795415 -112.337432 17.265665 27.427147 0.000000 0.000000 0.000000 3.833773 -0.651408 0.918716 -0.347283 -0.164454 0.533580 -111.531803 -16.086470 -18.750690 0.000000 0.000000 0.000000 -5.649567 0.868308 4.473871 -3.172342 0.813160 1.944094 0.000000 0.000000 0.000000 -0.626902 0.945304 6.711556 17.665270 0.326601 -3.023301 0.000000 0.000000 0.000000
-5.785681 60.000000 -7.764763 2.174105 0.576641 2.688859 2.174105 0.576641 2.688859 167.570697 1.418076 25.767452 -17.079006 -1.483373 -1.489337 118.549555 4.637397 44.535893 -0.568800 0.123865 1.134291 -0.872406 0.146651 -0.396516 -105.165271 16.354818 25.150460 0.000000 0.000000 0.000000 3.858097 -0.996494 -0.485676 1.521380 -0.311232 0.799540 -111.760321 -14.633367 -16.465527 0.000000 0.000000 0.000000 -0.352191 -0.003818 4.613186 12.512228 1.808265 2.368536 0.000000 0.000000 0.000000 -0.121508 0.857113 6.252832 23.408841 0.899910 -3.544223 0.000000 0.000000 0.000000
-5.700661 60.000000 -5.167245 2.814782 0.597965 2.932178 2.814782 0.597965 2.932178 168.230777 1.687150 31.882196 -16.778242 -1.767059 -1.698255 118.484212 5.133018 47.996395 0.738189 0.099500 -0.075590 0.412427 0.017313 -0.013827 -64.640205 10.565394 16.658396 0.000000 0.000000 0.000000 3.979100 -1.430911 -2.194212 3.101982 -0.473159 1.099312 -109.534933 -14.029670 -16.414902 0.000000 0.000000 0.000000 2.637394 -0.500804 4.736400 18.684710 2.561687 3.579138 0.000000 0.000000 0.000000 1.974516 0.752452 6.217632 29.633242 1.767398 -3.746587 0.000000 0.000000 0.000000
-5.532548 60.000000 -3.260490 3.187283 0.587248 2.981419 3.187283 0.587248 2.981419 168.599762 1.540038 30.039187 -16.494635 -1.856848 -1.766469 118.758295 5.443487 51.709314 1.272028 0.135905 -0.341607 0.975720 -0.031362 0.129066 0.000000 0.000000 0.000000 0.000000 0.000000 0.000000 4.394107 -2.012233 -4.318276 4.822755 -0.684574 1.504843 -111.101832 -13.416487 -14.879883 0.000000 0.000000 0.000000 2.763912 -0.519970 4.643581 14.541949 2.681138 4.294974 0.000000 0.000000 0.000000 2.476009 0.717473 6.124064 28.776464 1.877520 -3.335625 0.000000 0.000000 0.000000
-5.325980 60.000000 -3.128016 3.728553 0.561409 3.010500 3.728553 0.561409 3.010500 169.129877 1.244987 25.325377 -16.032412 -1.739499 -1.682662 119.260960 5.430527 54.460741 1.756909 0.241279 -0.132692 0.716004 -0.068593 0.196009 0.000000 0.000000 0.000000 0.000000 0.000000 0.000000 5.484753 -2.488161 -5.576925 5.438735 -0.775470 1.676040 -111.958197 -13.102917 -14.106320 0.000000 0.000000 0.000000 1.397531 -0.285773 4.262279 11.840644 2.538932 4.100896 0.000000 0.000000 0.000000 1.567655 0.672472 5.615249 25.302348 1.567711 -2.977278 0.000000 0.000000 0.000000
-5.172155 60.000000 -3.931963 4.221154 0.538938 3.041675 4.221154 0.538938 3.041675 169.597024 0.630047 14.209386 -15.405713 -1.474695 -1.489698 119.804722 5.089493 55.111063 2.975843 0.478246 0.224417 -0.239829 -0.094392 0.198178 -8.517555 1.664924 2.753586 0.000000 0.000000 0.000000 7.702275 -2.953970 -5.955430 6.495066 -0.839720 1.724926 -112.678085 -13.387192 -14.266231 0.000000 0.000000 0.000000 0.420154 -0.105745 3.325025 12.691710 2.367615 3.581864 0.000000 0.000000 0.000000 -2.246219 0.481109 3.688356 15.344200 0.394134 -2.380487 0.000000 0.000000 0.000000
-5.193358 60.000000 -5.073632 3.238329 0.597626 3.039084 3.238329 0.597626 3.039084 168.587051 0.049548 1.860003 -15.554846 -1.267087 -1.333340 119.685432 4.708191 51.330212 4.000668 0.643449 0.322686 -1.565023 -0.130559 0.203266 -46.787409 8.865264 14.628252 0.000000 0.000000 0.000000 8.086268 -2.811642 -4.959558 7.365832 -0.820387 1.575219 -113.417513 -15.142909 -16.415215 0.000000 0.000000 0.000000 0.669491 -0.127421 2.306616 14.446606 1.977829 2.452738 0.000000 0.000000 0.000000 -6.721275 -0.016775 0.228310 4.981311 -1.185287 -2.211262 0.000000 0.000000 0.000000
-5.459934 60.000000 -5.682815 1.750074 0.684487 3.025401 1.750074 0.684487 3.025401 167.079445 -0.338044 -6.072888 -16.031479 -1.046404 -1.167180 119.441622 4.341058 46.893048 3.919770 0.628191 0.297275 -2.255973 -0.175042 0.266797 -110.320935 19.933533 32.701925 0.000000 0.000000 0.000000 6.789227 -2.262485 -3.424473 4.831053 -0.616160 1.313256 -115.939785 -20.003270 -22.204163 0.000000 0.000000 0.000000 0.331587 -0.069505 1.706309 12.460445 1.706732 1.986668 0.000000 0.000000 0.000000 -7.875444 -0.332032 -1.310775 12.382766 -1.018450 -3.547727 0.000000 0.000000 0.000000
-5.954307 60.000000 -5.683713 1.325767 0.707390 3.013759 1.325767 0.707390 3.013759 166.673882 0.096375 1.376105 -16.413095 -1.058751 -1.177012 119.072318 4.255319 44.242222 3.864369 0.638516 0.428978 -2.368329 -0.217216 0.360751 -111.820884 17.633514 28.273014 0.000000 0.000000 0.000000 6.330609 -1.681308 -1.158381 2.356480 -0.410222 1.003094 -116.751945 -21.903870 -24.458318 0.000000 0.000000 0.000000 -0.111727 0.000272 1.140230 9.590891 1.509205 1.884993 0.000000 0.000000 0.000000 -8.021020 -0.344371 -1.355989 12.862429 -0.565459 -3.119880 0.000000 0.000000 0.000000
-6.671154 60.000000 -5.759978 0.961305 0.706668 2.922744 0.961305 0.706668 2.922744 166.338147 0.796699 13.250999 -17.178457 -1.153039 -1.247860 118.480932 4.169441 40.561098 3.622119 0.695282 1.087701 -2.965173 -0.203868 0.293359 -104.436790 15.523221 24.251026 0.000000 0.000000 0.000000 5.795430 -1.084841 1.039655 0.627183 -0.264009 0.750202 -111.314154 -20.084773 -24.736435 0.000000 0.000000 0.000000 -0.208933 0.016477 0.862944 5.372671 1.041901 1.368785 0.000000 0.000000 0.000000 -6.259024 -0.299503 -1.300525 9.722068 -0.074766 -1.852211 0.000000 0.000000 0.000000
-7.335707 60.000000 -6.960144 1.227054 0.600543 2.557966 1.227054 0.600543 2.557966 166.600965 0.822383 13.870473 -17.503475 -1.185731 -1.272130 118.203712 3.888466 37.036958 3.577232 0.895060 2.578355 -3.196661 -0.080426 -0.015654 -74.186330 10.956127 16.905464 0.000000 0.000000 0.000000 6.054513 -0.846943 2.377274 0.175529 -0.174717 0.523315 -111.155083 -20.134602 -24.894056 0.000000 0.000000 0.000000 -0.504318 0.056105 0.781026 0.627098 0.656869 1.156166 0.000000 0.000000 0.000000 -2.380138 -0.188041 -1.038399 10.521921 1.291181 -0.326672 0.000000 0.000000 0.000000
-7.950407 60.000000 -8.854372 2.237364 0.388071 1.856325 2.237364 0.388071 1.856325 167.609731 0.573900 8.292289 -17.734916 -0.827269 -1.014436 117.887108 3.107987 28.999604 4.088147 1.192324 4.370589 -2.033153 0.175136 -0.521537 -48.811280 8.668563 13.083664 0.000000 0.000000 0.000000 6.433660 -0.870905 2.696076 0.354942 -0.131396 0.376291 -111.246349 -20.546233 -25.460009 0.000000 0.000000 0.000000 -1.047998 0.129488 0.680093 -0.314821 0.746658 1.441174 0.000000 0.000000 0.000000 1.162190 -0.019698 -0.103196 17.568837 2.367777 -0.194413 0.000000 0.000000 0.000000
-8.559344 60.000000 -10.585336 5.463662 -0.035218 0.564097 5.463662 -0.035218 0.564097 170.847088 -0.134943 -9.945117 -17.562842 0.130857 -0.322700 118.009343 1.817603 17.817864 5.864108 1.563020 5.985908 1.501015 0.610496 -1.183301 -114.147208 18.148075 27.640281 0.000000 0.000000 0.000000 6.954378 -1.171128 1.939772 1.407563 -0.132882 0.290462 -110.279005 -21.174301 -26.907635 0.000000 0.000000 0.000000 -0.529571 0.069639 0.469504 0.629309 1.146319 2.084032 0.000000 0.000000 0.000000 5.141873 0.154586 1.428965 26.203827 3.125607 -0.693431 0.000000 0.000000 0.000000
-9.368808 60.000000 -11.865411 10.184637 -0.377007 -0.299579 10.184637 -0.377007 -0.299579 175.604780 -0.637006 -32.502161 -16.948317 0.734138 0.131046 119.034582 1.476095 17.756713 8.776225 2.028029 7.972145 7.662085 1.132479 -1.674865 -112.832344 12.406614 19.609456 0.000000 0.000000 0.000000 6.020081 -1.263022 0.464695 2.242371 -0.149353 0.270199 -109.708415 -21.204584 -27.269453 0.000000 0.000000 0.000000 2.899625 -0.359133 -0.010737 0.925287 1.431702 2.604770 0.000000 0.000000 0.000000 11.681744 0.145583 1.720940 27.549710 2.784234 -1.460812 0.000000 0.000000 0.000000
-10.089308 60.000000 -12.827060 11.694902 -0.436223 -0.381988 11.694902 -0.436223 -0.381988 177.118763 -0.638074 -50.188870 -15.586502 0.703767 0.157585 120.839377 2.044656 31.532582 11.299942 2.334247 9.518395 13.258857 1.642691 -2.050621 -112.113583 10.429093 16.757186 0.000000 0.000000 0.000000 6.373689 -1.500292 -0.257452 2.947985 -0.176800 0.292192 -109.922852 -21.620849 -27.763064 0.000000 0.000000 0.000000 4.028275 -0.473999 -0.490584 1.725551 1.417602 2.543119 0.000000 0.000000 0.000000 12.891335 0.127945 1.364890 20.444372 1.239248 -2.395617 0.000000 0.000000 0.000000
-10.654293 60.000000 -13.337856 12.647801 -0.384939 0.157155 12.647801 -0.384939 0.157155 178.088894 -0.970188 -84.430518 -13.958719 0.683182 0.187986 122.587990 2.784375 52.046438 13.714464 2.534367 10.463301 18.843868 2.101774 -2.263305 -112.544368 9.755905 15.563568 0.000000 0.000000 0.000000 6.697673 -1.728160 -0.967745 3.491634 -0.213534 0.352554 -102.008949 -21.031809 -26.864913 0.000000 0.000000 0.000000 5.165655 -0.560140 -1.370752 -0.733934 0.712387 1.565787 0.000000 0.000000 0.000000 13.059616 0.111852 0.536243 12.900752 0.028107 -2.637042 0.000000 0.000000 0.000000
-11.098777 60.000000 -13.112865 13.068501 -0.251893 1.178000 13.068501 -0.251893 1.178000 178.455034 -0.354222 -38.392680 -13.695681 -0.144973 -0.451379 123.062283 4.629572 80.276303 15.326797 2.649287 11.105559 19.055919 2.297353 -2.529956 -116.648972 9.934780 14.635562 0.000000 0.000000 0.000000 6.263974 -1.698360 -1.258729 3.321905 -0.257206 0.487613 -64.076130 -13.353868 -16.766769 0.000000 0.000000 0.000000 5.785360 -0.583777 -2.142206 -5.099131 -0.450787 -0.075156 0.000000 0.000000 0.000000 13.779474 0.105133 0.077127 0.000000 0.000000 0.000000 0.000000 0.000000 0.000000
-11.816313 60.000000 -12.058582 13.013519 -0.145812 1.893322 13.013519 -0.145812 1.893322 178.384709 0.269204 29.611208 -13.719040 -0.481014 -0.715956 122.994629 5.247184 84.255399 14.997893 2.631784 11.138785 17.586304 2.245252 -2.590978 -121.763860 10.733347 14.376123 0.000000 0.000000 0.000000 7.567271 -1.906058 -0.904457 3.810092 -0.314207 0.604429 -8.417648 -1.961150 -2.653436 0.000000 0.000000 0.000000 5.786234 -0.602925 -1.843542 -2.747427 -0.116342 0.183347 0.000000 0.000000 0.000000 13.362370 0.099727 -0.086129 0.000000 0.000000 0.000000 0.000000 0.000000 0.000000
-12.663900 60.000000 -10.942773 11.972837 -0.031141 2.306840 11.972837 -0.031141 2.306840 177.353978 0.746839 53.652245 -13.830040 -0.333639 -0.602696 122.858171 5.101076 81.867552 13.835508 2.498409 9.816119 14.205071 1.954203 -2.464670 -123.828856 13.555887 17.718133 0.000000 0.000000 0.000000 9.415395 -2.131437 -0.045414 4.372454 -0.331964 0.604110 -46.109579 -10.574482 -14.301641 0.000000 0.000000 0.000000 5.334860 -0.608077 -0.883483 -0.087222 0.235970 0.453602 0.000000 0.000000 0.000000 12.298856 0.099779 0.188136 0.000000 0.000000 0.000000 0.000000 0.000000 0.000000
-13.540573 60.000000 -11.087628 9.623876 0.131573 2.550245 9.623876 0.131573 2.550245 175.017646 1.306119 62.780700 -14.463789 -0.274965 -0.571047 122.272384 5.063074 75.757291 10.052583 2.145540 8.392559 8.697570 1.470258 -2.191095 -120.610432 18.656590 25.451389 0.000000 0.000000 0.000000 9.096047 -1.896684 0.781308 3.380617 -0.292138 0.578131 -108.100244 -24.343292 -32.954092 0.000000 0.000000 0.000000 4.053352 -0.534765 0.773665 -0.048280 0.301164 0.569955 0.000000 0.000000 0.000000 11.592684 0.127377 1.028038 0.000000 0.000000 0.000000 0.000000 0.000000 0.000000
-14.169176 60.000000 -13.387202 6.956195 0.258600 2.455266 6.956195 0.258600 2.455266 172.340447 1.164252 33.916917 -15.701880 0.163711 -0.258118 120.933514 4.455171 57.858388 4.853982 1.638627 7.183233 4.118477 0.983399 -1.721860 -119.903145 18.644668 25.950333 0.000000 0.000000 0.000000 7.611373 -1.502770 1.072304 1.616003 -0.214726 0.513923 -107.796483 -23.212164 -31.453536 0.000000 0.000000 0.000000 1.488585 -0.222087 1.482214 0.000000 0.000000 0.000000 0.000000 0.000000 0.000000 10.986700 0.181461 2.474913 0.000000 0.000000 0.000000 0.000000 0.000000 0.000000
-14.764725 60.000000 -16.163598 6.494821 0.241378 2.242949 6.494821 0.241378 2.242949 171.869437 1.064761 29.289586 -16.063444 0.529456 0.005945 120.694100 4.196858 53.636328 4.087310 1.435003 6.113185 1.096422 0.549821 -1.118364 -112.859703 19.580348 30.659673 0.000000 0.000000 0.000000 7.213974 -1.593288 0.199842 0.626243 -0.197379 0.552267 -108.448068 -23.024378 -30.798266 0.000000 0.000000 0.000000 1.368885 -0.219251 1.982677 0.000000 0.000000 0.000000 0.000000 0.000000 0.000000 11.252103 0.190312 2.785282 0.000000 0.000000 0.000000 0.000000 0.000000 0.000000
-15.207094 60.000000 -17.864824 6.285706 0.251997 2.240935 6.285706 0.251997 2.240935 171.660722 1.104225 29.529549 -16.467386 0.844484 0.225791 120.565778 3.872258 49.636719 3.962625 1.308794 5.267865 -0.512633 0.321422 -0.757614 -112.142871 19.483026 30.956779 0.000000 0.000000 0.000000 6.813129 -1.658506 -0.519688 -0.251221 -0.214580 0.686729 -110.813844 -21.540000 -27.177193 0.000000 0.000000 0.000000 2.679547 -0.399070 1.804836 0.000000 0.000000 0.000000 0.000000 0.000000 0.000000 12.890462 0.154547 2.502293 0.000000 0.000000 0.000000 0.000000 0.000000 0.000000
-15.529126 60.000000 -18.615721 5.974374 0.285561 2.324767 5.974374 0.285561 2.324767 171.353657 1.226370 31.613441 -16.938622 1.255928 0.510347 120.252015 3.459252 43.424330 3.383698 1.237984 5.181299 -1.302227 0.204813 -0.555495 -110.388771 20.808518 33.997868 0.000000 0.000000 0.000000 6.115163 -1.740023 -1.594113 -0.223174 -0.287209 0.908116 -112.828756 -20.191819 -24.155925 0.000000 0.000000 0.000000 4.555424 -0.656296 1.679457 0.000000 0.000000 0.000000 0.000000 0.000000 0.000000 14.173419 0.134958 2.581615 0.000000 0.000000 0.000000 0.000000 0.000000 0.000000
-17.020156 60.000000 -21.558035 6.330407 0.300356 2.492817 6.330407 0.300356 2.492817 171.712284 1.082734 28.817589 -17.228616 1.597257 0.746766 119.808872 2.944501 35.610647 3.225039 1.197824 4.990288 -2.518310 0.138409 -0.494812 -110.963108 20.720693 33.533701 0.000000 0.000000 0.000000 5.942266 -2.002256 -2.955486 0.385371 -0.398023 1.170960 -114.619710 -18.469524 -20.870565 0.000000 0.000000 0.000000 5.823784 -0.817153 1.446453 0.000000 0.000000 0.000000 0.000000 0.000000 0.000000 14.766630 0.130812 3.104068 0.000000 0.000000 0.000000 0.000000 0.000000 0.000000
-23.717031 60.000000 -35.389912 8.061610 0.229099 2.624013 8.061610 0.229099 2.624013 173.440058 0.753932 31.389720 -17.606985 1.490142 0.652972 119.296966 3.040500 34.101465 4.934271 1.300872 4.298242 -2.727293 0.074737 -0.356621 -113.298080 19.717494 30.669372 0.000000 0.000000 0.000000 6.226412 -2.454152 -4.865606 3.290102 -0.622922 1.479966 -115.384453 -16.331005 -17.489590 0.000000 0.000000 0.000000 7.030313 -0.940875 0.883831 0.000000 0.000000 0.000000 0.000000 0.000000 0.000000 15.229074 0.128961 2.887563 0.000000 0.000000 0.000000 0.000000 0.000000 0.000000
-34.546183 60.000000 -55.726608 11.722335 0.053625 2.798882 11.722335 0.053625 2.798882 177.101377 0.481699 63.086942 -18.118000 1.078453 0.339892 118.551994 3.597527 35.578272 9.108010 1.660263 3.254396 -3.700874 -0.036714 -0.160956 -107.093665 17.157591 25.338675 0.000000 0.000000 0.000000 7.743688 -3.169611 -7.061425 8.426308 -0.973844 1.828552 -113.155395 -15.612587 -17.356970 0.000000 0.000000 0.000000 7.658747 -0.954210 -0.062380 0.000000 0.000000 0.000000 0.000000 0.000000 0.000000 16.372578 0.137297 1.255783 0.000000 0.000000 0.000000 0.000000 0.000000 0.000000
-42.549207 60.000000 -69.184261 13.495638 -0.015838 3.002390 13.495638 -0.015838 3.002390 178.896374 0.885230 120.116905 -18.668745 0.135564 -0.343908 117.968868 4.925262 43.436788 12.373010 1.985448 2.496516 -3.719434 -0.083355 -0.049247 -75.646406 12.159852 18.093373 0.000000 0.000000 0.000000 8.016464 -3.591417 -8.919256 12.173809 -1.241539 2.050974 -104.837396 -13.755484 -14.890203 0.000000 0.000000 0.000000 6.725388 -0.757858 -1.118281 0.000000 0.000000 0.000000 0.000000 0.000000 0.000000 17.638163 0.164440 -1.746227 0.000000 0.000000 0.000000 0.000000 0.000000 0.000000
-44.295224 60.000000 -70.390861 11.990646 0.078522 3.059366 11.990646 0.078522 3.059366 177.424191 1.757078 110.357455 -18.930583 -0.929215 -1.093433 117.813693 6.435657 53.367583 11.035076 1.774176 1.882217 -3.149746 -0.158642 0.173765 -37.209465 8.480980 14.597060 0.000000 0.000000 0.000000 6.404063 -3.443100 -9.292066 13.934364 -1.331665 2.060203 -65.216698 -8.199768 -8.761874 0.000000 0.000000 0.000000 5.731986 -0.632673 -1.300495 0.000000 0.000000 0.000000 0.000000 0.000000 0.000000 17.179537 0.168215 -2.691076 0.000000 0.000000 0.000000 0.000000 0.000000 0.000000
-43.249053 60.000000 -67.155008 9.712944 0.163309 2.784712 9.712944 0.163309 2.784712 175.164055 2.841525 100.615961 -19.276842 -1.152147 -1.249859 117.965664 6.872219 56.706363 9.274086 1.515269 1.548986 -3.442929 -0.241801 0.364053 -69.457461 15.868704 27.460194 0.000000 0.000000 0.000000 5.684709 -3.348229 -9.318365 11.451766 -1.247695 2.138284 -8.896543 -1.769240 -2.088340 0.000000 0.000000 0.000000 5.076245 -0.536054 -1.735248 0.000000 0.000000 0.000000 0.000000 0.000000 0.000000 16.489669 0.150720 -3.352761 0.000000 0.000000 0.000000 0.000000 0.000000 0.000000
-41.067924 60.000000 -63.891226 7.597646 0.186910 2.285172 7.597646 0.186910 2.285172 173.009283 3.290993 88.257303 -19.443331 -1.316276 -1.363588 118.107463 7.205604 59.334376 8.132655 1.310657 1.131059 -5.002581 -0.383478 0.630632 -44.702879 10.106050 18.050658 0.000000 0.000000 0.000000 4.577218 -3.053612 -8.710007 8.578305 -1.068705 2.033055 -39.871540 -7.929183 -9.359291 0.000000 0.000000 0.000000 3.924462 -0.374740 -2.409049 0.000000 0.000000 0.000000 0.000000 0.000000 0.000000 16.033511 0.142034 -4.986295 0.000000 0.000000 0.000000 0.000000 0.000000 0.000000
-39.035409 60.000000 -56.065849 5.384937 0.219557 1.866235 5.384937 0.219557 1.866235 170.753215 3.337618 71.372901 -19.701180 -1.196408 -1.280688 117.947142 7.165985 58.303782 6.076185 0.893846 -0.112501 -5.616250 -0.485110 0.858095 -105.709192 22.947284 40.585655 0.000000 0.000000 0.000000 4.004902 -2.530525 -6.760926 4.346324 -0.753757 1.738332 -73.622904 -15.136470 -18.622632 0.000000 0.000000 0.000000 3.703084 -0.312845 -3.197704 0.000000 0.000000 0.000000 0.000000 0.000000 0.000000 15.952541 0.158435 -6.817943 0.000000 0.000000 0.000000 0.000000 0.000000 0.000000
-38.951023 60.000000 -47.564047 5.278620 0.188933 1.690397 5.278620 0.188933 1.690397 170.629920 2.651941 58.698773 -19.752731 -1.123841 -1.231096 117.767426 7.252178 57.911255 6.139375 0.852492 -0.507152 -4.585085 -0.489933 0.920984 -107.677584 20.995970 36.046399 0.000000 0.000000 0.000000 5.065811 -2.179639 -4.465771 3.535117 -0.606553 1.438216 -43.695215 -11.230872 -17.033762 0.000000 0.000000 0.000000 4.044276 -0.236814 -5.306026 0.000000 0.000000 0.000000 0.000000 0.000000 0.000000 17.140774 0.290603 -9.224522 0.000000 0.000000 0.000000 0.000000 0.000000 0.000000
-39.966441 60.000000 -42.274480 6.351901 0.097301 1.476194 6.351901 0.097301 1.476194 171.694550 2.146532 54.125862 -20.097072 -1.052588 -1.182974 117.462298 7.379789 57.163855 7.413576 1.138558 0.488033 -3.532768 -0.377756 0.690062 -108.848952 20.419129 34.403734 0.000000 0.000000 0.000000 5.984394 -1.965278 -2.739278 4.226748 -0.537908 1.176555 -104.236502 -25.997791 -38.251570 0.000000 0.000000 0.000000 4.984116 -0.170696 -8.085792 0.000000 0.000000 0.000000 0.000000 0.000000 0.000000 18.991805 0.495469 -11.456798 0.000000 0.000000 0.000000 0.000000 0.000000 0.000000
-39.884554 60.000000 -42.058033 7.737380 -0.063126 0.987533 7.737380 -0.063126 0.987533 173.055226 1.638708 50.500786 -20.634945 -1.111892 -1.224718 117.217859 7.610119 57.259186 8.829056 1.572545 2.735631 -3.230215 -0.179812 0.222332 -111.747299 19.501026 31.205308 0.000000 0.000000 0.000000 6.869784 -2.012462 -2.138069 3.969153 -0.486184 1.060291 -108.156348 -25.001701 -33.939901 0.000000 0.000000 0.000000 6.673774 -0.366182 -6.806233 0.000000 0.000000 0.000000 0.000000 0.000000 0.000000 18.682552 0.453848 -11.053859 0.000000 0.000000 0.000000 0.000000 0.000000 0.000000
-39.803264 60.000000 -43.683570 7.574102 -0.138550 0.552936 7.574102 -0.138550 0.552936 172.874022 1.582867 46.606856 -20.368330 -1.004250 -1.152124 117.473774 7.501135 57.835469 8.299077 1.654368 4.300031 -2.769833 0.053815 -0.309778 -113.389553 17.530878 27.282703 0.000000 0.000000 0.000000 7.104704 -1.866349 -1.242217 2.563547 -0.408597 0.983446 -107.993500 -24.724330 -33.662671 0.000000 0.000000 0.000000 9.181100 -0.673363 -5.052010 0.000000 0.000000 0.000000 0.000000 0.000000 0.000000 18.082639 0.359075 -9.806423 0.000000 0.000000 0.000000 0.000000 0.000000 0.000000
-40.661626 60.000000 -49.586636 8.182090 -0.289696 -0.148257 8.182090 -0.289696 -0.148257 173.484927 1.064509 30.581507 -20.541553 -0.407406 -0.752407 117.067727 6.828628 52.324244 9.073447 1.850694 5.708680 -1.836132 0.426349 -1.078223 -114.399630 15.694432 24.094843 0.000000 0.000000 0.000000 6.365880 -1.382187 0.242590 2.402047 -0.312170 0.732503 -105.265311 -25.881008 -37.241024 0.000000 0.000000 0.000000 10.615634 -0.829679 -4.659513 0.000000 0.000000 0.000000 0.000000 0.000000 0.000000 18.206226 0.356397 -9.252561 0.000000 0.000000 0.000000 0.000000 0.000000 0.000000
-41.406915 60.000000 -54.439180 9.499122 -0.373528 -0.385353 9.499122 -0.373528 -0.385353 174.875946 -0.050843 -1.568881 -20.593800 0.329625 -0.254598 116.569144 5.901232 44.639667 12.123214 2.208020 6.775482 2.018172 0.970318 -1.869838 -116.763060 12.345885 18.206387 0.000000 0.000000 0.000000 5.609721 -0.837447 1.934982 4.208423 -0.266056 0.440072 -104.430860 -26.371638 -38.637993 0.000000 0.000000 0.000000 12.342431 -1.052954 -4.143272 0.000000 0.000000 0.000000 0.000000 0.000000 0.000000 19.030085 0.407054 -8.692391 0.000000 0.000000 0.000000 0.000000 0.000000 0.000000
-41.377248 60.000000 -54.679407 8.936964 -0.336516 -0.275049 8.936964 -0.336516 -0.275049 174.342919 -0.458718 -17.703569 -20.010856 0.856324 0.120056 117.075460 5.175679 41.918896 14.219204 2.452881 7.851700 7.477318 1.603149 -2.570807 -119.265014 10.127362 14.127019 0.000000 0.000000 0.000000 5.478269 -0.754604 2.152820 5.355869 -0.272241 0.364654 -104.372031 -26.739823 -39.304245 0.000000 0.000000 0.000000 16.458750 -1.592394 -3.217457 0.000000 0.000000 0.000000 0.000000 0.000000 0.000000 20.131189 0.420874 -6.646968 0.000000 0.000000 0.000000 0.000000 0.000000 0.000000
-39.101852 60.000000 -51.317629 7.753790 -0.193701 0.251952 7.753790 -0.193701 0.251952 173.168092 -0.559837 -21.312223 -19.428281 1.170835 0.352768 117.836039 4.775687 42.348424 13.122260 2.387411 8.210652 9.623804 1.847006 -2.777669 -120.409712 11.537370 15.735321 0.000000 0.000000 0.000000 5.177675 -0.621861 2.399752 5.565929 -0.262239 0.323333 -107.897386 -25.785439 -35.272384 0.000000 0.000000 0.000000 22.505510 -2.341081 -2.326127 0.000000 0.000000 0.000000 0.000000 0.000000 0.000000 19.998566 0.291467 -3.292714 0.000000 0.000000 0.000000 0.000000 0.000000 0.000000
-35.823497 60.000000 -44.995870 6.319540 0.098114 1.452464 6.319540 0.098114 1.452464 171.702746 0.189601 3.080939 -19.422066 0.676420 0.009317 118.195753 5.434787 48.744740 11.815219 2.328441 8.829946 8.193466 1.741398 -2.734114 -121.346684 13.848030 18.554189 0.000000 0.000000 0.000000 5.479705 -0.493358 3.306836 3.363034 -0.151625 0.194691 -99.685377 -24.161373 -32.999820 0.000000 0.000000 0.000000 22.531222 -2.385492 -2.058571 0.000000 0.000000 0.000000 0.000000 0.000000 0.000000 19.001500 0.219864 -0.830903 0.000000 0.000000 0.000000 0.000000 0.000000 0.000000
-29.556943 60.000000 -35.747178 6.595402 0.272067 2.422039 6.595402 0.272067 2.422039 171.973373 0.959438 28.930027 -18.297286 0.632986 0.017732 118.445356 5.376461 49.431334 8.185098 2.036994 8.423260 3.986682 1.254821 -2.256330 -120.617523 18.546440 25.913196 0.000000 0.000000 0.000000 8.253224 -1.155490 3.487740 -2.505086 -0.027228 0.290658 -71.837695 -16.620459 -21.712559 0.000000 0.000000 0.000000 30.287095 -3.132396 -2.289107 0.000000 0.000000 0.000000 0.000000 0.000000 0.000000 15.521100 0.075147 3.694249 0.000000 0.000000 0.000000 0.000000 0.000000 0.000000
-23.126890 60.000000 -27.354434 9.641989 0.109331 2.433277 9.641989 0.109331 2.433277 175.015164 0.568524 27.438432 -17.457502 1.216214 0.463197 118.553851 4.637194 44.383164 6.680506 1.807181 7.372688 -2.007096 0.639018 -1.545704 -110.260690 23.981620 39.745331 0.000000 0.000000 0.000000 10.159739 -1.764069 2.880396 -5.584813 0.061527 0.278053 -38.162359 -9.014557 -11.936746 0.000000 0.000000 0.000000 37.805252 -3.774230 -2.972213 0.000000 0.000000 0.000000 0.000000 0.000000 0.000000 9.617253 0.023221 4.465732 0.000000 0.000000 0.000000 0.000000 0.000000 0.000000
-17.156190 60.000000 -16.256223 7.062814 0.229682 2.343302 7.062814 0.229682 2.343302 172.430282 0.520554 12.881765 -17.266883 1.928013 0.984779 118.848541 4.101366 41.618238 4.535354 1.472629 6.176233 -7.044636 -0.011215 -0.444439 -100.306502 26.419646 50.480923 0.000000 0.000000 0.000000 8.913964 -1.605056 2.118190 -6.051469 0.026546 0.460818 -62.919092 -14.862492 -19.680367 0.000000 0.000000 0.000000 21.957908 -2.364627 -1.986690 0.000000 0.000000 0.000000 0.000000 0.000000 0.000000 0.000000 0.000000 0.000000 0.000000 0.000000 0.000000 0.000000 0.000000 0.000000
-14.365847 60.000000 -4.555269 2.768172 0.443839 2.258521 2.768172 0.443839 2.258521 168.144900 1.236248 22.627068 -17.616041 1.730538 0.826561 118.718717 4.728308 46.010881 2.831376 1.119668 4.743595 -10.266209 -0.359986 0.247143 -101.378832 25.510062 48.133240 0.000000 0.000000 0.000000 7.539954 -1.474806 1.121080 -7.867479 0.006532 0.734897 -7.919825 -2.330048 -3.578096 0.000000 0.000000 0.000000 11.530951 -1.202330 -2.121109 0.000000 0.000000 0.000000 0.000000 0.000000 0.000000 0.000000 0.000000 0.000000 0.000000 0.000000 0.000000 0.000000 0.000000 0.000000
-12.816486 60.000000 1.854665 0.078237 0.608225 2.343928 0.078237 0.608225 2.343928 165.465415 1.771234 27.460569 -18.711430 1.421056 0.555096 118.158874 5.349040 48.154844 3.434071 1.014391 3.524478 -10.771190 -0.443460 0.457245 -103.655443 25.175927 45.795468 0.000000 0.000000 0.000000 7.450217 -1.686244 0.004039 -7.161350 -0.117148 1.141457 -44.027782 -12.622709 -18.931634 0.000000 0.000000 0.000000 5.431293 -0.470253 -2.151360 0.000000 0.000000 0.000000 0.000000 0.000000 0.000000 0.000000 0.000000 0.000000 0.000000 0.000000 0.000000 0.000000 0.000000 0.000000
-13.619476 60.000000 0.087917 -1.042648 0.647852 2.261233 -1.042648 0.647852 2.261233 164.337136 1.620466 23.207617 -19.939193 1.372275 0.469138 117.313971 5.230545 43.420583 4.507252 1.046455 2.823710 -9.886044 -0.443691 0.512978 -106.609458 24.299943 42.035452 0.000000 0.000000 0.000000 7.458841 -1.746303 -0.281770 -7.268949 -0.158805 1.314401 -105.609495 -28.970495 -41.831732 0.000000 0.000000 0.000000 0.000000 0.000000 0.000000 0.000000 0.000000 0.000000 0.000000 0.000000 0.000000 0.000000 0.000000 0.000000 0.000000 0.000000 0.000000 0.000000 0.000000 0.000000
-15.670311 60.000000 -2.877973 -0.517437 0.607156 2.218501 -0.517437 0.607156 2.218501 164.860109 1.534502 23.015448 -19.880844 1.280342 0.408387 117.357520 4.992838 42.019596 4.995204 1.020561 2.151357 -8.761527 -0.464188 0.636872 -96.583895 22.549309 40.309113 0.000000 0.000000 0.000000 7.887989 -2.001076 -1.103341 -5.798401 -0.236296 1.401517 -111.750114 -26.953092 -34.477110 0.000000 0.000000 0.000000 0.000000 0.000000 0.000000 0.000000 0.000000 0.000000 0.000000 0.000000 0.000000 0.000000 0.000000 0.000000 0.000000 0.000000 0.000000 0.000000 0.000000 0.000000
-18.176948 60.000000 -5.265873 -0.149992 0.644073 2.440994 -0.149992 0.644073 2.440994 165.252235 1.967343 30.539206 -19.047133 1.117203 0.326667 118.137341 5.220034 47.023966 5.084427 0.906657 1.133870 -6.819385 -0.475579 0.772345 -59.198222 14.117848 25.941118 0.000000 0.000000 0.000000 8.948729 -2.584978 -3.001144 -4.047000 -0.335227 1.509673 -115.908217 -24.898739 -29.195941 0.000000 0.000000 0.000000 0.000000 0.000000 0.000000 0.000000 0.000000 0.000000 0.000000 0.000000 0.000000 0.000000 0.000000 0.000000 0.000000 0.000000 0.000000 0.000000 0.000000 0.000000
-20.395341 60.000000 -6.065548 1.035486 0.711778 2.952099 1.035486 0.711778 2.952099 166.489070 2.682052 43.292362 -18.351220 0.682266 0.044802 118.783699 5.872206 55.100435 5.614821 0.859720 0.162558 -4.177905 -0.444426 0.823091 0.000000 0.000000 0.000000 0.000000 0.000000 0.000000 10.180347 -3.254325 -5.400404 -2.275232 -0.484961 1.775537 -120.670091 -22.000251 -23.067380 0.000000 0.000000 0.000000 0.000000 0.000000 0.000000 0.000000 0.000000 0.000000 0.000000 0.000000 0.000000 0.000000 0.000000 0.000000 0.000000 0.000000 0.000000 0.000000 0.000000 0.000000
-20.982197 60.000000 -1.665170 0.349335 0.897286 3.519838 0.349335 0.897286 3.519838 165.836445 2.406361 37.374555 -17.593083 0.229208 -0.254950 119.672816 6.314205 62.953196 5.598231 0.839780 0.013577 -4.311710 -0.436778 0.798263 0.000000 0.000000 0.000000 0.000000 0.000000 0.000000 11.610660 -3.747986 -6.889657 -1.715805 -0.602777 2.079465 -114.348920 -15.048761 -12.945120 0.000000 0.000000 0.000000 0.000000 0.000000 0.000000 0.000000 0.000000 0.000000 0.000000 0.000000 0.000000 0.000000 0.000000 0.000000 0.000000 0.000000 0.000000 0.000000 0.000000 0.000000
-20.002217 60.000000 12.985254 0.374308 1.001432 3.928837 0.374308 1.001432 3.928837 165.887942 2.417985 37.713416 -17.424085 -0.282240 -0.624925 119.531277 6.615090 63.793109 4.896360 0.803122 0.530319 -5.144359 -0.479388 0.868731 0.000000 0.000000 0.000000 0.000000 0.000000 0.000000 12.240666 -4.042126 -8.092122 -1.861177 -0.685758 2.361170 -67.100014 -6.836182 -6.252767 0.000000 0.000000 0.000000 0.000000 0.000000 0.000000 0.000000 0.000000 0.000000 0.000000 0.000000 0.000000 0.000000 0.000000 0.000000 0.000000 0.000000 0.000000 0.000000 0.000000 0.000000
-17.432213 60.000000 37.223033 -0.030638 1.198041 4.566305 -0.030638 1.198041 4.566305 165.486073 2.011188 31.363270 -16.792489 -1.428573 -1.451610 119.908476 7.515477 71.143204 4.880785 0.955069 1.771954 -5.481620 -0.504259 0.921512 0.000000 0.000000 0.000000 0.000000 0.000000 0.000000 11.816551 -4.108135 -8.893338 -1.367653 -0.804240 2.660775 0.000000 0.000000 0.000000 0.000000 0.000000 0.000000 0.000000 0.000000 0.000000 0.000000 0.000000 0.000000 0.000000 0.000000 0.000000 0.000000 0.000000 0.000000 0.000000 0.000000 0.000000 0.000000 0.000000 0.000000
-13.162209 60.000000 64.356146 -1.434121 1.316445 4.611928 -1.434121 1.316445 4.611928 163.993420 1.101218 15.939524 -16.466495 -2.682285 -2.381078 120.013396 8.463970 76.738286 6.443982 1.232245 2.365121 -3.742885 -0.349386 0.623839 0.000000 0.000000 0.000000 0.000000 0.000000 0.000000 11.573677 -4.048419 -8.730105 -0.304574 -0.787924 2.450957 0.000000 0.000000 0.000000 0.000000 0.000000 0.000000 0.000000 0.000000 0.000000 0.000000 0.000000 0.000000 0.000000 0.000000 0.000000 0.000000 0.000000 0.000000 0.000000 0.000000 0.000000 0.000000 0.000000 0.000000
-8.482316 60.000000 85.333961 -1.785552 1.268385 4.327831 -1.785552 1.268385 4.327831 163.526932 -0.123110 -2.554190 -15.679182 -3.539928 -3.049350 120.468419 8.440514 79.705414 8.541897 1.524487 2.667117 -1.864817 -0.112631 0.142738 0.000000 0.000000 0.000000 0.000000 0.000000 0.000000 11.629787 -4.111401 -9.069330 1.541029 -0.792997 2.212761 0.000000 0.000000 0.000000 0.000000 0.000000 0.000000 0.000000 0.000000 0.000000 0.000000 0.000000 0.000000 0.000000 0.000000 0.000000 0.000000 0.000000 0.000000 0.000000 0.000000 0.000000 0.000000 0.000000 0.000000
-4.413522 60.000000 96.408889 0.111757 1.002876 3.859065 0.111757 1.002876 3.859065 165.345215 -1.299773 -20.397641 -14.239328 -3.709238 -3.231824 121.089207 8.036896 82.006657 8.864137 1.686397 3.984775 -1.351848 -0.107847 0.163064 0.000000 0.000000 0.000000 0.000000 0.000000 0.000000 11.500030 -4.144489 -9.376102 3.615510 -0.732096 1.768924 0.000000 0.000000 0.000000 0.000000 0.000000 0.000000 0.000000 0.000000 0.000000 0.000000 0.000000 0.000000 0.000000 0.000000 0.000000 0.000000 0.000000 0.000000 0.000000 0.000000 0.000000 0.000000 0.000000 0.000000
-1.923598 60.000000 99.168855 1.200045 0.862978 3.601895 1.200045 0.862978 3.601895 166.398805 -2.074090 -33.830902 -14.253223 -3.137033 -2.787201 120.749178 7.462270 76.791676 8.924183 1.832946 5.544060 -1.684809 -0.136229 0.210488 0.000000 0.000000 0.000000 0.000000 0.000000 0.000000 10.565542 -3.977992 -9.120157 3.271400 -0.567546 1.351062 0.000000 0.000000 0.000000 0.000000 0.000000 0.000000 0.000000 0.000000 0.000000 0.000000 0.000000 0.000000 0.000000 0.000000 0.000000 0.000000 0.000000 0.000000 0.000000 0.000000 0.000000 0.000000 0.000000 0.000000
0.760506 60.000000 106.041609 1.600090 0.745137 3.234672 1.600090 0.745137 3.234672 166.829808 -2.088930 -35.048630 -14.456277 -2.577243 -2.347446 120.523949 6.997587 72.769862 9.125339 1.978573 6.938432 -2.855202 -0.210018 0.316382 0.000000 0.000000 0.000000 0.000000 0.000000 0.000000 8.730690 -3.732125 -9.178101 1.918027 -0.395746 1.001255 0.000000 0.000000 0.000000 0.000000 0.000000 0.000000 0.000000 0.000000 0.000000 0.000000 0.000000 0.000000 0.000000 0.000000 0.000000 0.000000 0.000000 0.000000 0.000000 0.000000 0.000000 0.000000 0.000000 0.000000
2.738799 60.000000 115.543403 1.440708 0.592956 2.592628 1.440708 0.592956 2.592628 153.876429 -1.709636 -28.897444 -13.514583 -1.954273 -1.834007 111.126842 6.470388 66.962825 8.334071 1.825857 6.489340 -3.027049 -0.254396 0.416072 0.000000 0.000000 0.000000 0.000000 0.000000 0.000000 7.053573 -3.142529 -7.633265 0.423819 -0.179138 0.515416 0.000000 0.000000 0.000000 0.000000 0.000000 0.000000 0.000000 0.000000 0.000000 0.000000 0.000000 0.000000 0.000000 0.000000 0.000000 0.000000 0.000000 0.000000 0.000000 0.000000 0.000000 0.000000 0.000000 0.000000
3.994480 60.000000 122.175826 0.794943 0.289922 1.281207 0.794943 0.289922 1.281207 83.445500 -0.859383 -14.636467 -7.284452 -0.957034 -0.915986 60.285609 3.624527 37.242513 4.422774 0.983350 3.535736 -1.606427 -0.165079 0.293863 0.000000 0.000000 0.000000 0.000000 0.000000 0.000000 3.708609 -1.580194 -3.607326 0.401049 -0.036308 0.079600 0.000000 0.000000 0.000000 0.000000 0.000000 0.000000 0.000000 0.000000 0.000000 0.000000 0.000000 0.000000 0.000000 0.000000 0.000000 0.000000 0.000000 0.000000 0.000000 0.000000 0.000000 0.000000 0.000000 0.000000
