HIERARCHY
ROOT Hips
{
  OFFSET 0.000000 0.000000 0.000000
  CHANNELS 6 Xposition Yposition Zposition Xrotation Yrotation Zrotation
  JOINT Spine
  {
    OFFSET -0.624153 -23.598274 -3.958642
    CHANNELS 3 Xrotation Yrotation Zrotation
    JOINT Chest
    {
      OFFSET -0.624153 -23.598274 -3.958642
      CHANNELS 3 Xrotation Yrotation Zrotation
      JOINT Neck
      {
        OFFSET -0.546174 -18.644868 -6.479510
        CHANNELS 3 Xrotation Yrotation Zrotation
        JOINT Head
        {
          OFFSET 3.588497 1.868606 -11.871715
          CHANNELS 3 Xrotation Yrotation Zrotation
          End Site
          {
            OFFSET 0.0 5.0 2.0
          }
        }
      }
      JOINT LeftShoulder
      {
        OFFSET 16.505241 -0.547780 1.617888
        CHANNELS 3 Xrotation Yrotation Zrotation
        JOINT LeftArm
        {
          OFFSET 2.564879 23.616543 1.543496
          CHANNELS 3 Xrotation Yrotation Zrotation
          JOINT LeftForeArm
          {
            OFFSET 4.020360 22.789760 -11.612663
            CHANNELS 3 Xrotation Yrotation Zrotation
            JOINT LeftHand
            {
              OFFSET -0.356637 6.967001 -3.441520
              CHANNELS 3 Xrotation Yrotation Zrotation
              End Site
              {
                OFFSET -3.0 0.0 2.0
              }
            }
          }
        }
      }
      JOINT RightShoulder
      {
        OFFSET -16.505241 0.547780 -1.617888
        CHANNELS 3 Xrotation Yrotation Zrotation
        JOINT RightArm
        {
          OFFSET -6.034817 23.953365 3.933872
          CHANNELS 3 Xrotation Yrotation Zrotation
          JOINT RightForeArm
          {
            OFFSET -1.473205 22.074566 -7.634092
            CHANNELS 3 Xrotation Yrotation Zrotation
            JOINT RightHand
            {
              OFFSET 1.290688 6.162727 -3.022642
              CHANNELS 3 Xrotation Yrotation Zrotation
              End Site
              {
                OFFSET 3.0 0.0 2.0
              }
            }
          }
        }
      }
    }
  }
  JOINT LeftUpLeg
  {
    OFFSET 11.283392 -0.161461 1.096630
    CHANNELS 3 Xrotation Yrotation Zrotation
    JOINT LeftLeg
    {
      OFFSET 2.074195 42.474717 -2.086477
      CHANNELS 3 Xrotation Yrotation Zrotation
      JOINT LeftFoot
      {
        OFFSET 6.085755 37.146968 8.147317
        CHANNELS 3 Xrotation Yrotation Zrotation
        JOINT LeftToeBase
        {
          OFFSET 9.583741 8.393842 -11.900412
          CHANNELS 3 Xrotation Yrotation Zrotation
          End Site
          {
            OFFSET 0.0 -1.0 3.0
          }
        }
      }
    }
  }
  JOINT RightUpLeg
  {
    OFFSET -11.283392 0.161461 -1.096630
    CHANNELS 3 Xrotation Yrotation Zrotation
    JOINT RightLeg
    {
      OFFSET 3.548064 40.758382 2.000000
      CHANNELS 3 Xrotation Yrotation Zrotation
      JOINT RightFoot
      {
        OFFSET 4.736430 37.901807 10.975153
        CHANNELS 3 Xrotation Yrotation Zrotation
        JOINT RightToeBase
        {
          OFFSET -5.104451 9.452981 -11.921077
          CHANNELS 3 Xrotation Yrotation Zrotation
          End Site
          {
            OFFSET 0.0 -1.0 3.0
          }
        }
      }
    }
  }
}
MOTION
Frames: 37
Frame Time: 0.066667
0.000000 0.000000 0.000000 0.000000 0.000000 0.000000 0.000000 0.000000 0.000000 0.000000 0.000000 0.000000 0.000000 0.000000 0.000000 0.000000 0.000000 0.000000 0.000000 0.000000 0.000000 0.000000 0.000000 0.000000 0.000000 0.000000 0.000000 0.000000 0.000000 0.000000 0.000000 0.000000 0.000000 0.000000 0.000000 0.000000 0.000000 0.000000 0.000000 0.000000 0.000000 0.000000 0.000000 0.000000 0.000000 0.000000 0.000000 0.000000 84.088769 -48.635310 -44.343400 0.000000 0.000000 0.000000 -2.370120 0.206262 -0.004267 0.000000 0.000000 0.000000 96.755614 28.201726 31.572384 0.000000 0.000000 0.000000
0.000000 0.000000 0.000000 0.005998 0.074179 -0.051134 0.239792 -0.001976 -0.025710 0.019681 0.724338 0.047665 -0.142663 2.006598 0.268773 0.000000 0.000000 0.000000 -1.565222 0.149346 0.398062 -1.289290 0.616705 0.739262 -0.556676 0.100009 0.257153 0.000000 0.000000 0.000000 -0.029640 0.009033 -0.100622 -0.443584 -0.063175 -0.095746 -0.181236 -0.056783 -0.192492 0.000000 0.000000 0.000000 0.004490 -0.020129 -0.405695 -0.023024 -0.117264 0.551957 83.732112 -48.615920 -43.826088 0.000000 0.000000 0.000000 -2.256450 0.196493 -0.007902 -0.090401 0.034012 -0.078695 96.675511 28.206216 32.443972 0.000000 0.000000 0.000000
0.000000 0.000000 0.000000 0.026877 0.075894 -0.267177 2.009251 -0.037257 -0.086351 0.054756 2.558479 0.400249 -0.732557 4.329421 0.427334 0.000000 0.000000 0.000000 -4.922126 0.511727 0.992572 -4.201976 1.676715 1.646834 -2.877672 0.527046 1.287100 0.000000 0.000000 0.000000 -1.253152 -0.359901 0.293874 -2.774048 -0.396192 -0.560945 -1.233727 0.055306 -0.405674 0.000000 0.000000 0.000000 -0.444419 -0.087394 -2.059291 0.388431 -0.556927 2.204889 82.772786 -48.543299 -41.162695 0.000000 0.000000 0.000000 -2.230748 0.193907 0.004124 -0.323205 0.065872 -0.089077 97.301337 28.165278 33.830317 0.000000 0.000000 0.000000
0.000000 0.000000 0.000000 0.070713 0.090359 -0.720117 3.975816 -0.070606 -0.172879 0.001110 3.095732 1.431742 -0.878991 5.207995 0.507039 0.000000 0.000000 0.000000 -3.048575 0.274311 1.464869 -3.665647 1.388678 1.322783 -3.073523 0.315711 0.900563 0.000000 0.000000 0.000000 0.636196 0.082810 0.456270 -1.690681 -0.196448 -0.229014 -0.266377 -0.029551 -0.173124 0.000000 0.000000 0.000000 -5.349260 -0.062448 -3.377737 7.771058 -2.514613 4.132659 80.997100 -48.110036 -24.543632 0.000000 0.000000 0.000000 -2.751395 0.251429 -0.489370 0.277147 0.128206 -0.557650 97.999214 28.127007 32.961520 0.000000 0.000000 0.000000
0.000000 0.000000 0.000000 0.076662 0.014385 -0.787739 4.031497 -0.066387 -0.200424 -0.065262 2.269851 1.795532 0.771346 5.510761 1.123160 0.000000 0.000000 0.000000 -1.890642 0.131952 1.503211 -3.062638 -0.065136 -1.127663 -2.115634 -1.690747 -3.052968 0.000000 0.000000 0.000000 1.145991 0.308761 -0.111623 -1.551326 0.450077 1.535683 -0.618733 1.101023 1.945159 0.000000 0.000000 0.000000 -5.126129 -0.092126 -3.647441 15.822506 -5.774928 8.156609 73.560935 -46.145408 -14.820180 0.000000 0.000000 0.000000 -3.407534 0.308231 -0.626725 1.911061 -0.020624 -0.712813 98.457459 28.094325 33.351356 0.000000 0.000000 0.000000
0.000000 0.000000 0.000000 0.052087 0.136470 -0.522202 4.288924 -0.060208 -0.261494 -0.079545 1.879279 1.736577 2.469394 5.417732 1.698136 0.000000 0.000000 0.000000 -0.512426 -0.017428 1.200029 -0.542943 -1.558267 -3.223212 -0.286375 -2.266544 -4.519153 0.000000 0.000000 0.000000 2.053293 0.580304 -0.333857 -1.182643 1.802759 5.277559 -0.358537 3.163349 6.170060 0.000000 0.000000 0.000000 -1.178619 0.203761 2.455274 13.944230 -6.152526 10.521764 75.634843 -46.590140 -13.816406 0.000000 0.000000 0.000000 -3.110485 0.284692 -0.655884 2.561186 -0.170545 -0.482756 98.522108 28.096118 32.921373 0.000000 0.000000 0.000000
0.000000 0.000000 0.000000 -0.059956 0.097094 0.636636 5.076662 -0.192552 0.267569 -0.115651 1.095634 1.716429 7.262021 4.855633 3.260998 0.000000 0.000000 0.000000 1.256594 -0.152122 0.203161 3.707977 -2.082228 -3.084717 1.600818 -1.713748 -3.758572 0.000000 0.000000 0.000000 3.161021 0.808188 -0.041057 -0.611994 2.063632 5.997552 -0.718908 3.647622 6.918404 0.000000 0.000000 0.000000 1.801371 0.152608 7.182830 7.203377 -4.148415 10.075310 81.421160 -48.253932 -28.909386 0.000000 0.000000 0.000000 -2.802857 0.259701 -0.654375 2.189037 -0.290920 0.050887 98.312165 28.139651 30.344253 0.000000 0.000000 0.000000
0.000000 0.000000 0.000000 -0.145143 0.287432 1.575630 8.928983 -0.588484 1.399064 -0.090134 1.769183 1.800135 15.500212 5.010033 6.230416 0.000000 0.000000 0.000000 8.376570 -0.901631 -0.100602 5.356259 -1.352293 -0.952878 2.446386 -1.194985 -2.816432 0.000000 0.000000 0.000000 5.767391 1.203419 1.200233 0.922702 2.334071 6.767322 -1.111348 2.934962 5.315055 0.000000 0.000000 0.000000 2.096195 0.160379 8.493497 5.600181 -3.941762 10.858568 83.405341 -48.534830 -28.169244 0.000000 0.000000 0.000000 -2.423614 0.219718 -0.322038 1.660058 -0.475944 0.874923 98.484351 28.177330 26.998627 0.000000 0.000000 0.000000
0.000000 0.000000 0.000000 -0.259386 -0.397870 2.519900 11.050814 -0.927286 2.338400 -0.242155 -0.793931 2.056223 19.911008 4.441180 7.669905 0.000000 0.000000 0.000000 11.549914 -0.770960 -2.946150 8.646891 -1.019210 1.086512 5.084755 -0.206423 -1.048326 0.000000 0.000000 0.000000 6.236522 0.915658 3.013508 1.222010 2.331746 6.759817 -1.611263 2.859729 4.907374 0.000000 0.000000 0.000000 1.784803 0.235463 9.571786 2.426364 -3.648786 13.109807 84.115814 -48.638735 -31.531875 0.000000 0.000000 0.000000 -2.545900 0.215550 0.220144 -1.314860 -1.016523 4.239611 99.028977 28.347205 16.853394 0.000000 0.000000 0.000000
0.000000 0.000000 0.000000 -0.408401 -1.522714 3.501494 13.050610 -1.289788 3.250941 -0.350302 -2.404860 2.276514 19.753323 4.444162 7.613057 0.000000 0.000000 0.000000 14.305664 -0.352020 -6.336438 9.736799 -1.628175 0.054206 6.170255 -0.556083 -2.014330 0.000000 0.000000 0.000000 6.927463 0.812821 4.159296 0.843685 2.595584 7.545909 -2.707775 2.796735 4.230704 0.000000 0.000000 0.000000 1.505435 0.286083 9.939607 0.365697 -3.056235 13.141999 84.325022 -48.659534 -35.587146 0.000000 0.000000 0.000000 -3.115744 0.264746 0.285920 -1.692422 -1.428713 5.952204 96.487698 28.166395 8.146379 0.000000 0.000000 0.000000
0.000000 0.000000 0.000000 -0.554810 -3.029450 4.144276 14.108676 -1.537639 3.872903 -0.418500 -3.170045 2.498528 19.532948 4.388750 7.514992 0.000000 0.000000 0.000000 14.333350 0.459660 -10.568569 9.968569 -2.529458 -2.101053 5.309442 -1.387556 -3.772141 0.000000 0.000000 0.000000 7.490266 0.725070 5.066279 -0.531417 2.519918 7.301664 -4.832332 3.449142 4.387918 0.000000 0.000000 0.000000 0.503519 0.433464 10.173870 -2.053217 -2.458588 13.623756 84.029844 -48.630184 -38.234046 0.000000 0.000000 0.000000 -4.562899 0.393725 0.326942 1.540120 -2.023993 5.970193 91.861198 27.269591 0.892337 0.000000 0.000000 0.000000
0.000000 0.000000 0.000000 -0.610357 -4.018359 4.191037 18.480222 -1.938166 4.206213 -0.314686 -4.196735 1.309538 24.341748 3.160665 8.859654 0.000000 0.000000 0.000000 17.164177 0.947469 -13.020109 11.074873 -2.635650 -1.973881 8.523045 -0.971389 -3.438568 0.000000 0.000000 0.000000 8.919978 0.629020 6.686976 0.001563 2.086845 6.050564 -2.951080 2.685638 3.901473 0.000000 0.000000 0.000000 -0.836671 0.590033 9.663165 -4.662082 -1.723772 13.758548 86.686189 -48.841186 -39.526028 0.000000 0.000000 0.000000 -7.207377 0.630260 0.276271 -3.795431 -1.131870 6.270159 95.540841 27.997053 3.538594 0.000000 0.000000 0.000000
0.000000 0.000000 0.000000 -0.604658 -3.998198 4.155534 21.742626 -2.044272 3.874873 -0.200933 -3.862205 0.556675 25.825466 2.073537 9.000670 0.000000 0.000000 0.000000 14.834756 0.535579 -10.996048 9.927968 -2.261236 -1.445046 4.071366 -1.063392 -2.811767 0.000000 0.000000 0.000000 7.501612 0.369702 6.614212 1.517124 1.000061 2.720527 -1.741294 1.035282 1.305951 0.000000 0.000000 0.000000 -0.449134 0.548909 9.865057 -4.713279 -1.537887 12.833234 86.573223 -48.871787 -36.802658 0.000000 0.000000 0.000000 -3.883142 0.325078 0.840430 -6.507097 -0.472311 5.544228 95.386887 27.967199 3.183615 0.000000 0.000000 0.000000
0.000000 0.000000 0.000000 -0.518928 -2.742001 3.966594 31.764918 -2.464887 3.278901 -0.000176 -3.263677 -0.854995 26.737834 1.048428 8.938365 0.000000 0.000000 0.000000 12.082500 0.086684 -8.186724 8.712874 0.801357 5.454791 0.249104 1.685295 3.408998 0.000000 0.000000 0.000000 6.202557 0.483254 4.941700 3.660047 -1.260277 -4.823995 -1.389430 -1.905455 -4.376237 0.000000 0.000000 0.000000 -1.123305 0.706927 10.970435 -3.418513 -1.515060 10.848065 92.788104 -49.482364 -36.358584 0.000000 0.000000 0.000000 -2.564160 0.194699 1.067637 -6.608677 0.273487 2.369574 97.325503 28.297074 3.655907 0.000000 0.000000 0.000000
0.000000 0.000000 0.000000 -0.393358 -0.158719 3.964400 37.712186 -2.538860 2.664387 -0.033329 -3.085064 -0.552134 24.890293 2.257346 8.732731 0.000000 0.000000 0.000000 6.652570 -0.191604 -4.303715 9.798657 3.416414 12.302834 -0.066365 4.654494 9.439250 0.000000 0.000000 0.000000 1.538552 0.700753 -1.738556 3.932185 -3.470254 -11.996642 -0.630947 -4.167804 -8.768480 0.000000 0.000000 0.000000 -2.901119 1.012831 11.578115 -2.849940 -1.423177 9.637020 99.459881 -49.968544 -38.166819 0.000000 0.000000 0.000000 -1.869855 0.121639 1.256939 -7.264693 0.532545 1.626092 97.772407 28.340986 7.486091 0.000000 0.000000 0.000000
0.000000 0.000000 0.000000 -0.204744 3.708441 3.964768 52.947357 -2.709436 1.461784 0.148274 -1.655164 -1.809239 26.304835 1.687164 9.027491 0.000000 0.000000 0.000000 3.442373 -0.920714 5.655581 9.670332 5.066923 16.065921 -0.011309 5.784570 11.738905 0.000000 0.000000 0.000000 0.338165 1.591720 -8.805233 5.501102 -3.953949 -14.545697 -0.002707 -5.098188 -10.573314 0.000000 0.000000 0.000000 -3.830916 1.215844 12.310267 -1.992406 -1.379813 8.378861 105.124779 -49.828347 -43.413985 0.000000 0.000000 0.000000 -2.967366 0.175144 3.602098 -6.486107 1.425382 -2.754741 99.374418 28.396696 15.499469 0.000000 0.000000 0.000000
0.000000 0.000000 0.000000 -0.022272 7.470035 4.046241 64.359284 -0.942255 -1.334984 -0.117494 3.388760 3.352839 31.756926 3.775726 11.894331 0.000000 0.000000 0.000000 3.275098 -1.646921 13.426048 14.916224 3.436017 16.330400 2.983323 5.176831 10.907708 0.000000 0.000000 0.000000 5.317629 3.826205 -11.182644 6.930605 -3.454969 -13.826102 2.776058 -4.917116 -9.593930 0.000000 0.000000 0.000000 -6.260867 1.539320 11.725301 -2.071247 -1.394387 8.542128 103.278597 -49.935938 -41.476491 0.000000 0.000000 0.000000 -3.891372 0.264574 4.955187 -6.643723 1.771580 -4.224378 98.312207 28.287066 18.042219 0.000000 0.000000 0.000000
0.000000 0.000000 0.000000 0.014999 8.568573 4.843844 72.524691 0.838409 -3.282308 -0.038888 5.405402 4.291638 33.314140 4.279633 12.723396 0.000000 0.000000 0.000000 4.639984 -2.568991 18.834212 19.684898 2.055302 16.812196 10.951278 5.323827 12.627927 0.000000 0.000000 0.000000 6.991745 5.190049 -14.194966 9.909127 -2.969593 -14.195499 6.820742 -3.812475 -5.880931 0.000000 0.000000 0.000000 -6.445040 1.606191 12.081908 0.893149 -1.931185 7.738876 103.007178 -50.841283 -32.958624 0.000000 0.000000 0.000000 -5.229501 0.440533 4.571129 -5.543336 1.021210 -1.425867 96.863607 28.203182 23.410748 0.000000 0.000000 0.000000
0.000000 0.000000 0.000000 -0.013329 8.121779 4.946104 77.668619 1.344506 -3.703634 0.001443 4.933761 2.955409 34.380067 3.648980 12.869898 0.000000 0.000000 0.000000 5.083457 -2.951897 21.010805 18.856218 2.486096 17.296539 8.469273 5.959721 13.711819 0.000000 0.000000 0.000000 6.749789 5.246751 -14.814163 10.746204 -2.106130 -11.401419 6.374218 -2.940884 -3.923610 0.000000 0.000000 0.000000 -6.630704 1.597536 11.737346 0.308481 -1.420800 6.106668 105.302101 -51.518676 -29.581921 0.000000 0.000000 0.000000 -7.455400 0.725192 4.662744 -5.890468 0.547888 0.760770 97.004923 28.209094 21.322758 0.000000 0.000000 0.000000
0.000000 0.000000 0.000000 0.108381 10.206369 4.950390 77.897699 1.519550 -3.855680 0.201969 7.859241 2.071244 35.472635 3.044541 13.029090 0.000000 0.000000 0.000000 3.685347 -2.097882 16.891970 18.394864 2.312358 16.336970 6.149945 6.367500 14.166051 0.000000 0.000000 0.000000 5.120426 5.059341 -16.847017 7.611841 -1.925790 -8.822613 4.013435 -2.099729 -2.867360 0.000000 0.000000 0.000000 -10.272114 2.153109 11.686398 0.176852 -1.312155 5.754164 107.095322 -52.441712 -24.429176 0.000000 0.000000 0.000000 -12.984975 1.420235 4.450121 -4.658202 0.794178 -0.891441 95.824021 28.206573 25.840858 0.000000 0.000000 0.000000
0.000000 0.000000 0.000000 0.089025 9.851956 4.823219 78.927727 1.406930 -3.741373 0.209393 6.697781 0.363769 32.937526 3.343618 12.169503 0.000000 0.000000 0.000000 1.821200 -1.445062 14.992784 16.934077 3.423167 18.136275 3.770533 7.813286 16.836291 0.000000 0.000000 0.000000 4.665621 4.962806 -17.268814 7.761916 -2.263417 -10.125776 3.272620 -2.898463 -4.933620 0.000000 0.000000 0.000000 -14.319935 2.790055 11.727259 -1.994414 -0.819094 5.653017 110.568091 -52.752566 -26.127827 0.000000 0.000000 0.000000 -18.383058 2.049717 3.953575 -6.994505 1.489657 -2.825097 98.947028 28.223277 23.885549 0.000000 0.000000 0.000000
0.000000 0.000000 0.000000 0.080286 9.666300 4.672648 75.224165 0.944858 -3.365699 -0.017797 3.267324 1.815672 31.259741 4.626160 12.054451 0.000000 0.000000 0.000000 0.652390 -1.025060 13.185521 17.074336 3.588065 18.732667 3.589281 8.378608 18.023414 0.000000 0.000000 0.000000 2.564538 4.308910 -18.446962 7.937578 -3.473473 -14.602096 2.418679 -4.623838 -9.023533 0.000000 0.000000 0.000000 -13.459888 2.662492 11.768707 -1.115601 -0.846448 4.888113 110.252102 -52.767941 -25.698514 0.000000 0.000000 0.000000 -17.342101 1.732666 2.142767 -7.320319 1.413846 -2.338687 100.636191 28.176948 25.994023 0.000000 0.000000 0.000000
0.000000 0.000000 0.000000 0.058378 9.273506 4.666531 70.029023 0.174277 -2.622102 -0.100040 1.269404 1.633293 30.862703 6.676722 12.735915 0.000000 0.000000 0.000000 -0.849751 -0.728098 13.929546 19.606212 3.082319 19.849065 5.484956 9.090905 20.249327 0.000000 0.000000 0.000000 -1.375103 3.081705 -21.352141 8.298101 -3.920523 -16.487710 1.585449 -4.414896 -8.765029 0.000000 0.000000 0.000000 -12.291254 2.511178 11.964835 -1.391643 -0.756624 4.734830 108.837839 -52.688086 -24.700013 0.000000 0.000000 0.000000 -15.760197 1.495237 1.379535 -6.230848 1.215612 -1.947538 99.070244 28.216244 24.348693 0.000000 0.000000 0.000000
0.000000 0.000000 0.000000 -0.193589 4.819390 4.745911 58.733490 -1.965140 0.101709 -0.076759 -0.519312 0.580609 28.221782 3.072287 10.259801 0.000000 0.000000 0.000000 -3.489062 -0.246852 17.687166 18.949034 4.203216 22.439462 4.145021 9.451442 20.567557 0.000000 0.000000 0.000000 -6.359109 0.486833 -18.915495 6.359553 -4.507881 -17.018347 -3.120379 -5.634931 -12.207833 0.000000 0.000000 0.000000 -10.012976 2.168591 12.082160 1.128305 -1.356738 5.054922 102.466106 -50.993995 -30.920563 0.000000 0.000000 0.000000 -15.270957 1.288438 -0.468916 -4.354010 0.709905 -0.691294 100.479805 28.361388 19.591923 0.000000 0.000000 0.000000
0.000000 0.000000 0.000000 -0.545739 -1.614520 4.697807 47.675240 -3.544326 3.183177 -0.095872 -5.930195 -0.671539 20.303421 4.685128 7.891974 0.000000 0.000000 0.000000 -6.799952 0.622936 21.049182 21.030763 3.665428 23.238402 8.691414 8.174136 19.245332 0.000000 0.000000 0.000000 -4.397402 0.755925 -14.580750 7.634296 -4.309966 -17.342739 -1.048551 -6.897674 -14.490290 0.000000 0.000000 0.000000 -7.935726 1.829874 11.993351 -4.093380 -0.628668 7.061954 93.400705 -49.263215 -41.531104 0.000000 0.000000 0.000000 -18.172853 1.329371 -2.283585 -9.611140 1.139455 0.179461 98.321817 28.375621 10.792234 0.000000 0.000000 0.000000
0.000000 0.000000 0.000000 -0.576280 -3.154871 4.266219 35.521188 -3.146707 4.105534 -0.489494 -8.815211 1.141547 11.819906 7.404904 5.498111 0.000000 0.000000 0.000000 -5.853791 0.348290 20.420719 13.054780 7.113749 23.905066 0.848796 9.452308 19.434815 0.000000 0.000000 0.000000 -9.823737 -1.403905 -13.988854 4.950540 -4.886812 -17.199664 4.297789 -7.387523 -15.009096 0.000000 0.000000 0.000000 -8.883473 1.901896 11.404143 -4.230601 -0.583864 6.988214 88.265103 -48.903487 -42.105799 0.000000 0.000000 0.000000 -17.582053 1.123421 -3.857168 -7.553876 0.682295 1.122005 99.837719 28.584084 9.114081 0.000000 0.000000 0.000000
0.000000 0.000000 0.000000 -0.618709 -4.262983 4.161611 29.937568 -2.754865 4.178206 -0.695297 -10.039229 1.973668 8.139125 8.641755 4.389906 0.000000 0.000000 0.000000 -5.178107 0.164722 19.698583 9.743138 8.833119 24.634387 -2.703566 9.606252 18.644459 0.000000 0.000000 0.000000 -10.341905 -1.545287 -14.764758 2.924364 -4.816848 -15.555942 -1.043701 -5.653084 -11.916223 0.000000 0.000000 0.000000 -7.882017 1.658358 10.644193 -5.654546 -0.450612 8.091711 86.566773 -48.792414 -42.254896 0.000000 0.000000 0.000000 -16.690197 0.998592 -4.647487 -6.734642 0.366514 2.039514 98.766872 28.435394 10.129463 0.000000 0.000000 0.000000
0.000000 0.000000 0.000000 -0.593945 -3.894384 4.113398 24.124774 -2.342663 4.216364 -0.576112 -5.429537 2.736051 3.223884 9.349731 2.658935 0.000000 0.000000 0.000000 -5.866558 0.369993 19.175880 7.185441 10.448271 25.662481 -2.907912 10.308089 19.914593 0.000000 0.000000 0.000000 -6.889583 -0.193373 -14.805358 0.555864 -4.973320 -14.525342 -3.492022 -3.758851 -8.611857 0.000000 0.000000 0.000000 -5.213591 1.279850 10.707178 -5.704791 -0.585626 8.948676 88.371172 -48.886860 -43.050668 0.000000 0.000000 0.000000 -12.837679 0.796821 -5.009581 -4.842093 -0.011659 2.495590 102.583951 28.791894 12.030493 0.000000 0.000000 0.000000
0.000000 0.000000 0.000000 -0.579501 -3.653586 4.094091 14.673405 -1.724835 4.367905 -0.322318 -2.198706 2.130468 0.089181 9.139445 1.440975 0.000000 0.000000 0.000000 -9.726868 1.455857 19.012852 -3.241906 14.071363 23.547580 -6.834380 10.772343 19.550394 0.000000 0.000000 0.000000 -5.818689 0.218993 -14.739791 -0.003114 -5.009538 -14.296868 -3.488264 -2.731778 -6.625851 0.000000 0.000000 0.000000 -0.832808 0.693112 11.467130 -2.227553 -1.578217 9.624165 92.019651 -49.174361 -41.441643 0.000000 0.000000 0.000000 -3.425691 0.375218 -4.101347 -0.224916 -0.564892 2.058353 104.411726 28.964971 12.229605 0.000000 0.000000 0.000000
0.000000 0.000000 0.000000 -0.548671 -3.073666 4.076949 8.436991 -1.293553 4.356888 -0.221341 -0.342352 2.077887 0.499475 9.076754 1.585249 0.000000 0.000000 0.000000 -9.355246 1.341853 18.488087 -6.429841 14.289648 21.546957 -7.916647 9.797396 17.563090 0.000000 0.000000 0.000000 -4.646587 0.548460 -13.736127 -0.332327 -4.456802 -12.565486 -1.740131 -1.945640 -4.569963 0.000000 0.000000 0.000000 0.673067 0.480521 11.776195 2.663578 -2.963177 10.152249 94.855613 -49.729244 -35.611241 0.000000 0.000000 0.000000 1.347308 0.081988 -3.277789 2.790783 -0.803705 1.426936 102.419085 28.804150 11.372243 0.000000 0.000000 0.000000
0.000000 0.000000 0.000000 -0.543238 -2.994157 4.064728 5.823466 -1.133422 4.427834 -0.352819 -3.570396 1.820247 2.830350 5.521633 1.842155 0.000000 0.000000 0.000000 -1.309004 -0.750407 16.235334 0.215497 7.867397 15.157707 -2.893619 4.467975 8.803826 0.000000 0.000000 0.000000 -4.210105 0.418935 -11.508634 0.528167 -2.615866 -7.736628 1.274002 -0.812392 -1.150915 0.000000 0.000000 0.000000 0.117916 0.552331 11.509480 6.368177 -3.926768 10.081825 90.277803 -49.372040 -32.680183 0.000000 0.000000 0.000000 0.570154 0.073210 -2.274670 4.712830 -0.736364 0.417241 100.075021 28.584540 10.231031 0.000000 0.000000 0.000000
0.000000 0.000000 0.000000 -0.584900 -2.954542 4.419391 2.509488 -0.905596 4.400492 -0.416129 -2.430564 2.817181 2.555876 4.976233 1.651521 0.000000 0.000000 0.000000 3.271149 -1.725354 14.232626 3.099306 4.151824 9.708368 0.139794 2.098160 4.252682 0.000000 0.000000 0.000000 -1.147840 0.938773 -7.855318 -0.344036 1.746196 5.078302 0.519111 4.173735 8.682324 0.000000 0.000000 0.000000 0.253534 0.525159 11.368327 4.444938 -3.637360 10.899884 90.230235 -49.333327 -33.597876 0.000000 0.000000 0.000000 -1.043768 0.114537 -0.594991 3.101753 -0.593251 0.633162 100.066717 28.545162 11.721465 0.000000 0.000000 0.000000
0.000000 0.000000 0.000000 -0.511188 -0.847904 4.769447 4.816942 -1.038307 4.299453 -0.290137 1.780197 4.222147 2.344678 6.092677 1.770598 0.000000 0.000000 0.000000 2.505491 -0.782637 5.785677 2.494594 2.203215 5.427959 0.414282 1.892819 3.829245 0.000000 0.000000 0.000000 2.015278 0.730674 -1.203669 -0.444047 3.135509 9.069547 0.044885 4.640828 9.313520 0.000000 0.000000 0.000000 0.190827 0.527953 11.232556 5.713793 -3.920498 10.674399 88.370683 -49.149492 -32.538588 0.000000 0.000000 0.000000 -2.521133 0.132416 3.223556 7.857636 0.061142 -2.912445 94.590681 28.077532 17.720797 0.000000 0.000000 0.000000
0.000000 0.000000 0.000000 -0.410879 1.185671 4.916027 8.074112 -1.306393 4.511253 -0.317154 2.354109 5.084515 2.970192 6.979368 2.148005 0.000000 0.000000 0.000000 1.762466 -0.470354 3.428911 2.837991 -0.032521 0.965089 0.181518 -0.354378 -0.738898 0.000000 0.000000 0.000000 2.920523 0.669051 0.364549 -1.039376 3.661616 10.517601 -0.751796 5.085679 9.684298 0.000000 0.000000 0.000000 0.342252 0.503331 11.185798 5.003100 -3.694815 10.557124 87.506489 -49.055196 -32.087338 0.000000 0.000000 0.000000 -2.681808 0.102532 5.110980 4.417298 -0.540596 -0.053911 94.827985 28.286647 30.889520 0.000000 0.000000 0.000000
0.000000 0.000000 0.000000 -0.437041 1.183987 5.214880 7.083600 -1.290096 4.733940 -0.255420 2.240550 4.190816 1.158117 6.486765 1.415746 0.000000 0.000000 0.000000 2.788841 -0.579762 3.056428 2.542030 -0.709624 -0.553468 0.876953 -0.478658 -1.079771 0.000000 0.000000 0.000000 2.373170 0.440663 0.854239 -1.272851 3.816808 10.929025 0.130422 5.112738 10.292007 0.000000 0.000000 0.000000 0.495859 0.444715 10.397643 3.993396 -3.348434 10.279298 83.771323 -48.607944 -38.369792 0.000000 0.000000 0.000000 -3.029279 0.078800 8.177318 0.862972 -3.076744 9.837229 98.091911 28.011341 43.513646 0.000000 0.000000 0.000000
0.000000 0.000000 0.000000 -0.446375 1.259935 5.374954 6.184817 -1.235025 4.771314 -0.231397 2.655489 4.256617 1.204351 6.344436 1.409094 0.000000 0.000000 0.000000 1.279389 -0.352508 2.774756 1.611336 -0.963783 -1.389451 0.558656 -0.618426 -1.325138 0.000000 0.000000 0.000000 1.425554 0.171533 1.061774 -1.281640 3.528915 10.120951 0.488150 4.645429 9.599194 0.000000 0.000000 0.000000 0.608464 0.409472 9.961661 3.129407 -3.155403 10.420807 83.044004 -48.549870 -39.133634 0.000000 0.000000 0.000000 -3.043640 0.054060 9.367722 -0.767412 -3.179118 11.423955 99.454885 27.714430 48.262235 0.000000 0.000000 0.000000
0.000000 0.000000 0.000000 -0.458955 1.269729 5.527273 6.555412 -1.342143 5.125650 -0.330209 1.842815 4.761727 1.393097 6.470437 1.496601 0.000000 0.000000 0.000000 3.123329 -0.539984 2.144378 2.439804 -0.833260 -0.845695 0.808954 -0.354033 -0.814402 0.000000 0.000000 0.000000 1.562223 0.159119 1.317732 -1.325970 2.620030 7.571612 0.297422 3.451905 7.112924 0.000000 0.000000 0.000000 0.665610 0.378171 9.427345 2.485669 -3.132660 11.009692 82.765269 -48.523072 -38.621846 0.000000 0.000000 0.000000 -3.063035 0.052965 9.562361 -1.237128 -2.813432 10.534356 100.526721 27.489474 49.270439 0.000000 0.000000 0.000000
