HIERARCHY
ROOT Hips
{
  OFFSET 0.000000 0.000000 0.000000
  CHANNELS 6 Xposition Yposition Zposition Xrotation Yrotation Zrotation
  JOINT Spine
  {
    OFFSET 1.388230 22.849755 -8.157144
    CHANNELS 3 Xrotation Yrotation Zrotation
    JOINT Chest
    {
      OFFSET 1.388230 22.849755 -8.157144
      CHANNELS 3 Xrotation Yrotation Zrotation
      JOINT Neck
      {
        OFFSET 0.386562 8.498444 -3.690407
        CHANNELS 3 Xrotation Yrotation Zrotation
        JOINT Head
        {
          OFFSET 0.662911 7.396516 -7.447500
          CHANNELS 3 Xrotation Yrotation Zrotation
          End Site
          {
            OFFSET 0.198873 2.218955 -2.234250
          }
        }
      }
      JOINT LeftShoulder
      {
        OFFSET 17.248308 -1.208605 -0.261267
        CHANNELS 3 Xrotation Yrotation Zrotation
        JOINT LeftArm
        {
          OFFSET 7.635523 -21.435821 1.774202
          CHANNELS 3 Xrotation Yrotation Zrotation
          JOINT LeftForeArm
          {
            OFFSET 7.643843 -21.327462 -9.147581
            CHANNELS 3 Xrotation Yrotation Zrotation
            JOINT LeftHand
            {
              OFFSET 0.473402 -5.275506 -2.178749
              CHANNELS 3 Xrotation Yrotation Zrotation
              End Site
              {
                OFFSET 0.142021 -1.582652 -0.653625
              }
            }
          }
        }
      }
      JOINT RightShoulder
      {
        OFFSET -17.248308 1.208605 0.261267
        CHANNELS 3 Xrotation Yrotation Zrotation
        JOINT RightArm
        {
          OFFSET -12.133127 -21.363330 5.693170
          CHANNELS 3 Xrotation Yrotation Zrotation
          JOINT RightForeArm
          {
            OFFSET -7.740244 -22.047532 -5.230031
            CHANNELS 3 Xrotation Yrotation Zrotation
            JOINT RightHand
            {
              OFFSET -0.480044 -5.557554 -1.525311
              CHANNELS 3 Xrotation Yrotation Zrotation
              End Site
              {
                OFFSET -0.144013 -1.667266 -0.457593
              }
            }
          }
        }
      }
    }
  }
  JOINT LeftUpLeg
  {
    OFFSET 11.699587 -0.675443 -0.599665
    CHANNELS 3 Xrotation Yrotation Zrotation
    JOINT LeftLeg
    {
      OFFSET -6.527727 -38.483662 1.737457
      CHANNELS 3 Xrotation Yrotation Zrotation
      JOINT LeftFoot
      {
        OFFSET 3.065902 -35.809878 12.679608
        CHANNELS 3 Xrotation Yrotation Zrotation
        End Site
        {
          OFFSET 0.919771 -10.742963 3.803882
        }
      }
    }
  }
  JOINT RightUpLeg
  {
    OFFSET -11.699587 0.675443 0.599665
    CHANNELS 3 Xrotation Yrotation Zrotation
    JOINT RightLeg
    {
      OFFSET -1.173808 -37.981520 -1.210152
      CHANNELS 3 Xrotation Yrotation Zrotation
      JOINT RightFoot
      {
        OFFSET -7.846448 -39.021816 7.691272
        CHANNELS 3 Xrotation Yrotation Zrotation
        End Site
        {
          OFFSET -2.353934 -11.706545 2.307382
        }
      }
    }
  }
}
MOTION
Frames: 82
Frame Time: 0.083333
0.000000 60.000000 0.000000 -0.761052 0.042716 -0.010551 -0.761052 0.042716 -0.010551 0.153164 0.017050 0.056179 0.099297 -0.012558 -0.003803 5.000000 0.000000 0.000000 -0.027464 0.034519 0.533513 0.681685 -0.102457 0.344506 71.201849 -31.231863 24.260194 0.000000 0.000000 0.000000 2.507782 -1.334604 0.356902 3.202876 -0.291517 0.207146 24.557309 29.376869 -58.135369 0.000000 0.000000 0.000000 -2.141339 0.472996 1.176666 -0.453032 0.357501 1.086920 0.000000 0.000000 0.000000 -4.334311 0.120443 -0.222932 -2.884310 0.754126 0.634023 0.000000 0.000000 0.000000
-0.257243 60.001026 -1.638203 -0.775103 0.044211 -0.008912 -0.775103 0.044211 -0.008912 0.152257 0.018262 0.058871 0.098879 -0.012284 -0.003566 5.000000 0.000000 0.000000 -0.138342 -0.008417 0.474633 0.660185 -0.088974 0.308823 36.349586 -35.551720 48.700248 0.000000 0.000000 0.000000 2.144296 -1.137399 0.323476 2.762762 -0.250145 0.173815 60.961116 30.335877 -35.174732 0.000000 0.000000 0.000000 -2.163993 0.479002 1.198359 -0.456648 0.360145 1.095066 0.000000 0.000000 0.000000 -4.375546 0.121548 -0.225569 -2.899861 0.759703 0.644010 0.000000 0.000000 0.000000
-0.710694 60.003245 -4.164375 -0.775621 0.044270 -0.008842 -0.775621 0.044270 -0.008842 0.152249 0.018305 0.058969 0.098889 -0.012274 -0.003555 5.000000 0.000000 0.000000 -0.664287 -0.125368 1.238925 1.776031 -0.222051 0.787708 33.675376 -35.987754 51.090685 0.000000 0.000000 0.000000 5.053109 -2.673488 0.795579 6.485110 -0.577857 0.376815 56.387327 30.858932 -38.350005 0.000000 0.000000 0.000000 -2.164546 0.479163 1.199094 -0.456641 0.360253 1.095370 0.000000 0.000000 0.000000 -4.376676 0.121580 -0.225620 -2.900204 0.759862 0.644391 0.000000 0.000000 0.000000
-1.080862 60.003886 -5.480810 -2.161961 0.142330 0.024566 -2.161961 0.142330 0.024566 0.236978 0.077188 0.203606 0.153400 -0.013684 -0.000218 5.000000 0.000000 0.000000 -1.352121 -0.321845 1.687081 2.253127 -0.268097 0.961621 32.072289 -36.193863 52.474232 0.000000 0.000000 0.000000 5.143857 -2.734845 0.741796 6.281295 -0.512472 0.209509 45.488071 31.335514 -45.651829 0.000000 0.000000 0.000000 -5.509209 1.244367 3.152788 -1.289382 0.887260 2.718074 0.000000 0.000000 0.000000 -10.716143 0.290186 -0.621431 -6.806285 1.816268 1.634773 0.000000 0.000000 0.000000
-1.402397 60.004249 -5.917965 -3.055742 0.253554 0.170264 -3.055742 0.253554 0.170264 -0.028467 0.175105 0.399481 -0.010214 0.025294 0.024231 5.000000 0.000000 0.000000 -0.913195 -0.119048 2.272446 2.068388 -0.320672 1.054762 40.772928 -36.191566 46.569478 0.000000 0.000000 0.000000 5.366424 -2.975434 0.164326 5.633533 -0.349858 -0.170476 23.143976 30.759642 -61.317221 0.000000 0.000000 0.000000 -6.383620 1.518249 4.198700 -1.602700 0.960450 2.967589 0.000000 0.000000 0.000000 -11.687571 0.304339 -0.792311 -6.516839 1.858616 2.051523 0.000000 0.000000 0.000000
-1.822454 60.005030 -6.127072 -3.272165 0.325639 0.318652 -3.272165 0.325639 0.318652 0.035882 0.227810 0.529442 0.068558 0.037875 0.043863 5.000000 0.000000 0.000000 -0.537550 0.025771 2.487549 2.315889 -0.324508 1.094736 7.058076 -34.028308 68.736707 0.000000 0.000000 0.000000 5.761070 -3.362716 -0.667989 6.000954 -0.268871 -0.531742 16.993478 29.938378 -65.466022 0.000000 0.000000 0.000000 -5.415712 1.375395 4.801660 -0.755681 0.837386 2.501046 0.000000 0.000000 0.000000 -10.615640 0.293787 -0.559009 -5.092842 1.626702 2.406549 0.000000 0.000000 0.000000
-2.693350 60.005749 -5.835325 -3.941090 0.447478 0.512848 -3.941090 0.447478 0.512848 -0.007777 0.272369 0.624280 0.054752 0.064486 0.068744 5.000000 0.000000 0.000000 -1.081044 -0.164042 2.395819 3.732596 -0.455011 1.545849 -27.747733 -6.442188 50.821714 0.000000 0.000000 0.000000 5.687795 -3.483041 -1.495454 6.551958 -0.305984 -0.534023 20.336037 30.406559 -63.191876 0.000000 0.000000 0.000000 -4.965008 1.306078 5.093631 -0.437819 0.907755 2.643100 0.000000 0.000000 0.000000 -10.372112 0.296337 -0.412147 -4.935817 1.664918 2.703999 0.000000 0.000000 0.000000
-3.798798 60.007016 -6.009728 -4.815133 0.649222 0.863515 -4.815133 0.649222 0.863515 -0.302860 0.337885 0.725941 -0.158837 0.142512 0.125199 5.000000 0.000000 0.000000 -2.627009 -0.636445 2.562273 6.962271 -1.013414 3.055374 0.000000 0.000000 0.000000 0.000000 0.000000 0.000000 6.485791 -4.157904 -2.866611 8.082370 -0.469262 -0.349890 38.671767 32.359521 -51.659290 0.000000 0.000000 0.000000 -4.760250 1.267374 5.162030 -0.748026 0.845956 2.525045 0.000000 0.000000 0.000000 -10.514665 0.305420 -0.324493 -5.621400 1.843805 2.784972 0.000000 0.000000 0.000000
-5.242286 60.009210 -7.419654 -5.354758 0.822812 1.196194 -5.354758 0.822812 1.196194 -0.661584 0.402451 0.812592 -0.392686 0.263174 0.220710 5.000000 0.000000 0.000000 -5.237606 -1.043272 6.147242 10.670419 -2.323882 5.957138 0.000000 0.000000 0.000000 0.000000 0.000000 0.000000 9.469929 -5.744970 -3.148465 10.370767 -0.715829 -0.095139 61.631705 32.191132 -36.843202 0.000000 0.000000 0.000000 -4.371646 1.194760 5.315837 -1.539098 0.753010 2.401291 0.000000 0.000000 0.000000 -10.426405 0.300981 -0.357078 -6.517457 2.051686 2.781990 0.000000 0.000000 0.000000
-7.132708 60.009595 -8.927111 -5.127268 0.781927 1.139313 -5.127268 0.781927 1.139313 -0.740673 0.407389 0.810359 -0.493491 0.291980 0.238201 5.000000 0.000000 0.000000 -5.509200 -0.114598 16.069772 14.458912 -3.904265 9.050223 0.000000 0.000000 0.000000 0.000000 0.000000 0.000000 12.153124 -7.115215 -3.188574 10.937382 -0.877354 0.263568 68.218267 30.228175 -31.212773 0.000000 0.000000 0.000000 -3.897733 1.135577 5.836802 -2.292479 0.743528 2.502606 0.000000 0.000000 0.000000 -9.915546 0.288719 -0.309701 -6.712339 2.120052 2.868450 0.000000 0.000000 0.000000
-9.223938 60.009913 -9.803641 -5.724760 0.714724 0.873326 -5.724760 0.714724 0.873326 -0.715175 0.423717 0.849486 -0.549416 0.376154 0.312847 5.000000 0.000000 0.000000 -1.492384 2.081820 31.560754 17.673927 -5.216361 11.384807 0.000000 0.000000 0.000000 0.000000 0.000000 0.000000 11.078493 -6.628597 -3.631539 8.274462 -0.787329 0.603369 63.378136 29.459216 -32.934324 0.000000 0.000000 0.000000 -4.180633 1.225936 6.165557 -4.060590 0.604109 2.425506 0.000000 0.000000 0.000000 -9.448864 0.287885 -0.044757 -7.412224 2.283571 2.867427 0.000000 0.000000 0.000000
-10.495690 60.009711 -10.236750 -6.433424 0.512312 0.273928 -6.433424 0.512312 0.273928 -0.868111 0.491341 0.969220 -0.654147 0.589464 0.504706 5.000000 0.000000 0.000000 1.680935 3.504780 46.879697 16.901554 -5.726555 12.393156 -30.103909 -2.973964 22.449915 0.000000 0.000000 0.000000 8.887490 -5.569139 -3.907657 6.766781 -0.718840 0.759375 64.414637 29.828216 -32.778843 0.000000 0.000000 0.000000 -4.162462 1.261010 6.627269 -3.763293 0.547813 2.235433 0.000000 0.000000 0.000000 -8.918284 0.297899 0.460278 -8.313715 2.456387 2.723793 0.000000 0.000000 0.000000
-10.882674 60.008632 -10.698568 -7.049488 0.326380 -0.263198 -7.049488 0.326380 -0.263198 -1.095355 0.546342 1.046993 -0.828070 0.756132 0.642346 5.000000 0.000000 0.000000 0.527143 4.381733 58.741645 13.211861 -5.265699 11.883799 0.000000 0.000000 0.000000 0.000000 0.000000 0.000000 8.325280 -5.390608 -4.563595 7.362798 -0.747792 0.698737 58.045942 30.432170 -36.906217 0.000000 0.000000 0.000000 -4.397927 1.305183 6.524264 -3.327603 0.586696 2.273055 0.000000 0.000000 0.000000 -9.527406 0.344003 1.029805 -8.602771 2.500037 2.634686 0.000000 0.000000 0.000000
-10.757514 60.008257 -9.884128 -6.547269 0.185241 -0.524791 -6.547269 0.185241 -0.524791 -1.145695 0.592777 1.134953 -0.929680 0.810918 0.681011 5.000000 0.000000 0.000000 -0.155826 5.053757 66.119911 7.829121 -4.639014 11.111424 0.000000 0.000000 0.000000 0.000000 0.000000 0.000000 8.256324 -5.535414 -5.686929 6.473401 -0.664487 0.659328 54.637485 30.336685 -38.751284 0.000000 0.000000 0.000000 -3.405794 1.085031 6.694535 -0.255952 0.856653 2.507373 0.000000 0.000000 0.000000 -8.410414 0.333087 1.954671 -7.032452 2.100435 2.510327 0.000000 0.000000 0.000000
-10.498120 60.007257 -7.102860 -6.051251 0.053287 -0.769722 -6.051251 0.053287 -0.769722 -1.397501 0.671488 1.251790 -1.227907 0.836955 0.668223 5.000000 0.000000 0.000000 -0.396329 5.220306 67.491931 6.327829 -3.809231 9.367765 0.000000 0.000000 0.000000 0.000000 0.000000 0.000000 8.252471 -5.689276 -6.647194 4.926301 -0.537903 0.644837 56.981987 29.854416 -36.842038 0.000000 0.000000 0.000000 -0.773931 0.511046 7.211318 4.311145 1.293873 2.992953 0.000000 0.000000 0.000000 -6.100568 0.244078 2.727516 -4.309820 1.490790 2.578568 0.000000 0.000000 0.000000
-10.272721 60.007076 -2.480336 -5.596574 0.091510 -0.616463 -5.596574 0.091510 -0.616463 -1.878692 0.726758 1.272230 -1.733521 0.762847 0.537831 5.000000 0.000000 0.000000 -0.290677 4.976324 65.027198 6.051428 -2.912396 7.287536 0.000000 0.000000 0.000000 0.000000 0.000000 0.000000 7.719762 -5.573663 -7.500208 3.375806 -0.413870 0.637221 53.313796 29.668866 -38.720830 0.000000 0.000000 0.000000 -1.200138 0.625102 7.439818 5.459494 1.451720 3.301890 0.000000 0.000000 0.000000 -4.653094 0.169526 2.957491 -2.549921 1.101180 2.636331 0.000000 0.000000 0.000000
-10.160626 60.007463 1.786070 -5.475016 0.219934 -0.286547 -5.475016 0.219934 -0.286547 -2.289980 0.809196 1.354537 -2.208142 0.704496 0.429666 5.000000 0.000000 0.000000 -1.462827 4.930505 61.670762 4.806435 -2.376423 6.035271 0.000000 0.000000 0.000000 0.000000 0.000000 0.000000 7.562312 -5.460259 -7.264018 2.353559 -0.340198 0.658713 51.206464 29.736114 -40.043423 0.000000 0.000000 0.000000 -3.461565 1.153227 7.329060 5.635883 1.475594 3.347862 0.000000 0.000000 0.000000 -4.973613 0.185260 2.776533 -2.752443 1.165014 2.715459 0.000000 0.000000 0.000000
-10.046391 60.007921 4.201604 -5.174189 0.439548 0.295608 -5.174189 0.439548 0.295608 -2.654100 0.960509 1.568221 -2.694591 0.722930 0.387375 5.000000 0.000000 0.000000 -2.283837 4.653909 56.123003 4.518706 -1.540474 4.002690 -9.018465 -15.282029 51.563595 0.000000 0.000000 0.000000 7.027006 -4.854394 -5.405463 2.215436 -0.316623 0.610166 47.510195 30.051268 -42.695534 0.000000 0.000000 0.000000 -4.303837 1.312093 6.867564 5.116000 1.551257 3.675591 0.000000 0.000000 0.000000 -5.479342 0.206803 2.466192 -2.559879 1.157835 2.881306 0.000000 0.000000 0.000000
-9.925055 60.007445 4.817961 -4.608603 0.718558 1.080428 -4.608603 0.718558 1.080428 -3.104411 1.167731 1.858378 -3.299927 0.942401 0.497305 5.000000 0.000000 0.000000 -0.442033 3.777696 47.653831 2.114359 -0.266267 0.970126 -28.921891 -11.081503 78.183119 0.000000 0.000000 0.000000 4.607771 -2.978961 -2.456799 1.919140 -0.263965 0.495155 35.397857 29.974457 -50.694316 0.000000 0.000000 0.000000 -4.785385 1.354019 6.058053 4.226121 1.680326 4.240776 0.000000 0.000000 0.000000 -6.609906 0.255389 2.012877 -2.255508 1.132336 3.083483 0.000000 0.000000 0.000000
-9.884510 60.006782 4.341240 -2.475678 0.714167 1.476238 -2.475678 0.714167 1.476238 -3.215343 1.248514 1.983080 -3.621699 1.296368 0.749634 5.000000 0.000000 0.000000 1.087003 2.346417 31.529312 3.830489 -0.013479 0.635162 -35.672468 -2.669874 45.360418 0.000000 0.000000 0.000000 0.326343 0.120318 1.080044 1.063342 -0.193465 0.471801 20.781282 28.258753 -59.634833 0.000000 0.000000 0.000000 -4.414917 1.257155 5.905339 4.926303 1.704095 4.218220 0.000000 0.000000 0.000000 -7.538541 0.293026 1.737705 -1.372970 0.950669 3.195954 0.000000 0.000000 0.000000
-10.008283 60.006559 3.026225 2.134928 0.413462 1.611674 2.134928 0.413462 1.611674 -2.252325 1.165728 2.053538 -3.033675 1.500675 0.998546 5.000000 0.000000 0.000000 -0.921729 0.968083 15.145727 3.152183 -0.405908 1.393335 -39.316499 -1.294130 43.279746 0.000000 0.000000 0.000000 -0.195519 0.618526 1.748396 0.167725 -0.210319 0.796808 48.603694 28.977014 -40.650268 0.000000 0.000000 0.000000 -3.337466 1.017258 5.927493 5.882860 1.675465 3.984264 0.000000 0.000000 0.000000 -6.824337 0.249439 1.366039 1.387668 0.352383 3.402844 0.000000 0.000000 0.000000
-10.334489 60.006051 1.685503 3.799498 0.241844 1.473950 3.799498 0.241844 1.473950 -1.715196 1.158981 2.171163 -2.647502 1.676016 1.202503 5.000000 0.000000 0.000000 -1.597478 -0.081667 5.161610 2.549179 -0.543672 1.631777 -33.530853 -3.733951 49.596822 0.000000 0.000000 0.000000 2.481203 -1.660836 -1.503991 1.419809 -0.625667 1.929862 85.339349 17.046305 -14.466354 0.000000 0.000000 0.000000 -2.419399 0.821117 6.072860 5.789500 1.500436 3.430156 0.000000 0.000000 0.000000 -6.176304 0.215914 1.134814 2.364439 0.139746 3.478818 0.000000 0.000000 0.000000
-10.773684 60.005976 1.115550 2.806053 0.121958 0.884338 2.806053 0.121958 0.884338 -1.740546 1.231374 2.310568 -2.653028 1.826906 1.330279 5.000000 0.000000 0.000000 -2.040958 -0.489522 2.292967 1.050943 -0.700162 1.806927 -48.102005 6.996810 72.044087 0.000000 0.000000 0.000000 4.296307 -4.466456 -10.708170 3.576317 -1.392757 3.699612 103.620194 -14.396425 -0.842121 0.000000 0.000000 0.000000 -2.000997 0.753306 6.491159 3.856490 1.229543 2.858151 0.000000 0.000000 0.000000 -5.977868 0.204982 0.948690 1.694761 0.321448 3.621616 0.000000 0.000000 0.000000
-11.011808 60.005997 1.164432 2.491932 -0.136447 0.045764 2.491932 -0.136447 0.045764 -1.525429 1.215392 2.334297 -2.372575 1.981440 1.508457 5.000000 0.000000 0.000000 -1.745047 -0.382428 2.339621 0.336952 -0.786643 1.934072 -28.863610 -6.256024 53.367014 0.000000 0.000000 0.000000 6.587956 -7.393703 -23.352208 7.288096 -2.448550 5.483023 100.927375 -30.397192 5.750837 0.000000 0.000000 0.000000 -0.428341 0.405450 6.697135 4.469428 1.098942 2.316560 0.000000 0.000000 0.000000 -4.938678 0.164477 0.684090 2.177334 0.205804 3.596606 0.000000 0.000000 0.000000
-10.867280 60.004613 0.911363 1.691448 -0.221731 -0.348603 1.691448 -0.221731 -0.348603 -1.385548 1.118742 2.173400 -1.973162 1.877155 1.488648 5.000000 0.000000 0.000000 -2.693862 -0.453784 4.639627 -2.837126 -1.009561 2.105766 -41.711758 2.370464 79.429199 0.000000 0.000000 0.000000 11.307636 -10.163546 -34.374781 9.518856 -3.195949 6.505428 52.562937 -40.981869 42.488016 0.000000 0.000000 0.000000 1.795058 -0.112992 6.540968 5.965448 1.055543 1.876531 0.000000 0.000000 0.000000 -2.865489 0.091447 0.066077 3.119576 -0.033902 3.478608 0.000000 0.000000 0.000000
-10.564409 60.002830 -0.129152 1.053895 -0.249471 -0.535607 1.053895 -0.249471 -0.535607 -0.935051 1.048639 2.149135 -1.214009 1.805207 1.564425 5.000000 0.000000 0.000000 -3.274638 -0.268200 7.935886 -6.232568 -1.190119 2.166642 -40.820198 1.581281 81.072847 0.000000 0.000000 0.000000 14.816869 -11.381461 -40.572382 13.707490 -3.924716 6.719174 -11.956339 -34.554495 88.505593 0.000000 0.000000 0.000000 1.869738 -0.137047 6.286238 5.104984 0.914236 1.589531 0.000000 0.000000 0.000000 -2.093204 0.084045 -1.212284 1.895893 0.343350 3.939469 0.000000 0.000000 0.000000
-10.016511 60.001538 -1.629234 1.141192 -0.226571 -0.454788 1.141192 -0.226571 -0.454788 -0.321709 1.135831 2.513645 -0.264495 2.019467 1.953155 5.000000 0.000000 0.000000 -3.540367 0.159248 12.697543 -7.402650 -1.213320 2.079849 -29.947913 -12.391454 85.204852 0.000000 0.000000 0.000000 16.798893 -11.839240 -43.922236 18.792558 -4.272175 5.924610 -13.306422 -29.208827 87.147182 0.000000 0.000000 0.000000 3.089079 -0.412146 6.314336 3.874561 0.867974 1.705046 0.000000 0.000000 0.000000 -1.830280 0.107046 -3.247298 -1.022163 1.214491 4.767901 0.000000 0.000000 0.000000
-9.167917 60.000408 -2.998787 1.389622 -0.131666 -0.137503 1.389622 -0.131666 -0.137503 0.015906 1.468486 3.372860 0.386299 2.658287 2.722317 5.000000 0.000000 0.000000 -2.362178 0.924317 17.712370 -6.318190 -1.002425 1.601396 -14.664782 -26.019169 80.046295 0.000000 0.000000 0.000000 19.491453 -12.219607 -46.103540 23.253351 -3.956929 4.228488 88.302465 -38.408903 16.823910 0.000000 0.000000 0.000000 4.508487 -0.734107 6.253294 1.887497 0.814623 1.950378 0.000000 0.000000 0.000000 -1.890336 0.132931 -4.768242 -4.588833 2.175857 5.126937 0.000000 0.000000 0.000000
-8.360070 59.999447 -3.821218 1.602503 0.006569 0.304634 1.602503 0.006569 0.304634 0.286016 1.850957 4.351763 0.689999 3.335809 3.480553 5.000000 0.000000 0.000000 -0.496822 1.608444 21.931891 -6.402805 -0.788668 0.964614 6.618568 -31.885952 66.182543 0.000000 0.000000 0.000000 22.546144 -12.494601 -46.576800 26.774421 -3.274105 2.336215 117.648754 -25.465726 -2.223411 0.000000 0.000000 0.000000 5.197584 -0.889396 6.155499 1.375307 0.861897 2.190184 0.000000 0.000000 0.000000 -1.191511 0.168274 -5.845590 -4.872498 2.207116 4.954633 0.000000 0.000000 0.000000
-7.730229 59.997058 -5.799540 1.738711 0.059528 0.482772 1.738711 0.059528 0.482772 0.365236 2.089846 4.932282 0.659604 3.667781 3.806698 5.000000 0.000000 0.000000 2.259536 2.207095 24.812921 -6.139731 -0.519924 0.300917 53.293192 -32.396738 34.500981 0.000000 0.000000 0.000000 24.955217 -12.697721 -47.209838 31.935738 -2.444570 -0.016743 125.881110 -11.238299 -5.327590 0.000000 0.000000 0.000000 5.722683 -1.009153 5.999084 0.576450 0.784287 2.110839 0.000000 0.000000 0.000000 1.432255 0.246930 -6.493110 -3.653226 1.846573 4.695617 0.000000 0.000000 0.000000
-7.211356 59.994985 -8.501816 1.310011 -0.064113 0.033980 1.310011 -0.064113 0.033980 0.080373 2.256981 5.168935 0.301059 3.766207 3.793772 5.000000 0.000000 0.000000 5.096814 2.598210 25.733623 -1.732983 0.098314 -0.478218 85.759947 -24.561828 14.429428 0.000000 0.000000 0.000000 22.489193 -12.494625 -47.834340 32.790306 -0.852434 -3.193258 84.067833 20.327795 -16.832155 0.000000 0.000000 0.000000 3.386034 -0.489505 5.735838 0.202582 0.641446 1.762922 0.000000 0.000000 0.000000 5.717569 0.380951 -6.727893 -1.292799 1.071123 3.803501 0.000000 0.000000 0.000000
-6.810377 59.993284 -10.383270 1.717925 -0.528496 -1.249435 1.717925 -0.528496 -1.249435 -0.213996 2.414135 5.375597 -0.057939 4.005124 3.921013 5.000000 0.000000 0.000000 9.563376 3.129976 25.538512 3.777706 0.765610 -1.013001 90.570803 -23.818383 12.588265 0.000000 0.000000 0.000000 16.021381 -12.029997 -47.736243 25.110285 1.517199 -7.651746 -150.839310 2.932696 -4.915068 0.000000 0.000000 0.000000 2.900685 -0.392125 5.215830 1.066317 0.363843 0.791772 0.000000 0.000000 0.000000 10.183794 0.566031 -7.318980 1.508223 0.324001 3.410215 0.000000 0.000000 0.000000
-6.638160 59.992440 -10.899152 0.786881 -0.899939 -2.433067 0.786881 -0.899939 -2.433067 -0.699812 2.318403 4.934029 -0.513789 3.876042 3.661891 5.000000 0.000000 0.000000 14.287808 3.724470 24.785228 6.347643 1.083016 -1.198629 91.254696 -23.225112 12.162140 0.000000 0.000000 0.000000 8.842300 -11.612306 -48.678952 13.219415 2.724701 -10.768076 -39.028402 -9.964830 -72.084513 0.000000 0.000000 0.000000 2.590739 -0.344020 4.386623 1.144621 0.109742 0.041407 0.000000 0.000000 0.000000 9.124033 0.665683 -8.460932 0.740439 0.411532 2.923958 0.000000 0.000000 0.000000
-6.484858 59.991510 -11.639254 -2.748437 -0.873109 -2.707706 -2.748437 -0.873109 -2.707706 -1.203261 2.173321 4.402458 -0.892717 3.462173 3.161382 5.000000 0.000000 0.000000 16.480649 4.060789 23.689480 6.841804 1.241581 -1.414912 91.929592 -22.734009 11.789153 0.000000 0.000000 0.000000 4.126559 -11.484815 -50.123742 9.547449 2.962053 -11.869592 -57.318696 -14.374003 -53.070081 0.000000 0.000000 0.000000 2.371050 -0.330132 3.003105 0.444034 -0.140443 -0.507957 0.000000 0.000000 0.000000 9.510755 0.785434 -9.366584 1.329158 0.190282 2.466832 0.000000 0.000000 0.000000
-6.355789 59.990770 -12.565306 -6.322353 -0.828275 -2.903836 -6.322353 -0.828275 -2.903836 -1.436859 2.048334 4.050447 -0.918864 3.156422 2.870847 5.000000 0.000000 0.000000 15.221232 3.962646 22.474254 6.767032 1.267799 -1.477292 90.397736 -23.124286 12.381390 0.000000 0.000000 0.000000 3.491834 -11.440262 -50.106367 8.564539 2.977255 -12.056993 -58.285077 -5.148291 -27.051606 0.000000 0.000000 0.000000 2.563716 -0.390298 1.963344 0.414469 -0.320893 -1.016161 0.000000 0.000000 0.000000 10.026686 0.805531 -9.308440 1.947079 0.087203 2.657731 0.000000 0.000000 0.000000
-6.172309 59.990196 -13.301337 -6.718541 -0.932426 -3.180087 -6.718541 -0.932426 -3.180087 -1.486952 1.935516 3.806944 -0.989519 2.938399 2.653172 5.000000 0.000000 0.000000 13.601885 3.764898 21.824475 6.465934 1.224103 -1.448377 90.354958 -23.925382 12.695530 0.000000 0.000000 0.000000 2.523978 -11.120027 -48.621854 7.708823 2.941615 -12.063389 -35.473063 0.449581 -15.271529 0.000000 0.000000 0.000000 3.854232 -0.637023 1.658956 0.600456 -0.461914 -1.459552 0.000000 0.000000 0.000000 11.297317 0.883876 -9.431173 1.781455 0.157019 2.832632 0.000000 0.000000 0.000000
-5.886711 59.990393 -13.899210 -7.263447 -1.046156 -3.485939 -7.263447 -1.046156 -3.485939 -1.796300 1.840974 3.503995 -1.290852 2.724995 2.385155 5.000000 0.000000 0.000000 14.367810 3.885172 21.726622 6.731892 1.206089 -1.367152 89.577712 -24.177148 13.036441 0.000000 0.000000 0.000000 1.953792 -10.856376 -47.376494 7.633752 2.989873 -12.242398 -42.047264 -0.596027 -18.641006 0.000000 0.000000 0.000000 6.527117 -1.127718 1.718979 -0.383903 -0.830006 -2.219959 0.000000 0.000000 0.000000 14.031686 0.990400 -9.196218 0.836046 0.389255 2.929980 0.000000 0.000000 0.000000
-5.427739 59.990195 -14.093206 -7.673131 -1.051759 -3.525149 -7.673131 -1.051759 -3.525149 -1.912456 1.824299 3.430851 -1.434207 2.693495 2.323923 5.000000 0.000000 0.000000 15.090502 3.996890 21.690717 6.730684 1.248721 -1.446396 93.380339 -21.562940 10.990692 0.000000 0.000000 0.000000 1.471152 -11.211950 -49.453970 7.642854 3.003750 -12.289039 -62.783592 -7.656682 -31.200436 0.000000 0.000000 0.000000 8.350647 -1.456147 1.347073 -0.668007 -0.943662 -2.451244 0.000000 0.000000 0.000000 16.733874 1.113696 -9.108000 1.224437 0.339875 3.134143 0.000000 0.000000 0.000000
-4.885921 59.990224 -13.762625 -7.671664 -0.994256 -3.389226 -7.671664 -0.994256 -3.389226 -1.877157 1.843172 3.479978 -1.429532 2.793388 2.414899 5.000000 0.000000 0.000000 14.692113 3.955605 21.306649 6.856845 1.344090 -1.603643 93.312908 -20.542969 10.684084 0.000000 0.000000 0.000000 1.087615 -12.070370 -54.077716 7.492224 2.875352 -11.867583 0.000000 0.000000 0.000000 0.000000 0.000000 0.000000 7.885940 -1.352393 0.627393 -0.439947 -0.808174 -2.147102 0.000000 0.000000 0.000000 15.208566 1.091309 -9.430990 0.836568 0.488119 3.438785 0.000000 0.000000 0.000000
-4.372963 59.990225 -13.207250 -6.828572 -0.822404 -2.921375 -6.828572 -0.822404 -2.921375 -1.895186 1.887761 3.560954 -1.624245 2.901497 2.467315 5.000000 0.000000 0.000000 12.518375 3.639781 20.975375 5.787836 1.249163 -1.615138 91.695586 -21.590770 11.459170 0.000000 0.000000 0.000000 1.451562 -12.516864 -56.487935 9.196676 2.561624 -10.716131 -10.535558 18.327693 -81.028023 0.000000 0.000000 0.000000 7.038804 -1.200077 0.324596 -0.778451 -0.831278 -2.113510 0.000000 0.000000 0.000000 14.879596 1.179148 -10.079355 0.362112 0.684648 3.882178 0.000000 0.000000 0.000000
-3.927883 59.990115 -12.476591 -5.408755 -0.565258 -2.176756 -5.408755 -0.565258 -2.176756 -1.977117 1.869994 3.496419 -1.947049 2.927109 2.415275 5.000000 0.000000 0.000000 9.186059 3.106624 21.549772 3.983784 1.043506 -1.536962 87.583951 -22.264743 12.871520 0.000000 0.000000 0.000000 5.548874 -12.543528 -56.686165 15.772365 1.928536 -8.695576 125.808980 -19.777596 -5.173764 0.000000 0.000000 0.000000 4.544676 -0.766554 0.192532 -2.073175 -0.898754 -1.918756 0.000000 0.000000 0.000000 14.364661 1.220270 -10.517060 0.110922 0.765813 3.994919 0.000000 0.000000 0.000000
-3.569313 59.990204 -11.555628 -3.192085 -0.431179 -1.600441 -3.192085 -0.431179 -1.600441 -1.716235 1.732166 3.310185 -1.788531 2.831820 2.366305 5.000000 0.000000 0.000000 6.165846 2.642407 21.899379 0.735350 0.676189 -1.380204 76.090655 -26.618519 18.967636 0.000000 0.000000 0.000000 13.872593 -12.581044 -56.727975 26.687413 0.722595 -5.606929 126.233916 -9.877169 -5.396870 0.000000 0.000000 0.000000 2.527690 -0.412439 0.556284 -2.170641 -0.919989 -1.947477 0.000000 0.000000 0.000000 14.149377 1.187506 -10.388623 -0.471756 0.820948 3.586675 0.000000 0.000000 0.000000
-3.336961 59.990275 -10.516918 -0.785184 -0.345056 -1.073131 -0.785184 -0.345056 -1.073131 -1.047113 1.532049 3.129334 -1.206428 2.641953 2.328830 5.000000 0.000000 0.000000 3.844617 2.272122 21.440631 -1.550374 0.345351 -1.086647 76.225099 -27.690413 19.594428 0.000000 0.000000 0.000000 19.628490 -12.486444 -54.885972 27.549133 -0.683695 -2.561566 6.057370 30.239313 -76.388745 0.000000 0.000000 0.000000 1.513639 -0.203286 1.362673 -1.550491 -0.792442 -1.776489 0.000000 0.000000 0.000000 13.046594 1.090062 -10.173498 -0.999754 0.842033 3.081958 0.000000 0.000000 0.000000
-3.174440 59.990250 -9.686736 2.111725 -0.440193 -0.931339 2.111725 -0.440193 -0.931339 -0.428005 1.435749 3.133058 -0.622264 2.626401 2.445493 5.000000 0.000000 0.000000 2.404672 1.963205 20.134802 -2.357295 0.176879 -0.829868 51.401921 -31.620469 34.710607 0.000000 0.000000 0.000000 18.686159 -11.979723 -49.263572 19.852388 -1.174231 -0.651111 -15.961102 11.370077 -77.892910 0.000000 0.000000 0.000000 0.059501 0.113472 2.775761 -1.031215 -0.449779 -0.976864 0.000000 0.000000 0.000000 11.288638 0.942460 -9.850969 -0.979904 0.849521 3.135352 0.000000 0.000000 0.000000
-2.996210 59.989647 -8.809339 4.372211 -0.551233 -0.920437 4.372211 -0.551233 -0.920437 -0.466118 1.438239 3.125446 -0.755843 2.646312 2.434058 5.000000 0.000000 0.000000 0.110810 1.388912 17.393226 -5.144065 -0.161058 -0.534590 34.444053 -32.883825 46.495500 0.000000 0.000000 0.000000 11.632121 -10.095644 -36.994846 11.302730 -0.614340 -0.728107 -40.094639 -3.018033 -37.861325 0.000000 0.000000 0.000000 0.419602 0.091088 3.992758 -0.054227 0.024229 0.092930 0.000000 0.000000 0.000000 10.043688 0.851710 -9.682800 -1.483119 1.089417 3.713807 0.000000 0.000000 0.000000
-2.814467 59.989460 -8.096789 6.182053 -0.622642 -0.854027 6.182053 -0.622642 -0.854027 -0.389633 1.438584 3.151994 -0.849630 2.555864 2.329401 5.000000 0.000000 0.000000 -0.257730 1.015779 13.491407 -5.483635 -0.284588 -0.273157 23.094609 -32.498751 53.865683 0.000000 0.000000 0.000000 5.577338 -6.726697 -20.631818 3.815643 0.262718 -2.109656 -59.200363 -4.242458 -23.628421 0.000000 0.000000 0.000000 1.372716 -0.080609 4.603788 0.758385 0.363468 0.859827 0.000000 0.000000 0.000000 9.092953 0.793770 -9.606460 -1.872032 1.299290 4.250664 0.000000 0.000000 0.000000
-2.685215 59.989355 -7.476388 6.373826 -0.564434 -0.626300 6.373826 -0.564434 -0.626300 -0.617419 1.491059 3.187327 -1.171165 2.399575 2.114244 5.000000 0.000000 0.000000 -0.389022 0.821139 11.432194 -5.558208 -0.289517 -0.272763 20.789713 -32.340701 55.354127 0.000000 0.000000 0.000000 2.729141 -4.143071 -11.881576 0.761754 0.763481 -3.480379 -61.464520 -2.370445 -16.792905 0.000000 0.000000 0.000000 1.260344 -0.058613 4.562463 0.612039 0.484208 1.241487 0.000000 0.000000 0.000000 6.299939 0.621595 -9.339195 -2.077845 1.482721 4.860644 0.000000 0.000000 0.000000
-2.739759 59.991034 -7.035746 5.772854 -0.458531 -0.377076 5.772854 -0.458531 -0.377076 -0.951354 1.572861 3.247506 -1.474481 2.302175 1.962653 5.000000 0.000000 0.000000 -0.898422 0.702189 11.380349 -5.112474 -0.200278 -0.421965 35.864340 -32.670512 45.286684 0.000000 0.000000 0.000000 1.167346 -2.679744 -8.653670 1.762768 0.830750 -3.916563 -56.337286 -3.347873 -22.273967 0.000000 0.000000 0.000000 0.844380 0.023126 4.420154 0.863713 0.510401 1.264557 0.000000 0.000000 0.000000 4.952914 0.517953 -8.798677 -1.553913 1.365836 4.924413 0.000000 0.000000 0.000000
-2.963527 59.992371 -6.617613 4.158901 -0.372838 -0.372912 4.158901 -0.372838 -0.372912 -1.535772 1.671623 3.250711 -1.998884 2.259111 1.821376 5.000000 0.000000 0.000000 -2.992245 0.426521 13.473588 -4.329683 0.014569 -0.821652 21.013442 -31.217562 53.586817 0.000000 0.000000 0.000000 -0.962874 -0.551252 -4.078860 2.484877 0.907479 -4.394858 -60.843359 -0.041024 -9.658676 0.000000 0.000000 0.000000 0.594461 0.070938 4.293606 0.756274 0.617494 1.601619 0.000000 0.000000 0.000000 3.566866 0.371216 -7.857190 -0.195720 1.053119 5.065119 0.000000 0.000000 0.000000
-3.100779 59.994058 -5.753372 0.514944 -0.323922 -0.807509 0.514944 -0.323922 -0.807509 -2.912391 1.882939 3.213735 -3.194386 2.257230 1.593735 5.000000 0.000000 0.000000 -5.753025 0.364524 18.351858 -3.495120 0.345878 -1.426899 42.069178 -31.595802 40.051863 0.000000 0.000000 0.000000 -1.007024 -0.000183 -2.081122 -2.145854 1.123426 -4.795484 -62.389132 -0.629488 -11.253793 0.000000 0.000000 0.000000 2.321516 -0.287042 4.343585 1.415792 0.855471 2.166654 0.000000 0.000000 0.000000 7.997139 0.465301 -7.082002 0.600616 0.991828 5.739656 0.000000 0.000000 0.000000
-2.993356 59.994823 -4.301647 -3.408759 -0.371869 -1.474956 -3.408759 -0.371869 -1.474956 -3.748753 1.927670 3.043453 -3.856517 1.938493 1.216217 5.000000 0.000000 0.000000 -4.804356 1.539473 27.017776 0.306134 1.169137 -2.496790 79.677099 -22.479588 15.325896 0.000000 0.000000 0.000000 0.247401 -0.658878 -1.987075 -2.130459 1.139956 -4.886386 -62.763267 -1.549738 -13.936676 0.000000 0.000000 0.000000 3.649779 -0.564634 4.326026 1.772028 1.130221 2.904061 0.000000 0.000000 0.000000 11.796169 0.540392 -6.686979 -0.251767 1.254424 5.967813 0.000000 0.000000 0.000000
-2.742599 59.996053 -1.894065 -4.401147 -0.797976 -2.651546 -4.401147 -0.797976 -2.651546 -3.693902 1.538904 2.403126 -3.677931 1.068269 0.562258 5.000000 0.000000 0.000000 -2.796962 2.502319 36.098848 2.149209 2.029038 -3.788986 104.301780 -0.443285 5.084215 0.000000 0.000000 0.000000 0.536950 -0.837172 -2.072408 -0.630898 1.042425 -4.582467 -53.976322 -7.060998 -36.875188 0.000000 0.000000 0.000000 3.581806 -0.551045 4.295774 0.846869 1.473282 4.043851 0.000000 0.000000 0.000000 11.078156 0.499430 -6.529949 -0.878288 1.376710 5.786872 0.000000 0.000000 0.000000
-2.599815 59.998232 0.547329 -5.258832 -1.396669 -4.204682 -5.258832 -1.396669 -4.204682 -4.265256 0.929657 1.232905 -4.025237 0.153547 -0.194587 5.000000 0.000000 0.000000 1.992199 3.287496 45.126212 4.909979 2.822625 -4.650312 106.204770 12.274668 3.710857 0.000000 0.000000 0.000000 0.834365 -1.278005 -3.165901 0.852591 0.945020 -4.307221 -38.413992 -4.496656 -50.979991 0.000000 0.000000 0.000000 3.296469 -0.494711 4.122089 -1.139593 1.629089 4.744978 0.000000 0.000000 0.000000 11.301684 0.499472 -6.484003 -2.409358 1.667322 5.339637 0.000000 0.000000 0.000000
-2.450548 59.999397 1.959072 -5.582230 -1.870541 -5.370966 -5.582230 -1.870541 -5.370966 -4.621427 0.377416 0.253730 -4.511219 -0.406888 -0.666484 5.000000 0.000000 0.000000 4.541546 3.334447 51.598303 5.044319 2.838775 -4.661360 105.703847 12.119933 3.641168 0.000000 0.000000 0.000000 0.380789 -1.720976 -5.954033 0.233946 0.866935 -3.866327 -39.181540 -12.762913 -78.716048 0.000000 0.000000 0.000000 3.317022 -0.503355 3.773431 -3.190440 1.468048 4.537894 0.000000 0.000000 0.000000 12.014224 0.533801 -6.607517 -4.922546 2.130666 4.607259 0.000000 0.000000 0.000000
-2.278582 60.000041 1.698671 -5.703290 -2.388544 -6.640096 -5.703290 -2.388544 -6.640096 -4.639680 -0.063656 -0.481492 -4.558214 -0.727717 -0.915250 5.000000 0.000000 0.000000 10.740874 2.602489 55.318682 9.612903 2.912140 -3.845893 114.172722 14.234519 5.083191 0.000000 0.000000 0.000000 1.041997 -2.865761 -9.575114 -0.810448 0.789672 -3.347058 -22.007357 6.713411 -86.272919 0.000000 0.000000 0.000000 4.767045 -0.795420 3.200130 -3.867758 1.189858 3.869108 0.000000 0.000000 0.000000 13.395325 0.511060 -6.115881 -6.072370 2.220436 3.836162 0.000000 0.000000 0.000000
-2.203215 60.000585 1.171288 -4.998396 -2.619172 -7.209794 -4.998396 -2.619172 -7.209794 -4.312929 -0.364778 -0.970433 -4.259339 -0.897589 -1.035105 5.000000 0.000000 0.000000 19.025948 1.377630 56.143742 17.953453 2.918586 -2.302790 116.897911 14.018941 5.622401 0.000000 0.000000 0.000000 3.396652 -4.845176 -14.142760 -0.901218 0.586685 -2.369960 -3.924227 23.976496 -79.576229 0.000000 0.000000 0.000000 8.960218 -1.621778 2.952287 -1.844809 0.972627 3.039459 0.000000 0.000000 0.000000 12.139845 0.444551 -5.522619 -8.140192 2.666421 3.637466 0.000000 0.000000 0.000000
-2.410349 60.000780 0.427288 -4.576304 -2.498806 -6.919452 -4.576304 -2.498806 -6.919452 -3.636227 -0.465376 -1.126388 -3.765426 -0.978983 -1.084570 5.000000 0.000000 0.000000 19.513819 1.290924 56.395177 21.512363 1.753756 -0.015791 117.745948 1.351626 5.369037 0.000000 0.000000 0.000000 5.915947 -6.787193 -20.046385 -1.077726 0.355584 -1.284622 20.977846 29.710799 -61.629890 0.000000 0.000000 0.000000 10.207129 -1.860822 2.797154 -1.345618 0.728102 2.280499 0.000000 0.000000 0.000000 3.834716 0.159476 -4.112235 -8.757517 2.644292 3.014071 0.000000 0.000000 0.000000
-2.842812 60.001389 -0.367926 -4.289646 -2.145667 -6.038275 -4.289646 -2.145667 -6.038275 -2.777864 -0.450141 -1.093924 -2.774169 -1.002442 -1.081306 5.000000 0.000000 0.000000 15.683467 1.831708 57.587328 19.516138 -0.277898 3.015150 127.259609 -27.814431 0.914165 0.000000 0.000000 0.000000 10.714731 -9.031748 -24.595097 -0.257892 0.011532 -0.021154 58.414741 28.729320 -34.768683 0.000000 0.000000 0.000000 12.756008 -2.383113 3.114581 -0.193270 0.313665 0.941169 0.000000 0.000000 0.000000 2.163412 0.081006 -2.982114 -7.761409 2.289755 2.588630 0.000000 0.000000 0.000000
-3.367976 60.002723 -0.673592 -4.166980 -1.487340 -4.376423 -4.166980 -1.487340 -4.376423 -2.261629 -0.550218 -1.271861 -2.081100 -1.170833 -1.207831 5.000000 0.000000 0.000000 8.724158 2.930834 58.987533 12.957008 -2.307833 6.276177 0.000000 0.000000 0.000000 0.000000 0.000000 0.000000 14.259400 -10.097195 -24.944711 1.750834 -0.391230 1.009999 72.282257 25.721240 -25.113082 0.000000 0.000000 0.000000 14.035812 -2.708584 4.001626 -0.574399 -0.216202 -0.473318 0.000000 0.000000 0.000000 2.696117 0.029694 -2.019800 -7.590787 2.028898 1.763749 0.000000 0.000000 0.000000
-3.796679 60.002829 -0.452687 -4.058858 -0.592356 -2.134559 -4.058858 -0.592356 -2.134559 -1.731679 -0.413313 -0.979259 -1.592949 -1.130679 -1.156385 5.000000 0.000000 0.000000 1.967280 4.078076 58.723120 6.257045 -3.416813 8.458365 -115.388155 2.837412 10.707137 0.000000 0.000000 0.000000 15.916510 -10.487275 -23.863422 4.220728 -0.696361 1.383436 77.960416 25.594604 -22.677049 0.000000 0.000000 0.000000 14.413459 -2.832452 4.858640 0.124021 -0.455789 -1.330186 0.000000 0.000000 0.000000 1.819261 0.018649 -1.536089 -6.409118 1.614827 1.180214 0.000000 0.000000 0.000000
-4.083928 60.001407 -0.475114 -4.843430 0.188723 -0.293788 -4.843430 0.188723 -0.293788 -0.949935 -0.076877 -0.235026 -0.868212 -0.786755 -0.812530 5.000000 0.000000 0.000000 -0.806102 4.452754 57.125255 6.733091 -3.694752 9.076081 -58.384335 6.549899 46.480595 0.000000 0.000000 0.000000 17.142809 -10.800292 -23.206419 6.415657 -0.851427 1.269978 82.167348 24.740359 -20.421105 0.000000 0.000000 0.000000 8.277943 -1.549137 5.945458 0.152529 -0.410875 -1.225975 0.000000 0.000000 0.000000 -0.094534 0.044688 -1.368120 -4.542546 1.102263 0.746271 0.000000 0.000000 0.000000
-4.394682 60.000723 -0.909890 -6.132744 0.673118 0.699331 -6.132744 0.673118 0.699331 -0.283866 0.272436 0.585083 -0.189357 -0.393136 -0.402298 5.000000 0.000000 0.000000 -0.535910 4.313877 55.931405 7.138929 -3.784744 9.261074 -58.122981 6.653877 47.306362 0.000000 0.000000 0.000000 15.926979 -10.393365 -22.554884 6.106825 -0.772228 1.096707 75.862499 26.258969 -24.066352 0.000000 0.000000 0.000000 1.288977 0.003829 6.630389 -1.238653 -0.128312 -0.048167 0.000000 0.000000 0.000000 -1.423858 0.070352 -1.367023 -3.046547 0.810615 0.862667 0.000000 0.000000 0.000000
-4.725239 60.000591 -1.324811 -6.370521 0.785623 0.927651 -6.370521 0.785623 0.927651 -0.270431 0.498079 1.091040 -0.114510 0.007093 -0.003533 5.000000 0.000000 0.000000 -0.314501 4.187472 54.756134 6.593459 -3.735257 9.178142 -60.534719 5.447778 39.025944 0.000000 0.000000 0.000000 13.540003 -9.647127 -22.254475 4.785529 -0.605297 0.911785 63.652198 28.944753 -32.251247 0.000000 0.000000 0.000000 3.283251 -0.448446 7.062130 -0.086913 0.335247 0.996618 0.000000 0.000000 0.000000 -1.343334 0.060828 -1.004632 -2.851354 0.942030 1.628442 0.000000 0.000000 0.000000
-4.986679 60.000431 -1.655415 -7.097282 0.757856 0.738775 -7.097282 0.757856 0.738775 -0.479244 0.631481 1.346015 -0.153722 0.238167 0.220793 5.000000 0.000000 0.000000 -0.445867 4.052092 52.766015 6.189869 -3.722544 9.171004 -60.727048 5.538826 39.132783 0.000000 0.000000 0.000000 13.150423 -9.521562 -22.190670 4.987467 -0.570936 0.742545 54.292555 30.287115 -38.893432 0.000000 0.000000 0.000000 6.365497 -1.166938 7.545129 2.882740 0.773453 1.615806 0.000000 0.000000 0.000000 -1.002996 0.040331 -0.415489 -2.794012 1.102159 2.393277 0.000000 0.000000 0.000000
-5.161937 59.999986 -1.785310 -7.699554 0.749351 0.618848 -7.699554 0.749351 0.618848 -0.682730 0.775976 1.620978 -0.119227 0.430869 0.414045 5.000000 0.000000 0.000000 -0.276484 3.830395 50.101171 6.131919 -3.787192 9.323977 -61.257827 5.735734 39.209209 0.000000 0.000000 0.000000 13.377670 -9.590178 -22.176069 6.124469 -0.635446 0.656465 54.200624 30.600440 -39.322583 0.000000 0.000000 0.000000 11.283475 -2.328601 7.371981 5.303782 0.854932 1.349344 0.000000 0.000000 0.000000 -0.766814 0.031378 -0.306675 -2.863280 1.177772 2.659068 0.000000 0.000000 0.000000
-5.533271 59.999586 -2.192956 -7.811943 0.789379 0.692652 -7.811943 0.789379 0.692652 -0.687528 0.839019 1.756697 -0.084707 0.535884 0.521363 5.000000 0.000000 0.000000 0.069001 3.569508 47.030873 6.004655 -3.825590 9.418460 0.000000 0.000000 0.000000 0.000000 0.000000 0.000000 13.290806 -9.531483 -21.823591 6.969013 -0.678727 0.580436 64.654315 30.006336 -32.838598 0.000000 0.000000 0.000000 13.634336 -2.861990 7.104098 5.955074 0.864861 1.229565 0.000000 0.000000 0.000000 -1.032205 0.040976 -0.401207 -2.807304 1.195561 2.794288 0.000000 0.000000 0.000000
-6.147930 59.999718 -3.158486 -7.649599 0.815276 0.778922 -7.649599 0.815276 0.778922 -0.685720 0.815540 1.706258 -0.092761 0.575021 0.558965 5.000000 0.000000 0.000000 0.503603 3.355869 44.232304 5.997428 -3.553864 8.826321 -59.457174 2.429638 27.071520 0.000000 0.000000 0.000000 13.277400 -9.469951 -21.296446 7.579717 -0.711415 0.529873 62.778888 30.411305 -34.266553 0.000000 0.000000 0.000000 16.819287 -3.579075 6.762647 7.003915 0.931902 1.204111 0.000000 0.000000 0.000000 -1.833124 0.063301 -0.425551 -2.863121 1.278722 3.103217 0.000000 0.000000 0.000000
-6.894714 60.000189 -4.147693 -7.394179 0.843882 0.888160 -7.394179 0.843882 0.888160 -0.693615 0.757728 1.578855 -0.124325 0.557119 0.537525 5.000000 0.000000 0.000000 1.899539 3.128762 40.213646 7.919650 -2.745574 7.094060 0.000000 0.000000 0.000000 0.000000 0.000000 0.000000 12.182894 -8.868809 -19.216083 6.712323 -0.586807 0.342619 32.395843 30.587108 -53.761285 0.000000 0.000000 0.000000 17.166274 -3.645620 6.632480 6.631425 0.887949 1.144676 0.000000 0.000000 0.000000 -2.796946 0.089794 -0.436074 -3.262459 1.438630 3.392350 0.000000 0.000000 0.000000
-7.396072 60.000474 -4.853540 -6.715222 0.849969 1.020009 -6.715222 0.849969 1.020009 -0.626551 0.686668 1.437807 -0.110091 0.517393 0.499984 5.000000 0.000000 0.000000 4.946854 2.894254 32.969545 12.486503 -1.371986 4.253174 0.000000 0.000000 0.000000 0.000000 0.000000 0.000000 9.301352 -7.275782 -14.916904 5.309428 -0.386877 0.033389 15.030232 28.826379 -65.647127 0.000000 0.000000 0.000000 15.556774 -3.278821 6.718154 5.781117 0.834735 1.171265 0.000000 0.000000 0.000000 -3.874676 0.119329 -0.370416 -3.981923 1.626556 3.469306 0.000000 0.000000 0.000000
-7.600327 60.000122 -5.222134 -5.238029 0.797521 1.157105 -5.238029 0.797521 1.157105 -0.358941 0.601780 1.306276 0.032336 0.465880 0.465712 5.000000 0.000000 0.000000 6.704111 2.697678 22.960697 11.656003 -0.234761 1.973907 0.000000 0.000000 0.000000 0.000000 0.000000 0.000000 6.942902 -5.174241 -8.128938 5.169069 -0.306303 -0.213428 4.802809 26.063729 -71.943456 0.000000 0.000000 0.000000 12.231009 -2.523762 7.002603 6.240663 0.946425 1.439947 0.000000 0.000000 0.000000 -4.598492 0.140902 -0.131230 -3.837185 1.619154 3.584126 0.000000 0.000000 0.000000
-7.572519 60.000246 -5.265905 -3.616499 0.697833 1.207691 -3.616499 0.697833 1.207691 0.016225 0.540515 1.245698 0.223227 0.430397 0.452791 5.000000 0.000000 0.000000 5.114344 2.143490 13.855711 6.977412 0.200827 0.553601 94.273790 -20.541027 10.437726 0.000000 0.000000 0.000000 4.502815 -2.653191 -0.560089 3.165774 -0.248040 0.109872 43.194471 30.007294 -45.396834 0.000000 0.000000 0.000000 7.151753 -1.350852 7.361067 6.035430 1.064550 1.884845 0.000000 0.000000 0.000000 -4.580128 0.146738 0.403278 -3.431944 1.554523 3.722955 0.000000 0.000000 0.000000
-7.559046 60.000461 -4.798245 -3.252237 0.643124 1.137469 -3.252237 0.643124 1.137469 0.262449 0.537694 1.290023 0.412027 0.486543 0.531520 5.000000 0.000000 0.000000 2.360486 1.046912 4.877261 0.036702 0.243034 -0.592136 0.000000 0.000000 0.000000 0.000000 0.000000 0.000000 4.901423 -1.940184 3.834993 1.529217 -0.445541 1.345845 74.922771 22.541806 -21.409845 0.000000 0.000000 0.000000 2.254489 -0.197071 7.396931 4.882474 1.045948 2.067646 0.000000 0.000000 0.000000 -5.242378 0.176354 1.014625 -3.017861 1.497286 3.903141 0.000000 0.000000 0.000000
-7.724221 60.000657 -4.229643 -3.576616 0.728143 1.293071 -3.576616 0.728143 1.293071 0.330225 0.562423 1.362264 0.495919 0.574354 0.631015 5.000000 0.000000 0.000000 0.026315 -0.165141 -1.789220 -3.917747 0.297777 -1.451298 0.000000 0.000000 0.000000 0.000000 0.000000 0.000000 4.371722 -1.613634 3.845557 -0.445345 -0.539820 2.356473 88.027661 13.081167 -11.662497 0.000000 0.000000 0.000000 0.734496 0.152121 7.162314 4.057374 1.105389 2.419748 0.000000 0.000000 0.000000 -5.595470 0.191202 1.109160 -3.175564 1.505443 3.773888 0.000000 0.000000 0.000000
-8.058597 60.000937 -3.671116 -3.636367 0.832979 1.548607 -3.636367 0.832979 1.548607 0.423949 0.554373 1.363213 0.631529 0.586712 0.660632 5.000000 0.000000 0.000000 -1.836125 -1.163556 -4.929768 -3.671448 0.508415 -1.919399 0.000000 0.000000 0.000000 0.000000 0.000000 0.000000 2.993768 -0.653542 4.383755 -0.501694 -0.646299 2.796370 92.473231 5.975296 -7.629261 0.000000 0.000000 0.000000 -1.535353 0.668156 6.859192 2.819382 1.199771 2.940205 0.000000 0.000000 0.000000 -5.976010 0.199051 0.839633 -3.143478 1.468128 3.644882 0.000000 0.000000 0.000000
-8.391945 60.001367 -3.300905 -3.706857 0.869292 1.626582 -3.706857 0.869292 1.626582 0.309672 0.533766 1.290880 0.608047 0.569502 0.640116 5.000000 0.000000 0.000000 -4.276715 -2.165203 -4.989790 -3.657784 0.472882 -1.831845 91.453906 -11.879942 8.328237 0.000000 0.000000 0.000000 2.316693 -0.088424 4.947745 -0.601650 -0.704655 3.063970 92.676735 4.914010 -7.140516 0.000000 0.000000 0.000000 -4.101473 1.251037 6.678175 1.280819 1.253767 3.356672 0.000000 0.000000 0.000000 -7.617210 0.248781 0.394820 -3.120287 1.490352 3.763209 0.000000 0.000000 0.000000
-8.569355 60.001455 -3.165608 -4.642011 0.921759 1.573582 -4.642011 0.921759 1.573582 -0.403190 0.582258 1.255546 0.106590 0.602081 0.610083 5.000000 0.000000 0.000000 -5.815129 -2.743259 -4.616960 -3.114221 0.463452 -1.688687 90.497870 -12.231950 8.572369 0.000000 0.000000 0.000000 1.320792 0.865128 6.227135 -1.036133 -0.709500 3.260149 93.577673 -0.371788 -4.814467 0.000000 0.000000 0.000000 -6.411480 1.780169 6.613475 0.342449 1.361342 3.815003 0.000000 0.000000 0.000000 -9.232312 0.303338 0.368668 -3.851863 1.691324 3.873336 0.000000 0.000000 0.000000
-8.591564 60.001471 -3.168716 -5.420429 0.969353 1.539861 -5.420429 0.969353 1.539861 -0.712139 0.595480 1.223161 -0.195576 0.634065 0.604313 5.000000 0.000000 0.000000 -5.276173 -2.373410 -3.535700 -3.811359 0.373443 -1.620590 86.317380 -17.541856 11.264596 0.000000 0.000000 0.000000 0.988684 1.300177 7.041591 -1.623809 -0.700281 3.467335 92.646016 1.705326 -5.713392 0.000000 0.000000 0.000000 -5.399470 1.549321 6.646873 1.021563 1.635151 4.514656 0.000000 0.000000 0.000000 -8.299045 0.269618 0.321134 -3.519539 1.657622 4.074678 0.000000 0.000000 0.000000
-8.461438 60.001275 -3.179422 -5.127145 0.950453 1.550094 -5.127145 0.950453 1.550094 -0.473039 0.565652 1.203511 -0.142975 0.632243 0.608999 5.000000 0.000000 0.000000 -4.586049 -1.995753 -2.719463 -3.908731 0.325436 -1.524052 87.034990 -17.548620 11.109691 0.000000 0.000000 0.000000 0.624607 1.567190 7.148017 -1.772776 -0.679255 3.447693 92.799810 1.365235 -5.562334 0.000000 0.000000 0.000000 -3.883363 1.198269 6.639103 1.544641 1.711983 4.677339 0.000000 0.000000 0.000000 -7.244572 0.231313 0.254617 -2.051420 1.351317 4.299995 0.000000 0.000000 0.000000
-8.348035 60.001346 -3.577805 -4.119417 0.883448 1.580059 -4.119417 0.883448 1.580059 0.013264 0.500578 1.151255 0.183039 0.603830 0.621197 5.000000 0.000000 0.000000 -3.426540 -1.473745 -2.120462 -2.986963 0.413329 -1.541049 89.980481 -14.872894 9.539056 0.000000 0.000000 0.000000 0.960662 1.288975 6.939812 -1.374404 -0.712487 3.412208 92.900922 3.713000 -6.597099 0.000000 0.000000 0.000000 -3.193201 1.030314 6.527179 1.772274 1.715778 4.662546 0.000000 0.000000 0.000000 -5.990449 0.191201 0.301159 0.434677 0.779979 4.455039 0.000000 0.000000 0.000000
-8.366826 60.001673 -4.469293 -2.677340 0.780303 1.604300 -2.677340 0.780303 1.604300 0.452138 0.432695 1.080401 0.473267 0.558023 0.611460 5.000000 0.000000 0.000000 -2.550196 -1.147008 -2.179449 -1.823112 0.521262 -1.555047 93.241842 -12.278285 8.203806 0.000000 0.000000 0.000000 1.299676 1.138311 7.194888 -0.694720 -0.737482 3.227304 91.925265 7.255964 -8.255691 0.000000 0.000000 0.000000 -3.014499 0.980137 6.406495 2.201593 1.763384 4.754720 0.000000 0.000000 0.000000 -5.731869 0.181043 0.232444 0.947126 0.631521 4.333797 0.000000 0.000000 0.000000
-8.467914 60.003118 -5.597922 -1.229674 0.664322 1.592640 -1.229674 0.664322 1.592640 0.516241 0.434732 1.097327 0.507376 0.561071 0.618770 5.000000 0.000000 0.000000 -2.530269 -1.187648 -2.613535 -1.151151 0.536854 -1.452651 92.157060 -13.364638 8.687487 0.000000 0.000000 0.000000 0.672091 1.584028 7.321778 -0.659485 -0.684462 3.005004 88.435026 11.549576 -10.782776 0.000000 0.000000 0.000000 -2.976336 0.978707 6.508444 2.992766 1.770028 4.678427 0.000000 0.000000 0.000000 -5.936576 0.183428 0.053420 0.364527 0.714420 4.045651 0.000000 0.000000 0.000000
-8.512493 60.003303 -6.175658 0.153947 0.508066 1.449382 0.153947 0.508066 1.449382 0.302137 0.483418 1.169801 0.440618 0.610624 0.660916 5.000000 0.000000 0.000000 -2.804968 -1.340637 -3.043013 -1.750066 0.468850 -1.417544 92.253919 -12.275259 8.340468 0.000000 0.000000 0.000000 0.351640 1.702441 6.990352 -1.286066 -0.574846 2.824393 84.620653 15.277120 -13.571252 0.000000 0.000000 0.000000 -2.966962 0.992791 6.736377 3.919515 1.698874 4.335406 0.000000 0.000000 0.000000 -6.643475 0.198810 -0.231896 -0.849284 0.939298 3.722433 0.000000 0.000000 0.000000
