HIERARCHY
ROOT Hips
{
  OFFSET 0.000000 0.000000 0.000000
  CHANNELS 6 Xposition Yposition Zposition Xrotation Yrotation Zrotation
  JOINT Spine
  {
    OFFSET 0.762862 23.197727 -6.058858
    CHANNELS 3 Xrotation Yrotation Zrotation
    JOINT Chest
    {
      OFFSET 0.762862 23.197727 -6.058858
      CHANNELS 3 Xrotation Yrotation Zrotation
      JOINT Neck
      {
        OFFSET -0.270074 9.229822 -3.797407
        CHANNELS 3 Xrotation Yrotation Zrotation
        JOINT Head
        {
          OFFSET 0.225285 8.430608 -7.939136
          CHANNELS 3 Xrotation Yrotation Zrotation
          End Site
          {
            OFFSET 0.067585 2.529182 -2.381741
          }
        }
      }
      JOINT LeftShoulder
      {
        OFFSET 17.595006 0.044015 0.996102
        CHANNELS 3 Xrotation Yrotation Zrotation
        JOINT LeftArm
        {
          OFFSET 3.473531 -23.049457 3.982832
          CHANNELS 3 Xrotation Yrotation Zrotation
          JOINT LeftForeArm
          {
            OFFSET 3.218371 -22.980839 -10.241008
            CHANNELS 3 Xrotation Yrotation Zrotation
            JOINT LeftHand
            {
              OFFSET -0.008887 -5.924601 -2.989147
              CHANNELS 3 Xrotation Yrotation Zrotation
              End Site
              {
                OFFSET -0.002666 -1.777380 -0.896744
              }
            }
          }
        }
      }
      JOINT RightShoulder
      {
        OFFSET -17.595006 -0.044015 -0.996102
        CHANNELS 3 Xrotation Yrotation Zrotation
        JOINT RightArm
        {
          OFFSET -5.553442 -24.118242 6.751946
          CHANNELS 3 Xrotation Yrotation Zrotation
          JOINT RightForeArm
          {
            OFFSET -3.099014 -24.977112 -8.059516
            CHANNELS 3 Xrotation Yrotation Zrotation
            JOINT RightHand
            {
              OFFSET 0.298828 -5.701374 -2.573080
              CHANNELS 3 Xrotation Yrotation Zrotation
              End Site
              {
                OFFSET 0.089648 -1.710412 -0.771924
              }
            }
          }
        }
      }
    }
  }
  JOINT LeftUpLeg
  {
    OFFSET 11.990773 -0.614304 0.788698
    CHANNELS 3 Xrotation Yrotation Zrotation
    JOINT LeftLeg
    {
      OFFSET -5.144974 -41.347031 -0.530598
      CHANNELS 3 Xrotation Yrotation Zrotation
      JOINT LeftFoot
      {
        OFFSET 2.709190 -35.138144 18.775504
        CHANNELS 3 Xrotation Yrotation Zrotation
        End Site
        {
          OFFSET 0.812757 -10.541443 5.632651
        }
      }
    }
  }
  JOINT RightUpLeg
  {
    OFFSET -11.990773 0.614304 -0.788698
    CHANNELS 3 Xrotation Yrotation Zrotation
    JOINT RightLeg
    {
      OFFSET 0.284998 -37.357294 5.081156
      CHANNELS 3 Xrotation Yrotation Zrotation
      JOINT RightFoot
      {
        OFFSET 4.690763 -28.563407 28.545631
        CHANNELS 3 Xrotation Yrotation Zrotation
        End Site
        {
          OFFSET 1.407229 -8.569022 8.563689
        }
      }
    }
  }
}
MOTION
Frames: 96
Frame Time: 0.083333
0.000000 60.000000 0.000000 0.358990 0.013591 0.100002 0.358990 0.013591 0.100002 0.327291 0.070706 0.159093 0.285289 0.047998 0.061300 5.000000 0.000000 0.000000 0.231044 0.129908 0.565117 -0.461196 0.009041 -0.050243 94.255916 -8.078112 1.256979 0.000000 0.000000 0.000000 0.725345 -0.131334 0.132051 -0.370535 0.009425 -0.000790 89.999465 17.932466 -2.331655 0.000000 0.000000 0.000000 -1.338922 0.156503 -0.551493 0.217767 0.233345 0.410946 0.000000 0.000000 0.000000 -0.328080 0.118260 0.863176 3.573693 -0.010913 -0.771810 0.000000 0.000000 0.000000
-0.996446 60.000490 -0.276369 0.370270 0.013398 0.100766 0.370270 0.013398 0.100766 0.331783 0.071872 0.161870 0.289586 0.048786 0.062317 5.000000 0.000000 0.000000 0.248185 0.132174 0.569899 -0.287922 0.015220 -0.052714 93.413054 -7.485029 1.237995 0.000000 0.000000 0.000000 0.742418 -0.128463 0.160802 -0.294997 0.009598 -0.007216 88.795300 19.032206 -2.981272 0.000000 0.000000 0.000000 -1.364213 0.159097 -0.565995 0.228937 0.237468 0.417414 0.000000 0.000000 0.000000 -0.322059 0.121507 0.888098 3.700203 -0.012825 -0.801309 0.000000 0.000000 0.000000
-2.629133 60.001459 -0.666327 0.370709 0.013392 0.100801 0.370709 0.013392 0.100801 0.331940 0.071918 0.161980 0.289741 0.048813 0.062353 5.000000 0.000000 0.000000 0.733054 0.398497 1.751557 -0.310201 0.068347 -0.172161 94.599895 -4.781384 0.688620 0.000000 0.000000 0.000000 2.173488 -0.362645 0.530548 -0.614120 0.027378 -0.038239 88.649775 20.166558 -3.383520 0.000000 0.000000 0.000000 -1.365149 0.159185 -0.566608 0.229533 0.237594 0.417581 0.000000 0.000000 0.000000 -0.321758 0.121601 0.888852 3.704401 -0.012859 -0.802274 0.000000 0.000000 0.000000
-3.449131 60.002221 -0.866614 1.221683 0.017152 0.228483 1.221683 0.017152 0.228483 0.856665 0.183407 0.415859 0.752296 0.121848 0.157245 5.000000 0.000000 0.000000 1.141137 0.665836 3.059717 0.873996 0.196734 -0.371870 94.735541 0.147062 -0.099979 0.000000 0.000000 0.000000 3.342956 -0.540174 0.902761 -0.382693 0.037187 -0.086908 89.160343 19.606915 -3.062691 0.000000 0.000000 0.000000 -3.743450 0.423802 -1.682323 0.783761 0.662476 1.150759 0.000000 0.000000 0.000000 -0.359680 0.372516 2.749141 15.926655 -0.180004 -3.387704 0.000000 0.000000 0.000000
-3.837260 60.003081 -1.177071 2.150982 -0.017434 0.219728 2.150982 -0.017434 0.219728 1.065178 0.233909 0.541131 0.958540 0.150982 0.197660 5.000000 0.000000 0.000000 1.607621 0.930699 4.422376 2.581898 0.446238 -0.761653 96.404178 8.094466 -1.194923 0.000000 0.000000 0.000000 4.006820 -0.679966 0.971611 -0.105900 0.026111 -0.073411 89.019426 20.013940 -3.230084 0.000000 0.000000 0.000000 -5.227000 0.559504 -2.691598 1.619815 0.916446 1.535211 0.000000 0.000000 0.000000 0.443887 0.601271 4.530929 22.621482 -0.276495 -5.123450 0.000000 0.000000 0.000000
-4.167594 60.003749 -1.668055 2.521678 -0.022544 0.252836 2.521678 -0.022544 0.252836 1.119429 0.280735 0.665709 1.057286 0.188023 0.243699 5.000000 0.000000 0.000000 3.098510 1.248097 5.552331 6.148086 0.878208 -1.335769 99.594415 13.932119 -1.463951 0.000000 0.000000 0.000000 4.741390 -0.807436 1.164524 0.439653 -0.005107 -0.018574 0.000000 0.000000 0.000000 0.000000 0.000000 0.000000 -5.662425 0.583693 -3.206637 2.514018 0.858571 1.317488 0.000000 0.000000 0.000000 0.921441 0.633298 4.902683 24.302855 -0.286000 -5.605679 0.000000 0.000000 0.000000
-4.495794 60.004440 -2.224066 3.479699 -0.037149 0.335918 3.479699 -0.037149 0.335918 1.327217 0.325689 0.784754 1.287582 0.234156 0.306928 5.000000 0.000000 0.000000 4.869179 1.638897 7.166615 9.801783 1.288241 -1.778500 102.081204 16.451501 -1.207959 0.000000 0.000000 0.000000 4.969891 -0.770209 1.550391 1.090210 -0.050009 0.068731 0.000000 0.000000 0.000000 0.000000 0.000000 0.000000 -5.906978 0.592918 -3.592335 3.011443 0.728638 1.001752 0.000000 0.000000 0.000000 1.415629 0.671243 5.357299 24.840040 -0.348351 -5.852824 0.000000 0.000000 0.000000
-4.781167 60.005252 -2.617939 4.590670 -0.027363 0.558183 4.590670 -0.027363 0.558183 1.564465 0.363100 0.886198 1.566198 0.321863 0.421405 5.000000 0.000000 0.000000 5.841972 1.812719 7.942827 11.800211 1.554186 -2.056352 104.568563 15.945035 -0.669808 0.000000 0.000000 0.000000 4.520959 -0.520875 2.143641 1.006199 -0.088232 0.189556 0.000000 0.000000 0.000000 0.000000 0.000000 0.000000 -5.397506 0.555628 -3.322291 2.329665 0.469330 0.576315 0.000000 0.000000 0.000000 1.698014 0.777597 6.323266 23.497307 -0.628075 -5.885936 0.000000 0.000000 0.000000
-5.130251 60.005933 -2.787535 4.596305 0.096434 1.121247 4.596305 0.096434 1.121247 1.535598 0.413354 1.024928 1.619452 0.430006 0.549898 5.000000 0.000000 0.000000 7.142035 1.902666 7.839071 11.894147 1.631105 -2.174409 102.269119 16.715884 -1.187279 0.000000 0.000000 0.000000 4.080748 -0.254356 2.799204 1.091438 -0.128147 0.302518 0.000000 0.000000 0.000000 0.000000 0.000000 0.000000 -5.362979 0.554526 -3.256761 2.210514 0.442280 0.542284 0.000000 0.000000 0.000000 1.890495 0.855412 7.049990 23.347144 -0.601913 -5.795218 0.000000 0.000000 0.000000
-5.192196 60.006240 -2.319622 4.366617 0.273257 1.878062 4.366617 0.273257 1.878062 1.397557 0.461303 1.155601 1.547084 0.521000 0.651500 5.000000 0.000000 0.000000 6.564726 1.727766 6.723256 9.944246 1.349049 -1.869821 101.065961 10.653161 -0.933347 0.000000 0.000000 0.000000 3.953942 -0.121416 3.213607 0.765831 -0.147251 0.388406 0.000000 0.000000 0.000000 0.000000 0.000000 0.000000 -5.566727 0.576120 -3.200010 4.295245 0.679716 0.732699 0.000000 0.000000 0.000000 2.048512 0.880402 7.332709 24.712003 0.041199 -5.218858 0.000000 0.000000 0.000000
-4.947557 60.006787 -1.529512 4.162270 0.408478 2.440724 4.162270 0.408478 2.440724 1.332149 0.455430 1.137824 1.518728 0.511036 0.638005 5.000000 0.000000 0.000000 5.290918 1.396689 5.001106 6.860169 1.020281 -1.552994 97.642144 4.728687 -0.654820 0.000000 0.000000 0.000000 4.027442 -0.153493 3.159353 -0.202151 -0.147698 0.476461 0.000000 0.000000 0.000000 0.000000 0.000000 0.000000 -5.410241 0.590260 -2.450260 6.419545 0.804254 0.694240 0.000000 0.000000 0.000000 2.126713 0.886681 7.431868 23.825308 0.268675 -4.608459 0.000000 0.000000 0.000000
-4.709646 60.007034 -0.983216 3.908710 0.458008 2.599275 3.908710 0.458008 2.599275 1.292506 0.442086 1.100612 1.497370 0.519966 0.646978 5.000000 0.000000 0.000000 3.145190 0.983615 3.594032 3.164584 0.740773 -1.339020 95.611131 1.808933 -0.343199 0.000000 0.000000 0.000000 4.154710 -0.245629 2.915651 -1.449418 -0.130903 0.538472 0.000000 0.000000 0.000000 0.000000 0.000000 0.000000 -5.666622 0.698045 -0.519911 5.426428 0.731334 0.648578 0.000000 0.000000 0.000000 2.732512 0.898873 7.866419 24.918900 1.007330 -3.730327 0.000000 0.000000 0.000000
-4.588111 60.006119 -0.914841 3.603755 0.480833 2.624244 3.603755 0.480833 2.624244 1.260085 0.414528 1.025271 1.484997 0.464015 0.581454 5.000000 0.000000 0.000000 1.901913 0.718202 2.801465 0.852067 0.542747 -1.127501 0.000000 0.000000 0.000000 0.000000 0.000000 0.000000 4.000945 -0.294994 2.549942 -1.564470 -0.118920 0.511018 0.000000 0.000000 0.000000 0.000000 0.000000 0.000000 -6.445956 0.912022 2.456847 1.322492 0.821545 1.307692 0.000000 0.000000 0.000000 3.445030 0.934990 8.569047 25.785406 1.925570 -2.545989 0.000000 0.000000 0.000000
-4.394796 60.005951 -1.942596 3.817740 0.476245 2.657266 3.817740 0.476245 2.657266 1.245921 0.397267 0.978039 1.477020 0.435657 0.548056 5.000000 0.000000 0.000000 0.637119 0.484169 2.339235 -1.132449 0.371748 -0.920804 0.000000 0.000000 0.000000 0.000000 0.000000 0.000000 4.038421 -0.398919 2.165258 -0.949202 -0.139587 0.517930 90.368602 10.758586 -0.214442 0.000000 0.000000 0.000000 -6.580979 0.996063 3.866435 -4.684625 0.835213 2.049822 0.000000 0.000000 0.000000 2.257813 1.095184 9.270311 21.606701 1.709926 -1.928579 0.000000 0.000000 0.000000
-4.224435 60.005671 -3.169631 4.324408 0.460314 2.711972 4.324408 0.460314 2.711972 1.368039 0.384035 0.944008 1.552896 0.419760 0.534365 5.000000 0.000000 0.000000 0.239024 0.294257 1.520148 -2.992999 0.227518 -0.739249 0.000000 0.000000 0.000000 0.000000 0.000000 0.000000 3.452738 -0.378890 1.666300 0.055532 -0.198497 0.603494 92.271878 3.009034 1.986253 0.000000 0.000000 0.000000 -6.684498 1.008237 3.759971 -3.165011 0.608419 1.505488 0.000000 0.000000 0.000000 1.286137 1.187977 9.443655 20.930502 1.704382 -1.789425 0.000000 0.000000 0.000000
-4.083084 60.000000 -3.848195 3.569730 0.553263 2.921617 3.569730 0.553263 2.921617 1.178899 0.352109 0.858224 1.391002 0.403412 0.506117 5.000000 0.000000 0.000000 -0.247255 0.191806 1.310452 -4.998648 0.062920 -0.508346 89.319634 -9.750924 2.154306 0.000000 0.000000 0.000000 2.972093 -0.510677 0.657853 1.834732 -0.340960 0.853518 91.627008 -3.020259 3.472271 0.000000 0.000000 0.000000 -5.989866 0.887204 3.431336 1.978771 0.902704 1.482386 0.000000 0.000000 0.000000 1.683845 1.163682 9.499151 22.274438 1.939175 -1.718433 0.000000 0.000000 0.000000
-3.905658 60.000000 -4.267194 2.319601 0.723745 3.329115 2.319601 0.723745 3.329115 0.876566 0.302610 0.726295 1.151329 0.368434 0.452255 5.000000 0.000000 0.000000 -0.220202 0.189679 1.274739 -4.537832 -0.029852 -0.240316 89.709928 -12.755246 2.795996 0.000000 0.000000 0.000000 3.608986 -1.071672 -1.059093 4.177408 -0.549965 1.201313 95.870261 -5.925184 3.949399 0.000000 0.000000 0.000000 -4.423812 0.637102 2.991237 8.290277 1.330313 1.634572 0.000000 0.000000 0.000000 2.809950 1.071468 9.466176 21.088942 1.731155 -1.750131 0.000000 0.000000 0.000000
-3.782538 60.005013 -5.768176 1.952041 0.811688 3.597397 1.952041 0.811688 3.597397 0.778824 0.298846 0.717598 1.104692 0.337603 0.414752 5.000000 0.000000 0.000000 -0.406296 0.246656 1.739812 -3.707266 -0.083063 -0.048012 0.000000 0.000000 0.000000 0.000000 0.000000 0.000000 5.035812 -1.677961 -2.317686 8.041487 -0.756969 1.357058 97.984646 -4.463248 3.567369 0.000000 0.000000 0.000000 -2.363034 0.312560 2.321555 10.525124 1.686069 2.159018 0.000000 0.000000 0.000000 5.615480 0.866999 9.540430 17.924674 1.176525 -1.900462 0.000000 0.000000 0.000000
-3.737372 60.003709 -7.405064 2.224392 0.776809 3.525773 2.224392 0.776809 3.525773 0.735693 0.285252 0.682921 1.067464 0.328492 0.402511 5.000000 0.000000 0.000000 -0.722413 0.367978 2.669846 -3.035275 -0.080532 -0.008256 91.638807 -9.383118 1.789051 0.000000 0.000000 0.000000 5.281126 -1.848364 -2.847255 8.893455 -0.809564 1.401212 98.808232 0.846363 2.676242 0.000000 0.000000 0.000000 -2.517077 0.330372 1.845626 8.097465 1.705013 2.466718 0.000000 0.000000 0.000000 4.759540 0.888370 9.087872 18.768193 2.310062 -0.483831 0.000000 0.000000 0.000000
-3.604604 60.003094 -8.342720 2.862480 0.697409 3.364919 2.862480 0.697409 3.364919 0.777377 0.238272 0.560053 1.089326 0.312184 0.385258 5.000000 0.000000 0.000000 -0.537102 0.469364 3.105608 -2.767085 -0.058059 -0.044775 91.335962 -11.177616 2.197289 0.000000 0.000000 0.000000 5.254409 -1.797278 -2.649984 7.768731 -0.719985 1.289634 0.000000 0.000000 0.000000 0.000000 0.000000 0.000000 -2.663579 0.344429 1.313013 6.294777 1.806456 2.870124 0.000000 0.000000 0.000000 3.734335 0.870842 8.170397 19.416690 3.858595 1.579904 0.000000 0.000000 0.000000
-3.342693 60.003201 -8.516817 3.290880 0.622669 3.160490 3.290880 0.622669 3.160490 0.893926 0.219501 0.507682 1.145030 0.330382 0.408711 5.000000 0.000000 0.000000 -0.263458 0.394766 2.481418 -2.670881 -0.074202 0.000222 91.541702 -12.133469 2.365001 0.000000 0.000000 0.000000 4.452253 -1.516851 -2.141224 5.361446 -0.555057 1.104411 0.000000 0.000000 0.000000 0.000000 0.000000 0.000000 -2.963892 0.377258 0.603112 5.171673 1.924382 3.216980 0.000000 0.000000 0.000000 3.773101 0.699509 6.532975 19.157857 4.675260 2.760898 0.000000 0.000000 0.000000
-2.984937 60.003254 -8.148047 3.444390 0.578676 3.010988 3.444390 0.578676 3.010988 0.944181 0.185425 0.416775 1.122608 0.300630 0.373942 5.000000 0.000000 0.000000 0.144108 0.341237 1.865122 -2.459841 -0.101032 0.078341 91.315002 -12.979217 2.578621 0.000000 0.000000 0.000000 4.152051 -1.166367 -0.924179 3.666483 -0.405959 0.865301 0.000000 0.000000 0.000000 0.000000 0.000000 0.000000 -2.731583 0.343628 0.091937 3.306028 1.957639 3.433975 0.000000 0.000000 0.000000 3.817192 0.550061 5.092805 17.607066 5.789950 4.462284 0.000000 0.000000 0.000000
-2.668706 60.003427 -7.706540 3.353399 0.570826 2.953099 3.353399 0.570826 2.953099 0.895788 0.157375 0.344795 1.026417 0.261349 0.324712 5.000000 0.000000 0.000000 0.428457 0.307308 1.439164 -2.049517 -0.083805 0.065566 92.924932 -9.739806 1.701118 0.000000 0.000000 0.000000 3.995968 -0.881510 0.124230 1.987501 -0.282752 0.677950 0.000000 0.000000 0.000000 0.000000 0.000000 0.000000 -1.690784 0.210933 -0.534760 3.091437 1.952835 3.438186 0.000000 0.000000 0.000000 3.843409 0.390715 3.606418 14.637568 7.135104 6.537490 0.000000 0.000000 0.000000
-2.407720 60.003633 -7.530924 3.330654 0.548880 2.850472 3.330654 0.548880 2.850472 0.922682 0.141314 0.301373 1.012171 0.225485 0.283682 5.000000 0.000000 0.000000 0.825101 0.338617 1.301342 -0.840789 0.048834 -0.159730 0.000000 0.000000 0.000000 0.000000 0.000000 0.000000 3.785640 -0.788725 0.309435 1.000777 -0.227699 0.607325 91.924447 9.304853 0.393869 0.000000 0.000000 0.000000 -0.745267 0.097770 -0.805061 3.901322 1.693085 2.848118 0.000000 0.000000 0.000000 3.068726 0.168181 1.421025 11.967247 7.366909 6.986752 0.000000 0.000000 0.000000
-2.269015 60.001988 -7.626187 3.609575 0.453964 2.496865 3.609575 0.453964 2.496865 0.985017 0.137274 0.287836 1.011662 0.207316 0.263362 5.000000 0.000000 0.000000 1.665355 0.487469 1.530800 0.819324 0.297590 -0.585596 94.425924 5.927604 -1.039628 0.000000 0.000000 0.000000 3.160468 -0.660710 0.252590 0.809953 -0.173518 0.462907 91.774572 13.183667 -0.624941 0.000000 0.000000 0.000000 -0.680794 0.089779 -0.732815 4.423530 1.505638 2.417601 0.000000 0.000000 0.000000 2.022828 -0.016533 -0.258523 10.635561 6.633837 6.110182 0.000000 0.000000 0.000000
-2.295115 60.000000 -8.000607 4.395328 0.239361 1.711341 4.395328 0.239361 1.711341 1.148135 0.155223 0.328242 1.089665 0.296911 0.368601 5.000000 0.000000 0.000000 3.051353 0.818975 2.649833 4.479563 0.679644 -1.075800 99.199466 10.107285 -1.124041 0.000000 0.000000 0.000000 2.749767 -0.669777 -0.159713 0.800618 -0.141772 0.368112 91.302243 12.227659 -0.458358 0.000000 0.000000 0.000000 -0.472569 0.064328 -0.579985 4.035799 1.315492 2.063397 0.000000 0.000000 0.000000 1.804552 -0.125100 -1.123675 13.384143 5.799331 4.868401 0.000000 0.000000 0.000000
-2.455530 60.001417 -8.849359 5.370487 -0.022877 0.711610 5.370487 -0.022877 0.711610 1.334850 0.200353 0.442696 1.247139 0.432691 0.531201 5.000000 0.000000 0.000000 5.942214 1.409967 4.876067 10.438238 1.213019 -1.564462 101.330565 22.775676 -1.906657 0.000000 0.000000 0.000000 3.470427 -0.788652 0.034798 0.697467 -0.118835 0.309063 91.330157 15.554539 -1.345099 0.000000 0.000000 0.000000 0.407443 -0.038072 -0.653855 3.456101 1.413156 2.322370 0.000000 0.000000 0.000000 1.826816 -0.234926 -2.025897 17.753061 5.473296 3.909676 0.000000 0.000000 0.000000
-2.586507 60.001220 -9.758531 5.996262 -0.158923 0.168330 5.996262 -0.158923 0.168330 1.552808 0.252814 0.581149 1.470213 0.483941 0.604105 5.000000 0.000000 0.000000 10.282510 2.117850 7.760945 15.959793 1.802337 -2.061574 100.287607 32.706693 -3.347287 0.000000 0.000000 0.000000 4.336730 -0.705073 1.190603 1.433179 -0.075129 0.118735 92.423110 16.107484 -1.249811 0.000000 0.000000 0.000000 0.776850 -0.079663 -0.713811 3.703010 1.896186 3.311501 0.000000 0.000000 0.000000 3.137988 -0.078784 -0.872158 25.810134 4.309457 0.973004 0.000000 0.000000 0.000000
-2.612691 60.001258 -10.258936 7.079593 -0.225603 0.020254 7.079593 -0.225603 0.020254 1.915596 0.289624 0.675947 1.812579 0.519208 0.667599 5.000000 0.000000 0.000000 14.051192 2.494240 9.150902 19.978046 2.240488 -2.355906 104.899352 34.692551 -1.346229 0.000000 0.000000 0.000000 4.074411 -0.414131 2.134873 2.069296 -0.029421 -0.064526 0.000000 0.000000 0.000000 0.000000 0.000000 0.000000 -0.693084 0.088978 -0.280042 6.478228 2.406130 4.163385 0.000000 0.000000 0.000000 4.443123 0.061910 0.305345 32.783161 2.219867 -3.821015 0.000000 0.000000 0.000000
-2.671788 60.000000 -10.282080 7.568518 -0.222609 0.116989 7.568518 -0.222609 0.116989 2.041738 0.315876 0.750492 2.000641 0.566129 0.737170 5.000000 0.000000 0.000000 16.519572 2.669891 9.578825 21.501170 2.496624 -2.579477 60.095815 42.187782 -30.816303 0.000000 0.000000 0.000000 3.161366 -0.151110 2.277495 2.295232 -0.013964 -0.125751 0.000000 0.000000 0.000000 0.000000 0.000000 0.000000 -1.181391 0.146964 -0.032658 7.498303 2.613108 4.549769 0.000000 0.000000 0.000000 5.531506 0.086860 0.637757 32.659436 0.344761 -7.091830 0.000000 0.000000 0.000000
-2.932148 60.002754 -9.864061 7.743460 -0.191890 0.300611 7.743460 -0.191890 0.300611 2.103980 0.377914 0.931307 2.201676 0.690947 0.901613 5.000000 0.000000 0.000000 16.363663 2.670888 9.920667 19.987278 2.518857 -2.757803 108.404660 26.741690 0.243881 0.000000 0.000000 0.000000 2.520067 0.161128 2.850341 2.040796 -0.003857 -0.137890 0.000000 0.000000 0.000000 0.000000 0.000000 0.000000 -1.385198 0.171579 -0.172511 6.954683 2.595783 4.537641 0.000000 0.000000 0.000000 8.691830 0.121006 1.395000 27.708463 -1.361162 -8.295038 0.000000 0.000000 0.000000
-3.356892 60.004998 -9.001950 6.873714 -0.058458 0.795657 6.873714 -0.058458 0.795657 2.064061 0.440304 1.113674 2.212840 0.765572 0.992834 5.000000 0.000000 0.000000 11.784913 2.372042 9.839330 15.464602 2.270752 -2.829969 107.121149 17.425937 -0.163128 0.000000 0.000000 0.000000 1.554529 0.664229 3.824282 1.166447 0.032223 -0.183319 0.000000 0.000000 0.000000 0.000000 0.000000 0.000000 -2.117848 0.258866 -0.404858 5.400386 2.630759 4.685465 0.000000 0.000000 0.000000 12.695890 0.182489 2.691246 22.422545 -2.743588 -8.698007 0.000000 0.000000 0.000000
-3.973330 60.005991 -8.032045 4.658012 0.196209 1.558948 4.658012 0.196209 1.558948 1.764948 0.456212 1.156207 1.954329 0.760049 0.965780 5.000000 0.000000 0.000000 6.189246 1.882871 8.494637 9.799638 1.714547 -2.485914 0.000000 0.000000 0.000000 0.000000 0.000000 0.000000 1.834888 0.710903 4.274520 -0.360763 0.058651 -0.155315 88.139653 19.961100 -3.461242 0.000000 0.000000 0.000000 -3.175155 0.385643 -0.501939 2.249189 2.649218 4.890208 0.000000 0.000000 0.000000 8.954864 0.302076 4.019007 25.031607 -2.382981 -9.058797 0.000000 0.000000 0.000000
-4.731864 60.006257 -7.296782 1.956113 0.422375 1.999123 1.956113 0.422375 1.999123 1.147335 0.401438 0.989463 1.422253 0.661565 0.805631 5.000000 0.000000 0.000000 3.295323 1.377146 6.408557 2.097296 1.033680 -2.024509 93.592858 1.553502 -0.344056 0.000000 0.000000 0.000000 3.047265 0.300109 3.934836 -1.415563 0.063613 -0.092440 88.794618 17.900142 -2.625576 0.000000 0.000000 0.000000 -2.930568 0.363310 0.439652 -0.558503 2.279408 4.366217 0.000000 0.000000 0.000000 8.169026 0.447939 5.821672 23.815644 -2.702346 -9.123686 0.000000 0.000000 0.000000
-5.414627 60.006029 -7.323675 1.358198 0.458942 2.024228 1.358198 0.458942 2.024228 0.934306 0.357302 0.868609 1.133072 0.616289 0.732170 5.000000 0.000000 0.000000 -0.255288 0.818718 4.960423 -0.955129 0.602402 -1.426552 92.978896 -3.959586 0.638118 0.000000 0.000000 0.000000 4.328974 -0.216062 3.223429 -1.596364 0.027291 0.039533 88.552672 16.781011 -2.334992 0.000000 0.000000 0.000000 -2.204066 0.288392 1.948367 -6.619781 1.423766 3.271679 0.000000 0.000000 0.000000 6.934327 0.718468 8.629103 22.334674 -2.768515 -8.704819 0.000000 0.000000 0.000000
-5.746803 60.005648 -8.233856 1.407844 0.438085 1.950736 1.407844 0.438085 1.950736 1.097348 0.302390 0.722902 1.122788 0.525262 0.628400 5.000000 0.000000 0.000000 -1.872908 0.472689 4.012094 -1.862926 0.411838 -1.077623 90.879891 -5.651633 1.096211 0.000000 0.000000 0.000000 4.133362 -0.429632 2.137848 -1.415778 -0.051922 0.277563 89.606427 13.062657 -0.994156 0.000000 0.000000 0.000000 -2.737853 0.377825 2.487740 -15.226335 0.742805 2.797676 0.000000 0.000000 0.000000 5.336872 1.012903 10.902801 21.009967 -3.089015 -8.714844 0.000000 0.000000 0.000000
-5.830889 60.004702 -8.964657 1.524367 0.453096 2.035949 1.524367 0.453096 2.035949 1.121444 0.238437 0.551504 1.097223 0.396587 0.481193 5.000000 0.000000 0.000000 -2.279970 0.202692 2.777917 -2.479431 0.264152 -0.795415 92.550724 -5.271719 0.904603 0.000000 0.000000 0.000000 3.833773 -0.651408 0.918716 -0.347283 -0.164454 0.533580 92.020164 3.968759 1.735727 0.000000 0.000000 0.000000 -4.461396 0.665863 3.297876 -12.834685 0.626695 2.435112 0.000000 0.000000 0.000000 4.517944 1.128569 11.348041 18.478131 -3.757285 -8.801032 0.000000 0.000000 0.000000
-5.785681 60.004833 -7.764763 1.757654 0.500203 2.278859 1.757654 0.500203 2.278859 1.119342 0.149316 0.313104 1.079883 0.218493 0.278798 5.000000 0.000000 0.000000 -0.568800 0.123865 1.134291 -0.872406 0.146651 -0.396516 93.795208 -10.454779 1.718272 0.000000 0.000000 0.000000 3.858097 -0.996494 -0.485676 1.521380 -0.311232 0.799540 92.878717 4.099705 1.760806 0.000000 0.000000 0.000000 -5.590459 0.858540 4.475437 -3.044009 0.825862 1.959911 0.000000 0.000000 0.000000 3.895346 1.203519 11.494241 17.596781 -4.242788 -9.170025 0.000000 0.000000 0.000000
-5.700661 60.005840 -5.167245 2.180932 0.576710 2.690823 2.180932 0.576710 2.690823 1.092113 0.085071 0.142843 1.091707 0.095412 0.139962 5.000000 0.000000 0.000000 0.738189 0.099500 -0.075590 0.412427 0.017313 -0.013827 0.000000 0.000000 0.000000 0.000000 0.000000 0.000000 3.979100 -1.430911 -2.194212 3.101982 -0.473159 1.099312 93.995150 -4.439608 3.731337 0.000000 0.000000 0.000000 -0.335756 -0.006535 4.613502 12.508081 1.813207 2.380317 0.000000 0.000000 0.000000 4.578480 1.080773 10.773308 21.781897 -3.656760 -9.752755 0.000000 0.000000 0.000000
-5.532548 60.006825 -3.260490 2.825837 0.597462 2.932874 2.825837 0.597462 2.932874 1.025269 0.086757 0.151417 1.143980 0.058819 0.100454 5.000000 0.000000 0.000000 1.272028 0.135905 -0.341607 0.975720 -0.031362 0.129066 0.000000 0.000000 0.000000 0.000000 0.000000 0.000000 4.394107 -2.012233 -4.318276 4.822755 -0.684574 1.504843 93.493866 -8.224788 4.630183 0.000000 0.000000 0.000000 2.621392 -0.498055 4.730940 18.635101 2.561738 3.583396 0.000000 0.000000 0.000000 6.348973 0.782674 9.279977 26.069627 -2.021282 -8.837100 0.000000 0.000000 0.000000
-5.325980 60.006202 -3.128016 3.193741 0.586961 2.981863 3.193741 0.586961 2.981863 1.002380 0.111599 0.219081 1.178863 0.072612 0.117555 5.000000 0.000000 0.000000 1.756909 0.241279 -0.132692 0.716004 -0.068593 0.196009 0.000000 0.000000 0.000000 0.000000 0.000000 0.000000 5.484753 -2.488161 -5.576925 5.438735 -0.775470 1.676040 93.355772 -9.426479 4.927153 0.000000 0.000000 0.000000 2.750983 -0.517547 4.630120 14.546786 2.677615 4.285112 0.000000 0.000000 0.000000 5.124412 0.719669 7.889411 26.371776 -0.446687 -6.391667 0.000000 0.000000 0.000000
-5.172155 60.001965 -3.931963 3.716791 0.562144 3.010606 3.716791 0.562144 3.010606 1.159901 0.141753 0.291782 1.334225 0.115569 0.172890 5.000000 0.000000 0.000000 2.975843 0.478246 0.224417 -0.239829 -0.094392 0.198178 0.000000 0.000000 0.000000 0.000000 0.000000 0.000000 7.702275 -2.953970 -5.955430 6.495066 -0.839720 1.724926 95.665104 -11.009251 5.009805 0.000000 0.000000 0.000000 1.392442 -0.284653 4.247673 11.852235 2.533735 4.086733 0.000000 0.000000 0.000000 1.508122 0.666013 5.570309 25.210233 1.549080 -2.981362 0.000000 0.000000 0.000000
-5.193358 60.001775 -5.073632 4.204190 0.539918 3.041487 4.204190 0.539918 3.041487 1.541085 0.161912 0.326754 1.649807 0.161503 0.238168 5.000000 0.000000 0.000000 4.000668 0.643449 0.322686 -1.565023 -0.130559 0.203266 91.216844 -14.750313 2.974502 0.000000 0.000000 0.000000 8.086268 -2.811642 -4.959558 7.365832 -0.820387 1.575219 95.935079 -1.887210 3.143818 0.000000 0.000000 0.000000 0.416976 -0.105105 3.311892 12.682219 2.363390 3.572628 0.000000 0.000000 0.000000 -2.286073 0.475649 3.655288 15.340748 0.387697 -2.388315 0.000000 0.000000 0.000000
-5.459934 60.001668 -5.682815 3.222797 0.598617 3.039273 3.222797 0.598617 3.039273 1.547755 0.152186 0.299654 1.626944 0.181773 0.260617 5.000000 0.000000 0.000000 3.919770 0.628191 0.297275 -2.255973 -0.175042 0.266797 90.951067 -17.096044 3.545784 0.000000 0.000000 0.000000 6.789227 -2.262485 -3.424473 4.831053 -0.616160 1.313256 54.436600 2.390062 0.179757 0.000000 0.000000 0.000000 0.664036 -0.126521 2.297453 14.406599 1.973438 2.446855 0.000000 0.000000 0.000000 -6.730790 -0.018901 0.218119 5.017166 -1.182630 -2.215334 0.000000 0.000000 0.000000
-5.954307 60.001671 -5.683713 1.745770 0.684284 3.023556 1.745770 0.684284 3.023556 1.328525 0.141927 0.282589 1.411034 0.211554 0.285868 5.000000 0.000000 0.000000 3.864369 0.638516 0.428978 -2.368329 -0.217216 0.360751 90.786293 -16.498203 3.447453 0.000000 0.000000 0.000000 6.330609 -1.681308 -1.158381 2.356480 -0.410222 1.003094 91.930124 7.625998 0.817303 0.000000 0.000000 0.000000 0.327873 -0.068916 1.700546 12.389157 1.700079 1.980897 0.000000 0.000000 0.000000 -7.851475 -0.331525 -1.310565 12.353828 -1.006783 -3.527967 0.000000 0.000000 0.000000
-6.671154 60.001642 -5.759978 1.325203 0.706617 3.010524 1.325203 0.706617 3.010524 1.316681 0.128253 0.246337 1.339491 0.196727 0.265845 5.000000 0.000000 0.000000 3.622119 0.695282 1.087701 -2.965173 -0.203868 0.293359 90.612834 -13.558133 2.824394 0.000000 0.000000 0.000000 5.795430 -1.084841 1.039655 0.627183 -0.264009 0.750202 91.255647 10.866744 -0.106203 0.000000 0.000000 0.000000 -0.114319 0.000645 1.137452 9.521789 1.502875 1.880076 0.000000 0.000000 0.000000 -7.967501 -0.343047 -1.354056 12.859470 -0.549644 -3.099404 0.000000 0.000000 0.000000
-7.335707 60.001848 -6.960144 0.971747 0.703240 2.910891 0.971747 0.703240 2.910891 1.178709 0.093082 0.158827 1.120919 0.152120 0.205557 5.000000 0.000000 0.000000 3.577232 0.895060 2.578355 -3.196661 -0.080426 -0.015654 0.000000 0.000000 0.000000 0.000000 0.000000 0.000000 6.054513 -0.846943 2.377274 0.175529 -0.174717 0.523315 90.711823 12.486631 -0.631541 0.000000 0.000000 0.000000 -0.224938 0.018586 0.862058 5.342857 1.041564 1.371398 0.000000 0.000000 0.000000 -6.211889 -0.296523 -1.284296 9.813514 -0.054578 -1.842635 0.000000 0.000000 0.000000
-7.950407 60.001666 -8.854372 1.280258 0.594463 2.540210 1.280258 0.594463 2.540210 1.198736 0.039613 0.012971 1.071783 0.088486 0.131647 5.000000 0.000000 0.000000 4.088147 1.192324 4.370589 -2.033153 0.175136 -0.521537 92.441682 -2.216920 0.338670 0.000000 0.000000 0.000000 6.433660 -0.870905 2.696076 0.354942 -0.131396 0.376291 91.702733 13.531613 -0.729402 0.000000 0.000000 0.000000 -0.485410 0.053766 0.776798 0.623349 0.661307 1.164945 0.000000 0.000000 0.000000 -2.293911 -0.185810 -1.020089 10.657754 1.305665 -0.331659 0.000000 0.000000 0.000000
-8.559344 60.001599 -10.585336 2.295536 0.382660 1.840840 2.295536 0.382660 1.840840 1.317253 -0.000489 -0.105408 1.109297 0.092275 0.137668 5.000000 0.000000 0.000000 5.864108 1.563020 5.985908 1.501015 0.610496 -1.183301 98.341829 4.995673 -0.644265 0.000000 0.000000 0.000000 6.954378 -1.171128 1.939772 1.407563 -0.132882 0.290462 92.448783 14.241202 -0.767118 0.000000 0.000000 0.000000 -1.018848 0.125897 0.674938 -0.299541 0.751924 1.449639 0.000000 0.000000 0.000000 1.239466 -0.018672 -0.090635 17.597736 2.365820 -0.202809 0.000000 0.000000 0.000000
-9.368808 60.001610 -11.865411 5.508872 -0.037949 0.557967 5.508872 -0.037949 0.557967 1.475145 0.020391 -0.061578 1.237913 0.251715 0.323726 5.000000 0.000000 0.000000 8.776225 2.028029 7.972145 7.662085 1.132479 -1.674865 101.251135 13.047047 -1.101054 0.000000 0.000000 0.000000 6.020081 -1.263022 0.464695 2.242371 -0.149353 0.270199 92.886643 14.275619 -0.688486 0.000000 0.000000 0.000000 -0.495105 0.065615 0.461139 0.643088 1.149164 2.088377 0.000000 0.000000 0.000000 5.190028 0.154330 1.424852 26.175165 3.105515 -0.718009 0.000000 0.000000 0.000000
-10.089308 60.001602 -12.827060 10.202812 -0.376532 -0.292531 10.202812 -0.376532 -0.292531 1.454330 0.114765 0.203717 1.285404 0.446187 0.549741 5.000000 0.000000 0.000000 11.299942 2.334247 9.518395 13.258857 1.642691 -2.050621 109.174069 18.544571 0.316678 0.000000 0.000000 0.000000 6.373689 -1.500292 -0.257452 2.947985 -0.176800 0.292192 94.371267 12.464804 0.016832 0.000000 0.000000 0.000000 2.918103 -0.360539 -0.025006 0.880268 1.418507 2.586518 0.000000 0.000000 0.000000 11.695650 0.145333 1.711128 27.369884 2.766060 -1.451277 0.000000 0.000000 0.000000
-10.654293 60.001579 -13.337856 11.705195 -0.434610 -0.368515 11.705195 -0.434610 -0.368515 1.705338 0.218530 0.484615 1.592984 0.542680 0.683021 5.000000 0.000000 0.000000 13.714464 2.534367 10.463301 18.843868 2.101774 -2.263305 110.600463 21.625368 0.788193 0.000000 0.000000 0.000000 6.697673 -1.728160 -0.967745 3.491634 -0.213534 0.352554 94.097615 10.370556 0.444804 0.000000 0.000000 0.000000 4.040723 -0.474842 -0.501013 1.684406 1.406276 2.527005 0.000000 0.000000 0.000000 12.898249 0.127784 1.355009 20.310924 1.231159 -2.379980 0.000000 0.000000 0.000000
-11.098777 60.001559 -13.112865 12.649261 -0.383118 0.170021 12.649261 -0.383118 0.170021 2.046406 0.349636 0.846633 2.031905 0.667717 0.859782 5.000000 0.000000 0.000000 15.326797 2.649287 11.105559 19.055919 2.297353 -2.529956 109.699733 23.550226 0.597894 0.000000 0.000000 0.000000 6.263974 -1.698360 -1.258729 3.321905 -0.257206 0.487613 0.000000 0.000000 0.000000 0.000000 0.000000 0.000000 5.167968 -0.560222 -1.374001 -0.729799 0.708425 1.556947 0.000000 0.000000 0.000000 13.059403 0.111779 0.532472 12.816544 0.027924 -2.619829 0.000000 0.000000 0.000000
-11.816313 60.002026 -12.058582 13.057281 -0.249997 1.187002 13.057281 -0.249997 1.187002 1.951957 0.452190 1.144667 2.002989 0.658248 0.846254 5.000000 0.000000 0.000000 14.997893 2.631784 11.138785 17.586304 2.245252 -2.590978 110.251136 9.330622 0.237316 0.000000 0.000000 0.000000 7.567271 -1.906058 -0.904457 3.810092 -0.314207 0.604429 0.000000 0.000000 0.000000 0.000000 0.000000 0.000000 5.784858 -0.584788 -2.125358 -5.066380 -0.444520 -0.068375 0.000000 0.000000 0.000000 13.858633 0.106282 0.070929 0.000000 0.000000 0.000000 0.000000 0.000000 0.000000
-12.663900 60.002603 -10.942773 12.975836 -0.143090 1.897913 12.975836 -0.143090 1.897913 1.934251 0.469976 1.195668 1.989852 0.628683 0.809970 5.000000 0.000000 0.000000 13.835508 2.498409 9.816119 14.205071 1.954203 -2.464670 104.422850 10.142182 -0.467987 0.000000 0.000000 0.000000 9.415395 -2.131437 -0.045414 4.372454 -0.331964 0.604110 95.090589 8.794769 0.924697 0.000000 0.000000 0.000000 5.760276 -0.600664 -1.824374 -2.729494 -0.115583 0.182151 0.000000 0.000000 0.000000 14.489932 0.114460 -0.148858 0.000000 0.000000 0.000000 0.000000 0.000000 0.000000
-13.540573 60.003085 -11.087628 11.937427 -0.029363 2.306511 11.937427 -0.029363 2.306511 1.916691 0.484357 1.236758 1.966430 0.669248 0.856268 5.000000 0.000000 0.000000 10.052583 2.145540 8.392559 8.697570 1.470258 -2.191095 98.907394 10.392265 -1.192127 0.000000 0.000000 0.000000 9.096047 -1.896684 0.781308 3.380617 -0.292138 0.578131 92.598527 12.542319 -0.312495 0.000000 0.000000 0.000000 5.305995 -0.605134 -0.864122 -0.086653 0.234430 0.450641 0.000000 0.000000 0.000000 17.843046 0.157916 -0.098683 0.000000 0.000000 0.000000 0.000000 0.000000 0.000000
-14.169176 60.003067 -13.387202 9.603561 0.132257 2.548105 9.603561 0.132257 2.548105 1.623274 0.492025 1.249241 1.704755 0.695006 0.865232 5.000000 0.000000 0.000000 4.853982 1.638627 7.183233 4.118477 0.983399 -1.721860 95.833555 -1.858270 0.190943 0.000000 0.000000 0.000000 7.611373 -1.502770 1.072304 1.616003 -0.214726 0.513923 91.801081 13.012868 -0.575595 0.000000 0.000000 0.000000 4.037687 -0.532951 0.780729 -0.047965 0.299199 0.566234 0.000000 0.000000 0.000000 23.111338 0.183750 0.787374 0.000000 0.000000 0.000000 0.000000 0.000000 0.000000
-14.764725 60.002058 -16.163598 6.949613 0.258664 2.453827 6.949613 0.258664 2.453827 1.119262 0.498321 1.246462 1.253696 0.784637 0.932375 5.000000 0.000000 0.000000 4.087310 1.435003 6.113185 1.096422 0.549821 -1.118364 93.466455 -6.067585 0.982990 0.000000 0.000000 0.000000 7.213974 -1.593288 0.199842 0.626243 -0.197379 0.552267 90.469334 12.370963 -0.642517 0.000000 0.000000 0.000000 1.504711 -0.224403 1.483931 0.000000 0.000000 0.000000 0.000000 0.000000 0.000000 19.050254 0.038895 3.416040 0.000000 0.000000 0.000000 0.000000 0.000000 0.000000
-15.207094 60.000723 -17.864824 6.491678 0.241803 2.244212 6.491678 0.241803 2.244212 0.931370 0.553091 1.384464 1.088723 0.903969 1.053545 5.000000 0.000000 0.000000 3.962625 1.308794 5.267865 -0.512633 0.321422 -0.757614 93.156048 -9.229143 1.579135 0.000000 0.000000 0.000000 6.813129 -1.658506 -0.519688 -0.251221 -0.214580 0.686729 90.908042 9.151771 0.297673 0.000000 0.000000 0.000000 1.394113 -0.222715 1.980493 0.000000 0.000000 0.000000 0.000000 0.000000 0.000000 19.026888 0.025734 3.877994 0.000000 0.000000 0.000000 0.000000 0.000000 0.000000
-15.529126 60.000032 -18.615721 6.284696 0.252467 2.242972 6.284696 0.252467 2.242972 0.628653 0.583558 1.448135 0.840794 0.987150 1.123608 5.000000 0.000000 0.000000 3.383698 1.237984 5.181299 -1.302227 0.204813 -0.555495 91.043952 -10.049423 2.000701 0.000000 0.000000 0.000000 6.115163 -1.740023 -1.594113 -0.223174 -0.287209 0.908116 90.739760 4.905580 1.404459 0.000000 0.000000 0.000000 2.703824 -0.402237 1.801188 0.000000 0.000000 0.000000 0.000000 0.000000 0.000000 19.713908 0.031940 3.175754 0.000000 0.000000 0.000000 0.000000 0.000000 0.000000
-17.020156 59.999244 -21.558035 6.002089 0.284494 2.327151 6.002089 0.284494 2.327151 0.313807 0.622507 1.531698 0.588810 1.095087 1.219354 5.000000 0.000000 0.000000 3.225039 1.197824 4.990288 -2.518310 0.138409 -0.494812 91.628305 -10.021563 1.919716 0.000000 0.000000 0.000000 5.942266 -2.002256 -2.955486 0.385371 -0.398023 1.170960 90.773143 -2.601232 3.382545 0.000000 0.000000 0.000000 4.578307 -0.658932 1.672688 0.000000 0.000000 0.000000 0.000000 0.000000 0.000000 20.228176 0.022028 3.130618 0.000000 0.000000 0.000000 0.000000 0.000000 0.000000
-23.717031 59.997957 -35.389912 6.380682 0.298013 2.495603 6.380682 0.298013 2.495603 0.239191 0.618880 1.519436 0.518036 1.146527 1.268806 5.000000 0.000000 0.000000 4.934271 1.300872 4.298242 -2.727293 0.074737 -0.356621 90.452942 -11.423770 2.378518 0.000000 0.000000 0.000000 6.226412 -2.454152 -4.865606 3.290102 -0.622922 1.479966 95.722538 -4.515404 3.673570 0.000000 0.000000 0.000000 5.833509 -0.817232 1.430045 0.000000 0.000000 0.000000 0.000000 0.000000 0.000000 20.441005 -0.007851 3.750439 0.000000 0.000000 0.000000 0.000000 0.000000 0.000000
-34.546183 59.993325 -55.726608 8.094731 0.227760 2.627376 8.094731 0.227760 2.627376 -0.193312 0.593909 1.438515 0.247985 1.107916 1.200817 5.000000 0.000000 0.000000 9.108010 1.660263 3.254396 -3.700874 -0.036714 -0.160956 90.166835 -10.463109 2.206070 0.000000 0.000000 0.000000 7.743688 -3.169611 -7.061425 8.426308 -0.973844 1.828552 98.463650 -9.017768 4.313702 0.000000 0.000000 0.000000 7.022807 -0.939023 0.870457 0.000000 0.000000 0.000000 0.000000 0.000000 0.000000 20.653203 0.005323 3.456189 0.000000 0.000000 0.000000 0.000000 0.000000 0.000000
-42.549207 59.987916 -69.184261 11.714832 0.054300 2.800332 11.714832 0.054300 2.800332 -0.939480 0.554275 1.317012 -0.196319 1.014392 1.061154 5.000000 0.000000 0.000000 12.373010 1.985448 2.496516 -3.719434 -0.083355 -0.049247 0.000000 0.000000 0.000000 0.000000 0.000000 0.000000 8.016464 -3.591417 -8.919256 12.173809 -1.241539 2.050974 102.399745 -10.589908 4.109853 0.000000 0.000000 0.000000 7.646556 -0.952127 -0.070812 0.000000 0.000000 0.000000 0.000000 0.000000 0.000000 21.231209 0.104644 1.405603 0.000000 0.000000 0.000000 0.000000 0.000000 0.000000
-44.295224 59.986639 -70.390861 13.466450 -0.014680 2.999355 13.466450 -0.014680 2.999355 -1.691967 0.504541 1.181043 -0.676814 0.832355 0.830496 5.000000 0.000000 0.000000 11.035076 1.774176 1.882217 -3.149746 -0.158642 0.173765 91.218814 -14.296498 2.876371 0.000000 0.000000 0.000000 6.404063 -3.443100 -9.292066 13.934364 -1.331665 2.060203 0.000000 0.000000 0.000000 0.000000 0.000000 0.000000 6.708407 -0.755548 -1.125501 0.000000 0.000000 0.000000 0.000000 0.000000 0.000000 21.547998 0.280493 -2.277281 0.000000 0.000000 0.000000 0.000000 0.000000 0.000000
-43.249053 59.984645 -67.155008 11.949253 0.079486 3.052182 11.949253 0.079486 3.052182 -1.783083 0.474572 1.115306 -0.790668 0.645263 0.632312 5.000000 0.000000 0.000000 9.274086 1.515269 1.548986 -3.442929 -0.241801 0.364053 0.000000 0.000000 0.000000 0.000000 0.000000 0.000000 5.684709 -3.348229 -9.318365 11.451766 -1.247695 2.138284 0.000000 0.000000 0.000000 0.000000 0.000000 0.000000 5.718255 -0.630726 -1.309062 0.000000 0.000000 0.000000 0.000000 0.000000 0.000000 19.612303 0.265384 -3.139229 0.000000 0.000000 0.000000 0.000000 0.000000 0.000000
-41.067924 59.982435 -63.891226 9.681896 0.163619 2.777802 9.681896 0.163619 2.777802 -2.063470 0.498384 1.160042 -1.037812 0.634147 0.605134 5.000000 0.000000 0.000000 8.132655 1.310657 1.131059 -5.002581 -0.383478 0.630632 85.366626 -22.518266 6.492782 0.000000 0.000000 0.000000 4.577218 -3.053612 -8.710007 8.578305 -1.068705 2.033055 94.903171 -4.166225 3.634965 0.000000 0.000000 0.000000 5.067225 -0.534615 -1.744528 0.000000 0.000000 0.000000 0.000000 0.000000 0.000000 16.485312 0.150680 -3.380885 0.000000 0.000000 0.000000 0.000000 0.000000 0.000000
-39.035409 59.983325 -56.065849 7.582731 0.186981 2.281636 7.582731 0.186981 2.281636 -1.955513 0.539441 1.249615 -1.044265 0.645103 0.615828 5.000000 0.000000 0.000000 6.076185 0.893846 -0.112501 -5.616250 -0.485110 0.858095 84.271646 -25.498411 7.857339 0.000000 0.000000 0.000000 4.004902 -2.530525 -6.760926 4.346324 -0.753757 1.738332 0.000000 0.000000 0.000000 0.000000 0.000000 0.000000 3.927711 -0.373023 -2.448786 0.000000 0.000000 0.000000 0.000000 0.000000 0.000000 16.053126 0.144361 -5.028301 0.000000 0.000000 0.000000 0.000000 0.000000 0.000000
-38.951023 59.986729 -47.564047 5.401436 0.217817 1.861284 5.401436 0.217817 1.861284 -1.610558 0.609441 1.409839 -0.930377 0.729075 0.707724 5.000000 0.000000 0.000000 6.139375 0.852492 -0.507152 -4.585085 -0.489933 0.920984 86.803890 -24.380427 6.621633 0.000000 0.000000 0.000000 5.065811 -2.179639 -4.465771 3.535117 -0.606553 1.438216 94.444137 6.328531 1.381722 0.000000 0.000000 0.000000 3.713443 -0.312045 -3.228628 0.000000 0.000000 0.000000 0.000000 0.000000 0.000000 15.972935 0.160757 -6.850263 0.000000 0.000000 0.000000 0.000000 0.000000 0.000000
-39.966441 59.988951 -42.274480 5.293508 0.187314 1.685683 5.293508 0.187314 1.685683 -1.302918 0.669946 1.553452 -0.774961 0.799851 0.789858 5.000000 0.000000 0.000000 7.413576 1.138558 0.488033 -3.532768 -0.377756 0.690062 89.372801 -18.099136 4.147340 0.000000 0.000000 0.000000 5.984394 -1.965278 -2.739278 4.226748 -0.537908 1.176555 95.230533 6.366182 1.448402 0.000000 0.000000 0.000000 4.072722 -0.239134 -5.305600 0.000000 0.000000 0.000000 0.000000 0.000000 0.000000 17.147345 0.291142 -9.230646 0.000000 0.000000 0.000000 0.000000 0.000000 0.000000
-39.884554 59.991860 -42.058033 6.357293 0.095177 1.466697 6.357293 0.095177 1.466697 -1.431252 0.724071 1.662989 -0.902208 0.866275 0.847061 5.000000 0.000000 0.000000 8.829056 1.572545 2.735631 -3.230215 -0.179812 0.222332 91.101477 -13.205284 2.662857 0.000000 0.000000 0.000000 6.869784 -2.012462 -2.138069 3.969153 -0.486184 1.060291 93.792228 6.477326 1.286197 0.000000 0.000000 0.000000 5.017491 -0.174600 -8.064457 0.000000 0.000000 0.000000 0.000000 0.000000 0.000000 18.984939 0.494417 -11.442650 0.000000 0.000000 0.000000 0.000000 0.000000 0.000000
-39.803264 59.994631 -43.683570 7.750104 -0.065201 0.978494 7.750104 -0.065201 0.978494 -1.797569 0.759675 1.717527 -1.208648 0.892665 0.849806 5.000000 0.000000 0.000000 8.299077 1.654368 4.300031 -2.769833 0.053815 -0.309778 91.069244 -6.462345 1.249859 0.000000 0.000000 0.000000 7.104704 -1.866349 -1.242217 2.563547 -0.408597 0.983446 92.115450 8.958481 0.506152 0.000000 0.000000 0.000000 6.704445 -0.369689 -6.791577 0.000000 0.000000 0.000000 0.000000 0.000000 0.000000 18.679987 0.453268 -11.042296 0.000000 0.000000 0.000000 0.000000 0.000000 0.000000
-40.661626 59.992633 -49.586636 7.585727 -0.140045 0.546883 7.585727 -0.140045 0.546883 -1.690609 0.767945 1.742010 -1.105369 0.915434 0.880393 5.000000 0.000000 0.000000 9.073447 1.850694 5.708680 -1.836132 0.426349 -1.078223 92.749805 3.633867 -0.741632 0.000000 0.000000 0.000000 6.365880 -1.382187 0.242590 2.402047 -0.312170 0.732503 93.945345 12.320814 -0.024287 0.000000 0.000000 0.000000 9.197581 -0.675703 -5.043455 0.000000 0.000000 0.000000 0.000000 0.000000 0.000000 18.095875 0.360000 -9.798787 0.000000 0.000000 0.000000 0.000000 0.000000 0.000000
-41.406915 59.991755 -54.439180 8.184474 -0.289969 -0.149280 8.184474 -0.289969 -0.149280 -1.801292 0.801293 1.805129 -1.157153 1.043912 1.003433 5.000000 0.000000 0.000000 12.123214 2.208020 6.775482 2.018172 0.970318 -1.869838 95.844482 20.589499 -3.177944 0.000000 0.000000 0.000000 5.609721 -0.837447 1.934982 4.208423 -0.266056 0.440072 95.309945 13.042974 0.056992 0.000000 0.000000 0.000000 10.702436 -0.840289 -4.645482 0.000000 0.000000 0.000000 0.000000 0.000000 0.000000 18.218423 0.356053 -9.217047 0.000000 0.000000 0.000000 0.000000 0.000000 0.000000
-41.377248 59.993233 -54.679407 9.483777 -0.371580 -0.377663 9.483777 -0.371580 -0.377663 -1.985087 0.810443 1.811569 -1.205629 1.168963 1.123893 5.000000 0.000000 0.000000 14.219204 2.452881 7.851700 7.477318 1.603149 -2.570807 101.163166 20.565903 -1.756752 0.000000 0.000000 0.000000 5.478269 -0.754604 2.152820 5.355869 -0.272241 0.364654 96.037398 11.017248 0.599258 0.000000 0.000000 0.000000 12.395333 -1.060115 -4.130465 0.000000 0.000000 0.000000 0.000000 0.000000 0.000000 19.039593 0.406401 -8.657762 0.000000 0.000000 0.000000 0.000000 0.000000 0.000000
-39.101852 59.991968 -51.317629 8.905155 -0.331684 -0.257613 8.905155 -0.331684 -0.257613 -1.775563 0.818766 1.844688 -0.983120 1.252260 1.228915 5.000000 0.000000 0.000000 13.122260 2.387411 8.210652 9.623804 1.847006 -2.777669 101.987577 20.652934 -1.544758 0.000000 0.000000 0.000000 5.177675 -0.621861 2.399752 5.565929 -0.262239 0.323333 97.271490 12.811067 0.455218 0.000000 0.000000 0.000000 16.490570 -1.597479 -3.206355 0.000000 0.000000 0.000000 0.000000 0.000000 0.000000 20.109912 0.418809 -6.591215 0.000000 0.000000 0.000000 0.000000 0.000000 0.000000
-35.823497 59.989204 -44.995870 7.771129 -0.191953 0.266387 7.771129 -0.191953 0.266387 -1.512359 0.840772 1.910971 -0.759330 1.315246 1.314202 5.000000 0.000000 0.000000 11.815219 2.328441 8.829946 8.193466 1.741398 -2.734114 99.542119 15.922341 -1.682252 0.000000 0.000000 0.000000 5.479705 -0.493358 3.306836 3.363034 -0.151625 0.194691 90.571694 13.766769 -1.010420 0.000000 0.000000 0.000000 22.660328 -2.354987 -2.334891 0.000000 0.000000 0.000000 0.000000 0.000000 0.000000 19.974169 0.289820 -3.221935 0.000000 0.000000 0.000000 0.000000 0.000000 0.000000
-29.556943 59.988634 -35.747178 6.339352 0.098290 1.458858 6.339352 0.098290 1.458858 -1.249720 0.844743 1.941412 -0.662149 1.245221 1.252535 5.000000 0.000000 0.000000 8.185098 2.036994 8.423260 3.986682 1.254821 -2.256330 94.698400 8.513778 -1.435847 0.000000 0.000000 0.000000 8.253224 -1.155490 3.487740 -2.505086 -0.027228 0.290658 0.000000 0.000000 0.000000 0.000000 0.000000 0.000000 22.565987 -2.389482 -2.058655 0.000000 0.000000 0.000000 0.000000 0.000000 0.000000 18.877471 0.218429 -0.825479 0.000000 0.000000 0.000000 0.000000 0.000000 0.000000
-23.126890 59.978261 -27.354434 6.580286 0.272542 2.420473 6.580286 0.272542 2.420473 0.032937 0.810591 1.976229 0.265065 1.214819 1.318528 5.000000 0.000000 0.000000 6.680506 1.807181 7.372688 -2.007096 0.639018 -1.545704 89.503790 -6.267999 1.335569 0.000000 0.000000 0.000000 10.159739 -1.764069 2.880396 -5.584813 0.061527 0.278053 84.431451 18.904989 -4.116021 0.000000 0.000000 0.000000 30.182115 -3.122228 -2.283891 0.000000 0.000000 0.000000 0.000000 0.000000 0.000000 15.419788 0.074657 3.670135 0.000000 0.000000 0.000000 0.000000 0.000000 0.000000
-17.156190 59.977027 -16.256223 9.585450 0.112324 2.432919 9.585450 0.112324 2.432919 0.966003 0.820167 2.090762 0.966418 1.321708 1.511151 5.000000 0.000000 0.000000 4.535354 1.472629 6.176233 -7.044636 -0.011215 -0.444439 79.453238 -22.445229 8.294276 0.000000 0.000000 0.000000 8.913964 -1.605056 2.118190 -6.051469 0.026546 0.460818 0.000000 0.000000 0.000000 0.000000 0.000000 0.000000 37.618426 -3.754784 -2.976555 0.000000 0.000000 0.000000 0.000000 0.000000 0.000000 9.554478 0.023069 4.436583 0.000000 0.000000 0.000000 0.000000 0.000000 0.000000
-14.365847 59.984833 -4.555269 7.007567 0.232640 2.343141 7.007567 0.232640 2.343141 0.772111 0.910381 2.304117 0.892718 1.519939 1.723746 5.000000 0.000000 0.000000 2.831376 1.119668 4.743595 -10.266209 -0.359986 0.247143 73.011597 -27.096971 12.776024 0.000000 0.000000 0.000000 7.539954 -1.474806 1.121080 -7.867479 0.006532 0.734897 0.000000 0.000000 0.000000 0.000000 0.000000 0.000000 21.814581 -2.349192 -1.973723 0.000000 0.000000 0.000000 0.000000 0.000000 0.000000 0.000000 0.000000 0.000000 0.000000 0.000000 0.000000 0.000000 0.000000 0.000000
-12.816486 59.981002 1.854665 2.747632 0.444779 2.257955 2.747632 0.444779 2.257955 0.446784 0.981247 2.443390 0.642428 1.562818 1.739183 5.000000 0.000000 0.000000 3.434071 1.014391 3.524478 -10.771190 -0.443460 0.457245 76.263886 -25.731884 10.837241 0.000000 0.000000 0.000000 7.450217 -1.686244 0.004039 -7.161350 -0.117148 1.141457 84.180094 4.687702 0.961810 0.000000 0.000000 0.000000 11.455684 -1.194482 -2.107264 0.000000 0.000000 0.000000 0.000000 0.000000 0.000000 0.000000 0.000000 0.000000 0.000000 0.000000 0.000000 0.000000 0.000000 0.000000
-13.619476 59.976519 0.087917 0.070078 0.608458 2.343141 0.070078 0.608458 2.343141 -0.069442 1.039405 2.520291 0.134825 1.576274 1.689400 5.000000 0.000000 0.000000 4.507252 1.046455 2.823710 -9.886044 -0.443691 0.512978 77.648879 -25.811966 10.365095 0.000000 0.000000 0.000000 7.458841 -1.746303 -0.281770 -7.268949 -0.158805 1.314401 85.276260 1.506302 2.112526 0.000000 0.000000 0.000000 5.395841 -0.467184 -2.137318 0.000000 0.000000 0.000000 0.000000 0.000000 0.000000 0.000000 0.000000 0.000000 0.000000 0.000000 0.000000 0.000000 0.000000 0.000000
-15.670311 59.967934 -2.877973 -1.025873 0.647536 2.263617 -1.025873 0.647536 2.263617 -0.750378 1.024174 2.395300 -0.463590 1.548252 1.585455 5.000000 0.000000 0.000000 4.995204 1.020561 2.151357 -8.761527 -0.464188 0.636872 78.530901 -26.234883 10.230007 0.000000 0.000000 0.000000 7.887989 -2.001076 -1.103341 -5.798401 -0.236296 1.401517 86.485596 1.200999 2.251893 0.000000 0.000000 0.000000 0.000000 0.000000 0.000000 0.000000 0.000000 0.000000 0.000000 0.000000 0.000000 0.000000 0.000000 0.000000 0.000000 0.000000 0.000000 0.000000 0.000000 0.000000
-18.176948 59.970658 -5.265873 -0.511906 0.608875 2.226279 -0.511906 0.608875 2.226279 -0.760642 0.946972 2.217594 -0.458195 1.454469 1.489065 5.000000 0.000000 0.000000 5.084427 0.906657 1.133870 -6.819385 -0.475579 0.772345 0.000000 0.000000 0.000000 0.000000 0.000000 0.000000 8.948729 -2.584978 -3.001144 -4.047000 -0.335227 1.509673 88.007673 -3.055630 3.572138 0.000000 0.000000 0.000000 0.000000 0.000000 0.000000 0.000000 0.000000 0.000000 0.000000 0.000000 0.000000 0.000000 0.000000 0.000000 0.000000 0.000000 0.000000 0.000000 0.000000 0.000000
-20.395341 59.972713 -6.065548 -0.147023 0.645744 2.448030 -0.147023 0.645744 2.448030 -0.607813 0.932048 2.200499 -0.232538 1.407511 1.465940 5.000000 0.000000 0.000000 5.614821 0.859720 0.162558 -4.177905 -0.444426 0.823091 0.000000 0.000000 0.000000 0.000000 0.000000 0.000000 10.180347 -3.254325 -5.400404 -2.275232 -0.484961 1.775537 86.681006 -11.171159 6.227569 0.000000 0.000000 0.000000 0.000000 0.000000 0.000000 0.000000 0.000000 0.000000 0.000000 0.000000 0.000000 0.000000 0.000000 0.000000 0.000000 0.000000 0.000000 0.000000 0.000000 0.000000
-20.982197 59.980989 -1.665170 1.033312 0.714455 2.962126 1.033312 0.714455 2.962126 -0.278931 0.926254 2.221633 0.055679 1.332543 1.419146 5.000000 0.000000 0.000000 5.598231 0.839780 0.013577 -4.311710 -0.436778 0.798263 0.000000 0.000000 0.000000 0.000000 0.000000 0.000000 11.610660 -3.747986 -6.889657 -1.715805 -0.602777 2.079465 87.887935 -7.504308 4.928146 0.000000 0.000000 0.000000 0.000000 0.000000 0.000000 0.000000 0.000000 0.000000 0.000000 0.000000 0.000000 0.000000 0.000000 0.000000 0.000000 0.000000 0.000000 0.000000 0.000000 0.000000
-20.002217 60.035611 12.985254 0.342256 0.899809 3.527481 0.342256 0.899809 3.527481 -0.295741 0.870845 2.086109 0.159566 1.193703 1.281722 5.000000 0.000000 0.000000 4.896360 0.803122 0.530319 -5.144359 -0.479388 0.868731 0.000000 0.000000 0.000000 0.000000 0.000000 0.000000 12.240666 -4.042126 -8.092122 -1.861177 -0.685758 2.361170 0.000000 0.000000 0.000000 0.000000 0.000000 0.000000 0.000000 0.000000 0.000000 0.000000 0.000000 0.000000 0.000000 0.000000 0.000000 0.000000 0.000000 0.000000 0.000000 0.000000 0.000000 0.000000 0.000000 0.000000
-17.432213 60.084904 37.223033 0.353464 1.004165 3.933233 0.353464 1.004165 3.933233 -0.034333 0.776805 1.879465 0.341424 1.021238 1.111306 5.000000 0.000000 0.000000 4.880785 0.955069 1.771954 -5.481620 -0.504259 0.921512 0.000000 0.000000 0.000000 0.000000 0.000000 0.000000 11.816551 -4.108135 -8.893338 -1.367653 -0.804240 2.660775 0.000000 0.000000 0.000000 0.000000 0.000000 0.000000 0.000000 0.000000 0.000000 0.000000 0.000000 0.000000 0.000000 0.000000 0.000000 0.000000 0.000000 0.000000 0.000000 0.000000 0.000000 0.000000 0.000000 0.000000
-13.162209 60.144751 64.356146 -0.033855 1.197231 4.562381 -0.033855 1.197231 4.562381 0.537136 0.629176 1.554840 0.746266 0.689591 0.783111 5.000000 0.000000 0.000000 6.443982 1.232245 2.365121 -3.742885 -0.349386 0.623839 0.000000 0.000000 0.000000 0.000000 0.000000 0.000000 11.573677 -4.048419 -8.730105 -0.304574 -0.787924 2.450957 0.000000 0.000000 0.000000 0.000000 0.000000 0.000000 0.000000 0.000000 0.000000 0.000000 0.000000 0.000000 0.000000 0.000000 0.000000 0.000000 0.000000 0.000000 0.000000 0.000000 0.000000 0.000000 0.000000 0.000000
-8.482316 60.321863 85.333961 -1.418810 1.313848 4.606289 -1.418810 1.313848 4.606289 1.096718 0.487831 1.200512 1.082879 0.339053 0.409356 5.000000 0.000000 0.000000 8.541897 1.524487 2.667117 -1.864817 -0.112631 0.142738 0.000000 0.000000 0.000000 0.000000 0.000000 0.000000 11.629787 -4.111401 -9.069330 1.541029 -0.792997 2.212761 0.000000 0.000000 0.000000 0.000000 0.000000 0.000000 0.000000 0.000000 0.000000 0.000000 0.000000 0.000000 0.000000 0.000000 0.000000 0.000000 0.000000 0.000000 0.000000 0.000000 0.000000 0.000000 0.000000 0.000000
-4.413522 60.440128 96.408889 -1.763243 1.265345 4.322269 -1.763243 1.265345 4.322269 1.907036 0.286400 0.643792 1.648487 -0.036234 -0.001167 5.000000 0.000000 0.000000 8.864137 1.686397 3.984775 -1.351848 -0.107847 0.163064 0.000000 0.000000 0.000000 0.000000 0.000000 0.000000 11.500030 -4.144489 -9.376102 3.615510 -0.732096 1.768924 0.000000 0.000000 0.000000 0.000000 0.000000 0.000000 0.000000 0.000000 0.000000 0.000000 0.000000 0.000000 0.000000 0.000000 0.000000 0.000000 0.000000 0.000000 0.000000 0.000000 0.000000 0.000000 0.000000 0.000000
-1.923598 60.505584 99.168855 0.121122 1.000756 3.853132 0.121122 1.000756 3.853132 2.804300 0.180067 0.315263 2.444207 -0.207048 -0.178413 5.000000 0.000000 0.000000 8.924183 1.832946 5.544060 -1.684809 -0.136229 0.210488 0.000000 0.000000 0.000000 0.000000 0.000000 0.000000 10.565542 -3.977992 -9.120157 3.271400 -0.567546 1.351062 0.000000 0.000000 0.000000 0.000000 0.000000 0.000000 0.000000 0.000000 0.000000 0.000000 0.000000 0.000000 0.000000 0.000000 0.000000 0.000000 0.000000 0.000000 0.000000 0.000000 0.000000 0.000000 0.000000 0.000000
0.760506 60.519049 106.041609 1.202285 0.861019 3.594620 1.202285 0.861019 3.594620 2.792023 0.215819 0.427414 2.489114 -0.071023 -0.010944 5.000000 0.000000 0.000000 9.125339 1.978573 6.938432 -2.855202 -0.210018 0.316382 0.000000 0.000000 0.000000 0.000000 0.000000 0.000000 8.730690 -3.732125 -9.178101 1.918027 -0.395746 1.001255 0.000000 0.000000 0.000000 0.000000 0.000000 0.000000 0.000000 0.000000 0.000000 0.000000 0.000000 0.000000 0.000000 0.000000 0.000000 0.000000 0.000000 0.000000 0.000000 0.000000 0.000000 0.000000 0.000000 0.000000
2.738799 60.537750 115.543403 1.589950 0.740415 3.214173 1.589950 0.740415 3.214173 2.694656 0.267568 0.591415 2.414383 0.081331 0.172829 4.611522 0.000000 0.000000 8.334071 1.825857 6.489340 -3.027049 -0.254396 0.416072 0.000000 0.000000 0.000000 0.000000 0.000000 0.000000 7.053573 -3.142529 -7.633265 0.423819 -0.179138 0.515416 0.000000 0.000000 0.000000 0.000000 0.000000 0.000000 0.000000 0.000000 0.000000 0.000000 0.000000 0.000000 0.000000 0.000000 0.000000 0.000000 0.000000 0.000000 0.000000 0.000000 0.000000 0.000000 0.000000 0.000000
3.994480 60.539614 122.175826 1.440708 0.592956 2.592628 1.440708 0.592956 2.592628 2.369875 0.351349 0.868213 2.133828 0.267797 0.390580 2.500000 0.000000 0.000000 4.422774 0.983350 3.535736 -1.606427 -0.165079 0.293863 0.000000 0.000000 0.000000 0.000000 0.000000 0.000000 3.708609 -1.580194 -3.607326 0.401049 -0.036308 0.079600 0.000000 0.000000 0.000000 0.000000 0.000000 0.000000 0.000000 0.000000 0.000000 0.000000 0.000000 0.000000 0.000000 0.000000 0.000000 0.000000 0.000000 0.000000 0.000000 0.000000 0.000000 0.000000 0.000000 0.000000
